{"type":"FeatureCollection","features":[{"type":"Feature","properties":{"region":"Херсон","center":[33.3556,46.7004],"outline":{"type":"Polygon","coordinates":[[[34.2555,47.5197],[34.2925,47.3256],[34.3893,47.3107],[34.4468,47.3423],[34.5075,47.2863],[34.4729,47.2033],[34.5311,47.1437],[34.5302,47.0413],[34.5454,47.0066],[34.57,46.9944],[34.5979,46.9467],[34.6796,46.9225],[34.686,46.8493],[34.7822,46.8255],[34.7785,46.776],[34.7036,46.7219],[34.7149,46.681],[34.7074,46.5706],[34.7317,46.5529],[34.7651,46.5526],[34.8159,46.5223],[34.8966,46.5376],[35.0089,46.4639],[35.034,46.4659],[35.0447,46.3437],[35.2262,46.1104],[34.9601,45.9655],[34.9542,45.7789],[34.8314,45.7789],[34.4267,45.9958],[33.9798,46.0861],[33.5258,46.0373],[33.3621,46.0373],[32.946,46.1155],[32.6064,46.0744],[32.4716,46.0744],[32.3346,46.0968],[31.971,46.2648],[31.8196,46.4574],[31.8203,46.5148],[32.0657,46.7581],[32.2102,46.8369],[32.3237,46.837],[32.5053,46.8652],[32.9237,47.1857],[33.0378,47.4705],[33.096,47.569],[33.6082,47.589],[34.0865,47.5448],[34.2555,47.5197]]]}},"geometry":{"type":"Polygon","coordinates":[[[34.2957,47.4054],[34.2982,47.3373],[34.3875,47.3236],[34.4486,47.3583],[34.5231,47.2896],[34.4859,47.2045],[34.5441,47.1492],[34.5431,47.0423],[34.5566,47.0132],[34.5791,47.005],[34.6049,46.9576],[34.6924,46.9323],[34.6938,46.8598],[34.796,46.8356],[34.7909,46.7687],[34.7161,46.7184],[34.7281,46.6825],[34.718,46.5782],[34.7351,46.5654],[34.7687,46.5656],[34.8182,46.5351],[34.9065,46.5529],[34.9095,46.5394],[35.0144,46.4757],[35.0459,46.4812],[35.0563,46.3495],[35.2459,46.1062],[34.9701,45.9572],[34.967,45.7659],[34.8281,45.7659],[34.4229,45.9834],[33.9786,46.0732],[33.5265,46.0243],[33.3609,46.0243],[32.9449,46.1025],[32.6072,46.0614],[32.4706,46.0614],[32.3307,46.0843],[31.9627,46.2543],[31.8065,46.453],[31.8073,46.5203],[32.0579,46.7686],[32.2068,46.8499],[32.3227,46.85],[32.4996,46.8769],[32.9149,47.1953],[33.026,47.4763],[33.0884,47.5817],[33.6086,47.602],[34.088,47.5577],[34.2661,47.5313],[34.2957,47.4054]]]}},{"type":"Feature","properties":{"region":"Запорожье","center":[35.773,47.1067],"outline":{"type":"Polygon","coordinates":[[[34.7982,46.758],[34.8057,46.8443],[34.7066,46.8701],[34.7023,46.9407],[34.6138,46.9686],[34.589,47.0134],[34.5662,47.0236],[34.5562,47.0451],[34.5565,47.1531],[34.5015,47.2077],[34.5336,47.2973],[34.452,47.3708],[34.3851,47.3371],[34.3108,47.3485],[34.3086,47.4071],[34.2832,47.5156],[34.3555,47.5049],[34.3677,47.5118],[34.5638,47.88],[34.5661,48.0046],[34.8406,48.1254],[35.7461,48.1321],[36.0564,48.0918],[36.3181,48.0917],[36.4106,47.9892],[36.5406,47.9425],[36.6005,47.8579],[36.6097,47.7699],[36.7143,47.7744],[36.755,47.6359],[36.818,47.6074],[36.8403,47.6112],[36.8828,47.5726],[36.975,47.576],[36.9868,47.5502],[37.0547,47.508],[37.078,47.505],[37.0843,47.4873],[37.1484,47.4468],[37.1892,47.4772],[37.2527,47.4834],[37.2598,47.4685],[37.2583,47.4426],[37.2154,47.3935],[37.214,47.3429],[37.1364,47.3723],[37.0833,47.3237],[37.0716,47.2998],[37.0239,47.3281],[36.9606,47.3199],[36.9322,47.2621],[36.9482,47.1665],[36.9793,47.1399],[37.0056,47.0512],[37.0955,47.0523],[37.1253,46.9956],[37.066,46.9719],[37.044,46.9382],[37.1241,46.7875],[37.0363,46.7628],[36.8631,46.642],[36.4536,46.4975],[35.9665,46.4433],[35.4423,46.227],[35.2494,46.1229],[35.069,46.3545],[35.0543,46.491],[35.017,46.4893],[34.921,46.5476],[34.9101,46.5654],[34.8206,46.5489],[34.7734,46.5777],[34.7316,46.5842],[34.7411,46.6827],[34.7316,46.7131],[34.7982,46.758]]]}},"geometry":{"type":"Polygon","coordinates":[[[34.7909,46.7687],[34.796,46.8356],[34.6938,46.8598],[34.6924,46.9323],[34.6049,46.9576],[34.5791,47.005],[34.5566,47.0132],[34.5431,47.0423],[34.5441,47.1492],[34.4859,47.2045],[34.5231,47.2896],[34.4486,47.3583],[34.3875,47.3236],[34.2982,47.3373],[34.2957,47.4054],[34.2661,47.5313],[34.3562,47.5179],[34.5518,47.885],[34.5532,48.0131],[34.8378,48.1383],[35.7469,48.1451],[36.0581,48.1047],[36.3239,48.1047],[36.4173,48.0004],[36.5489,47.9533],[36.6133,47.8623],[36.6182,47.7797],[36.724,47.7882],[36.7626,47.6465],[36.8211,47.62],[36.8442,47.6255],[36.8861,47.5851],[36.9839,47.5895],[36.9946,47.5606],[37.0605,47.5196],[37.0894,47.5171],[37.0923,47.4976],[37.152,47.4593],[37.1834,47.4897],[37.2605,47.4972],[37.2729,47.4711],[37.2711,47.4373],[37.2277,47.3893],[37.2267,47.3235],[37.14,47.3598],[37.0931,47.3151],[37.0772,47.2811],[37.0217,47.3152],[36.9672,47.3087],[36.9449,47.2592],[36.9603,47.1713],[36.9906,47.1475],[37.0158,47.0593],[37.103,47.0659],[37.1436,46.9889],[37.073,46.9609],[37.057,46.9381],[37.1433,46.7793],[37.0425,46.7514],[36.8691,46.6303],[36.4565,46.4848],[35.9703,46.4309],[35.4472,46.215],[35.2459,46.1062],[35.0563,46.3495],[35.0459,46.4812],[35.0144,46.4757],[34.9095,46.5394],[34.9065,46.5529],[34.8182,46.5351],[34.7687,46.5656],[34.7351,46.5654],[34.718,46.5782],[34.7281,46.6825],[34.7161,46.7184],[34.7909,46.7687]]]}},{"type":"Feature","properties":{"region":"Донецк","center":[37.5666,48.0977],"outline":{"type":"Polygon","coordinates":[[[37.0704,47.27],[37.0869,47.2724],[37.1038,47.3074],[37.1428,47.3445],[37.2229,47.3111],[37.2366,47.3152],[37.2406,47.3842],[37.2839,47.4356],[37.2707,47.5053],[37.1809,47.5024],[37.1503,47.4758],[37.1043,47.5053],[37.0963,47.528],[37.0648,47.5323],[37.0053,47.5693],[36.9894,47.6012],[36.8911,47.5984],[36.85,47.6371],[36.8224,47.6337],[36.7735,47.6558],[36.7334,47.7972],[36.6304,47.7937],[36.6251,47.8678],[36.5587,47.9619],[36.4248,48.0115],[36.353,48.0917],[36.565,48.0918],[36.5766,48.099],[36.7168,48.6305],[36.6974,48.7302],[36.6985,48.7962],[36.869,48.794],[37.3274,49.0546],[37.5116,49.2272],[37.6596,49.3968],[37.7196,49.3363],[37.7872,49.3206],[37.8677,49.2706],[37.8935,49.1955],[37.8941,49.1301],[38.0397,49.1077],[38.0469,49.0863],[38.0119,49.0394],[38.0106,48.9852],[38.0881,48.9283],[38.1334,48.9427],[38.1881,48.9404],[38.1973,48.8927],[38.2537,48.845],[38.2841,48.8397],[38.3011,48.7924],[38.2749,48.7213],[38.2862,48.6299],[38.2606,48.5453],[38.3505,48.4397],[38.4314,48.4628],[38.4557,48.4017],[38.4396,48.2857],[38.5053,48.2641],[38.5491,48.277],[38.5757,48.2171],[38.602,48.1972],[38.6168,48.1651],[38.67,48.1395],[38.7454,48.1448],[38.8011,48.0803],[38.8298,48.0743],[38.8898,48.0034],[38.9302,48.0091],[39.0186,47.9061],[38.9647,47.7262],[38.8303,47.6767],[38.7402,47.6221],[38.3757,47.2812],[38.3289,47.1148],[38.2093,47.0571],[37.5111,46.9002],[37.1498,46.7948],[37.0722,46.9372],[37.0814,46.9503],[37.1507,46.978],[37.1556,46.9938],[37.1093,47.0772],[37.0254,47.073],[37.0021,47.1536],[36.9722,47.1785],[36.9584,47.2575],[36.9761,47.2966],[37.0188,47.3018],[37.0704,47.27]]]}},"geometry":{"type":"Polygon","coordinates":[[[37.0772,47.2811],[37.0931,47.3151],[37.14,47.3598],[37.2267,47.3235],[37.2277,47.3893],[37.2711,47.4373],[37.2605,47.4972],[37.1834,47.4897],[37.152,47.4593],[37.0923,47.4976],[37.0894,47.5171],[37.0605,47.5196],[36.9946,47.5606],[36.9839,47.5895],[36.8861,47.5851],[36.8442,47.6255],[36.8211,47.62],[36.7626,47.6465],[36.724,47.7882],[36.6182,47.7797],[36.6133,47.8623],[36.5489,47.9533],[36.4173,48.0004],[36.3239,48.1047],[36.565,48.1048],[36.704,48.6327],[36.6844,48.729],[36.6858,48.8095],[36.8638,48.8059],[37.321,49.0659],[37.5027,49.2367],[37.659,49.416],[37.7259,49.3477],[37.7922,49.3328],[37.8785,49.2792],[37.9067,49.1971],[37.9019,49.1404],[38.0495,49.1194],[38.0614,49.0839],[38.0242,49.0352],[38.0194,48.9948],[38.0912,48.9409],[38.1313,48.9558],[38.1995,48.953],[38.2067,48.9016],[38.2601,48.8563],[38.2937,48.8514],[38.3149,48.7923],[38.2877,48.7192],[38.2995,48.6287],[38.273,48.549],[38.3563,48.4513],[38.4389,48.4791],[38.4691,48.403],[38.4488,48.2949],[38.5065,48.2771],[38.5563,48.293],[38.5871,48.2234],[38.6127,48.2057],[38.6246,48.1755],[38.6718,48.1524],[38.7509,48.1582],[38.809,48.0906],[38.8366,48.0864],[38.898,48.0135],[38.9347,48.0238],[39.0331,47.9091],[38.9753,47.7163],[38.8359,47.665],[38.7491,47.6126],[38.3862,47.2735],[38.3398,47.1057],[38.2136,47.0448],[37.514,46.8875],[37.1433,46.7793],[37.057,46.9381],[37.073,46.9609],[37.1436,46.9889],[37.103,47.0659],[37.0158,47.0593],[36.9906,47.1475],[36.9603,47.1713],[36.9449,47.2592],[36.9672,47.3087],[37.0217,47.3152],[37.0772,47.2811]]]}},{"type":"Feature","properties":{"region":"Луганск","center":[39.1677,48.9213],"outline":{"type":"Polygon","coordinates":[[[38.2189,48.9084],[38.205,48.9647],[38.1305,48.9688],[38.0933,48.9556],[38.0332,49.0007],[38.0367,49.0301],[38.0742,49.0818],[38.0593,49.128],[37.9159,49.1516],[37.9193,49.2],[37.8882,49.2878],[37.7978,49.3446],[37.7325,49.3595],[37.6767,49.4165],[37.8433,49.6076],[38.0074,49.9273],[38.1819,50.0799],[38.3743,50.08],[39.2294,49.8808],[39.644,49.9364],[39.9541,49.6553],[40.1635,49.6074],[40.2196,49.4086],[40.2196,49.1877],[40.0697,48.7966],[40.0211,48.5869],[40.0571,48.1969],[39.8108,47.8391],[39.4009,47.8343],[39.2937,47.8471],[38.9952,47.7375],[39.0458,47.9118],[38.9446,48.0323],[38.9025,48.0283],[38.8456,48.0957],[38.8158,48.1027],[38.757,48.1697],[38.6743,48.1656],[38.6348,48.1849],[38.6229,48.2138],[38.5975,48.232],[38.5622,48.3046],[38.5064,48.2907],[38.4637,48.3039],[38.4821,48.4042],[38.4498,48.4862],[38.4361,48.4917],[38.3605,48.4665],[38.2877,48.5519],[38.3124,48.628],[38.301,48.7177],[38.3278,48.7942],[38.3033,48.8601],[38.2657,48.8687],[38.2189,48.9084]]]}},"geometry":{"type":"Polygon","coordinates":[[[38.2067,48.9016],[38.1995,48.953],[38.1313,48.9558],[38.0912,48.9409],[38.0194,48.9948],[38.0242,49.0352],[38.0614,49.0839],[38.0495,49.1194],[37.9019,49.1404],[37.9067,49.1971],[37.8785,49.2792],[37.7922,49.3328],[37.7259,49.3477],[37.659,49.416],[37.8325,49.6149],[37.997,49.9355],[38.177,50.0929],[38.3758,50.093],[39.2311,49.8937],[39.6483,49.9501],[39.9607,49.6665],[40.1739,49.6184],[40.2326,49.4104],[40.2326,49.1853],[40.0818,48.792],[40.034,48.5853],[40.0705,48.1935],[39.8177,47.8262],[39.4002,47.8213],[39.2958,47.8343],[38.9753,47.7163],[39.0331,47.9091],[38.9347,48.0238],[38.898,48.0135],[38.8366,48.0864],[38.809,48.0906],[38.7509,48.1582],[38.6718,48.1524],[38.6246,48.1755],[38.6127,48.2057],[38.5871,48.2234],[38.5563,48.293],[38.5065,48.2771],[38.4488,48.2949],[38.4691,48.403],[38.4389,48.4791],[38.3563,48.4513],[38.273,48.549],[38.2995,48.6287],[38.2877,48.7192],[38.3149,48.7923],[38.2937,48.8514],[38.2601,48.8563],[38.2067,48.9016]]]}}]}