{"type":"FeatureCollection","features":[{"type":"Feature","properties":{"cadnum":"1400000000:03:000:0000"},"geometry":{"type":"Polygon","coordinates":[[[36.892322,48.365648],[36.897195,48.365787],[36.897213,48.365686],[36.897497,48.364362],[36.897528,48.364218],[36.897669,48.363562],[36.897669,48.363557],[36.897865,48.362648],[36.897497,48.362638],[36.892982,48.362505],[36.89274,48.363651],[36.892322,48.365648]]]}},{"type":"Feature","properties":{"cadnum":"1400000000:01:026:0000"},"geometry":{"type":"Polygon","coordinates":[[[37.442907,47.176776],[37.443382,47.176863],[37.4434,47.176817],[37.443383,47.176815],[37.443392,47.176778],[37.443393,47.176778],[37.443417,47.176777],[37.443455,47.176679],[37.443413,47.176673],[37.443313,47.176656],[37.44325,47.176646],[37.443207,47.176639],[37.442973,47.176601],[37.442907,47.176776]]]}}]}