{"type":"FeatureCollection","features":[{"type":"Feature","properties":{"cadnum":"1410169000:00:026:0254"},"geometry":{"type":"Polygon","coordinates":[[[37.770969,48.046738],[37.771082,48.046766],[37.771507,48.04687],[37.771589,48.046868],[37.771899,48.046939],[37.771962,48.046976],[37.772352,48.047066],[37.772329,48.047192],[37.772329,48.047195],[37.772271,48.047372],[37.772123,48.047742],[37.77179,48.048273],[37.771799,48.048279],[37.771736,48.048378],[37.771728,48.048375],[37.771606,48.048576],[37.771669,48.048612],[37.771768,48.048672],[37.771769,48.048672],[37.771755,48.048697],[37.771758,48.048697],[37.771822,48.048717],[37.771803,48.048755],[37.77179,48.04878],[37.7719,48.048812],[37.771901,48.048812],[37.772195,48.048897],[37.772253,48.048915],[37.772316,48.048879],[37.772325,48.048871],[37.772312,48.048864],[37.772339,48.048822],[37.772402,48.048697],[37.772401,48.048697],[37.772442,48.048619],[37.772715,48.047068],[37.772612,48.047066],[37.772545,48.047051],[37.771,48.04669],[37.770969,48.046738]]]}},{"type":"Feature","properties":{"cadnum":"1410169000:00:026:0149"},"geometry":{"type":"Polygon","coordinates":[[[37.769109,48.05111],[37.769491,48.051227],[37.769625,48.051209],[37.769693,48.051096],[37.769671,48.051089],[37.769729,48.050996],[37.769782,48.051011],[37.769872,48.050861],[37.769343,48.050717],[37.769325,48.050744],[37.769109,48.05111]]]}}]}