{"type":"FeatureCollection","features":[{"type":"Feature","properties":{"cadnum":"1410636900:01:000:0008"},"geometry":{"type":"Polygon","coordinates":[[[37.967951,48.217526],[37.968275,48.219052],[37.968664,48.219842],[37.968664,48.219843],[37.968679,48.219872],[37.968836,48.220151],[37.969314,48.221],[37.969314,48.221001],[37.969313,48.221001],[37.969317,48.221006],[37.969378,48.221058],[37.969384,48.221063],[37.969413,48.221115],[37.969725,48.221686],[37.97053,48.223379],[37.970511,48.223434],[37.970619,48.223825],[37.97062,48.223825],[37.971029,48.22466],[37.971478,48.225576],[37.971954,48.226237],[37.972694,48.226767],[37.974157,48.22775],[37.975006,48.22832],[37.977684,48.230118],[37.978103,48.230349],[37.97965,48.231187],[37.97965,48.231188],[37.981111,48.231979],[37.982967,48.232984],[37.983887,48.233474],[37.983887,48.233475],[37.984026,48.233849],[37.983726,48.234106],[37.982765,48.233525],[37.982451,48.233687],[37.981847,48.235752],[37.981848,48.235752],[37.981848,48.235753],[37.981826,48.235829],[37.981767,48.236807],[37.981925,48.237221],[37.982872,48.238468],[37.984146,48.239411],[37.985144,48.240149],[37.985144,48.24015],[37.986304,48.241008],[37.986865,48.241429],[37.986865,48.24143],[37.986632,48.241441],[37.986673,48.241687],[37.987153,48.241645],[37.989048,48.243069],[37.989048,48.24307],[37.990637,48.244263],[37.990637,48.244264],[37.992439,48.245618],[37.992552,48.245902],[37.992422,48.246206],[37.991932,48.246613],[37.991931,48.246613],[37.990809,48.247547],[37.990808,48.247547],[37.988967,48.249078],[37.988042,48.249835],[37.987498,48.250271],[37.987497,48.250271],[37.987476,48.250289],[37.987402,48.250386],[37.987403,48.250386],[37.986659,48.251375],[37.986596,48.252021],[37.9866,48.252672],[37.986843,48.253202],[37.987373,48.253881],[37.987424,48.253929],[37.989897,48.256232],[37.990808,48.257094],[37.990809,48.257094],[37.99145,48.257701],[37.991671,48.25791],[37.993045,48.259195],[37.99469,48.260089],[37.996001,48.260645],[37.99613,48.260677],[37.998546,48.261264],[38.001623,48.262011],[38.001623,48.262012],[38.00511,48.262858],[38.00519,48.262897],[38.006538,48.26386],[38.007116,48.264297],[38.007116,48.264298],[38.00719,48.264353],[38.007288,48.264424],[38.008099,48.265015],[38.0081,48.265015],[38.010657,48.266874],[38.011259,48.267334],[38.011525,48.267388],[38.011748,48.267489],[38.011749,48.267489],[38.011919,48.26763],[38.011919,48.267696],[38.011905,48.267746],[38.012081,48.267786],[38.012609,48.268081],[38.012609,48.268082],[38.012754,48.268162],[38.012781,48.268183],[38.012781,48.268182],[38.01302,48.26836],[38.012917,48.268435],[38.012959,48.268557],[38.012958,48.268557],[38.012988,48.268641],[38.013025,48.268671],[38.013026,48.268671],[38.013343,48.268925],[38.01372,48.269239],[38.013626,48.269292],[38.013676,48.269355],[38.013237,48.272327],[38.013238,48.272327],[38.013238,48.272328],[38.013123,48.273108],[38.012645,48.273521],[38.012314,48.273807],[38.012198,48.273873],[38.012314,48.274049],[38.012251,48.27407],[38.012158,48.274172],[38.011879,48.274471],[38.011829,48.274513],[38.012184,48.27477],[38.011762,48.275041],[38.011798,48.275056],[38.011466,48.275242],[38.011268,48.275377],[38.011232,48.275433],[38.011062,48.275523],[38.010599,48.275869],[38.010598,48.275869],[38.010594,48.275873],[38.010436,48.275984],[38.009938,48.276333],[38.009854,48.276374],[38.009848,48.276381],[38.010073,48.276507],[38.009741,48.276745],[38.010181,48.277212],[38.009911,48.277343],[38.009418,48.276937],[38.009072,48.277158],[38.008869,48.276904],[38.007288,48.277921],[38.004794,48.279525],[38.001623,48.281565],[38.001623,48.281566],[37.999112,48.283181],[37.999111,48.283181],[37.996302,48.284989],[37.995915,48.285237],[37.995345,48.285659],[37.994143,48.286836],[37.994142,48.286836],[37.990637,48.290267],[37.990408,48.290491],[37.990407,48.290491],[37.986673,48.294146],[37.98664,48.294177],[37.986556,48.29426],[37.98655,48.294265],[37.985284,48.295503],[37.982931,48.2978],[37.979822,48.300837],[37.97919,48.301455],[37.979189,48.301455],[37.976004,48.304565],[37.975329,48.305223],[37.97533,48.305223],[37.974157,48.306368],[37.974157,48.306369],[37.972258,48.308222],[37.971876,48.308876],[37.971877,48.308876],[37.971877,48.308877],[37.971778,48.309047],[37.972105,48.309886],[37.974157,48.312206],[37.974343,48.312416],[37.974342,48.312416],[37.974949,48.3131],[37.977051,48.31282],[37.976719,48.312449],[37.974329,48.309741],[37.973872,48.309223],[37.973872,48.309222],[37.973866,48.309196],[37.974157,48.308882],[37.974157,48.308884],[37.974164,48.308876],[37.975004,48.307974],[37.976418,48.30645],[37.977741,48.305109],[37.977741,48.305108],[37.978942,48.30389],[37.97965,48.303212],[37.97965,48.303213],[37.981485,48.301455],[37.981485,48.301454],[37.985143,48.297952],[37.985144,48.297952],[37.985144,48.297953],[37.985183,48.297915],[37.985184,48.297915],[37.98531,48.297794],[37.985315,48.297789],[37.987265,48.295921],[37.988217,48.295007],[37.989115,48.294146],[37.98942,48.293853],[37.990808,48.292501],[37.990809,48.292501],[37.992871,48.290491],[37.99613,48.287317],[37.996505,48.28695],[37.996506,48.28695],[37.997303,48.286173],[38.000093,48.284388],[38.000089,48.284328],[38.001036,48.283785],[38.001795,48.283299],[38.00198,48.283181],[38.001979,48.283181],[38.007288,48.279785],[38.007565,48.279607],[38.01037,48.277812],[38.010078,48.277562],[38.010078,48.277561],[38.01046,48.277367],[38.010752,48.277567],[38.01209,48.276713],[38.011798,48.276563],[38.012395,48.276518],[38.012609,48.27638],[38.012609,48.276381],[38.013226,48.275984],[38.013576,48.275759],[38.01374,48.275869],[38.013753,48.275878],[38.013909,48.275984],[38.01391,48.275984],[38.014286,48.276237],[38.014817,48.275888],[38.015005,48.275765],[38.015921,48.273926],[38.016252,48.272328],[38.016252,48.272327],[38.016253,48.272327],[38.016568,48.270814],[38.016568,48.269786],[38.016563,48.268876],[38.016458,48.268671],[38.015467,48.266721],[38.015171,48.266192],[38.013716,48.265065],[38.013646,48.265015],[38.012781,48.264392],[38.012781,48.264391],[38.010441,48.262706],[38.008509,48.261313],[38.008232,48.261112],[38.00736,48.260612],[38.007116,48.260535],[38.006282,48.260268],[38.001623,48.259163],[37.997362,48.258151],[37.99676,48.257972],[37.996357,48.257649],[37.99613,48.257436],[37.995013,48.256387],[37.993221,48.254716],[37.992396,48.253929],[37.990751,48.252359],[37.990625,48.251988],[37.990637,48.251977],[37.990637,48.251978],[37.9908,48.251832],[37.990808,48.251826],[37.990808,48.251825],[37.990809,48.251825],[37.99217,48.250678],[37.992587,48.250321],[37.99526,48.248046],[37.99613,48.247181],[37.99625,48.247062],[37.996302,48.247011],[37.996307,48.247005],[37.996424,48.246613],[37.996423,48.246613],[37.996666,48.2458],[37.996387,48.244884],[37.99613,48.24455],[37.995795,48.244115],[37.994411,48.24307],[37.994411,48.243069],[37.990809,48.240346],[37.990808,48.240346],[37.990808,48.240345],[37.989423,48.239297],[37.989394,48.239275],[37.985985,48.2367],[37.985797,48.236329],[37.985845,48.236161],[37.985778,48.236113],[37.985221,48.235729],[37.984306,48.235097],[37.984305,48.235097],[37.984925,48.233113],[37.985315,48.233293],[37.98634,48.233765],[37.986529,48.233807],[37.986336,48.232569],[37.985952,48.231979],[37.985935,48.231952],[37.985195,48.231336],[37.981183,48.228613],[37.980742,48.22832],[37.979822,48.227708],[37.979822,48.227707],[37.975488,48.224822],[37.975394,48.22469],[37.974157,48.222218],[37.973548,48.221001],[37.973121,48.220145],[37.970251,48.217769],[37.970241,48.217571],[37.970065,48.217453],[37.969771,48.217254],[37.969375,48.217206],[37.968836,48.216902],[37.968436,48.216676],[37.968056,48.217341],[37.968055,48.217341],[37.967951,48.217526]],[[38.004324,48.281627],[38.004189,48.281627],[38.004189,48.28154],[38.004324,48.28154],[38.004324,48.281627]],[[38.003942,48.28139],[38.003808,48.28139],[38.003812,48.281304],[38.003942,48.281304],[38.003942,48.28139]],[[38.003772,48.281836],[38.003906,48.281836],[38.003906,48.281926],[38.003772,48.281922],[38.003772,48.281836]],[[38.003713,48.281773],[38.003712,48.281773],[38.003583,48.281773],[38.003583,48.281687],[38.003712,48.281687],[38.003713,48.281687],[38.003713,48.281773]],[[38.003615,48.282072],[38.003485,48.282072],[38.003485,48.281982],[38.003615,48.281986],[38.003615,48.282072]],[[38.003466,48.281047],[38.003332,48.281047],[38.003336,48.28096],[38.003466,48.28096],[38.003466,48.281047]],[[38.003232,48.281857],[38.003102,48.281857],[38.003102,48.281767],[38.003236,48.28177],[38.003232,48.281857]],[[38.003147,48.28079],[38.003017,48.28079],[38.003017,48.280703],[38.003152,48.280703],[38.003147,48.28079]],[[38.002886,48.281408],[38.002756,48.281408],[38.002756,48.281319],[38.002886,48.281319],[38.002886,48.281408]],[[38.002433,48.28151],[38.002567,48.28151],[38.002567,48.2816],[38.002433,48.281597],[38.002433,48.281596],[38.002433,48.28151]],[[38.002536,48.281193],[38.002406,48.281193],[38.002406,48.281104],[38.00254,48.281107],[38.002536,48.281193]],[[38.00215,48.281596],[38.00215,48.281597],[38.00202,48.281597],[38.00202,48.281596],[38.00202,48.281507],[38.00215,48.281507],[38.00215,48.281596]],[[38.001225,48.283546],[38.001225,48.283456],[38.001359,48.283459],[38.001359,48.283546],[38.001225,48.283546]],[[38.000951,48.283689],[38.000955,48.283599],[38.001085,48.283602],[38.001085,48.283689],[38.000951,48.283689]],[[38.000646,48.283459],[38.000645,48.283459],[38.00065,48.283369],[38.000779,48.283369],[38.00078,48.283369],[38.00078,48.283459],[38.000779,48.283459],[38.000646,48.283459]],[[38.000313,48.283094],[38.000179,48.283094],[38.000183,48.283005],[38.000313,48.283005],[38.000313,48.283094]],[[38.000007,48.282828],[37.999877,48.282828],[37.999877,48.282739],[38.000007,48.282739],[38.000007,48.282828]],[[37.998238,48.285345],[37.998242,48.285256],[37.998372,48.285258],[37.998372,48.285345],[37.998238,48.285345]],[[37.997695,48.285354],[37.997699,48.285267],[37.997829,48.285267],[37.997829,48.285354],[37.997695,48.285354]],[[37.997263,48.285067],[37.997267,48.284986],[37.997399,48.284986],[37.997399,48.285067],[37.997263,48.285067]],[[37.996644,48.285108],[37.996644,48.285019],[37.996778,48.285019],[37.996778,48.285108],[37.996644,48.285108]],[[37.996558,48.284926],[37.996563,48.284837],[37.996693,48.28484],[37.996693,48.284926],[37.996558,48.284926]]]}},{"type":"Feature","properties":{"cadnum":"1410636900:02:002:0010"},"geometry":{"type":"Polygon","coordinates":[[[38.042606,48.327159],[38.042856,48.327099],[38.042857,48.327099],[38.043132,48.326338],[38.043311,48.326233],[38.043922,48.326242],[38.045568,48.326252],[38.045668,48.326253],[38.04574,48.326253],[38.045948,48.326254],[38.046258,48.32623],[38.046258,48.32606],[38.046258,48.326059],[38.04703,48.326048],[38.047017,48.325952],[38.046981,48.325523],[38.04574,48.324392],[38.04574,48.324391],[38.045023,48.323737],[38.044654,48.323399],[38.044595,48.323489],[38.044474,48.323673],[38.043382,48.325361],[38.043069,48.325997],[38.042835,48.326809],[38.042692,48.327027],[38.042683,48.32704],[38.042617,48.327141],[38.042606,48.327159]]]}},{"type":"Feature","properties":{"cadnum":"1410636900:02:025:0001"},"geometry":{"type":"Polygon","coordinates":[[[37.974914,48.313058],[37.977678,48.316183],[37.978937,48.317605],[37.979822,48.318513],[37.98078,48.319495],[37.980964,48.319722],[37.980963,48.319722],[37.983034,48.322261],[37.984111,48.323489],[37.984112,48.323489],[37.984503,48.323934],[37.985315,48.324256],[37.98595,48.324507],[37.986793,48.325173],[37.988398,48.327027],[37.988397,48.327027],[37.990441,48.329386],[37.990476,48.32939],[37.990637,48.329577],[37.990727,48.329681],[37.990808,48.329776],[37.990809,48.329776],[37.990934,48.329921],[37.990912,48.32993],[37.99156,48.330679],[37.994822,48.334445],[37.994823,48.334445],[37.996302,48.336151],[37.997232,48.337225],[37.997317,48.337236],[37.997833,48.337774],[37.997743,48.337816],[37.997889,48.337983],[37.997888,48.337983],[37.997972,48.338079],[37.997973,48.338079],[37.998036,48.33804],[37.998084,48.338097],[37.998085,48.338097],[37.998678,48.33878],[37.998678,48.338781],[37.998606,48.33881],[38.000615,48.341127],[38.001144,48.341748],[38.001145,48.341748],[38.001623,48.342307],[38.002896,48.343796],[38.004301,48.344585],[38.006049,48.344468],[38.007288,48.344097],[38.007288,48.344096],[38.012609,48.3425],[38.013981,48.342089],[38.015496,48.341634],[38.018103,48.340852],[38.018272,48.340801],[38.018274,48.340801],[38.018976,48.340589],[38.019393,48.340631],[38.020179,48.341634],[38.021262,48.343014],[38.023596,48.343146],[38.023596,48.343147],[38.023683,48.343151],[38.022566,48.341748],[38.021953,48.340978],[38.02145,48.341145],[38.021289,48.34093],[38.021783,48.340766],[38.021217,48.340055],[38.020588,48.339562],[38.019982,48.339356],[38.018944,48.339249],[38.018123,48.339396],[38.012609,48.341064],[38.010722,48.341634],[38.010721,48.341634],[38.007116,48.342725],[38.005231,48.343295],[38.004944,48.343313],[38.004688,48.34319],[38.003341,48.341634],[38.00334,48.341634],[38.001623,48.339648],[38.000183,48.337983],[38.000182,48.337983],[37.997123,48.334445],[37.997124,48.334445],[37.99613,48.333296],[37.993965,48.330793],[37.993382,48.330118],[37.993279,48.329996],[37.992816,48.330076],[37.992399,48.329673],[37.992256,48.329581],[37.9916,48.328858],[37.990849,48.327872],[37.990809,48.327812],[37.990808,48.327812],[37.990602,48.3275],[37.990637,48.327483],[37.990718,48.327444],[37.990808,48.327401],[37.990809,48.327401],[37.990841,48.327385],[37.990885,48.327427],[37.991038,48.327407],[37.990709,48.327027],[37.990708,48.327027],[37.990637,48.326944],[37.988661,48.32466],[37.987489,48.323635],[37.986693,48.323446],[37.986331,48.32336],[37.985253,48.322129],[37.984862,48.321682],[37.983333,48.319836],[37.982917,48.319334],[37.982616,48.318969],[37.98073,48.316983],[37.979921,48.316069],[37.979822,48.315957],[37.979766,48.315893],[37.97965,48.315762],[37.977015,48.312781],[37.974914,48.313058]],[[37.993512,48.330357],[37.993512,48.330402],[37.993445,48.330402],[37.993445,48.330357],[37.993512,48.330357]],[[37.992988,48.330515],[37.992988,48.33056],[37.992988,48.330561],[37.992919,48.330561],[37.992919,48.33056],[37.992919,48.330515],[37.992988,48.330515]],[[37.992273,48.330763],[37.992206,48.330763],[37.992206,48.330718],[37.992273,48.330718],[37.992273,48.330763]]]}},{"type":"Feature","properties":{"cadnum":"1410636900:02:016:0164"},"geometry":{"type":"Polygon","coordinates":[[[38.015679,48.295407],[38.016066,48.296074],[38.016146,48.296055],[38.016267,48.296023],[38.016389,48.295995],[38.016348,48.295942],[38.016307,48.295858],[38.016007,48.295326],[38.016006,48.295326],[38.015913,48.295353],[38.01576,48.29539],[38.015679,48.295407]]]}},{"type":"Feature","properties":{"cadnum":"1410636900:02:017:0222"},"geometry":{"type":"Polygon","coordinates":[[[38.029633,48.306728],[38.029666,48.306776],[38.029751,48.306752],[38.029737,48.306728],[38.029679,48.306746],[38.029666,48.306722],[38.029633,48.306728]]]}},{"type":"Feature","properties":{"cadnum":"1410636900:02:018:0281"},"geometry":{"type":"Polygon","coordinates":[[[38.040545,48.30325],[38.040589,48.30331],[38.040602,48.303307],[38.040625,48.303337],[38.040702,48.30331],[38.040683,48.30329],[38.040755,48.303265],[38.040746,48.303257],[38.040724,48.30323],[38.04071,48.303232],[38.040688,48.303203],[38.040553,48.303248],[38.040545,48.30325]]]}}]}