{"type":"FeatureCollection","features":[{"type":"Feature","properties":{"cadnum":"1410636300:02:015:0036"},"geometry":{"type":"Polygon","coordinates":[[[37.966765,48.319896],[37.966784,48.319967],[37.966842,48.319961],[37.966855,48.320003],[37.967035,48.319982],[37.967102,48.320015],[37.967358,48.319991],[37.967323,48.319824],[37.967296,48.319826],[37.967197,48.319836],[37.96717,48.319839],[37.96717,48.319848],[37.967017,48.319863],[37.966999,48.319778],[37.966977,48.319672],[37.966977,48.319659],[37.966779,48.319677],[37.966788,48.319722],[37.966789,48.319728],[37.966812,48.319836],[37.966813,48.319836],[37.966824,48.319889],[37.966824,48.31989],[37.966765,48.319896]]]}},{"type":"Feature","properties":{"cadnum":"1410636300:01:003:0116"},"geometry":{"type":"Polygon","coordinates":[[[38.052034,48.349079],[38.052038,48.349086],[38.052074,48.349134],[38.052168,48.349095],[38.052187,48.349112],[38.052187,48.349113],[38.052168,48.349119],[38.0522,48.349158],[38.052204,48.349167],[38.052451,48.349071],[38.052523,48.349172],[38.052564,48.349158],[38.052505,48.34908],[38.052505,48.349079],[38.052523,48.349032],[38.052491,48.348993],[38.052434,48.348924],[38.052404,48.348936],[38.052403,48.348936],[38.052211,48.349011],[38.052109,48.34905],[38.052034,48.349079]]]}},{"type":"Feature","properties":{"cadnum":"1410636300:01:003:0057"},"geometry":{"type":"Polygon","coordinates":[[[38.070544,48.327117],[38.070634,48.32723],[38.070724,48.327197],[38.070628,48.327084],[38.070544,48.327117]]]}}]}