{"type":"FeatureCollection","features":[{"type":"Feature","properties":{"cadnum":"1411746200:02:000:0061"},"geometry":{"type":"Polygon","coordinates":[[[37.425513,48.580658],[37.425701,48.58072],[37.425764,48.580741],[37.425922,48.580513],[37.426073,48.580286],[37.426087,48.580269],[37.425836,48.580182],[37.425823,48.580203],[37.42567,48.580429],[37.425597,48.580536],[37.425513,48.580658]]]}},{"type":"Feature","properties":{"cadnum":"1411746200:02:000:0075"},"geometry":{"type":"Polygon","coordinates":[[[37.430014,48.5796],[37.430334,48.579606],[37.430334,48.579607],[37.430803,48.579615],[37.430822,48.579383],[37.430338,48.579374],[37.430035,48.579368],[37.430014,48.5796]]]}},{"type":"Feature","properties":{"cadnum":"1411746200:02:000:0027"},"geometry":{"type":"Polygon","coordinates":[[[37.419255,48.576652],[37.419348,48.576657],[37.419503,48.576664],[37.419519,48.576665],[37.41952,48.576665],[37.420014,48.576688],[37.420056,48.576453],[37.419727,48.576429],[37.41952,48.576423],[37.41952,48.576422],[37.419519,48.576422],[37.419297,48.576414],[37.419255,48.576652]]]}},{"type":"Feature","properties":{"cadnum":"1411746200:02:000:0067"},"geometry":{"type":"Polygon","coordinates":[[[37.4198,48.578388],[37.420083,48.578405],[37.420083,48.578388],[37.420127,48.577975],[37.420146,48.577826],[37.41997,48.57782],[37.419947,48.577978],[37.41984,48.577975],[37.4198,48.578372],[37.4198,48.578388]]]}},{"type":"Feature","properties":{"cadnum":"1411746200:02:000:0076"},"geometry":{"type":"Polygon","coordinates":[[[37.421278,48.577788],[37.421291,48.57779],[37.421318,48.577793],[37.421349,48.577799],[37.421367,48.577758],[37.421368,48.577758],[37.421987,48.577894],[37.42232,48.57777],[37.421691,48.57763],[37.421408,48.577577],[37.421385,48.57757],[37.421376,48.577568],[37.421299,48.577737],[37.421282,48.577773],[37.421278,48.577788]]]}},{"type":"Feature","properties":{"cadnum":"1411746200:02:000:0074"},"geometry":{"type":"Polygon","coordinates":[[[37.42015,48.575672],[37.420194,48.575674],[37.420316,48.57568],[37.420387,48.575683],[37.421142,48.575713],[37.421156,48.575526],[37.420217,48.575493],[37.420163,48.575491],[37.42015,48.575672]]]}},{"type":"Feature","properties":{"cadnum":"1411746200:02:000:0065"},"geometry":{"type":"Polygon","coordinates":[[[37.419008,48.575372],[37.419934,48.575372],[37.419947,48.575172],[37.419916,48.575172],[37.419624,48.575181],[37.419427,48.575184],[37.419014,48.575187],[37.419008,48.575372]]]}},{"type":"Feature","properties":{"cadnum":"1411746200:02:000:0030"},"geometry":{"type":"Polygon","coordinates":[[[37.41922,48.576412],[37.419297,48.576414],[37.419348,48.576416],[37.419348,48.576417],[37.419727,48.576429],[37.420056,48.576453],[37.420073,48.576319],[37.420091,48.576233],[37.41952,48.576205],[37.419519,48.576205],[37.419255,48.576192],[37.41922,48.576412]]]}},{"type":"Feature","properties":{"cadnum":"1411746200:02:000:0077"},"geometry":{"type":"Polygon","coordinates":[[[37.419207,48.577585],[37.419348,48.577593],[37.419437,48.577598],[37.419519,48.577602],[37.41952,48.577602],[37.419723,48.577612],[37.419773,48.577615],[37.419786,48.577508],[37.4198,48.577286],[37.419768,48.577286],[37.419514,48.577274],[37.419255,48.577262],[37.419207,48.577585]]]}},{"type":"Feature","properties":{"cadnum":"1411746200:02:000:0020"},"geometry":{"type":"Polygon","coordinates":[[[37.421138,48.575526],[37.421726,48.575546],[37.421735,48.575354],[37.421152,48.575336],[37.421138,48.575526]]]}},{"type":"Feature","properties":{"cadnum":"1411746200:02:000:0010"},"geometry":{"type":"Polygon","coordinates":[[[37.420163,48.575491],[37.420217,48.575493],[37.421138,48.575526],[37.421152,48.575336],[37.420226,48.575309],[37.420173,48.575306],[37.420163,48.575491]]]}},{"type":"Feature","properties":{"cadnum":"1411746200:02:000:0023"},"geometry":{"type":"Polygon","coordinates":[[[37.423127,48.57829],[37.423366,48.578367],[37.423748,48.577835],[37.423509,48.577755],[37.423127,48.57829]]]}},{"type":"Feature","properties":{"cadnum":"1411746200:02:000:0068"},"geometry":{"type":"Polygon","coordinates":[[[37.41984,48.577975],[37.419947,48.577978],[37.41997,48.57782],[37.419867,48.577817],[37.419871,48.577883],[37.419849,48.577883],[37.419844,48.57796],[37.41984,48.577975]]]}},{"type":"Feature","properties":{"cadnum":"1411746200:02:000:0029"},"geometry":{"type":"Polygon","coordinates":[[[37.420221,48.57511],[37.42024,48.575309],[37.420509,48.575297],[37.421209,48.57527],[37.421278,48.575098],[37.420496,48.575107],[37.420221,48.57511]]]}},{"type":"Feature","properties":{"cadnum":"1411746200:02:000:0014"},"geometry":{"type":"Polygon","coordinates":[[[37.422687,48.578911],[37.422916,48.578994],[37.423056,48.578801],[37.423251,48.578526],[37.423252,48.578526],[37.423366,48.578367],[37.423127,48.57829],[37.423039,48.578412],[37.423038,48.578412],[37.422827,48.578711],[37.422687,48.578911]]]}},{"type":"Feature","properties":{"cadnum":"1411746200:04:000:0029"},"geometry":{"type":"Polygon","coordinates":[[[37.445405,48.609705],[37.445675,48.60972],[37.445729,48.609342],[37.445464,48.609328],[37.445405,48.609705]]]}},{"type":"Feature","properties":{"cadnum":"1411746200:04:000:0021"},"geometry":{"type":"Polygon","coordinates":[[[37.444512,48.608375],[37.444799,48.608398],[37.444992,48.608415],[37.445011,48.608279],[37.445019,48.608202],[37.444552,48.608047],[37.444526,48.608252],[37.444512,48.608375]]]}},{"type":"Feature","properties":{"cadnum":"1411746200:04:000:0041"},"geometry":{"type":"Polygon","coordinates":[[[37.4463,48.608547],[37.446551,48.608582],[37.446708,48.607887],[37.446434,48.607896],[37.4463,48.608547]]]}},{"type":"Feature","properties":{"cadnum":"1411746200:04:000:0010"},"geometry":{"type":"Polygon","coordinates":[[[37.445342,48.608406],[37.445482,48.608428],[37.44559,48.608439],[37.445639,48.608169],[37.445419,48.608142],[37.445411,48.608175],[37.445401,48.608214],[37.445388,48.60825],[37.445342,48.608406]]]}},{"type":"Feature","properties":{"cadnum":"1411746200:04:000:0003"},"geometry":{"type":"Polygon","coordinates":[[[37.445675,48.60972],[37.445935,48.609734],[37.446038,48.60906],[37.446101,48.608668],[37.445828,48.608653],[37.445774,48.60904],[37.445675,48.60972]]]}},{"type":"Feature","properties":{"cadnum":"1411746200:04:000:0022"},"geometry":{"type":"Polygon","coordinates":[[[37.443658,48.609137],[37.443924,48.609137],[37.44395,48.608906],[37.443964,48.608817],[37.444004,48.608457],[37.443717,48.608439],[37.443686,48.608799],[37.443677,48.608888],[37.443658,48.609137]]]}},{"type":"Feature","properties":{"cadnum":"1411746200:04:000:0044"},"geometry":{"type":"Polygon","coordinates":[[[37.442922,48.608333],[37.44303,48.608342],[37.443088,48.608344],[37.443231,48.608347],[37.443308,48.607825],[37.442971,48.60784],[37.442922,48.608327],[37.442922,48.608333]]]}},{"type":"Feature","properties":{"cadnum":"1411746200:04:000:0004"},"geometry":{"type":"Polygon","coordinates":[[[37.445464,48.609328],[37.445729,48.609342],[37.44577,48.609066],[37.445774,48.60904],[37.445828,48.608653],[37.445568,48.608639],[37.445505,48.609051],[37.445464,48.609328]]]}},{"type":"Feature","properties":{"cadnum":"1411746200:04:000:0024"},"geometry":{"type":"Polygon","coordinates":[[[37.442248,48.609464],[37.442459,48.60947],[37.442531,48.608534],[37.442549,48.608342],[37.442338,48.608336],[37.442316,48.608576],[37.442248,48.609464]]]}},{"type":"Feature","properties":{"cadnum":"1411746200:04:000:0017"},"geometry":{"type":"Polygon","coordinates":[[[37.444143,48.609244],[37.444382,48.609244],[37.44439,48.608808],[37.44439,48.60874],[37.444396,48.608484],[37.444157,48.608466],[37.444153,48.608736],[37.444153,48.608796],[37.444143,48.609244]]]}},{"type":"Feature","properties":{"cadnum":"1411746200:04:000:0027"},"geometry":{"type":"Polygon","coordinates":[[[37.440923,48.608648],[37.440923,48.608927],[37.441449,48.608927],[37.441449,48.608648],[37.440923,48.608648]]]}},{"type":"Feature","properties":{"cadnum":"1411746200:04:000:0025"},"geometry":{"type":"Polygon","coordinates":[[[37.443299,48.609616],[37.443641,48.609625],[37.443645,48.609488],[37.44365,48.609354],[37.443313,48.609346],[37.443304,48.609482],[37.443299,48.609616]]]}},{"type":"Feature","properties":{"cadnum":"1411746200:04:000:0026"},"geometry":{"type":"Polygon","coordinates":[[[37.440923,48.608648],[37.441449,48.608648],[37.441449,48.608579],[37.441444,48.608309],[37.441359,48.608309],[37.441251,48.608333],[37.441247,48.608291],[37.441,48.608273],[37.44096,48.608282],[37.440941,48.608306],[37.440931,48.608333],[37.440927,48.608356],[37.440923,48.608648]]]}},{"type":"Feature","properties":{"cadnum":"1411746200:04:000:0023"},"geometry":{"type":"Polygon","coordinates":[[[37.443641,48.609625],[37.443941,48.609625],[37.443937,48.609568],[37.44391,48.609565],[37.443914,48.609443],[37.443919,48.609381],[37.443924,48.609137],[37.443658,48.609137],[37.44365,48.609378],[37.443645,48.609443],[37.443641,48.609625]]]}},{"type":"Feature","properties":{"cadnum":"1411746200:01:000:0283"},"geometry":{"type":"Polygon","coordinates":[[[37.446384,48.577086],[37.446384,48.577095],[37.446403,48.577247],[37.446407,48.577264],[37.446578,48.577639],[37.446812,48.57763],[37.446763,48.577249],[37.44674,48.57708],[37.446384,48.577086]]]}},{"type":"Feature","properties":{"cadnum":"1411746200:01:000:0089"},"geometry":{"type":"Polygon","coordinates":[[[37.446084,48.575669],[37.446232,48.575898],[37.446515,48.57582],[37.446398,48.575612],[37.446084,48.575669]]]}},{"type":"Feature","properties":{"cadnum":"1411746200:01:000:0153"},"geometry":{"type":"Polygon","coordinates":[[[37.44634,48.575145],[37.446417,48.575374],[37.446744,48.575345],[37.446813,48.575339],[37.446814,48.575339],[37.446946,48.575326],[37.446897,48.575199],[37.446856,48.575092],[37.44634,48.575145]]]}},{"type":"Feature","properties":{"cadnum":"1411746200:01:000:0286"},"geometry":{"type":"Polygon","coordinates":[[[37.446736,48.577074],[37.446744,48.577104],[37.446797,48.577321],[37.446814,48.577373],[37.446897,48.577639],[37.446985,48.577632],[37.447229,48.577612],[37.44713,48.577333],[37.447109,48.577294],[37.447076,48.577113],[37.447076,48.577101],[37.44708,48.577074],[37.446736,48.577074]]]}},{"type":"Feature","properties":{"cadnum":"1411746200:01:000:0001"},"geometry":{"type":"Polygon","coordinates":[[[37.445451,48.575782],[37.445545,48.575954],[37.445608,48.576066],[37.44581,48.57601],[37.446232,48.575898],[37.446084,48.575669],[37.445451,48.575782]]]}},{"type":"Feature","properties":{"cadnum":"1411746200:01:000:0144"},"geometry":{"type":"Polygon","coordinates":[[[37.446515,48.575627],[37.446637,48.575797],[37.446663,48.575835],[37.446814,48.576045],[37.446814,48.576046],[37.446929,48.576207],[37.446985,48.57619],[37.446985,48.576189],[37.447212,48.576121],[37.44695,48.575779],[37.446916,48.575737],[37.446814,48.575602],[37.446803,48.575588],[37.446596,48.575624],[37.44657,48.575612],[37.446515,48.575627]]]}},{"type":"Feature","properties":{"cadnum":"1411746200:03:000:0006"},"geometry":{"type":"Polygon","coordinates":[[[37.37492,48.566767],[37.375094,48.566803],[37.375402,48.566862],[37.375461,48.566873],[37.375574,48.566895],[37.375763,48.566931],[37.375845,48.56672],[37.375574,48.566674],[37.375189,48.566609],[37.374991,48.566578],[37.37492,48.566767]]]}},{"type":"Feature","properties":{"cadnum":"1411746200:03:000:0058"},"geometry":{"type":"Polygon","coordinates":[[[37.375975,48.568777],[37.377723,48.56897],[37.378042,48.568979],[37.378481,48.567622],[37.378482,48.567622],[37.379168,48.565507],[37.379245,48.565276],[37.37725,48.564838],[37.377193,48.565023],[37.376627,48.566783],[37.376391,48.567508],[37.376056,48.568548],[37.375975,48.568777]]]}},{"type":"Feature","properties":{"cadnum":"1411746200:03:000:0026"},"geometry":{"type":"Polygon","coordinates":[[[37.375763,48.566931],[37.376258,48.567023],[37.376339,48.5668],[37.375845,48.56672],[37.375763,48.566931]]]}},{"type":"Feature","properties":{"cadnum":"1411746200:01:000:0146"},"geometry":{"type":"Polygon","coordinates":[[[37.468789,48.579612],[37.468812,48.579797],[37.468958,48.579788],[37.468958,48.579787],[37.469256,48.579769],[37.469355,48.579764],[37.469814,48.579731],[37.469785,48.579553],[37.469535,48.579568],[37.469219,48.579588],[37.468789,48.579612]]]}},{"type":"Feature","properties":{"cadnum":"1411746200:01:000:0058"},"geometry":{"type":"Polygon","coordinates":[[[37.45394,48.58461],[37.454003,48.584625],[37.454128,48.584354],[37.454258,48.584131],[37.454493,48.583772],[37.454617,48.5836],[37.45478,48.583398],[37.45499,48.583178],[37.455022,48.583142],[37.455053,48.583112],[37.455269,48.582913],[37.455499,48.582747],[37.455709,48.582613],[37.456329,48.58223],[37.456574,48.582082],[37.456801,48.581945],[37.456833,48.581924],[37.456954,48.581843],[37.45708,48.581766],[37.457129,48.581733],[37.457564,48.581457],[37.457699,48.581377],[37.4578,48.58132],[37.4578,48.581321],[37.457847,48.581294],[37.457972,48.581224],[37.457972,48.581223],[37.458391,48.580985],[37.458472,48.580937],[37.45915,48.580533],[37.459441,48.580331],[37.460793,48.579258],[37.46158,48.578676],[37.461902,48.578412],[37.462097,48.578254],[37.462168,48.578189],[37.462236,48.578105],[37.462285,48.578034],[37.462311,48.577975],[37.46234,48.577883],[37.462357,48.57777],[37.462298,48.577211],[37.46229,48.577121],[37.4622,48.575918],[37.462191,48.575719],[37.462191,48.575656],[37.4622,48.575555],[37.462218,48.575455],[37.462254,48.575333],[37.462344,48.575158],[37.462456,48.575011],[37.462586,48.574878],[37.462743,48.574751],[37.463293,48.57441],[37.463401,48.574343],[37.463465,48.574303],[37.463898,48.574034],[37.464072,48.57393],[37.464118,48.573894],[37.464594,48.573559],[37.464944,48.573303],[37.465124,48.573172],[37.465443,48.573009],[37.46569,48.572896],[37.466189,48.572715],[37.466363,48.572667],[37.466449,48.572643],[37.466476,48.572628],[37.466502,48.572616],[37.466539,48.572596],[37.466556,48.572584],[37.466624,48.572533],[37.466812,48.57237],[37.467037,48.572141],[37.467302,48.571859],[37.467518,48.571621],[37.46764,48.571493],[37.467877,48.571193],[37.468066,48.570922],[37.468372,48.570575],[37.468309,48.570559],[37.468007,48.570902],[37.467841,48.571143],[37.467819,48.571175],[37.467754,48.571257],[37.467581,48.571473],[37.46746,48.571597],[37.467244,48.571835],[37.466978,48.572117],[37.466758,48.572343],[37.466565,48.572504],[37.466502,48.572551],[37.466489,48.572563],[37.466458,48.572578],[37.466435,48.57259],[37.466412,48.572599],[37.466332,48.572623],[37.466156,48.57267],[37.465649,48.572854],[37.465397,48.57297],[37.465074,48.573136],[37.46489,48.57327],[37.46454,48.573523],[37.464064,48.573859],[37.463996,48.573907],[37.463848,48.573998],[37.463452,48.574242],[37.46268,48.574715],[37.462608,48.574778],[37.462527,48.574848],[37.462482,48.574892],[37.462483,48.574892],[37.462388,48.574985],[37.462277,48.575137],[37.462177,48.575318],[37.462141,48.575445],[37.462124,48.575553],[37.462118,48.575654],[37.462114,48.575719],[37.462124,48.575918],[37.462213,48.577125],[37.462271,48.57777],[37.462254,48.577874],[37.462227,48.57796],[37.4622,48.578013],[37.462154,48.578081],[37.462091,48.578159],[37.462028,48.578222],[37.461799,48.578412],[37.461798,48.578412],[37.461521,48.578643],[37.460732,48.579222],[37.459384,48.580292],[37.459091,48.580491],[37.458413,48.580896],[37.457972,48.581156],[37.457686,48.581323],[37.45752,48.581425],[37.457084,48.581701],[37.456985,48.58176],[37.456801,48.581874],[37.456747,48.581906],[37.456515,48.582047],[37.456514,48.582047],[37.456381,48.582127],[37.456326,48.58216],[37.456275,48.582191],[37.455655,48.582574],[37.455445,48.582711],[37.45521,48.582883],[37.454996,48.583085],[37.454959,48.583118],[37.454927,48.583154],[37.454721,48.583376],[37.45456,48.583579],[37.45443,48.583754],[37.454196,48.584116],[37.454065,48.584339],[37.45394,48.58461]]]}},{"type":"Feature","properties":{"cadnum":"1411746200:01:000:0151"},"geometry":{"type":"Polygon","coordinates":[[[37.456329,48.581805],[37.456419,48.581838],[37.456508,48.58187],[37.457277,48.581389],[37.4578,48.581102],[37.4578,48.581103],[37.457803,48.581101],[37.457972,48.581004],[37.457972,48.581003],[37.458323,48.580801],[37.458831,48.5805],[37.459325,48.580185],[37.460269,48.579523],[37.460709,48.579169],[37.461099,48.578804],[37.461674,48.578412],[37.462057,48.578153],[37.462187,48.578028],[37.462281,48.577829],[37.462277,48.577683],[37.462204,48.577229],[37.462087,48.57587],[37.462105,48.575428],[37.462195,48.575214],[37.462298,48.575009],[37.462416,48.574892],[37.462667,48.574643],[37.46317,48.574337],[37.463293,48.574242],[37.463404,48.574156],[37.463465,48.574109],[37.463848,48.573811],[37.463879,48.573532],[37.463543,48.573119],[37.463421,48.572997],[37.463166,48.572738],[37.462766,48.572361],[37.462173,48.571844],[37.462091,48.571885],[37.462011,48.571927],[37.462604,48.572438],[37.462995,48.572813],[37.463293,48.573114],[37.463368,48.57319],[37.463465,48.573304],[37.463682,48.573561],[37.463682,48.573562],[37.463659,48.57376],[37.463293,48.574039],[37.463022,48.574245],[37.462514,48.574554],[37.46229,48.574778],[37.462289,48.574778],[37.462118,48.574949],[37.462002,48.575176],[37.461908,48.575407],[37.461885,48.575874],[37.462002,48.57724],[37.462074,48.577692],[37.462078,48.577811],[37.462002,48.577969],[37.461898,48.578066],[37.461391,48.578412],[37.461378,48.578422],[37.461225,48.578526],[37.460946,48.578718],[37.460546,48.579086],[37.460116,48.579434],[37.459181,48.58009],[37.458692,48.580402],[37.458189,48.5807],[37.45782,48.580914],[37.457673,48.581],[37.457143,48.581288],[37.456329,48.581805]]]}},{"type":"Feature","properties":{"cadnum":"1411746200:03:000:0030"},"geometry":{"type":"Polygon","coordinates":[[[37.35862,48.559336],[37.358893,48.55938],[37.358923,48.559305],[37.35906,48.558953],[37.35879,48.558896],[37.35862,48.559336]]]}},{"type":"Feature","properties":{"cadnum":"1411746200:03:000:0016"},"geometry":{"type":"Polygon","coordinates":[[[37.358381,48.55996],[37.358647,48.560017],[37.358714,48.559838],[37.358893,48.55938],[37.35862,48.559336],[37.358448,48.559785],[37.358381,48.55996]]]}},{"type":"Feature","properties":{"cadnum":"1411746200:03:000:0048"},"geometry":{"type":"Polygon","coordinates":[[[37.327174,48.578075],[37.327489,48.578153],[37.32751,48.578159],[37.327524,48.578162],[37.327546,48.578168],[37.327951,48.578269],[37.327992,48.578278],[37.328984,48.578526],[37.328985,48.578526],[37.330547,48.578916],[37.331629,48.579184],[37.33272,48.579454],[37.33464,48.57993],[37.33695,48.580484],[37.342615,48.581842],[37.343941,48.58216],[37.343942,48.58216],[37.344431,48.582277],[37.344785,48.582363],[37.344844,48.582259],[37.344073,48.582058],[37.342615,48.581677],[37.339674,48.580907],[37.339063,48.580771],[37.338843,48.580661],[37.338632,48.580372],[37.33812,48.580022],[37.337823,48.579779],[37.337487,48.579282],[37.337441,48.578949],[37.337349,48.578493],[37.337284,48.578165],[37.337137,48.577838],[37.337044,48.577724],[37.336875,48.577514],[37.335479,48.577128],[37.335147,48.576949],[37.33477,48.576905],[37.333659,48.576649],[37.333323,48.57656],[37.333202,48.576269],[37.333372,48.575969],[37.332407,48.575597],[37.332038,48.575473],[37.331845,48.575455],[37.331457,48.575512],[37.331378,48.575523],[37.330471,48.575294],[37.330269,48.575229],[37.330282,48.574967],[37.330247,48.574892],[37.33016,48.574703],[37.330094,48.574778],[37.330093,48.574778],[37.328202,48.576934],[37.327174,48.578075]]]}},{"type":"Feature","properties":{"cadnum":"1411746200:01:000:0289"},"geometry":{"type":"Polygon","coordinates":[[[37.463363,48.573015],[37.463465,48.573143],[37.463465,48.573142],[37.463682,48.573413],[37.464707,48.573062],[37.464575,48.572896],[37.464558,48.572872],[37.46454,48.572852],[37.464518,48.57283],[37.464485,48.572815],[37.464302,48.572789],[37.464265,48.57278],[37.464202,48.572786],[37.464176,48.572765],[37.464141,48.572759],[37.464005,48.572801],[37.463363,48.573015]]]}},{"type":"Feature","properties":{"cadnum":"1411746200:04:000:0040"},"geometry":{"type":"Polygon","coordinates":[[[37.43918,48.608187],[37.439185,48.608481],[37.43922,48.60898],[37.439442,48.608983],[37.439409,48.608336],[37.439409,48.60819],[37.43918,48.608187]]]}},{"type":"Feature","properties":{"cadnum":"1411746200:04:000:0020"},"geometry":{"type":"Polygon","coordinates":[[[37.444499,48.606746],[37.444803,48.606788],[37.444826,48.606544],[37.444835,48.606482],[37.444845,48.606339],[37.444539,48.606299],[37.444526,48.606453],[37.444516,48.606518],[37.444499,48.606746]]]}},{"type":"Feature","properties":{"cadnum":"1411746200:04:000:0014"},"geometry":{"type":"Polygon","coordinates":[[[37.446812,48.607255],[37.446813,48.607255],[37.446814,48.607255],[37.446947,48.607265],[37.446985,48.607268],[37.447013,48.60727],[37.44708,48.606788],[37.447086,48.606759],[37.447117,48.606563],[37.446916,48.606548],[37.446883,48.606744],[37.446879,48.606773],[37.446812,48.607255]]]}},{"type":"Feature","properties":{"cadnum":"1411746200:04:000:0038"},"geometry":{"type":"Polygon","coordinates":[[[37.445226,48.607041],[37.445509,48.60707],[37.445549,48.606797],[37.445585,48.606535],[37.445316,48.60653],[37.445279,48.606643],[37.445275,48.606678],[37.445262,48.606779],[37.445226,48.607041]]]}},{"type":"Feature","properties":{"cadnum":"1411746200:04:000:0007"},"geometry":{"type":"Polygon","coordinates":[[[37.443111,48.606841],[37.44338,48.606874],[37.443555,48.606301],[37.443596,48.60617],[37.443321,48.606138],[37.443281,48.606266],[37.443111,48.606841]]]}},{"type":"Feature","properties":{"cadnum":"1411746200:04:000:0043"},"geometry":{"type":"Polygon","coordinates":[[[37.443016,48.606004],[37.443299,48.606042],[37.443451,48.605514],[37.443147,48.605472],[37.443016,48.606004]]]}},{"type":"Feature","properties":{"cadnum":"1411746200:01:000:0268"},"geometry":{"type":"Polygon","coordinates":[[[37.47421,48.58296],[37.474242,48.582958],[37.474279,48.582956],[37.474279,48.582957],[37.474403,48.582951],[37.474451,48.582949],[37.474574,48.582943],[37.474888,48.582925],[37.474888,48.58264],[37.474458,48.582667],[37.474313,48.582676],[37.474282,48.582678],[37.47421,48.58296]]]}},{"type":"Feature","properties":{"cadnum":"1411746200:01:000:0179"},"geometry":{"type":"Polygon","coordinates":[[[37.474735,48.585739],[37.474743,48.585794],[37.474744,48.585794],[37.474754,48.585855],[37.47492,48.585837],[37.474924,48.585846],[37.47505,48.585834],[37.475051,48.585834],[37.475059,48.585878],[37.475397,48.58584],[37.475389,48.585784],[37.475374,48.585671],[37.47528,48.58568],[37.475279,48.58568],[37.475036,48.585706],[37.475032,48.585706],[37.474751,48.585737],[37.474735,48.585739]]]}},{"type":"Feature","properties":{"cadnum":"1411746200:01:000:0301"},"geometry":{"type":"Polygon","coordinates":[[[37.474133,48.583891],[37.474165,48.584001],[37.474175,48.58403],[37.474279,48.584022],[37.474279,48.584023],[37.474326,48.584019],[37.474368,48.584019],[37.474451,48.584013],[37.474458,48.584013],[37.474515,48.58401],[37.474582,48.584001],[37.474682,48.583989],[37.475248,48.583935],[37.475207,48.583796],[37.474534,48.583858],[37.47442,48.583868],[37.474169,48.583887],[37.474133,48.583891]]]}},{"type":"Feature","properties":{"cadnum":"1411746200:01:000:0192"},"geometry":{"type":"Polygon","coordinates":[[[37.473999,48.584197],[37.47403,48.584334],[37.474089,48.584327],[37.474451,48.584306],[37.474451,48.584305],[37.474525,48.584301],[37.475108,48.584262],[37.475087,48.584123],[37.474502,48.584162],[37.47435,48.584173],[37.474058,48.584193],[37.473999,48.584197]]]}},{"type":"Feature","properties":{"cadnum":"1411746200:01:000:0293"},"geometry":{"type":"Polygon","coordinates":[[[37.474426,48.585019],[37.474493,48.585294],[37.474498,48.585294],[37.474529,48.58529],[37.474789,48.585275],[37.474982,48.585261],[37.475032,48.585257],[37.475001,48.584988],[37.474741,48.584999],[37.474458,48.585017],[37.474426,48.585019]]]}},{"type":"Feature","properties":{"cadnum":"1411746200:03:000:0044"},"geometry":{"type":"Polygon","coordinates":[[[37.373352,48.564675],[37.373784,48.564714],[37.374035,48.564734],[37.374044,48.564708],[37.374057,48.564654],[37.374088,48.564541],[37.374098,48.564514],[37.374107,48.564476],[37.374161,48.564276],[37.373904,48.564271],[37.373837,48.564267],[37.373545,48.564262],[37.373541,48.564297],[37.373541,48.564298],[37.373486,48.564298],[37.373486,48.564297],[37.373491,48.564262],[37.373451,48.564262],[37.373432,48.564322],[37.373392,48.564458],[37.373352,48.564675]]]}},{"type":"Feature","properties":{"cadnum":"1411746200:03:000:0025"},"geometry":{"type":"Polygon","coordinates":[[[37.37262,48.565591],[37.373109,48.565644],[37.373186,48.565344],[37.3727,48.565278],[37.37262,48.565591]]]}},{"type":"Feature","properties":{"cadnum":"1411746200:03:000:0003"},"geometry":{"type":"Polygon","coordinates":[[[37.37266,48.567745],[37.373289,48.567829],[37.373329,48.567638],[37.373811,48.567704],[37.373845,48.567543],[37.373019,48.567433],[37.37274,48.567395],[37.372716,48.567508],[37.372715,48.567508],[37.372705,48.567555],[37.372688,48.567622],[37.372689,48.567622],[37.37266,48.567745]]]}},{"type":"Feature","properties":{"cadnum":"1411746200:03:000:0005"},"geometry":{"type":"Polygon","coordinates":[[[37.373109,48.565644],[37.373321,48.565668],[37.373725,48.56571],[37.373797,48.56543],[37.373365,48.565371],[37.373186,48.565344],[37.373109,48.565644]]]}},{"type":"Feature","properties":{"cadnum":"1411746200:03:000:0022"},"geometry":{"type":"Polygon","coordinates":[[[37.372216,48.566756],[37.37231,48.56677],[37.372359,48.566598],[37.372264,48.566583],[37.372216,48.566756]]]}},{"type":"Feature","properties":{"cadnum":"1411746200:03:000:0002"},"geometry":{"type":"Polygon","coordinates":[[[37.371182,48.566598],[37.372216,48.566756],[37.372264,48.566583],[37.371438,48.566459],[37.371438,48.566467],[37.371232,48.566435],[37.371182,48.566598]]]}},{"type":"Feature","properties":{"cadnum":"1411746200:03:000:0047"},"geometry":{"type":"Polygon","coordinates":[[[37.358916,48.560748],[37.358923,48.560749],[37.358923,48.56075],[37.359243,48.560802],[37.359243,48.560801],[37.359383,48.560374],[37.359423,48.560246],[37.359127,48.560198],[37.359111,48.560238],[37.359077,48.560326],[37.359066,48.560352],[37.359067,48.560352],[37.358916,48.560748]]]}},{"type":"Feature","properties":{"cadnum":"1411746200:03:000:0057"},"geometry":{"type":"Polygon","coordinates":[[[37.377277,48.563379],[37.377547,48.563426],[37.377744,48.562787],[37.37747,48.56274],[37.377277,48.563379]]]}},{"type":"Feature","properties":{"cadnum":"1411746200:02:000:0007"},"geometry":{"type":"Polygon","coordinates":[[[37.416511,48.575253],[37.416916,48.575273],[37.416934,48.575081],[37.416951,48.574914],[37.416548,48.574893],[37.416529,48.575059],[37.416511,48.575253]]]}},{"type":"Feature","properties":{"cadnum":"1411746200:02:000:0062"},"geometry":{"type":"Polygon","coordinates":[[[37.415129,48.577389],[37.415703,48.577425],[37.415739,48.577425],[37.415743,48.577348],[37.415748,48.57713],[37.415815,48.57713],[37.415846,48.576925],[37.415379,48.576914],[37.415263,48.577125],[37.415209,48.577229],[37.415159,48.577317],[37.415146,48.577354],[37.415129,48.577389]]]}},{"type":"Feature","properties":{"cadnum":"1411746200:02:000:0031"},"geometry":{"type":"Polygon","coordinates":[[[37.418959,48.576403],[37.41922,48.576412],[37.419255,48.576192],[37.419058,48.57618],[37.419049,48.576293],[37.418972,48.57629],[37.418959,48.576403]]]}},{"type":"Feature","properties":{"cadnum":"1411746200:02:000:0028"},"geometry":{"type":"Polygon","coordinates":[[[37.418945,48.576495],[37.418986,48.576495],[37.418968,48.57664],[37.419255,48.576652],[37.419297,48.576414],[37.418959,48.576403],[37.418945,48.576495]]]}},{"type":"Feature","properties":{"cadnum":"1411746200:02:000:0013"},"geometry":{"type":"Polygon","coordinates":[[[37.417207,48.576962],[37.417567,48.576976],[37.417626,48.576976],[37.417639,48.576979],[37.41776,48.576982],[37.417769,48.576982],[37.4178,48.576985],[37.417819,48.576801],[37.417783,48.576801],[37.417221,48.57678],[37.417207,48.576962]]]}},{"type":"Feature","properties":{"cadnum":"1411746200:01:000:0195"},"geometry":{"type":"Polygon","coordinates":[[[37.461535,48.571487],[37.461858,48.571775],[37.461988,48.571889],[37.462024,48.571921],[37.462244,48.571808],[37.462208,48.571779],[37.462083,48.571665],[37.461745,48.571387],[37.461535,48.571487]]]}},{"type":"Feature","properties":{"cadnum":"1411746200:02:000:0069"},"geometry":{"type":"Polygon","coordinates":[[[37.418299,48.571145],[37.418339,48.5712],[37.418379,48.571257],[37.418406,48.571294],[37.418452,48.571365],[37.418506,48.571347],[37.418807,48.571255],[37.418996,48.5712],[37.419071,48.571178],[37.418919,48.570958],[37.418735,48.571015],[37.418538,48.571074],[37.418339,48.571134],[37.418305,48.571143],[37.418304,48.571143],[37.418299,48.571145]]]}},{"type":"Feature","properties":{"cadnum":"1411746200:02:000:0071"},"geometry":{"type":"Polygon","coordinates":[[[37.416826,48.571116],[37.416857,48.571143],[37.416856,48.571143],[37.416915,48.571196],[37.416982,48.571257],[37.416983,48.571257],[37.417028,48.571297],[37.417253,48.57116],[37.417536,48.571002],[37.417683,48.570907],[37.417513,48.570848],[37.417477,48.570854],[37.417433,48.570836],[37.41724,48.570836],[37.416826,48.571116]]]}},{"type":"Feature","properties":{"cadnum":"1411746200:02:000:0063"},"geometry":{"type":"Polygon","coordinates":[[[37.418236,48.570925],[37.418353,48.571098],[37.418591,48.571026],[37.418789,48.570967],[37.418784,48.57078],[37.418519,48.570839],[37.418479,48.570851],[37.418326,48.570896],[37.418236,48.570925]]]}},{"type":"Feature","properties":{"cadnum":"1411746200:01:000:0110"},"geometry":{"type":"Polygon","coordinates":[[[37.474368,48.571015],[37.474399,48.571089],[37.475032,48.570958],[37.475005,48.570898],[37.474969,48.570905],[37.474368,48.571015]]]}},{"type":"Feature","properties":{"cadnum":"1411746200:01:000:0169"},"geometry":{"type":"Polygon","coordinates":[[[37.473856,48.570973],[37.473873,48.571103],[37.474451,48.570999],[37.474969,48.570905],[37.474951,48.570774],[37.474333,48.570887],[37.473856,48.570973]]]}},{"type":"Feature","properties":{"cadnum":"1411746200:01:000:0119"},"geometry":{"type":"Polygon","coordinates":[[[37.473146,48.56918],[37.473263,48.569299],[37.474279,48.568983],[37.474389,48.568949],[37.474251,48.568788],[37.473146,48.56918]]]}},{"type":"Feature","properties":{"cadnum":"1411746200:01:000:0045"},"geometry":{"type":"Polygon","coordinates":[[[37.472517,48.571354],[37.472535,48.571458],[37.472567,48.571451],[37.472984,48.571377],[37.473958,48.571179],[37.474279,48.571114],[37.474399,48.571089],[37.474368,48.571015],[37.473666,48.571143],[37.473665,48.571143],[37.473379,48.571196],[37.473046,48.571257],[37.47294,48.571277],[37.472553,48.571347],[37.472517,48.571354]]]}},{"type":"Feature","properties":{"cadnum":"1411746200:02:000:0064"},"geometry":{"type":"Polygon","coordinates":[[[37.434711,48.578251],[37.434722,48.578412],[37.434725,48.578447],[37.434729,48.578526],[37.43473,48.578526],[37.434742,48.578709],[37.434742,48.578729],[37.434842,48.578691],[37.434882,48.578673],[37.435142,48.578563],[37.435142,48.578542],[37.435139,48.578412],[37.435138,48.578334],[37.435138,48.578165],[37.434711,48.578251]]]}},{"type":"Feature","properties":{"cadnum":"1411746200:01:000:0161"},"geometry":{"type":"Polygon","coordinates":[[[37.452305,48.575484],[37.452307,48.575486],[37.452471,48.575638],[37.452478,48.575645],[37.45261,48.575766],[37.452961,48.575615],[37.452663,48.57533],[37.452479,48.57541],[37.452478,48.57541],[37.452305,48.575484]]]}},{"type":"Feature","properties":{"cadnum":"1411746200:01:000:0160"},"geometry":{"type":"Polygon","coordinates":[[[37.451927,48.575145],[37.45212,48.575321],[37.452305,48.575484],[37.452307,48.575484],[37.452663,48.57533],[37.452493,48.575163],[37.45234,48.575011],[37.452319,48.575021],[37.452296,48.574997],[37.451927,48.575145]]]}},{"type":"Feature","properties":{"cadnum":"1411746200:05:000:0038"},"geometry":{"type":"Polygon","coordinates":[[[37.407901,48.559277],[37.408018,48.559559],[37.408533,48.559475],[37.40902,48.559396],[37.408907,48.559107],[37.408361,48.559199],[37.408361,48.5592],[37.407901,48.559277]]]}},{"type":"Feature","properties":{"cadnum":"1411746200:01:000:0227"},"geometry":{"type":"Polygon","coordinates":[[[37.473995,48.587617],[37.474026,48.587754],[37.474169,48.587738],[37.474188,48.587738],[37.474279,48.58773],[37.474279,48.587731],[37.474831,48.587676],[37.474861,48.587673],[37.474835,48.587531],[37.474798,48.587534],[37.474493,48.587558],[37.474439,48.587566],[37.474336,48.587578],[37.473995,48.587617]]]}},{"type":"Feature","properties":{"cadnum":"1411746200:01:000:0280"},"geometry":{"type":"Polygon","coordinates":[[[37.473514,48.585733],[37.473528,48.585794],[37.473529,48.585794],[37.473567,48.585947],[37.47408,48.585917],[37.474279,48.585905],[37.474279,48.585906],[37.474372,48.5859],[37.474403,48.5859],[37.474346,48.58568],[37.474345,48.58568],[37.474313,48.585682],[37.474022,48.5857],[37.47359,48.58573],[37.473514,48.585733]]]}},{"type":"Feature","properties":{"cadnum":"1411746200:01:000:0177"},"geometry":{"type":"Polygon","coordinates":[[[37.474013,48.573535],[37.474072,48.573713],[37.474279,48.573671],[37.474332,48.57366],[37.474451,48.573635],[37.475032,48.573511],[37.474997,48.573333],[37.474451,48.573445],[37.474273,48.573482],[37.474013,48.573535]]]}},{"type":"Feature","properties":{"cadnum":"1411746200:01:000:0193"},"geometry":{"type":"Polygon","coordinates":[[[37.471776,48.574456],[37.471808,48.574605],[37.471871,48.574596],[37.472234,48.574539],[37.472961,48.574427],[37.472926,48.574269],[37.472194,48.574388],[37.471835,48.574447],[37.471776,48.574456]]]}},{"type":"Feature","properties":{"cadnum":"1411746200:01:000:0295"},"geometry":{"type":"Polygon","coordinates":[[[37.471902,48.572105],[37.471991,48.572301],[37.472091,48.572519],[37.472091,48.572528],[37.472126,48.572521],[37.472131,48.572524],[37.472144,48.572521],[37.472144,48.572519],[37.472238,48.5725],[37.472274,48.572495],[37.472464,48.572459],[37.472481,48.572456],[37.472464,48.572403],[37.472347,48.572049],[37.471902,48.572105]]]}},{"type":"Feature","properties":{"cadnum":"1411746200:01:000:0167"},"geometry":{"type":"Polygon","coordinates":[[[37.469089,48.574667],[37.469103,48.574783],[37.469211,48.574777],[37.469198,48.574661],[37.469089,48.574667]]]}},{"type":"Feature","properties":{"cadnum":"1411746200:01:000:0148"},"geometry":{"type":"Polygon","coordinates":[[[37.472611,48.573145],[37.47267,48.573303],[37.473685,48.57311],[37.473613,48.572953],[37.472611,48.573145]]]}},{"type":"Feature","properties":{"cadnum":"1411746200:01:000:0168"},"geometry":{"type":"Polygon","coordinates":[[[37.472498,48.57122],[37.472502,48.571257],[37.472504,48.571257],[37.472517,48.571354],[37.473043,48.571258],[37.473301,48.57121],[37.473873,48.571103],[37.473856,48.570973],[37.47302,48.571125],[37.472918,48.571143],[37.472917,48.571143],[37.472498,48.57122]]]}},{"type":"Feature","properties":{"cadnum":"1411746200:01:000:0138"},"geometry":{"type":"Polygon","coordinates":[[[37.473829,48.572994],[37.473856,48.573068],[37.473886,48.573167],[37.474259,48.573089],[37.474279,48.573085],[37.474279,48.573086],[37.474902,48.572955],[37.474839,48.572789],[37.474279,48.572902],[37.473829,48.572994]]]}},{"type":"Feature","properties":{"cadnum":"1411746200:01:000:0274"},"geometry":{"type":"Polygon","coordinates":[[[37.472512,48.572072],[37.472557,48.572242],[37.472907,48.57218],[37.473856,48.572013],[37.47381,48.571898],[37.472966,48.572025],[37.472521,48.572072],[37.472512,48.572072]]]}},{"type":"Feature","properties":{"cadnum":"1411746200:01:000:0139"},"geometry":{"type":"Polygon","coordinates":[[[37.472337,48.572768],[37.472395,48.572929],[37.47341,48.57272],[37.47338,48.572625],[37.473353,48.572545],[37.473177,48.572584],[37.472337,48.572768]]]}},{"type":"Feature","properties":{"cadnum":"1411746200:01:000:0137"},"geometry":{"type":"Polygon","coordinates":[[[37.47267,48.573303],[37.472733,48.573469],[37.473397,48.573345],[37.47376,48.573277],[37.473685,48.57311],[37.473316,48.573181],[37.47267,48.573303]]]}},{"type":"Feature","properties":{"cadnum":"1411746200:01:000:0147"},"geometry":{"type":"Polygon","coordinates":[[[37.472544,48.572997],[37.472567,48.573044],[37.472611,48.573145],[37.473613,48.572953],[37.473546,48.572806],[37.472544,48.572997]]]}},{"type":"Feature","properties":{"cadnum":"1411746200:01:000:0085"},"geometry":{"type":"Polygon","coordinates":[[[37.470586,48.571407],[37.470621,48.571464],[37.470774,48.57171],[37.470797,48.571707],[37.470833,48.571698],[37.470814,48.571665],[37.470882,48.571651],[37.47111,48.571603],[37.471062,48.571502],[37.470976,48.571324],[37.470837,48.571365],[37.470586,48.571407]]]}},{"type":"Feature","properties":{"cadnum":"1411746200:01:000:0026"},"geometry":{"type":"Polygon","coordinates":[[[37.47046,48.574171],[37.470464,48.574471],[37.471066,48.574447],[37.471542,48.574432],[37.47147,48.574141],[37.47112,48.574153],[37.47046,48.574171]]]}},{"type":"Feature","properties":{"cadnum":"1411746200:01:000:0271"},"geometry":{"type":"Polygon","coordinates":[[[37.471749,48.571832],[37.471825,48.572034],[37.472095,48.572004],[37.472347,48.571978],[37.472368,48.571962],[37.472374,48.571947],[37.472374,48.571945],[37.472351,48.571805],[37.472347,48.571766],[37.472342,48.571749],[37.472328,48.571642],[37.472292,48.571647],[37.471794,48.571731],[37.471785,48.571814],[37.471772,48.571823],[37.471749,48.571832]]]}},{"type":"Feature","properties":{"cadnum":"1411746200:01:000:0183"},"geometry":{"type":"Polygon","coordinates":[[[37.47134,48.573359],[37.471385,48.573493],[37.471808,48.573422],[37.472059,48.573377],[37.472504,48.573303],[37.472458,48.573172],[37.472018,48.573246],[37.471766,48.573288],[37.47134,48.573359]]]}},{"type":"Feature","properties":{"cadnum":"1411746200:01:000:0311"},"geometry":{"type":"Polygon","coordinates":[[[37.471385,48.573496],[37.471435,48.573645],[37.471466,48.573639],[37.472548,48.57346],[37.472508,48.573303],[37.471686,48.573449],[37.471655,48.573451],[37.471605,48.573464],[37.471416,48.57349],[37.471385,48.573496]]]}},{"type":"Feature","properties":{"cadnum":"1411746200:01:000:0190"},"geometry":{"type":"Polygon","coordinates":[[[37.471745,48.574319],[37.471776,48.574456],[37.471835,48.574447],[37.472194,48.574388],[37.472831,48.574284],[37.472804,48.574153],[37.472152,48.574257],[37.471802,48.57431],[37.471745,48.574319]]]}},{"type":"Feature","properties":{"cadnum":"1411746200:03:000:0045"},"geometry":{"type":"Polygon","coordinates":[[[37.370266,48.561878],[37.370652,48.561964],[37.370675,48.561892],[37.370298,48.561791],[37.370266,48.561878]]]}},{"type":"Feature","properties":{"cadnum":"1411746200:02:000:0033"},"geometry":{"type":"Polygon","coordinates":[[[37.418249,48.573175],[37.418339,48.573336],[37.418888,48.573196],[37.418982,48.573184],[37.419004,48.573175],[37.419062,48.57316],[37.419207,48.573125],[37.419179,48.573074],[37.419175,48.573077],[37.419152,48.573035],[37.419112,48.572973],[37.419112,48.572967],[37.418978,48.573002],[37.418249,48.573175]]]}},{"type":"Feature","properties":{"cadnum":"1411746200:02:000:0066"},"geometry":{"type":"Polygon","coordinates":[[[37.418758,48.571876],[37.418762,48.571885],[37.418779,48.571918],[37.418848,48.57204],[37.418874,48.572031],[37.419018,48.571995],[37.419211,48.571947],[37.419519,48.571872],[37.419519,48.571871],[37.41952,48.571871],[37.419534,48.571867],[37.419458,48.57168],[37.419071,48.57179],[37.418798,48.571865],[37.418758,48.571876]]]}},{"type":"Feature","properties":{"cadnum":"1411746200:02:000:0070"},"geometry":{"type":"Polygon","coordinates":[[[37.419062,48.57445],[37.419348,48.574427],[37.419348,48.574428],[37.419499,48.574415],[37.419519,48.574413],[37.41952,48.574413],[37.419615,48.574405],[37.419764,48.574394],[37.419794,48.574391],[37.419741,48.574236],[37.419691,48.574112],[37.41967,48.574114],[37.419561,48.574138],[37.419486,48.574146],[37.419211,48.574174],[37.419131,48.574176],[37.419089,48.574176],[37.419062,48.57445]]]}},{"type":"Feature","properties":{"cadnum":"1411746200:02:000:0072"},"geometry":{"type":"Polygon","coordinates":[[[37.418752,48.574325],[37.419071,48.574325],[37.419089,48.574176],[37.419089,48.573859],[37.419058,48.573722],[37.418861,48.573749],[37.418793,48.573751],[37.418752,48.574325]]]}},{"type":"Feature","properties":{"cadnum":"1411746200:01:000:0121"},"geometry":{"type":"Polygon","coordinates":[[[37.468991,48.566845],[37.469351,48.567237],[37.469494,48.567177],[37.469135,48.566788],[37.468991,48.566845]]]}},{"type":"Feature","properties":{"cadnum":"1411746200:01:000:0115"},"geometry":{"type":"Polygon","coordinates":[[[37.468829,48.567279],[37.468958,48.567427],[37.468958,48.567426],[37.46903,48.567508],[37.469029,48.567508],[37.469099,48.567587],[37.469154,48.567565],[37.469238,48.567532],[37.468969,48.567222],[37.468829,48.567279]]]}},{"type":"Feature","properties":{"cadnum":"1411746200:01:000:0051"},"geometry":{"type":"Polygon","coordinates":[[[37.469099,48.567587],[37.469128,48.567622],[37.469129,48.567622],[37.469602,48.568164],[37.469917,48.568524],[37.469934,48.568545],[37.470078,48.568488],[37.47006,48.568468],[37.469741,48.568108],[37.469238,48.567532],[37.469154,48.567565],[37.469099,48.567587]]]}},{"type":"Feature","properties":{"cadnum":"1411746200:01:000:0061"},"geometry":{"type":"Polygon","coordinates":[[[37.470621,48.567721],[37.47076,48.567915],[37.47077,48.567926],[37.470842,48.568019],[37.470917,48.56812],[37.471143,48.568028],[37.471169,48.568016],[37.471223,48.567971],[37.470999,48.567561],[37.470854,48.567622],[37.470621,48.567721]]]}},{"type":"Feature","properties":{"cadnum":"1411746200:01:000:0060"},"geometry":{"type":"Polygon","coordinates":[[[37.469351,48.567237],[37.469598,48.567508],[37.469613,48.567525],[37.469701,48.567622],[37.469952,48.567897],[37.46997,48.567915],[37.470037,48.56798],[37.470181,48.568158],[37.4702,48.568176],[37.470347,48.568116],[37.47033,48.568096],[37.470096,48.56784],[37.46989,48.567614],[37.469494,48.567177],[37.469351,48.567237]]]}},{"type":"Feature","properties":{"cadnum":"1411746200:01:000:0140"},"geometry":{"type":"Polygon","coordinates":[[[37.474839,48.572789],[37.474902,48.572955],[37.475265,48.572878],[37.475342,48.572863],[37.475324,48.572792],[37.475297,48.572696],[37.474839,48.572789]]]}},{"type":"Feature","properties":{"cadnum":"1411746200:01:000:0178"},"geometry":{"type":"Polygon","coordinates":[[[37.474997,48.573333],[37.475032,48.573511],[37.47536,48.57344],[37.475391,48.573249],[37.474997,48.573333]]]}},{"type":"Feature","properties":{"cadnum":"1411746200:02:000:0073"},"geometry":{"type":"Polygon","coordinates":[[[37.43313,48.578679],[37.433126,48.578694],[37.433126,48.578718],[37.433121,48.578834],[37.433144,48.579057],[37.433184,48.57905],[37.433238,48.579044],[37.43331,48.579035],[37.433656,48.578967],[37.433692,48.578676],[37.43313,48.578679]],[[37.433193,48.579035],[37.433184,48.579018],[37.433184,48.579017],[37.433211,48.579011],[37.433216,48.57903],[37.433193,48.579035]]]}},{"type":"Feature","properties":{"cadnum":"1411746200:01:000:0013"},"geometry":{"type":"Polygon","coordinates":[[[37.451847,48.572777],[37.451856,48.572797],[37.452179,48.573303],[37.452307,48.573262],[37.452307,48.573263],[37.452476,48.573208],[37.452139,48.572709],[37.452126,48.572687],[37.451847,48.572777]]]}},{"type":"Feature","properties":{"cadnum":"1411746200:01:000:0155"},"geometry":{"type":"Polygon","coordinates":[[[37.448864,48.573683],[37.449,48.57393],[37.449193,48.574284],[37.449434,48.574185],[37.449246,48.573832],[37.44913,48.573606],[37.449067,48.573624],[37.449008,48.573642],[37.44895,48.573656],[37.448874,48.57368],[37.448864,48.573683]]]}},{"type":"Feature","properties":{"cadnum":"1411746200:01:000:0006"},"geometry":{"type":"Polygon","coordinates":[[[37.451573,48.573632],[37.451761,48.573907],[37.451937,48.574156],[37.451941,48.574165],[37.452197,48.574094],[37.452187,48.574081],[37.452017,48.573832],[37.451833,48.573555],[37.451698,48.573597],[37.451573,48.573632]]]}},{"type":"Feature","properties":{"cadnum":"1411746200:01:000:0092"},"geometry":{"type":"Polygon","coordinates":[[[37.452179,48.573303],[37.45222,48.573365],[37.452478,48.573284],[37.45252,48.57327],[37.452476,48.573208],[37.452179,48.573303]]]}},{"type":"Feature","properties":{"cadnum":"1411746200:01:000:0182"},"geometry":{"type":"Polygon","coordinates":[[[37.450028,48.574429],[37.450042,48.57445],[37.45027,48.574724],[37.450463,48.574652],[37.450782,48.574533],[37.450724,48.574468],[37.450585,48.57431],[37.450553,48.57429],[37.450468,48.574304],[37.45018,48.574385],[37.450028,48.574429]]]}},{"type":"Feature","properties":{"cadnum":"1411746200:01:000:0011"},"geometry":{"type":"Polygon","coordinates":[[[37.450948,48.572979],[37.451051,48.573149],[37.451334,48.573615],[37.451577,48.573535],[37.451298,48.573081],[37.451191,48.572905],[37.450948,48.572979]]]}},{"type":"Feature","properties":{"cadnum":"1411746200:01:000:0184"},"geometry":{"type":"Polygon","coordinates":[[[37.451011,48.573704],[37.451245,48.574066],[37.451338,48.574215],[37.451367,48.574254],[37.4516,48.574189],[37.451573,48.574147],[37.451478,48.574002],[37.451235,48.573632],[37.451164,48.573656],[37.451011,48.573704]]]}},{"type":"Feature","properties":{"cadnum":"1411746200:01:000:0251"},"geometry":{"type":"Polygon","coordinates":[[[37.452363,48.574284],[37.452478,48.574461],[37.452516,48.574519],[37.452619,48.574676],[37.452637,48.574696],[37.452898,48.574563],[37.452885,48.574539],[37.452781,48.574381],[37.452629,48.57415],[37.452363,48.574284]]]}},{"type":"Feature","properties":{"cadnum":"1411746200:01:000:0263"},"geometry":{"type":"Polygon","coordinates":[[[37.450598,48.574804],[37.450667,48.574892],[37.450931,48.575226],[37.451097,48.575436],[37.451312,48.575339],[37.451145,48.575128],[37.450895,48.574812],[37.450818,48.574715],[37.450662,48.574778],[37.450661,48.574778],[37.450599,48.574804],[37.450598,48.574804]]]}},{"type":"Feature","properties":{"cadnum":"1411746200:05:000:0034"},"geometry":{"type":"Polygon","coordinates":[[[37.409154,48.562258],[37.40924,48.562458],[37.409703,48.562392],[37.410232,48.562317],[37.410152,48.562119],[37.409621,48.562193],[37.409154,48.562258]]]}},{"type":"Feature","properties":{"cadnum":"1411746200:05:000:0037"},"geometry":{"type":"Polygon","coordinates":[[[37.408615,48.561051],[37.408714,48.56128],[37.409469,48.561185],[37.409374,48.560956],[37.408615,48.561051]]]}},{"type":"Feature","properties":{"cadnum":"1411746200:05:000:0033"},"geometry":{"type":"Polygon","coordinates":[[[37.406787,48.556694],[37.406796,48.556716],[37.406797,48.556716],[37.40685,48.556839],[37.4069,48.556963],[37.407259,48.556904],[37.407439,48.556877],[37.407959,48.556794],[37.407883,48.556602],[37.407882,48.556602],[37.407852,48.556524],[37.407361,48.556602],[37.406787,48.556694]]]}},{"type":"Feature","properties":{"cadnum":"1411746200:05:000:0035"},"geometry":{"type":"Polygon","coordinates":[[[37.406626,48.556253],[37.406657,48.556337],[37.406674,48.556375],[37.406737,48.556533],[37.407282,48.55645],[37.407169,48.55617],[37.406626,48.556253]]]}},{"type":"Feature","properties":{"cadnum":"1411746200:05:000:0032"},"geometry":{"type":"Polygon","coordinates":[[[37.405108,48.555956],[37.405202,48.556236],[37.405341,48.556203],[37.405817,48.556084],[37.406212,48.555985],[37.406104,48.555709],[37.405732,48.555802],[37.405188,48.555936],[37.405108,48.555956]]]}},{"type":"Feature","properties":{"cadnum":"1411746200:01:000:0031"},"geometry":{"type":"Polygon","coordinates":[[[37.470343,48.583847],[37.470393,48.584034],[37.470837,48.583997],[37.471012,48.583983],[37.471219,48.583965],[37.471299,48.583956],[37.471309,48.583956],[37.471345,48.58395],[37.471322,48.583896],[37.471309,48.583858],[37.471277,48.583769],[37.471273,48.583769],[37.471242,48.583772],[37.470927,48.583799],[37.470927,48.583792],[37.470797,48.583805],[37.470343,48.583847]]]}},{"type":"Feature","properties":{"cadnum":"1411746200:01:000:0189"},"geometry":{"type":"Polygon","coordinates":[[[37.470456,48.583418],[37.470464,48.583579],[37.471169,48.583532],[37.471183,48.583532],[37.471169,48.583362],[37.471143,48.583362],[37.470456,48.583418]]]}},{"type":"Feature","properties":{"cadnum":"1411746200:01:000:0166"},"geometry":{"type":"Polygon","coordinates":[[[37.472427,48.583792],[37.472468,48.58398],[37.472674,48.583965],[37.472624,48.583781],[37.472427,48.583792]]]}},{"type":"Feature","properties":{"cadnum":"1411746200:01:000:0275"},"geometry":{"type":"Polygon","coordinates":[[[37.471456,48.583041],[37.471506,48.583041],[37.471552,48.583038],[37.471704,48.583041],[37.471865,48.583044],[37.472615,48.583002],[37.47262,48.582857],[37.471843,48.582896],[37.471772,48.582902],[37.471668,48.582907],[37.471533,48.582922],[37.471493,48.582922],[37.471456,48.583041]]]}},{"type":"Feature","properties":{"cadnum":"1411746200:01:000:0125"},"geometry":{"type":"Polygon","coordinates":[[[37.473016,48.584206],[37.473074,48.584408],[37.473622,48.584358],[37.473743,48.584349],[37.473936,48.584325],[37.473968,48.584321],[37.473923,48.584129],[37.473886,48.584131],[37.473626,48.584155],[37.473016,48.584206]]]}},{"type":"Feature","properties":{"cadnum":"1411746200:01:000:0162"},"geometry":{"type":"Polygon","coordinates":[[[37.471538,48.582777],[37.471928,48.582753],[37.472162,48.582738],[37.472242,48.582453],[37.471938,48.582462],[37.471615,48.582473],[37.471538,48.582777]]]}},{"type":"Feature","properties":{"cadnum":"1411746200:01:000:0253"},"geometry":{"type":"Polygon","coordinates":[[[37.47262,48.582857],[37.473393,48.582818],[37.47394,48.582788],[37.473982,48.582786],[37.473986,48.582669],[37.473955,48.582673],[37.473402,48.582705],[37.47263,48.58275],[37.47262,48.582857]]]}},{"type":"Feature","properties":{"cadnum":"1411746200:01:000:0100"},"geometry":{"type":"Polygon","coordinates":[[[37.469854,48.583704],[37.469875,48.583887],[37.469988,48.583876],[37.47028,48.583852],[37.470248,48.583668],[37.469854,48.583704]]]}},{"type":"Feature","properties":{"cadnum":"1411746200:01:000:0102"},"geometry":{"type":"Polygon","coordinates":[[[37.469988,48.583876],[37.470037,48.584063],[37.470393,48.584034],[37.470343,48.583847],[37.47028,48.583852],[37.469988,48.583876]]]}},{"type":"Feature","properties":{"cadnum":"1411746200:01:000:0030"},"geometry":{"type":"Polygon","coordinates":[[[37.470248,48.583668],[37.47028,48.583852],[37.470343,48.583847],[37.470797,48.583805],[37.470927,48.583793],[37.470927,48.583799],[37.471242,48.583772],[37.471273,48.583769],[37.471219,48.583585],[37.471187,48.583588],[37.471039,48.5836],[37.470896,48.583612],[37.470873,48.583614],[37.470248,48.583668]]]}},{"type":"Feature","properties":{"cadnum":"1411746200:01:000:0033"},"geometry":{"type":"Polygon","coordinates":[[[37.470864,48.584684],[37.470927,48.584869],[37.471556,48.584776],[37.471825,48.584735],[37.471753,48.584515],[37.471735,48.584517],[37.471479,48.584547],[37.471493,48.584595],[37.471492,48.584595],[37.470864,48.584684]]]}},{"type":"Feature","properties":{"cadnum":"1411746200:01:000:0084"},"geometry":{"type":"Polygon","coordinates":[[[37.470334,48.584235],[37.47041,48.584402],[37.471106,48.58433],[37.471179,48.584321],[37.471299,48.58431],[37.47143,48.584295],[37.471479,48.584289],[37.471408,48.584131],[37.471322,48.584138],[37.471219,48.584149],[37.471066,48.584164],[37.470334,48.584235]]]}},{"type":"Feature","properties":{"cadnum":"1411746200:01:000:0180"},"geometry":{"type":"Polygon","coordinates":[[[37.471143,48.585522],[37.4712,48.585695],[37.471704,48.585617],[37.472104,48.585558],[37.472045,48.585389],[37.471645,48.585448],[37.471143,48.585522]]]}},{"type":"Feature","properties":{"cadnum":"1411746200:01:000:0163"},"geometry":{"type":"Polygon","coordinates":[[[37.472162,48.582738],[37.472678,48.582708],[37.472718,48.582438],[37.472242,48.582453],[37.472162,48.582738]]]}},{"type":"Feature","properties":{"cadnum":"1411746200:01:000:0304"},"geometry":{"type":"Polygon","coordinates":[[[37.472944,48.583344],[37.473667,48.583285],[37.473752,48.583275],[37.473806,48.583056],[37.47377,48.583059],[37.472944,48.583124],[37.472944,48.583344]]]}},{"type":"Feature","properties":{"cadnum":"1411746200:01:000:0126"},"geometry":{"type":"Polygon","coordinates":[[[37.47289,48.584217],[37.472948,48.584417],[37.473074,48.584408],[37.473016,48.584206],[37.47289,48.584217]]]}},{"type":"Feature","properties":{"cadnum":"1411746200:01:000:0291"},"geometry":{"type":"Polygon","coordinates":[[[37.473284,48.58483],[37.473339,48.58505],[37.474116,48.584972],[37.474152,48.584966],[37.474102,48.58475],[37.474066,48.584752],[37.473284,48.58483]]]}},{"type":"Feature","properties":{"cadnum":"1411746200:01:000:0309"},"geometry":{"type":"Polygon","coordinates":[[[37.473294,48.585079],[37.473343,48.585281],[37.47421,48.585201],[37.474161,48.58499],[37.473294,48.585079]]]}},{"type":"Feature","properties":{"cadnum":"1411746200:01:000:0165"},"geometry":{"type":"Polygon","coordinates":[[[37.472624,48.583781],[37.472674,48.583965],[37.473299,48.583915],[37.473662,48.583885],[37.473617,48.583709],[37.473271,48.583733],[37.472624,48.583781]]]}},{"type":"Feature","properties":{"cadnum":"1411746200:01:000:0220"},"geometry":{"type":"Polygon","coordinates":[[[37.472305,48.585486],[37.472351,48.585593],[37.472387,48.58559],[37.472844,48.585549],[37.473397,48.585495],[37.473384,48.585389],[37.472808,48.585453],[37.472768,48.585457],[37.472741,48.585459],[37.472705,48.585462],[37.472508,48.585457],[37.472508,48.585448],[37.472498,48.585448],[37.472481,48.585451],[37.472481,48.585457],[37.472337,48.585481],[37.472305,48.585486]]]}},{"type":"Feature","properties":{"cadnum":"1411746200:01:000:0175"},"geometry":{"type":"Polygon","coordinates":[[[37.457088,48.574064],[37.457273,48.574254],[37.457267,48.574257],[37.457313,48.574304],[37.457516,48.574509],[37.457726,48.574423],[37.457542,48.574194],[37.457353,48.573963],[37.457088,48.574064]]]}},{"type":"Feature","properties":{"cadnum":"1411746200:01:000:0288"},"geometry":{"type":"Polygon","coordinates":[[[37.455179,48.573615],[37.455346,48.57377],[37.455728,48.57412],[37.456019,48.573984],[37.455583,48.573687],[37.455552,48.57366],[37.455386,48.573523],[37.455179,48.573615]]]}},{"type":"Feature","properties":{"cadnum":"1411746200:01:000:0143"},"geometry":{"type":"Polygon","coordinates":[[[37.454784,48.573805],[37.454896,48.573957],[37.454933,48.574007],[37.455193,48.574364],[37.455453,48.574266],[37.45522,48.57396],[37.455162,48.573885],[37.455017,48.573698],[37.454784,48.573805]]]}},{"type":"Feature","properties":{"cadnum":"1411746200:01:000:0181"},"geometry":{"type":"Polygon","coordinates":[[[37.454914,48.572896],[37.455149,48.573154],[37.455319,48.573348],[37.455619,48.573214],[37.45544,48.573026],[37.455197,48.572771],[37.454914,48.572896]]]}},{"type":"Feature","properties":{"cadnum":"1411746200:01:000:0265"},"geometry":{"type":"Polygon","coordinates":[[[37.455139,48.572224],[37.455723,48.572843],[37.455929,48.573057],[37.456095,48.57297],[37.455879,48.572762],[37.455265,48.572156],[37.455139,48.572224]]]}},{"type":"Feature","properties":{"cadnum":"1411746200:01:000:0284"},"geometry":{"type":"Polygon","coordinates":[[[37.456455,48.572925],[37.456478,48.572943],[37.456604,48.573039],[37.456734,48.573125],[37.456828,48.57319],[37.456958,48.573277],[37.457227,48.573039],[37.456936,48.572884],[37.456724,48.572774],[37.456612,48.572839],[37.456455,48.572925]]]}},{"type":"Feature","properties":{"cadnum":"1411746200:01:000:0285"},"geometry":{"type":"Polygon","coordinates":[[[37.468995,48.577793],[37.469009,48.578013],[37.469355,48.577989],[37.469808,48.577954],[37.46984,48.577954],[37.469827,48.577734],[37.469795,48.577737],[37.469315,48.57777],[37.468995,48.577793]]]}},{"type":"Feature","properties":{"cadnum":"1411746200:01:000:0080"},"geometry":{"type":"Polygon","coordinates":[[[37.467514,48.575187],[37.46785,48.576911],[37.467864,48.576997],[37.467881,48.577086],[37.467967,48.57708],[37.46816,48.577071],[37.468173,48.577113],[37.468183,48.577149],[37.468206,48.577231],[37.46834,48.577223],[37.468786,48.5772],[37.468888,48.577195],[37.468958,48.577191],[37.469089,48.577184],[37.469764,48.577145],[37.469759,48.577121],[37.46975,48.577086],[37.469651,48.576605],[37.469638,48.576546],[37.469561,48.576156],[37.469548,48.576099],[37.469341,48.575089],[37.468786,48.57512],[37.467514,48.575187]],[[37.468519,48.576896],[37.468523,48.576938],[37.468452,48.576938],[37.468452,48.576896],[37.468519,48.576896]],[[37.468106,48.576379],[37.468336,48.576367],[37.468344,48.57642],[37.468393,48.576768],[37.468164,48.57678],[37.468106,48.576379]]]}},{"type":"Feature","properties":{"cadnum":"1411746200:01:000:0290"},"geometry":{"type":"Polygon","coordinates":[[[37.469814,48.576129],[37.469818,48.57615],[37.469822,48.576185],[37.46984,48.576308],[37.469875,48.576308],[37.470158,48.576286],[37.470653,48.576254],[37.470626,48.576075],[37.470123,48.576108],[37.46997,48.576117],[37.469848,48.576126],[37.469814,48.576129]]]}},{"type":"Feature","properties":{"cadnum":"1411746200:01:000:0299"},"geometry":{"type":"Polygon","coordinates":[[[37.470976,48.575199],[37.471003,48.575374],[37.471753,48.5753],[37.471789,48.575297],[37.471749,48.575167],[37.471735,48.575134],[37.471699,48.575137],[37.470976,48.575199]]]}},{"type":"Feature","properties":{"cadnum":"1411746200:01:000:0073"},"geometry":{"type":"Polygon","coordinates":[[[37.472122,48.575725],[37.472148,48.575859],[37.472185,48.575856],[37.472953,48.575799],[37.472988,48.575639],[37.472531,48.575689],[37.472225,48.575711],[37.472225,48.575716],[37.472189,48.575719],[37.472131,48.575725],[37.472122,48.575725]]]}},{"type":"Feature","properties":{"cadnum":"1411746200:01:000:0287"},"geometry":{"type":"Polygon","coordinates":[[[37.472521,48.57826],[37.472548,48.57826],[37.473177,48.578222],[37.473209,48.57793],[37.472823,48.577966],[37.472553,48.577989],[37.472521,48.57826]]]}},{"type":"Feature","properties":{"cadnum":"1411746200:01:000:0077"},"geometry":{"type":"Polygon","coordinates":[[[37.472284,48.576438],[37.472319,48.576577],[37.472368,48.576575],[37.473209,48.576506],[37.473213,48.576367],[37.472315,48.576436],[37.472301,48.576436],[37.472284,48.576438]]]}},{"type":"Feature","properties":{"cadnum":"1411746200:01:000:0036"},"geometry":{"type":"Polygon","coordinates":[[[37.469822,48.57631],[37.469827,48.576343],[37.469831,48.576376],[37.469844,48.576489],[37.469881,48.576489],[37.470168,48.576465],[37.470653,48.576432],[37.47063,48.576254],[37.470158,48.576286],[37.469854,48.576308],[37.469822,48.57631]]]}},{"type":"Feature","properties":{"cadnum":"1411746200:01:000:0292"},"geometry":{"type":"Polygon","coordinates":[[[37.469898,48.576854],[37.46993,48.577042],[37.469961,48.577042],[37.470743,48.577],[37.470711,48.576821],[37.469934,48.576852],[37.469898,48.576854]]]}},{"type":"Feature","properties":{"cadnum":"1411746200:01:000:0164"},"geometry":{"type":"Polygon","coordinates":[[[37.470047,48.577844],[37.470064,48.578026],[37.470294,48.578016],[37.470864,48.577993],[37.47086,48.577814],[37.470276,48.577835],[37.470047,48.577844]]]}},{"type":"Feature","properties":{"cadnum":"1411746200:01:000:0039"},"geometry":{"type":"Polygon","coordinates":[[[37.470567,48.575184],[37.470607,48.575396],[37.47064,48.575392],[37.471003,48.575374],[37.470972,48.575193],[37.470967,48.575158],[37.470603,48.575181],[37.470567,48.575184]]]}},{"type":"Feature","properties":{"cadnum":"1411746200:01:000:0209"},"geometry":{"type":"Polygon","coordinates":[[[37.469844,48.576489],[37.469858,48.576566],[37.469871,48.576664],[37.469907,48.576664],[37.470158,48.576647],[37.470204,48.576643],[37.470253,48.57664],[37.470284,48.57664],[37.470684,48.576623],[37.470653,48.576432],[37.470168,48.576465],[37.469881,48.576489],[37.469844,48.576489]]]}},{"type":"Feature","properties":{"cadnum":"1411746200:01:000:0313"},"geometry":{"type":"Polygon","coordinates":[[[37.470967,48.575154],[37.470976,48.575199],[37.471699,48.575134],[37.471735,48.575134],[37.471676,48.574971],[37.471645,48.574976],[37.471565,48.574985],[37.471448,48.574991],[37.470976,48.575024],[37.470994,48.575151],[37.470994,48.575152],[37.470967,48.575154]]]}},{"type":"Feature","properties":{"cadnum":"1411746200:01:000:0277"},"geometry":{"type":"Polygon","coordinates":[[[37.468439,48.567816],[37.468786,48.568191],[37.468858,48.568267],[37.468958,48.568376],[37.468958,48.568375],[37.468991,48.568411],[37.469189,48.568631],[37.469206,48.568649],[37.469351,48.568587],[37.469332,48.568568],[37.469144,48.568349],[37.468958,48.568136],[37.468613,48.567742],[37.468439,48.567816]]]}},{"type":"Feature","properties":{"cadnum":"1411746200:01:000:0312"},"geometry":{"type":"Polygon","coordinates":[[[37.468743,48.569345],[37.468786,48.569418],[37.468882,48.569582],[37.468958,48.569712],[37.469032,48.569838],[37.469135,48.570022],[37.469152,48.570052],[37.469166,48.570048],[37.469189,48.570037],[37.469386,48.569957],[37.469368,48.569924],[37.469269,48.569779],[37.468955,48.56929],[37.468743,48.569345]]]}},{"type":"Feature","properties":{"cadnum":"1411746200:01:000:0300"},"geometry":{"type":"Polygon","coordinates":[[[37.469737,48.570266],[37.469777,48.570352],[37.469768,48.570352],[37.469818,48.570438],[37.469858,48.570423],[37.470091,48.570325],[37.470554,48.570162],[37.470388,48.569936],[37.469925,48.570141],[37.469881,48.570182],[37.469818,48.570209],[37.469759,48.57023],[37.469737,48.570266]]]}},{"type":"Feature","properties":{"cadnum":"1411746200:01:000:0194"},"geometry":{"type":"Polygon","coordinates":[[[37.470334,48.571024],[37.470428,48.571187],[37.470491,48.571172],[37.470846,48.571089],[37.47121,48.571002],[37.471133,48.570854],[37.470703,48.570946],[37.470406,48.571009],[37.470343,48.571021],[37.470334,48.571024]]]}},{"type":"Feature","properties":{"cadnum":"1411746200:01:000:0118"},"geometry":{"type":"Polygon","coordinates":[[[37.472435,48.568854],[37.472548,48.568982],[37.474273,48.568354],[37.474133,48.5682],[37.472435,48.568854]]]}},{"type":"Feature","properties":{"cadnum":"1411746200:01:000:0101"},"geometry":{"type":"Polygon","coordinates":[[[37.472148,48.570156],[37.472252,48.570295],[37.472674,48.570212],[37.47294,48.570165],[37.473424,48.570078],[37.473321,48.569938],[37.472877,48.570019],[37.472525,48.570085],[37.472148,48.570156]]]}},{"type":"Feature","properties":{"cadnum":"1411746200:01:000:0150"},"geometry":{"type":"Polygon","coordinates":[[[37.473321,48.569938],[37.473424,48.570078],[37.474349,48.569912],[37.474246,48.569772],[37.473321,48.569938]]]}},{"type":"Feature","properties":{"cadnum":"1411746200:01:000:0055"},"geometry":{"type":"Polygon","coordinates":[[[37.471781,48.569662],[37.471848,48.569742],[37.473263,48.569299],[37.473146,48.56918],[37.471781,48.569662]]]}},{"type":"Feature","properties":{"cadnum":"1411746200:01:000:0158"},"geometry":{"type":"Polygon","coordinates":[[[37.471812,48.569882],[37.471902,48.569995],[37.471932,48.569986],[37.472072,48.569953],[37.472441,48.569889],[37.473127,48.569728],[37.473056,48.569594],[37.472481,48.569731],[37.472221,48.569779],[37.471982,48.569834],[37.471843,48.569873],[37.471812,48.569882]]]}},{"type":"Feature","properties":{"cadnum":"1411746200:01:000:0303"},"geometry":{"type":"Polygon","coordinates":[[[37.469732,48.569107],[37.469965,48.569472],[37.470068,48.569621],[37.470087,48.569642],[37.470361,48.569526],[37.470343,48.569504],[37.470173,48.569273],[37.47006,48.569124],[37.469984,48.569023],[37.469732,48.569107]]]}},{"type":"Feature","properties":{"cadnum":"1411746200:01:000:0196"},"geometry":{"type":"Polygon","coordinates":[[[37.470271,48.570893],[37.470343,48.571021],[37.470406,48.571009],[37.470703,48.570946],[37.471133,48.570854],[37.471057,48.570706],[37.470599,48.570815],[37.47033,48.570881],[37.470271,48.570893]]]}},{"type":"Feature","properties":{"cadnum":"1411746200:01:000:0191"},"geometry":{"type":"Polygon","coordinates":[[[37.469997,48.568904],[37.470127,48.569068],[37.470531,48.56892],[37.470766,48.56883],[37.470819,48.568812],[37.47067,48.568649],[37.470621,48.568669],[37.470388,48.568755],[37.469997,48.568904]]]}},{"type":"Feature","properties":{"cadnum":"1411746200:01:000:0185"},"geometry":{"type":"Polygon","coordinates":[[[37.470783,48.568477],[37.470923,48.56864],[37.470976,48.568619],[37.471232,48.568503],[37.471749,48.568272],[37.471552,48.568129],[37.47107,48.568345],[37.470837,48.568453],[37.470783,48.568477]]]}},{"type":"Feature","properties":{"cadnum":"1411746200:01:000:0041"},"geometry":{"type":"Polygon","coordinates":[[[37.470684,48.568358],[37.470783,48.568477],[37.471116,48.568325],[37.47121,48.568283],[37.471802,48.568013],[37.471645,48.567882],[37.470986,48.568209],[37.470684,48.568358]]]}},{"type":"Feature","properties":{"cadnum":"1411746200:01:000:0298"},"geometry":{"type":"Polygon","coordinates":[[[37.470653,48.5702],[37.470739,48.57034],[37.47138,48.570257],[37.471475,48.570248],[37.471619,48.570233],[37.471848,48.570206],[37.471861,48.5702],[37.471898,48.570194],[37.471808,48.570076],[37.471781,48.570046],[37.471772,48.570034],[37.471739,48.570039],[37.471483,48.570085],[37.471326,48.570108],[37.470653,48.5702]]]}},{"type":"Feature","properties":{"cadnum":"1411746200:01:000:0054"},"geometry":{"type":"Polygon","coordinates":[[[37.471318,48.569297],[37.471412,48.569407],[37.471713,48.569294],[37.471843,48.56924],[37.472548,48.568982],[37.472435,48.568854],[37.471735,48.569121],[37.471686,48.569142],[37.471628,48.569166],[37.471552,48.569195],[37.471456,48.569231],[37.471318,48.569297]]]}},{"type":"Feature","properties":{"cadnum":"1411746200:04:000:0019"},"geometry":{"type":"Polygon","coordinates":[[[37.447719,48.607985],[37.447962,48.607997],[37.447962,48.607893],[37.447719,48.60789],[37.447719,48.607985]]]}},{"type":"Feature","properties":{"cadnum":"1411746200:04:000:0018"},"geometry":{"type":"Polygon","coordinates":[[[37.447719,48.60789],[37.447962,48.607893],[37.447965,48.607592],[37.447966,48.607592],[37.447975,48.606931],[37.447979,48.60664],[37.447736,48.606625],[37.447732,48.606918],[37.447724,48.607478],[37.447719,48.60789]]]}},{"type":"Feature","properties":{"cadnum":"1411746200:04:000:0030"},"geometry":{"type":"Polygon","coordinates":[[[37.447826,48.60865],[37.448088,48.608692],[37.448092,48.608558],[37.448114,48.60795],[37.447962,48.607944],[37.447962,48.607997],[37.447961,48.607997],[37.44784,48.607991],[37.447826,48.608543],[37.447826,48.60865]]]}},{"type":"Feature","properties":{"cadnum":"1411746200:04:000:0039"},"geometry":{"type":"Polygon","coordinates":[[[37.449942,48.60904],[37.450311,48.609099],[37.450386,48.608917],[37.45049,48.60868],[37.450055,48.608597],[37.449996,48.60884],[37.449942,48.60904]]]}},{"type":"Feature","properties":{"cadnum":"1411746200:04:000:0028"},"geometry":{"type":"Polygon","coordinates":[[[37.447732,48.609538],[37.448019,48.60958],[37.448088,48.609188],[37.448132,48.608917],[37.447831,48.608873],[37.447791,48.609143],[37.447732,48.609538]]]}},{"type":"Feature","properties":{"cadnum":"1411746200:01:000:0310"},"geometry":{"type":"Polygon","coordinates":[[[37.449017,48.577467],[37.449165,48.577966],[37.449174,48.577987],[37.449543,48.577823],[37.449524,48.577802],[37.449457,48.577725],[37.449287,48.577354],[37.449071,48.577445],[37.449017,48.577467]]]}},{"type":"Feature","properties":{"cadnum":"1411746200:01:000:0131"},"geometry":{"type":"Polygon","coordinates":[[[37.449044,48.576724],[37.449147,48.576866],[37.449296,48.57719],[37.449646,48.577044],[37.44947,48.576786],[37.449327,48.576599],[37.449313,48.576577],[37.449044,48.576724]]]}},{"type":"Feature","properties":{"cadnum":"1411746200:01:000:0306"},"geometry":{"type":"Polygon","coordinates":[[[37.447099,48.575838],[37.447422,48.576213],[37.448168,48.576852],[37.448267,48.576801],[37.447459,48.576055],[37.447229,48.575788],[37.447099,48.575838]]]}},{"type":"Feature","properties":{"cadnum":"1411746200:01:000:0134"},"geometry":{"type":"Polygon","coordinates":[[[37.449034,48.577372],[37.449071,48.577445],[37.449287,48.577354],[37.449354,48.577324],[37.449323,48.577249],[37.449034,48.577372]]]}},{"type":"Feature","properties":{"cadnum":"1411746200:01:000:0264"},"geometry":{"type":"Polygon","coordinates":[[[37.448447,48.576955],[37.448613,48.577398],[37.448994,48.577286],[37.448868,48.577011],[37.448784,48.576834],[37.448545,48.57692],[37.448447,48.576955]]]}},{"type":"Feature","properties":{"cadnum":"1411746200:01:000:0129"},"geometry":{"type":"Polygon","coordinates":[[[37.449021,48.578126],[37.44904,48.578147],[37.44921,48.578325],[37.449296,48.578412],[37.449333,48.57845],[37.449409,48.578526],[37.449529,48.578647],[37.449785,48.578537],[37.449761,48.578513],[37.449309,48.578061],[37.449291,48.578043],[37.449021,48.578126]]]}},{"type":"Feature","properties":{"cadnum":"1411746200:01:000:0132"},"geometry":{"type":"Polygon","coordinates":[[[37.449296,48.57719],[37.449323,48.577249],[37.449354,48.577324],[37.449529,48.577253],[37.44973,48.577172],[37.449646,48.577044],[37.449296,48.57719]]]}},{"type":"Feature","properties":{"cadnum":"1411746200:01:000:0279"},"geometry":{"type":"Polygon","coordinates":[[[37.449677,48.575389],[37.449929,48.575656],[37.450113,48.57585],[37.450126,48.575865],[37.450386,48.575749],[37.450373,48.575734],[37.450199,48.575541],[37.450153,48.575491],[37.449969,48.575268],[37.449677,48.575389]]]}},{"type":"Feature","properties":{"cadnum":"1411746200:01:000:0157"},"geometry":{"type":"Polygon","coordinates":[[[37.450832,48.575704],[37.451021,48.575865],[37.451101,48.575933],[37.451518,48.576284],[37.451676,48.5762],[37.451245,48.575841],[37.451174,48.575779],[37.450988,48.575624],[37.450832,48.575704]]]}},{"type":"Feature","properties":{"cadnum":"1411746200:01:000:0269"},"geometry":{"type":"Polygon","coordinates":[[[37.449566,48.577927],[37.449587,48.577947],[37.449807,48.578153],[37.450032,48.578367],[37.450248,48.578257],[37.449956,48.577984],[37.449803,48.577841],[37.449776,48.577817],[37.449566,48.577927]]]}},{"type":"Feature","properties":{"cadnum":"1411746200:00:000:0142"},"geometry":{"type":"Polygon","coordinates":[[[37.450684,48.575779],[37.450809,48.5759],[37.450904,48.575989],[37.451344,48.576412],[37.45155,48.57631],[37.451021,48.575865],[37.450971,48.575823],[37.450832,48.575704],[37.450684,48.575779]]]}},{"type":"Feature","properties":{"cadnum":"1411746200:01:000:0133"},"geometry":{"type":"Polygon","coordinates":[[[37.448784,48.576834],[37.448868,48.577011],[37.448994,48.577286],[37.449034,48.577372],[37.449323,48.577249],[37.449296,48.57719],[37.449147,48.576866],[37.449044,48.576724],[37.448784,48.576834]]]}},{"type":"Feature","properties":{"cadnum":"1411746200:05:000:0015"},"geometry":{"type":"Polygon","coordinates":[[[37.405439,48.558201],[37.405605,48.558572],[37.406324,48.55842],[37.406177,48.558078],[37.405439,48.558201]]]}},{"type":"Feature","properties":{"cadnum":"1411746200:05:000:0036"},"geometry":{"type":"Polygon","coordinates":[[[37.407295,48.557912],[37.40733,48.558005],[37.407344,48.558037],[37.407412,48.558183],[37.407433,48.55818],[37.407775,48.558124],[37.408427,48.558031],[37.408337,48.557743],[37.40773,48.557838],[37.407295,48.557912]]]}},{"type":"Feature","properties":{"cadnum":"1411746200:05:000:0018"},"geometry":{"type":"Polygon","coordinates":[[[37.405121,48.559238],[37.405242,48.559514],[37.406527,48.559268],[37.40641,48.558991],[37.405121,48.559238]]]}},{"type":"Feature","properties":{"cadnum":"1411746200:05:000:0011"},"geometry":{"type":"Polygon","coordinates":[[[37.40641,48.558991],[37.406527,48.559268],[37.406936,48.559191],[37.407546,48.559074],[37.407425,48.558798],[37.406814,48.558914],[37.40641,48.558991]]]}},{"type":"Feature","properties":{"cadnum":"1411746200:05:000:0007"},"geometry":{"type":"Polygon","coordinates":[[[37.406177,48.558078],[37.406324,48.55842],[37.406999,48.558278],[37.407183,48.558236],[37.407047,48.55793],[37.406859,48.557963],[37.406177,48.558078]]]}},{"type":"Feature","properties":{"cadnum":"1411746200:01:000:0307"},"geometry":{"type":"Polygon","coordinates":[[[37.47342,48.588769],[37.473496,48.588945],[37.473532,48.588939],[37.473622,48.588927],[37.473609,48.5889],[37.473699,48.588879],[37.473779,48.588864],[37.474148,48.588835],[37.474076,48.588686],[37.473739,48.588722],[37.473451,48.588763],[37.47342,48.588769]]]}},{"type":"Feature","properties":{"cadnum":"1411746200:01:000:0235"},"geometry":{"type":"Polygon","coordinates":[[[37.472697,48.58638],[37.472728,48.586536],[37.472764,48.586532],[37.473091,48.586514],[37.473334,48.586499],[37.473312,48.586345],[37.473119,48.586357],[37.472733,48.586378],[37.472697,48.58638]]]}},{"type":"Feature","properties":{"cadnum":"1411746200:04:000:0037"},"geometry":{"type":"Polygon","coordinates":[[[37.456177,48.610792],[37.456411,48.610807],[37.456445,48.610629],[37.456531,48.610215],[37.456294,48.6102],[37.456212,48.610614],[37.456177,48.610792]]]}},{"type":"Feature","properties":{"cadnum":"1411746200:03:000:0056"},"geometry":{"type":"Polygon","coordinates":[[[37.360995,48.56038],[37.361261,48.560421],[37.361315,48.560269],[37.361377,48.5601],[37.361499,48.559776],[37.361224,48.559731],[37.361094,48.560094],[37.361071,48.560174],[37.361063,48.560207],[37.361051,48.560238],[37.36105,48.560238],[37.361008,48.560347],[37.361006,48.560352],[37.361007,48.560352],[37.360995,48.56038]]]}},{"type":"Feature","properties":{"cadnum":"1411746200:01:000:0083"},"geometry":{"type":"Polygon","coordinates":[[[37.468906,48.57924],[37.469441,48.579214],[37.469741,48.579199],[37.469777,48.579196],[37.469795,48.579018],[37.469764,48.579018],[37.469427,48.579033],[37.469131,48.57905],[37.469112,48.57905],[37.468923,48.579062],[37.468906,48.57924]]]}},{"type":"Feature","properties":{"cadnum":"1411746200:01:000:0281"},"geometry":{"type":"Polygon","coordinates":[[[37.468982,48.58078],[37.469041,48.580964],[37.469634,48.580922],[37.469661,48.58092],[37.469804,48.580911],[37.469974,48.580898],[37.470007,48.580896],[37.469974,48.580715],[37.469938,48.580717],[37.469647,48.580735],[37.468982,48.58078]]]}},{"type":"Feature","properties":{"cadnum":"1411746200:01:000:0296"},"geometry":{"type":"Polygon","coordinates":[[[37.471825,48.581894],[37.471852,48.581891],[37.472881,48.581805],[37.472907,48.581651],[37.471879,48.581724],[37.471848,48.581728],[37.471825,48.581894]]]}},{"type":"Feature","properties":{"cadnum":"1411746200:01:000:0170"},"geometry":{"type":"Polygon","coordinates":[[[37.472091,48.580275],[37.472521,48.580245],[37.47294,48.580218],[37.472975,48.579936],[37.472773,48.579945],[37.472747,48.580079],[37.472746,48.580079],[37.472553,48.580088],[37.472118,48.580108],[37.472091,48.580275]]]}},{"type":"Feature","properties":{"cadnum":"1411746200:01:000:0211"},"geometry":{"type":"Polygon","coordinates":[[[37.472028,48.580563],[37.472059,48.580563],[37.472683,48.580509],[37.472751,48.580233],[37.472122,48.580271],[37.472091,48.580275],[37.472028,48.580563]]]}},{"type":"Feature","properties":{"cadnum":"1411746200:01:000:0032"},"geometry":{"type":"Polygon","coordinates":[[[37.472337,48.579128],[37.472374,48.579125],[37.473716,48.579062],[37.473743,48.578929],[37.472395,48.578991],[37.472364,48.578994],[37.472337,48.579128]]]}},{"type":"Feature","properties":{"cadnum":"1411746200:01:000:0297"},"geometry":{"type":"Polygon","coordinates":[[[37.471794,48.582037],[37.471829,48.582034],[37.472854,48.581938],[37.472881,48.581805],[37.471852,48.581891],[37.471825,48.581894],[37.471794,48.582037]]]}},{"type":"Feature","properties":{"cadnum":"1411746200:01:000:0156"},"geometry":{"type":"Polygon","coordinates":[[[37.472898,48.581921],[37.4743,48.581832],[37.474336,48.581564],[37.47293,48.581621],[37.472898,48.581921]]]}},{"type":"Feature","properties":{"cadnum":"1411746200:01:000:0262"},"geometry":{"type":"Polygon","coordinates":[[[37.469296,48.578649],[37.469301,48.578887],[37.469468,48.578875],[37.4698,48.578843],[37.469808,48.578601],[37.469462,48.578632],[37.469296,48.578649]]]}},{"type":"Feature","properties":{"cadnum":"1411746200:01:000:0302"},"geometry":{"type":"Polygon","coordinates":[[[37.471049,48.58163],[37.471089,48.581627],[37.471152,48.581621],[37.471569,48.581582],[37.471596,48.581579],[37.471655,48.581261],[37.471609,48.581264],[37.471089,48.581306],[37.471049,48.581308],[37.471049,48.58163]]]}},{"type":"Feature","properties":{"cadnum":"1411746200:01:000:0171"},"geometry":{"type":"Polygon","coordinates":[[[37.472118,48.580108],[37.472391,48.580096],[37.472747,48.580079],[37.472773,48.579945],[37.472414,48.57996],[37.472144,48.579971],[37.472118,48.580108]]]}},{"type":"Feature","properties":{"cadnum":"1411746200:01:000:0094"},"geometry":{"type":"Polygon","coordinates":[[[37.449673,48.57908],[37.450369,48.579154],[37.450463,48.578696],[37.44991,48.578673],[37.449799,48.578694],[37.449673,48.57908]]]}},{"type":"Feature","properties":{"cadnum":"1411746200:01:000:0015"},"geometry":{"type":"Polygon","coordinates":[[[37.449071,48.579011],[37.449673,48.57908],[37.449799,48.578694],[37.44961,48.578727],[37.449174,48.578795],[37.449071,48.579011]]]}},{"type":"Feature","properties":{"cadnum":"1411746200:01:000:0130"},"geometry":{"type":"Polygon","coordinates":[[[37.449529,48.578647],[37.44956,48.578676],[37.44982,48.578575],[37.449785,48.578537],[37.449529,48.578647]]]}},{"type":"Feature","properties":{"cadnum":"1411746200:01:000:0152"},"geometry":{"type":"Polygon","coordinates":[[[37.447809,48.580257],[37.447845,48.580462],[37.448182,48.580444],[37.448289,48.580441],[37.448717,48.58042],[37.44877,48.580215],[37.448258,48.580236],[37.448151,48.580242],[37.447809,48.580257]]]}},{"type":"Feature","properties":{"cadnum":"1411746200:04:000:0042"},"geometry":{"type":"Polygon","coordinates":[[[37.448123,48.607415],[37.448401,48.60743],[37.448451,48.607037],[37.448491,48.607037],[37.44851,48.606779],[37.448434,48.606762],[37.448191,48.606744],[37.448123,48.607415]]]}},{"type":"Feature","properties":{"cadnum":"1411746200:00:003:0019"},"geometry":{"type":"Polygon","coordinates":[[[37.359752,48.561134],[37.360066,48.561176],[37.360129,48.560962],[37.359815,48.56092],[37.359752,48.561134]]]}},{"type":"Feature","properties":{"cadnum":"1411746200:00:003:0010"},"geometry":{"type":"Polygon","coordinates":[[[37.359815,48.56092],[37.360129,48.560962],[37.360201,48.560718],[37.360222,48.560638],[37.360201,48.560636],[37.360201,48.560635],[37.360277,48.560385],[37.360125,48.560365],[37.359985,48.560344],[37.359886,48.560674],[37.359815,48.56092]]]}},{"type":"Feature","properties":{"cadnum":"1411746200:01:000:0173"},"geometry":{"type":"Polygon","coordinates":[[[37.464935,48.568479],[37.464961,48.568482],[37.464967,48.568464],[37.46494,48.568462],[37.464935,48.568479]]]}},{"type":"Feature","properties":{"cadnum":"1411746200:01:000:0308"},"geometry":{"type":"Polygon","coordinates":[[[37.466152,48.568735],[37.466215,48.568827],[37.466754,48.569564],[37.466822,48.569638],[37.466835,48.56966],[37.466984,48.569597],[37.466965,48.569576],[37.466915,48.569514],[37.466852,48.569436],[37.466319,48.568684],[37.466152,48.568735]]]}},{"type":"Feature","properties":{"cadnum":"1411746200:01:000:0294"},"geometry":{"type":"Polygon","coordinates":[[[37.467626,48.568616],[37.467846,48.568902],[37.467963,48.569026],[37.468034,48.569107],[37.468039,48.569118],[37.468047,48.569136],[37.468061,48.56913],[37.468133,48.569101],[37.468164,48.569085],[37.46833,48.569012],[37.468309,48.568991],[37.468309,48.56899],[37.468299,48.568979],[37.468196,48.568884],[37.468137,48.568845],[37.46789,48.56855],[37.467877,48.56853],[37.467626,48.568616]]]}},{"type":"Feature","properties":{"cadnum":"1411746200:01:000:0282"},"geometry":{"type":"Polygon","coordinates":[[[37.466764,48.568518],[37.467204,48.569169],[37.467271,48.569246],[37.467418,48.569383],[37.467437,48.5694],[37.46759,48.569332],[37.467571,48.569312],[37.467361,48.569101],[37.466929,48.568468],[37.466764,48.568518]]]}},{"type":"Feature","properties":{"cadnum":"1411746200:01:000:0057"},"geometry":{"type":"Polygon","coordinates":[[[37.46789,48.56855],[37.468137,48.568845],[37.468196,48.568884],[37.468299,48.568979],[37.468309,48.56899],[37.46833,48.569012],[37.468605,48.56888],[37.468582,48.568863],[37.468573,48.568856],[37.468389,48.568687],[37.468192,48.568426],[37.46789,48.56855]]]}},{"type":"Feature","properties":{"cadnum":"1411746200:01:000:0050"},"geometry":{"type":"Polygon","coordinates":[[[37.463929,48.569332],[37.464202,48.569552],[37.46432,48.569484],[37.464045,48.56927],[37.463929,48.569332]]]}},{"type":"Feature","properties":{"cadnum":"1411746200:01:000:0174"},"geometry":{"type":"Polygon","coordinates":[[[37.467743,48.568349],[37.46786,48.568506],[37.467877,48.56853],[37.46789,48.56855],[37.468192,48.568426],[37.468177,48.568405],[37.468043,48.568224],[37.467743,48.568349]]]}},{"type":"Feature","properties":{"cadnum":"1411746200:01:000:0114"},"geometry":{"type":"Polygon","coordinates":[[[37.464202,48.569552],[37.46472,48.569975],[37.465183,48.570363],[37.465214,48.570391],[37.465223,48.570387],[37.46525,48.570376],[37.465353,48.570328],[37.465326,48.570304],[37.465267,48.570242],[37.465223,48.570206],[37.46502,48.570043],[37.46481,48.56987],[37.46432,48.569484],[37.464202,48.569552]]]}},{"type":"Feature","properties":{"cadnum":"1411746200:01:000:0049"},"geometry":{"type":"Polygon","coordinates":[[[37.467361,48.569701],[37.46741,48.56977],[37.467648,48.570085],[37.468047,48.569924],[37.467707,48.569574],[37.467527,48.569638],[37.467361,48.569701]]]}},{"type":"Feature","properties":{"cadnum":"1411746200:01:000:0188"},"geometry":{"type":"Polygon","coordinates":[[[37.464307,48.570162],[37.464648,48.570515],[37.464804,48.570685],[37.464805,48.570685],[37.464841,48.570717],[37.465083,48.570616],[37.465047,48.570581],[37.464881,48.570417],[37.464531,48.570066],[37.464307,48.570162]]]}},{"type":"Feature","properties":{"cadnum":"1411746200:01:000:0176"},"geometry":{"type":"Polygon","coordinates":[[[37.465353,48.569261],[37.465892,48.569856],[37.465936,48.569841],[37.466108,48.570043],[37.466242,48.569989],[37.466062,48.569787],[37.465533,48.569195],[37.465353,48.569261]]]}},{"type":"Feature","properties":{"cadnum":"1411746200:01:000:0305"},"geometry":{"type":"Polygon","coordinates":[[[37.466076,48.568872],[37.466597,48.569585],[37.466584,48.569591],[37.466615,48.569621],[37.466619,48.569618],[37.466691,48.569698],[37.466709,48.569719],[37.466835,48.56966],[37.466822,48.569638],[37.466754,48.569564],[37.466215,48.568827],[37.466076,48.568872]]]}},{"type":"Feature","properties":{"cadnum":"1411746200:01:000:0172"},"geometry":{"type":"Polygon","coordinates":[[[37.465397,48.568596],[37.465479,48.568607],[37.465676,48.568123],[37.4656,48.568108],[37.465397,48.568596]]]}}]}