{"type":"FeatureCollection","features":[{"type":"Feature","properties":{"cadnum":"1411270300:02:000:0126"},"geometry":{"type":"Polygon","coordinates":[[[37.900425,48.369556],[37.90069,48.369923],[37.901081,48.369822],[37.90082,48.369419],[37.900425,48.369556]]]}},{"type":"Feature","properties":{"cadnum":"1411270300:02:000:0134"},"geometry":{"type":"Polygon","coordinates":[[[37.897299,48.36867],[37.897352,48.368807],[37.897425,48.368906],[37.897604,48.369151],[37.897855,48.36907],[37.897425,48.368614],[37.897299,48.36867]]]}},{"type":"Feature","properties":{"cadnum":"1411270300:02:000:0135"},"geometry":{"type":"Polygon","coordinates":[[[37.897932,48.368619],[37.89822,48.368941],[37.8984,48.368882],[37.898098,48.368541],[37.897932,48.368619]]]}},{"type":"Feature","properties":{"cadnum":"1411270300:02:000:0156"},"geometry":{"type":"Polygon","coordinates":[[[37.898583,48.369306],[37.898727,48.369583],[37.89901,48.369521],[37.898826,48.369228],[37.898583,48.369306]]]}},{"type":"Feature","properties":{"cadnum":"1411270300:02:000:0137"},"geometry":{"type":"Polygon","coordinates":[[[37.902306,48.367402],[37.902576,48.367685],[37.902689,48.367638],[37.902828,48.367581],[37.902549,48.367285],[37.902306,48.367402]]]}},{"type":"Feature","properties":{"cadnum":"1411270300:02:000:0169"},"geometry":{"type":"Polygon","coordinates":[[[37.899176,48.368004],[37.899419,48.368291],[37.899612,48.368479],[37.899872,48.368393],[37.899469,48.367957],[37.899428,48.367909],[37.899176,48.368004]]]}},{"type":"Feature","properties":{"cadnum":"1411270300:02:000:0129"},"geometry":{"type":"Polygon","coordinates":[[[37.897675,48.369243],[37.89782,48.369479],[37.898021,48.36941],[37.898247,48.369339],[37.898125,48.369103],[37.897675,48.369243]]]}},{"type":"Feature","properties":{"cadnum":"1411270300:02:000:0001"},"geometry":{"type":"Polygon","coordinates":[[[37.899639,48.363818],[37.90056,48.364692],[37.901844,48.36502],[37.902746,48.364924],[37.902796,48.364919],[37.902918,48.364879],[37.902918,48.364878],[37.903331,48.36474],[37.90644,48.36713],[37.906393,48.367186],[37.906346,48.367244],[37.906299,48.3673],[37.906299,48.367301],[37.905689,48.368046],[37.906443,48.368205],[37.906178,48.368428],[37.905874,48.368742],[37.905631,48.369198],[37.905931,48.369366],[37.906524,48.368921],[37.906606,48.368972],[37.907172,48.368628],[37.907558,48.368981],[37.9082,48.368649],[37.907979,48.368461],[37.908239,48.368337],[37.908329,48.368295],[37.908411,48.368255],[37.908474,48.368225],[37.908694,48.368426],[37.909304,48.368118],[37.909027,48.367921],[37.910461,48.367247],[37.912845,48.366128],[37.913732,48.366165],[37.913733,48.366165],[37.913811,48.366168],[37.913904,48.366172],[37.914996,48.366217],[37.915763,48.365794],[37.916096,48.364558],[37.916184,48.363651],[37.916226,48.363227],[37.91496,48.362003],[37.913814,48.36185],[37.913472,48.361804],[37.910319,48.362884],[37.910521,48.363651],[37.910698,48.364319],[37.908239,48.365581],[37.907545,48.365937],[37.90669,48.364797],[37.905228,48.363651],[37.905229,48.363651],[37.904346,48.362958],[37.902918,48.362631],[37.90197,48.362412],[37.900425,48.362956],[37.89979,48.363651],[37.899791,48.363651],[37.899639,48.363818]]]}},{"type":"Feature","properties":{"cadnum":"1411270300:01:000:0427"},"geometry":{"type":"Polygon","coordinates":[[[37.880922,48.378063],[37.880934,48.378133],[37.880933,48.378133],[37.880989,48.378459],[37.881062,48.378457],[37.881264,48.378448],[37.881242,48.378247],[37.881228,48.378239],[37.881228,48.378238],[37.881232,48.378119],[37.880922,48.378063]]]}},{"type":"Feature","properties":{"cadnum":"1411270300:01:000:0409"},"geometry":{"type":"Polygon","coordinates":[[[37.869307,48.374143],[37.86933,48.374202],[37.869563,48.37433],[37.869693,48.374154],[37.869959,48.37422],[37.869959,48.374219],[37.87007,48.374247],[37.87034,48.373886],[37.86985,48.373874],[37.869496,48.373865],[37.869334,48.374053],[37.869307,48.374143]]]}},{"type":"Feature","properties":{"cadnum":"1411270300:01:000:0553"},"geometry":{"type":"Polygon","coordinates":[[[37.780154,48.398456],[37.780382,48.398503],[37.780797,48.398668],[37.78085,48.398581],[37.780851,48.398581],[37.78103,48.398614],[37.78099,48.398718],[37.78081,48.398682],[37.780797,48.398715],[37.780917,48.398766],[37.780648,48.399067],[37.780914,48.39913],[37.780971,48.399195],[37.781138,48.399267],[37.781254,48.399232],[37.781403,48.39938],[37.781897,48.399139],[37.782049,48.399064],[37.781933,48.398885],[37.782068,48.398728],[37.782068,48.398727],[37.782449,48.398282],[37.782068,48.398203],[37.780441,48.397862],[37.780329,48.398092],[37.780239,48.398282],[37.780154,48.398456]]]}},{"type":"Feature","properties":{"cadnum":"1411270300:02:000:0115"},"geometry":{"type":"Polygon","coordinates":[[[37.891383,48.35413],[37.891402,48.354166],[37.891455,48.354157],[37.891442,48.354119],[37.891383,48.35413]]]}},{"type":"Feature","properties":{"cadnum":"1411270300:01:000:0494"},"geometry":{"type":"Polygon","coordinates":[[[37.883859,48.373101],[37.883892,48.373116],[37.883918,48.373113],[37.883959,48.373086],[37.884022,48.373048],[37.883991,48.373024],[37.883928,48.373062],[37.883865,48.373098],[37.883859,48.373101]]]}},{"type":"Feature","properties":{"cadnum":"1411270300:01:000:0017"},"geometry":{"type":"Polygon","coordinates":[[[37.88359,48.372925],[37.883626,48.372951],[37.88368,48.372991],[37.883645,48.373011],[37.883806,48.373134],[37.883859,48.373101],[37.883865,48.373098],[37.883928,48.373062],[37.883991,48.373024],[37.884022,48.373048],[37.884134,48.372982],[37.884062,48.372931],[37.884049,48.372934],[37.884048,48.372934],[37.883995,48.372898],[37.884004,48.372889],[37.883892,48.372814],[37.883869,48.3728],[37.883842,48.372779],[37.883743,48.372838],[37.883613,48.372913],[37.88359,48.372925]]]}},{"type":"Feature","properties":{"cadnum":"1411270300:01:000:0214"},"geometry":{"type":"Polygon","coordinates":[[[37.885194,48.37058],[37.885711,48.37095],[37.885712,48.37095],[37.885713,48.37095],[37.885805,48.371016],[37.885909,48.371099],[37.886267,48.371369],[37.886379,48.371454],[37.886438,48.371446],[37.886442,48.371445],[37.886631,48.371328],[37.886632,48.371328],[37.886865,48.371502],[37.886662,48.371618],[37.886851,48.371755],[37.887889,48.371108],[37.887763,48.370893],[37.887547,48.370649],[37.887547,48.370648],[37.887377,48.370514],[37.887247,48.370461],[37.887148,48.370526],[37.886945,48.370359],[37.886315,48.369906],[37.88624,48.369852],[37.885939,48.370049],[37.885863,48.370147],[37.885194,48.37058]]]}},{"type":"Feature","properties":{"cadnum":"1411270300:01:000:0010"},"geometry":{"type":"Polygon","coordinates":[[[37.891406,48.381825],[37.891513,48.381896],[37.891514,48.381896],[37.89176,48.382059],[37.892192,48.382344],[37.892933,48.381896],[37.893526,48.38232],[37.89362,48.383096],[37.895268,48.383006],[37.895205,48.382499],[37.894256,48.381797],[37.894249,48.381792],[37.892834,48.380748],[37.891817,48.381341],[37.891549,48.381496],[37.891425,48.381782],[37.891424,48.381782],[37.891423,48.381782],[37.891406,48.381825]],[[37.892884,48.381511],[37.893014,48.38161],[37.892907,48.381672],[37.892906,48.381672],[37.892781,48.381574],[37.892781,48.381573],[37.892884,48.381511]]]}},{"type":"Feature","properties":{"cadnum":"1411270300:01:000:0615"},"geometry":{"type":"Polygon","coordinates":[[[37.896333,48.38184],[37.896387,48.381849],[37.896473,48.381663],[37.89644,48.381637],[37.896432,48.381628],[37.89636,48.381782],[37.896333,48.38184]]]}},{"type":"Feature","properties":{"cadnum":"1411270300:01:000:0605"},"geometry":{"type":"Polygon","coordinates":[[[37.897169,48.381902],[37.897182,48.381914],[37.897253,48.381876],[37.897295,48.381854],[37.897425,48.381952],[37.897568,48.38206],[37.897618,48.382096],[37.897635,48.382114],[37.897667,48.382093],[37.897344,48.381854],[37.897348,48.381849],[37.897321,48.38184],[37.897295,48.38184],[37.897268,48.381851],[37.897169,48.381902]]]}},{"type":"Feature","properties":{"cadnum":"1411270300:01:000:0616"},"geometry":{"type":"Polygon","coordinates":[[[37.896503,48.381687],[37.896615,48.381782],[37.896667,48.381826],[37.89675,48.381896],[37.896751,48.381896],[37.896908,48.382028],[37.896953,48.382004],[37.896903,48.381964],[37.896882,48.38198],[37.896881,48.38198],[37.896715,48.381844],[37.896517,48.381681],[37.896503,48.381687]]]}},{"type":"Feature","properties":{"cadnum":"1411270300:01:000:0618"},"geometry":{"type":"Polygon","coordinates":[[[37.896755,48.382192],[37.897228,48.382564],[37.897258,48.38255],[37.897272,48.382543],[37.896958,48.382311],[37.896949,48.382316],[37.896882,48.382269],[37.896903,48.38226],[37.89685,48.382225],[37.89685,48.382224],[37.896859,48.382221],[37.896796,48.382168],[37.896755,48.382192]]]}},{"type":"Feature","properties":{"cadnum":"1411270300:01:000:0617"},"geometry":{"type":"Polygon","coordinates":[[[37.896755,48.382192],[37.896796,48.382168],[37.8968,48.382165],[37.896792,48.382156],[37.896949,48.382057],[37.897002,48.382024],[37.897182,48.381914],[37.897169,48.381902],[37.896953,48.382004],[37.896908,48.382028],[37.89676,48.382141],[37.896755,48.382168],[37.896755,48.382192]]]}},{"type":"Feature","properties":{"cadnum":"1411270300:01:000:0619"},"geometry":{"type":"Polygon","coordinates":[[[37.897228,48.382564],[37.897253,48.382583],[37.897268,48.382594],[37.897425,48.382708],[37.897572,48.382815],[37.897614,48.382791],[37.897465,48.382683],[37.897452,48.382692],[37.897451,48.382692],[37.897434,48.382678],[37.897425,48.382681],[37.897366,48.382639],[37.897388,48.382627],[37.897321,48.382582],[37.897289,48.3826],[37.897263,48.382579],[37.897272,48.382573],[37.897259,48.382564],[37.897272,48.382555],[37.897258,48.38255],[37.897228,48.382564]]]}},{"type":"Feature","properties":{"cadnum":"1411270300:01:000:0622"},"geometry":{"type":"Polygon","coordinates":[[[37.897205,48.381803],[37.897251,48.381839],[37.897253,48.38184],[37.897253,48.381841],[37.897268,48.381851],[37.897295,48.38184],[37.897321,48.38184],[37.897348,48.381849],[37.897357,48.381839],[37.897379,48.381816],[37.897339,48.381789],[37.897308,48.381827],[37.897205,48.38175],[37.897209,48.38178],[37.897208,48.381782],[37.897207,48.381782],[37.897205,48.381803]]]}},{"type":"Feature","properties":{"cadnum":"1411270300:02:000:0114"},"geometry":{"type":"Polygon","coordinates":[[[37.923386,48.355238],[37.923638,48.355482],[37.924131,48.355229],[37.923885,48.35499],[37.923386,48.355238]]]}},{"type":"Feature","properties":{"cadnum":"1411270300:02:000:0123"},"geometry":{"type":"Polygon","coordinates":[[[37.920512,48.35496],[37.920659,48.355068],[37.920753,48.355008],[37.921248,48.354703],[37.921275,48.354685],[37.920898,48.354387],[37.920722,48.354486],[37.920938,48.354656],[37.920889,48.354685],[37.920915,48.354707],[37.920512,48.35496]]]}},{"type":"Feature","properties":{"cadnum":"1411270300:01:000:0561"},"geometry":{"type":"Polygon","coordinates":[[[37.872842,48.365155],[37.873183,48.365429],[37.873305,48.365358],[37.873355,48.365328],[37.873439,48.36528],[37.873062,48.364991],[37.873013,48.36502],[37.873035,48.365042],[37.872842,48.365155]]]}},{"type":"Feature","properties":{"cadnum":"1411270300:01:000:0546"},"geometry":{"type":"Polygon","coordinates":[[[37.86938,48.36679],[37.869581,48.366913],[37.869787,48.366796],[37.869896,48.366734],[37.869787,48.366662],[37.869703,48.366605],[37.86938,48.36679]]]}},{"type":"Feature","properties":{"cadnum":"1411270300:01:000:0543"},"geometry":{"type":"Polygon","coordinates":[[[37.869959,48.366599],[37.87025,48.366787],[37.870561,48.366588],[37.870278,48.366402],[37.870175,48.366468],[37.869959,48.366599]]]}},{"type":"Feature","properties":{"cadnum":"1411270300:01:000:0524"},"geometry":{"type":"Polygon","coordinates":[[[37.871997,48.364469],[37.87233,48.364752],[37.872703,48.364537],[37.872573,48.364438],[37.872402,48.364528],[37.872196,48.364367],[37.871997,48.364469]]]}},{"type":"Feature","properties":{"cadnum":"1411270300:01:000:0542"},"geometry":{"type":"Polygon","coordinates":[[[37.870278,48.366402],[37.870561,48.366588],[37.870596,48.366564],[37.870892,48.366376],[37.870628,48.36619],[37.870278,48.366402]]]}},{"type":"Feature","properties":{"cadnum":"1411270300:01:000:0195"},"geometry":{"type":"Polygon","coordinates":[[[37.87506,48.368563],[37.87528,48.368853],[37.87542,48.369037],[37.875452,48.369081],[37.875632,48.36933],[37.875951,48.369273],[37.875932,48.369213],[37.875896,48.369103],[37.875833,48.368957],[37.875793,48.368879],[37.875645,48.368643],[37.875406,48.368703],[37.875376,48.368753],[37.875276,48.368712],[37.875123,48.368548],[37.87506,48.368563]]]}},{"type":"Feature","properties":{"cadnum":"1411270300:01:000:0523"},"geometry":{"type":"Polygon","coordinates":[[[37.878402,48.367307],[37.878829,48.367617],[37.879054,48.367482],[37.878623,48.367191],[37.878622,48.36719],[37.878413,48.3673],[37.878414,48.3673],[37.878414,48.367301],[37.878402,48.367307]]]}},{"type":"Feature","properties":{"cadnum":"1411270300:01:000:0394"},"geometry":{"type":"Polygon","coordinates":[[[37.87936,48.370905],[37.879411,48.37095],[37.879412,48.37095],[37.87945,48.370983],[37.879561,48.370923],[37.879526,48.370893],[37.879471,48.370845],[37.879383,48.370893],[37.87936,48.370905]]]}},{"type":"Feature","properties":{"cadnum":"1411270300:01:000:0014"},"geometry":{"type":"Polygon","coordinates":[[[37.878322,48.370224],[37.878529,48.370377],[37.878649,48.370305],[37.878609,48.370273],[37.878609,48.370272],[37.878618,48.370269],[37.878592,48.370248],[37.878582,48.370251],[37.878448,48.37015],[37.878322,48.370224]]]}},{"type":"Feature","properties":{"cadnum":"1411270300:01:000:0391"},"geometry":{"type":"Polygon","coordinates":[[[37.879332,48.370833],[37.879395,48.370887],[37.879471,48.370845],[37.879458,48.370833],[37.87944,48.370819],[37.879408,48.370795],[37.879332,48.370833]]]}},{"type":"Feature","properties":{"cadnum":"1411270300:01:000:0451"},"geometry":{"type":"Polygon","coordinates":[[[37.887287,48.380855],[37.887538,48.381076],[37.887821,48.38095],[37.887664,48.380825],[37.887557,48.380757],[37.887454,48.380691],[37.887287,48.380855]]]}},{"type":"Feature","properties":{"cadnum":"1411270300:01:000:0452"},"geometry":{"type":"Polygon","coordinates":[[[37.887804,48.381347],[37.887934,48.381475],[37.888221,48.381359],[37.888091,48.381228],[37.887804,48.381347]]]}},{"type":"Feature","properties":{"cadnum":"1411270300:02:000:0119"},"geometry":{"type":"Polygon","coordinates":[[[37.904557,48.352611],[37.90466,48.352611],[37.90466,48.352546],[37.904562,48.352546],[37.904557,48.352611]]]}},{"type":"Feature","properties":{"cadnum":"1411270300:02:000:0172"},"geometry":{"type":"Polygon","coordinates":[[[37.906794,48.352391],[37.906794,48.352459],[37.906893,48.352459],[37.906893,48.352391],[37.906794,48.352391]]]}},{"type":"Feature","properties":{"cadnum":"1411270300:01:000:0414"},"geometry":{"type":"Polygon","coordinates":[[[37.868692,48.363129],[37.868692,48.363167],[37.868751,48.363167],[37.868751,48.363129],[37.868692,48.363129]]]}},{"type":"Feature","properties":{"cadnum":"1411270300:01:000:0458"},"geometry":{"type":"Polygon","coordinates":[[[37.883039,48.36471],[37.883079,48.364746],[37.883123,48.364725],[37.88342,48.364976],[37.883626,48.364803],[37.883316,48.364531],[37.883065,48.364668],[37.883079,48.364686],[37.883039,48.36471]]]}},{"type":"Feature","properties":{"cadnum":"1411270300:01:000:0544"},"geometry":{"type":"Polygon","coordinates":[[[37.882733,48.364901],[37.883163,48.365235],[37.883326,48.365143],[37.882907,48.364806],[37.882733,48.364901]]]}},{"type":"Feature","properties":{"cadnum":"1411270300:01:000:0374"},"geometry":{"type":"Polygon","coordinates":[[[37.880666,48.363618],[37.880711,48.363651],[37.880712,48.363651],[37.880774,48.363696],[37.880873,48.363768],[37.880945,48.363721],[37.88107,48.36364],[37.881295,48.363496],[37.881085,48.363343],[37.880945,48.363435],[37.88079,48.363537],[37.880666,48.363618]]]}},{"type":"Feature","properties":{"cadnum":"1411270300:01:000:0520"},"geometry":{"type":"Polygon","coordinates":[[[37.88342,48.364976],[37.883465,48.365009],[37.883662,48.364836],[37.883626,48.364803],[37.88342,48.364976]]]}},{"type":"Feature","properties":{"cadnum":"1411270300:01:000:0526"},"geometry":{"type":"Polygon","coordinates":[[[37.893853,48.376753],[37.894029,48.37689],[37.894379,48.376688],[37.894514,48.376792],[37.894515,48.376792],[37.894671,48.376699],[37.894662,48.376693],[37.894366,48.37646],[37.893863,48.376747],[37.893853,48.376753]]]}},{"type":"Feature","properties":{"cadnum":"1411270300:01:000:0024"},"geometry":{"type":"Polygon","coordinates":[[[37.893953,48.376275],[37.893997,48.376305],[37.894052,48.376344],[37.894209,48.37624],[37.894109,48.376174],[37.893953,48.376275]]]}},{"type":"Feature","properties":{"cadnum":"1411270300:01:000:0403"},"geometry":{"type":"Polygon","coordinates":[[[37.892318,48.374647],[37.892497,48.374769],[37.892947,48.374512],[37.89279,48.374404],[37.892658,48.374485],[37.892657,48.374485],[37.892534,48.37456],[37.892506,48.374542],[37.892502,48.374539],[37.8924,48.374599],[37.892318,48.374647]]]}},{"type":"Feature","properties":{"cadnum":"1411270300:01:000:0412"},"geometry":{"type":"Polygon","coordinates":[[[37.892681,48.374897],[37.892874,48.375043],[37.893306,48.374771],[37.893126,48.374643],[37.892681,48.374897]]]}},{"type":"Feature","properties":{"cadnum":"1411270300:01:000:0413"},"geometry":{"type":"Polygon","coordinates":[[[37.893656,48.376117],[37.893706,48.376153],[37.893763,48.376114],[37.893714,48.376082],[37.893656,48.376117]]]}},{"type":"Feature","properties":{"cadnum":"1411270300:01:000:0527"},"geometry":{"type":"Polygon","coordinates":[[[37.892151,48.374524],[37.892152,48.374524],[37.892252,48.374599],[37.892253,48.374599],[37.892318,48.374647],[37.892501,48.374539],[37.892502,48.374539],[37.892506,48.374542],[37.892534,48.37456],[37.8927,48.374459],[37.892542,48.374336],[37.892502,48.374354],[37.892232,48.374485],[37.892153,48.374523],[37.892151,48.374524]]]}},{"type":"Feature","properties":{"cadnum":"1411270300:01:000:0534"},"geometry":{"type":"Polygon","coordinates":[[[37.895224,48.37451],[37.895249,48.374599],[37.89525,48.374599],[37.895318,48.374826],[37.895425,48.374813],[37.89543,48.37482],[37.895654,48.374789],[37.895641,48.374739],[37.895624,48.374661],[37.895584,48.374518],[37.89557,48.374464],[37.895511,48.374441],[37.895291,48.37447],[37.895296,48.374484],[37.895296,48.374485],[37.895295,48.374485],[37.8953,48.374497],[37.895224,48.37451]]]}},{"type":"Feature","properties":{"cadnum":"1411270300:01:000:0407"},"geometry":{"type":"Polygon","coordinates":[[[37.892497,48.374769],[37.892681,48.374897],[37.893126,48.374643],[37.892947,48.374513],[37.892947,48.374512],[37.892795,48.374599],[37.892497,48.374769]]]}},{"type":"Feature","properties":{"cadnum":"1411270300:01:000:0444"},"geometry":{"type":"Polygon","coordinates":[[[37.893647,48.374656],[37.893755,48.374987],[37.893949,48.374951],[37.893836,48.374623],[37.893647,48.374656]]]}},{"type":"Feature","properties":{"cadnum":"1411270300:01:000:0022"},"geometry":{"type":"Polygon","coordinates":[[[37.89357,48.376237],[37.893674,48.376577],[37.893922,48.376425],[37.893849,48.376371],[37.893979,48.37629],[37.893953,48.376275],[37.893979,48.376257],[37.893777,48.376109],[37.89357,48.376237]]]}},{"type":"Feature","properties":{"cadnum":"1411270300:01:000:0126"},"geometry":{"type":"Polygon","coordinates":[[[37.893849,48.376371],[37.893922,48.376425],[37.894052,48.376344],[37.893979,48.37629],[37.893849,48.376371]]]}},{"type":"Feature","properties":{"cadnum":"1411270300:01:000:0147"},"geometry":{"type":"Polygon","coordinates":[[[37.894797,48.376398],[37.894981,48.376538],[37.895039,48.37658],[37.895241,48.376732],[37.895453,48.376615],[37.895004,48.376275],[37.894797,48.376398]]]}},{"type":"Feature","properties":{"cadnum":"1411270300:01:000:0424"},"geometry":{"type":"Polygon","coordinates":[[[37.897228,48.376389],[37.897236,48.376427],[37.897253,48.376426],[37.897253,48.376427],[37.897303,48.376421],[37.897384,48.376412],[37.897398,48.376412],[37.897384,48.376371],[37.897371,48.376374],[37.897295,48.37638],[37.897228,48.376389]]]}},{"type":"Feature","properties":{"cadnum":"1411270300:01:000:0006"},"geometry":{"type":"Polygon","coordinates":[[[37.893481,48.377132],[37.893687,48.377292],[37.893989,48.377123],[37.893903,48.37706],[37.893966,48.377022],[37.893827,48.376923],[37.893624,48.377045],[37.893526,48.376976],[37.893486,48.377004],[37.893534,48.377039],[37.893534,48.37704],[37.89349,48.377066],[37.893534,48.377099],[37.893481,48.377132]]]}},{"type":"Feature","properties":{"cadnum":"1411270300:01:000:0410"},"geometry":{"type":"Polygon","coordinates":[[[37.893777,48.376109],[37.893822,48.376144],[37.893886,48.376109],[37.893836,48.376073],[37.893777,48.376109]]]}},{"type":"Feature","properties":{"cadnum":"1411270300:01:000:0521"},"geometry":{"type":"Polygon","coordinates":[[[37.898224,48.378683],[37.898228,48.378728],[37.898381,48.378871],[37.898853,48.378722],[37.898813,48.378659],[37.898224,48.378683]]]}},{"type":"Feature","properties":{"cadnum":"1411270300:01:000:0578"},"geometry":{"type":"Polygon","coordinates":[[[37.899436,48.378793],[37.89945,48.378809],[37.899801,48.378937],[37.899994,48.379089],[37.899698,48.379103],[37.899733,48.37914],[37.900034,48.379125],[37.900035,48.379125],[37.900111,48.3792],[37.900132,48.379187],[37.899882,48.378952],[37.899832,48.378907],[37.899477,48.378776],[37.89945,48.378776],[37.899436,48.378793]]]}},{"type":"Feature","properties":{"cadnum":"1411270300:01:000:0545"},"geometry":{"type":"Polygon","coordinates":[[[37.901247,48.380189],[37.90131,48.380199],[37.901319,48.380157],[37.90126,48.380151],[37.901247,48.380189]]]}},{"type":"Feature","properties":{"cadnum":"1411270300:01:000:0571"},"geometry":{"type":"Polygon","coordinates":[[[37.898821,48.379304],[37.899069,48.37953],[37.8991,48.37956],[37.899145,48.379539],[37.898866,48.379282],[37.898862,48.379286],[37.898821,48.379304]]]}},{"type":"Feature","properties":{"cadnum":"1411270300:01:000:0531"},"geometry":{"type":"Polygon","coordinates":[[[37.898494,48.380631],[37.898709,48.380781],[37.899082,48.380527],[37.898857,48.380377],[37.898494,48.380631]]]}},{"type":"Feature","properties":{"cadnum":"1411270300:01:000:0573"},"geometry":{"type":"Polygon","coordinates":[[[37.8991,48.37956],[37.899342,48.379748],[37.899549,48.379894],[37.899688,48.379933],[37.899702,48.37991],[37.89958,48.379861],[37.899383,48.379724],[37.899145,48.379539],[37.8991,48.37956]]]}},{"type":"Feature","properties":{"cadnum":"1411270300:01:000:0529"},"geometry":{"type":"Polygon","coordinates":[[[37.899306,48.379605],[37.899711,48.379897],[37.899895,48.379739],[37.899513,48.379441],[37.899306,48.379605]]]}},{"type":"Feature","properties":{"cadnum":"1411270300:01:000:0566"},"geometry":{"type":"Polygon","coordinates":[[[37.900838,48.379644],[37.901013,48.379474],[37.901117,48.379209],[37.901103,48.379193],[37.901077,48.37919],[37.901063,48.379202],[37.900964,48.379459],[37.900865,48.379554],[37.900838,48.379644]]]}},{"type":"Feature","properties":{"cadnum":"1411270300:01:000:0579"},"geometry":{"type":"Polygon","coordinates":[[[37.8991,48.380443],[37.899373,48.380602],[37.89941,48.380574],[37.899136,48.380414],[37.8991,48.380443]]]}},{"type":"Feature","properties":{"cadnum":"1411270300:01:000:0591"},"geometry":{"type":"Polygon","coordinates":[[[37.897987,48.381046],[37.89813,48.381157],[37.89817,48.381133],[37.898021,48.381025],[37.898,48.381037],[37.897987,48.381046]]]}},{"type":"Feature","properties":{"cadnum":"1411270300:01:000:0596"},"geometry":{"type":"Polygon","coordinates":[[[37.899159,48.381771],[37.899173,48.381782],[37.899172,48.381782],[37.899275,48.381857],[37.899328,48.381896],[37.899455,48.381989],[37.899495,48.381964],[37.89932,48.381834],[37.899199,48.381744],[37.899159,48.381771]]]}},{"type":"Feature","properties":{"cadnum":"1411270300:01:000:0590"},"geometry":{"type":"Polygon","coordinates":[[[37.897847,48.38095],[37.89791,48.380995],[37.89795,48.381016],[37.897964,48.38101],[37.898,48.381037],[37.898021,48.381025],[37.897887,48.380927],[37.897847,48.38095]]]}},{"type":"Feature","properties":{"cadnum":"1411270300:01:000:0550"},"geometry":{"type":"Polygon","coordinates":[[[37.898628,48.379077],[37.898849,48.379274],[37.898862,48.379286],[37.898924,48.379256],[37.899159,48.379149],[37.899006,48.378952],[37.898628,48.379077]]]}},{"type":"Feature","properties":{"cadnum":"1411270300:01:000:0570"},"geometry":{"type":"Polygon","coordinates":[[[37.898714,48.379817],[37.898767,48.379826],[37.898777,48.379813],[37.898853,48.379694],[37.8991,48.37956],[37.899069,48.37953],[37.898807,48.379673],[37.898731,48.379796],[37.898714,48.379817]]]}},{"type":"Feature","properties":{"cadnum":"1411270300:01:000:0569"},"geometry":{"type":"Polygon","coordinates":[[[37.898255,48.379983],[37.898296,48.380011],[37.898507,48.380076],[37.89857,48.380118],[37.898606,48.380091],[37.898557,48.380058],[37.898561,48.380056],[37.89852,48.380032],[37.898511,48.38004],[37.898287,48.379969],[37.898255,48.379983]]]}},{"type":"Feature","properties":{"cadnum":"1411270300:01:000:0581"},"geometry":{"type":"Polygon","coordinates":[[[37.899719,48.380795],[37.900124,48.381037],[37.900151,48.381043],[37.900169,48.381031],[37.900161,48.38101],[37.899752,48.380768],[37.899719,48.380795]]]}},{"type":"Feature","properties":{"cadnum":"1411270300:01:000:0594"},"geometry":{"type":"Polygon","coordinates":[[[37.898583,48.381478],[37.898606,48.381493],[37.898614,48.381502],[37.898763,48.381487],[37.898866,48.381556],[37.898903,48.381532],[37.898723,48.38141],[37.898687,48.381434],[37.898717,48.381457],[37.898717,48.381458],[37.89861,48.381467],[37.898583,48.381478]]]}},{"type":"Feature","properties":{"cadnum":"1411270300:01:000:0568"},"geometry":{"type":"Polygon","coordinates":[[[37.89857,48.380118],[37.898826,48.380277],[37.898862,48.380249],[37.898606,48.380091],[37.89857,48.380118]]]}},{"type":"Feature","properties":{"cadnum":"1411270300:01:000:0575"},"geometry":{"type":"Polygon","coordinates":[[[37.900465,48.380151],[37.900515,48.380169],[37.900667,48.379983],[37.90074,48.379742],[37.900712,48.379766],[37.900685,48.379739],[37.900622,48.379954],[37.900627,48.379957],[37.900618,48.379966],[37.900618,48.379972],[37.900465,48.380151]]]}},{"type":"Feature","properties":{"cadnum":"1411270300:01:000:0572"},"geometry":{"type":"Polygon","coordinates":[[[37.898503,48.379032],[37.898821,48.379304],[37.898862,48.379286],[37.898849,48.379274],[37.898606,48.379068],[37.898543,48.379008],[37.898503,48.379032]]]}},{"type":"Feature","properties":{"cadnum":"1411270300:01:000:0574"},"geometry":{"type":"Polygon","coordinates":[[[37.899688,48.379933],[37.899815,48.379969],[37.900132,48.380076],[37.900488,48.380199],[37.900515,48.380169],[37.900465,48.380151],[37.900362,48.380118],[37.900344,48.380118],[37.899845,48.379954],[37.899702,48.37991],[37.899688,48.379933]]]}},{"type":"Feature","properties":{"cadnum":"1411270300:01:000:0576"},"geometry":{"type":"Polygon","coordinates":[[[37.900249,48.379331],[37.900501,48.379572],[37.900685,48.379739],[37.900712,48.379766],[37.90074,48.379742],[37.900753,48.379727],[37.900727,48.379739],[37.900726,48.379739],[37.900272,48.379315],[37.900249,48.379331]]]}},{"type":"Feature","properties":{"cadnum":"1411270300:01:000:0577"},"geometry":{"type":"Polygon","coordinates":[[[37.899949,48.379309],[37.899962,48.379328],[37.899989,48.379324],[37.900174,48.379259],[37.900249,48.379331],[37.900272,48.379315],[37.900132,48.379187],[37.900111,48.3792],[37.900142,48.379229],[37.899962,48.379295],[37.899949,48.379309]]]}},{"type":"Feature","properties":{"cadnum":"1411270300:01:000:0580"},"geometry":{"type":"Polygon","coordinates":[[[37.899373,48.380602],[37.899415,48.380625],[37.899719,48.380795],[37.899752,48.380768],[37.899715,48.380744],[37.899688,48.38073],[37.899612,48.380688],[37.899608,48.380691],[37.899562,48.380661],[37.89941,48.380574],[37.899373,48.380602]]]}},{"type":"Feature","properties":{"cadnum":"1411270300:01:000:0588"},"geometry":{"type":"Polygon","coordinates":[[[37.89852,48.381252],[37.898557,48.381276],[37.89857,48.381267],[37.898583,48.381255],[37.898574,48.381246],[37.898723,48.381135],[37.898714,48.381124],[37.898759,48.381091],[37.898786,48.381088],[37.898924,48.380983],[37.898889,48.38096],[37.898704,48.381097],[37.89852,48.381252]]]}},{"type":"Feature","properties":{"cadnum":"1411270300:01:000:0592"},"geometry":{"type":"Polygon","coordinates":[[[37.89813,48.381157],[37.89817,48.381183],[37.89831,48.381281],[37.898337,48.381299],[37.898457,48.381303],[37.898498,48.38127],[37.898354,48.381263],[37.89817,48.381133],[37.89813,48.381157]]]}},{"type":"Feature","properties":{"cadnum":"1411270300:01:000:0593"},"geometry":{"type":"Polygon","coordinates":[[[37.898457,48.381303],[37.898503,48.381305],[37.898687,48.381434],[37.898723,48.38141],[37.898547,48.381285],[37.898561,48.381276],[37.898557,48.381276],[37.89852,48.381252],[37.898498,48.38127],[37.898457,48.381303]]]}},{"type":"Feature","properties":{"cadnum":"1411270300:01:000:0595"},"geometry":{"type":"Polygon","coordinates":[[[37.898866,48.381556],[37.899159,48.381771],[37.899199,48.381744],[37.898903,48.381532],[37.898866,48.381556]]]}},{"type":"Feature","properties":{"cadnum":"1411270300:01:000:0586"},"geometry":{"type":"Polygon","coordinates":[[[37.897236,48.3805],[37.897253,48.380513],[37.897387,48.38061],[37.897425,48.380637],[37.897524,48.380709],[37.897564,48.380684],[37.897276,48.380476],[37.897236,48.3805]]]}},{"type":"Feature","properties":{"cadnum":"1411270300:01:000:0525"},"geometry":{"type":"Polygon","coordinates":[[[37.898241,48.380452],[37.898314,48.380503],[37.898494,48.380631],[37.898857,48.380377],[37.898633,48.380226],[37.898241,48.380452]]]}},{"type":"Feature","properties":{"cadnum":"1411270300:01:000:0567"},"geometry":{"type":"Polygon","coordinates":[[[37.898826,48.380277],[37.8991,48.380443],[37.899136,48.380414],[37.898862,48.380249],[37.898826,48.380277]]]}},{"type":"Feature","properties":{"cadnum":"1411270300:01:000:0587"},"geometry":{"type":"Polygon","coordinates":[[[37.898889,48.38096],[37.898911,48.380974],[37.89897,48.380936],[37.89932,48.380679],[37.899333,48.380684],[37.899415,48.380625],[37.899373,48.380602],[37.898889,48.38096]]]}},{"type":"Feature","properties":{"cadnum":"1411270300:01:000:0417"},"geometry":{"type":"Polygon","coordinates":[[[37.899522,48.381947],[37.899859,48.382192],[37.899899,48.382188],[37.899981,48.381949],[37.900007,48.38187],[37.900052,48.381735],[37.899949,48.381661],[37.899768,48.381782],[37.899757,48.381789],[37.899597,48.381896],[37.899598,48.381896],[37.899522,48.381947]]]}},{"type":"Feature","properties":{"cadnum":"1411270300:01:000:0445"},"geometry":{"type":"Polygon","coordinates":[[[37.899019,48.378961],[37.899159,48.379149],[37.899536,48.379041],[37.899621,48.379021],[37.89945,48.378826],[37.899019,48.378961]]]}},{"type":"Feature","properties":{"cadnum":"1411270300:01:000:0589"},"geometry":{"type":"Polygon","coordinates":[[[37.897524,48.380709],[37.897847,48.38095],[37.897887,48.380927],[37.897564,48.380684],[37.897524,48.380709]]]}},{"type":"Feature","properties":{"cadnum":"1411270300:01:000:0429"},"geometry":{"type":"Polygon","coordinates":[[[37.899239,48.38175],[37.899285,48.381782],[37.899342,48.381821],[37.899448,48.381896],[37.899449,48.381896],[37.899522,48.381947],[37.899615,48.381884],[37.899841,48.381732],[37.89967,48.381541],[37.899239,48.38175]]]}},{"type":"Feature","properties":{"cadnum":"1411270300:01:000:0606"},"geometry":{"type":"Polygon","coordinates":[[[37.897339,48.381789],[37.897379,48.381816],[37.897388,48.381807],[37.897389,48.381807],[37.897512,48.381896],[37.897513,48.381896],[37.897537,48.381914],[37.897559,48.381923],[37.897578,48.381914],[37.897434,48.38181],[37.897434,48.381809],[37.897415,48.381794],[37.897366,48.381759],[37.897345,48.381782],[37.897344,48.381782],[37.897339,48.381789]]]}},{"type":"Feature","properties":{"cadnum":"1411270300:01:000:0431"},"geometry":{"type":"Polygon","coordinates":[[[37.900249,48.378704],[37.900281,48.378731],[37.900452,48.378871],[37.900807,48.37874],[37.900631,48.378585],[37.900249,48.378704]]]}},{"type":"Feature","properties":{"cadnum":"1411270300:01:000:0422"},"geometry":{"type":"Polygon","coordinates":[[[37.898381,48.378871],[37.898444,48.378928],[37.898628,48.379077],[37.899006,48.378952],[37.898853,48.378722],[37.898381,48.378871]]]}},{"type":"Feature","properties":{"cadnum":"1411270300:02:001:0004"},"geometry":{"type":"Polygon","coordinates":[[[37.774019,48.389392],[37.774243,48.389398],[37.774278,48.389145],[37.77431,48.388924],[37.77431,48.38884],[37.774275,48.388619],[37.774036,48.388655],[37.774067,48.388829],[37.774035,48.389192],[37.774036,48.389192],[37.774019,48.389392]]]}},{"type":"Feature","properties":{"cadnum":"1411270300:01:000:0554"},"geometry":{"type":"Polygon","coordinates":[[[37.791693,48.39301],[37.791994,48.393151],[37.792106,48.393045],[37.792164,48.392992],[37.792263,48.392899],[37.791977,48.392769],[37.791976,48.392769],[37.791903,48.39284],[37.791895,48.392849],[37.791894,48.392849],[37.791873,48.39284],[37.79186,48.392852],[37.791881,48.392861],[37.791693,48.39301]]]}},{"type":"Feature","properties":{"cadnum":"1411270300:01:000:0533"},"geometry":{"type":"Polygon","coordinates":[[[37.880154,48.361902],[37.880262,48.361983],[37.88023,48.362001],[37.880402,48.362102],[37.880743,48.361929],[37.88059,48.36181],[37.880433,48.361682],[37.880379,48.361714],[37.880393,48.36172],[37.880423,48.361747],[37.880397,48.361759],[37.880154,48.361902]]]}},{"type":"Feature","properties":{"cadnum":"1411270300:01:000:0380"},"geometry":{"type":"Polygon","coordinates":[[[37.879601,48.362195],[37.879718,48.362272],[37.87976,48.362302],[37.880001,48.362147],[37.880083,48.362099],[37.88023,48.362001],[37.880263,48.361983],[37.880154,48.361902],[37.880397,48.361759],[37.880424,48.361747],[37.880393,48.36172],[37.880379,48.361714],[37.880303,48.361756],[37.880181,48.361828],[37.880091,48.361881],[37.880051,48.361905],[37.879974,48.361956],[37.87985,48.362034],[37.879727,48.362114],[37.879647,48.362165],[37.879601,48.362195]]]}},{"type":"Feature","properties":{"cadnum":"1411270300:01:000:0400"},"geometry":{"type":"Polygon","coordinates":[[[37.875901,48.363597],[37.875905,48.363636],[37.875917,48.363651],[37.875918,48.363651],[37.876148,48.363931],[37.876337,48.364071],[37.876265,48.364117],[37.876288,48.364131],[37.876359,48.364182],[37.876741,48.364465],[37.877163,48.364191],[37.877141,48.364173],[37.877303,48.364075],[37.877334,48.364098],[37.87759,48.363943],[37.87758,48.363938],[37.877536,48.363905],[37.877393,48.363797],[37.877091,48.363573],[37.876817,48.363374],[37.876624,48.363227],[37.876381,48.363352],[37.876157,48.363465],[37.876019,48.363537],[37.876018,48.363537],[37.875901,48.363597]]]}},{"type":"Feature","properties":{"cadnum":"1411270300:01:000:0426"},"geometry":{"type":"Polygon","coordinates":[[[37.879135,48.36243],[37.879228,48.362499],[37.879207,48.362511],[37.879314,48.362591],[37.87936,48.362562],[37.879553,48.362436],[37.879504,48.362401],[37.879521,48.362392],[37.879512,48.362383],[37.879525,48.362374],[37.879485,48.362346],[37.879471,48.362356],[37.879431,48.362328],[37.879414,48.362341],[37.8794,48.362328],[37.879345,48.362293],[37.879324,48.362311],[37.879135,48.36243]]]}},{"type":"Feature","properties":{"cadnum":"1411270300:01:000:0037"},"geometry":{"type":"Polygon","coordinates":[[[37.88818,48.374446],[37.888221,48.374477],[37.888231,48.374484],[37.888231,48.374485],[37.888297,48.374533],[37.888309,48.374542],[37.888374,48.374592],[37.888594,48.374468],[37.888383,48.374324],[37.888284,48.374384],[37.88818,48.374446]]]}},{"type":"Feature","properties":{"cadnum":"1411270300:01:000:0034"},"geometry":{"type":"Polygon","coordinates":[[[37.890243,48.373584],[37.890287,48.373617],[37.890368,48.37368],[37.890498,48.373775],[37.890616,48.373703],[37.890867,48.373557],[37.890601,48.373378],[37.890243,48.373584]]]}},{"type":"Feature","properties":{"cadnum":"1411270300:01:000:0519"},"geometry":{"type":"Polygon","coordinates":[[[37.89083,48.371621],[37.891176,48.371863],[37.89132,48.371783],[37.891293,48.371759],[37.891293,48.371758],[37.891392,48.371719],[37.891329,48.371651],[37.891244,48.371609],[37.891182,48.371567],[37.891163,48.371579],[37.89114,48.371567],[37.891159,48.371555],[37.891113,48.371525],[37.89083,48.371621]]]}},{"type":"Feature","properties":{"cadnum":"1411270300:01:000:0558"},"geometry":{"type":"Polygon","coordinates":[[[37.887758,48.372292],[37.887794,48.372319],[37.887876,48.372268],[37.88784,48.372241],[37.887758,48.372292]]]}},{"type":"Feature","properties":{"cadnum":"1411270300:01:000:0535"},"geometry":{"type":"Polygon","coordinates":[[[37.89053,48.370747],[37.890607,48.370819],[37.890632,48.370836],[37.890683,48.370869],[37.890683,48.37087],[37.890762,48.37095],[37.890763,48.37095],[37.890867,48.371054],[37.890926,48.371111],[37.891064,48.371049],[37.891132,48.371021],[37.8911,48.370985],[37.891006,48.370874],[37.89092,48.370771],[37.890899,48.370777],[37.890777,48.37064],[37.89053,48.370747]]]}},{"type":"Feature","properties":{"cadnum":"1411270300:01:000:0564"},"geometry":{"type":"Polygon","coordinates":[[[37.891383,48.373814],[37.89145,48.373868],[37.89176,48.373689],[37.892404,48.373316],[37.892421,48.373292],[37.89243,48.373253],[37.892421,48.373208],[37.892375,48.373238],[37.892367,48.373285],[37.892367,48.373286],[37.89176,48.37364],[37.891456,48.373817],[37.891455,48.373817],[37.891419,48.373787],[37.891383,48.373814]]]}},{"type":"Feature","properties":{"cadnum":"1411270300:01:000:0559"},"geometry":{"type":"Polygon","coordinates":[[[37.887413,48.372298],[37.887668,48.372471],[37.887687,48.37246],[37.887804,48.372382],[37.887924,48.372301],[37.887938,48.372296],[37.887678,48.372122],[37.887655,48.37214],[37.887551,48.372206],[37.887517,48.37223],[37.887413,48.372298]],[[37.887794,48.372319],[37.887758,48.372292],[37.88784,48.372241],[37.887876,48.372268],[37.887794,48.372319]]]}},{"type":"Feature","properties":{"cadnum":"1411270300:01:000:0437"},"geometry":{"type":"Polygon","coordinates":[[[37.888792,48.371054],[37.889218,48.371472],[37.889448,48.371439],[37.88898,48.370965],[37.888792,48.371054]]]}},{"type":"Feature","properties":{"cadnum":"1411270300:01:000:0007"},"geometry":{"type":"Polygon","coordinates":[[[37.889402,48.37234],[37.890737,48.373364],[37.891352,48.373832],[37.89176,48.37358],[37.892457,48.373148],[37.891932,48.372719],[37.89145,48.372325],[37.890611,48.371633],[37.889402,48.37234]],[[37.890764,48.372967],[37.890764,48.372966],[37.890893,48.372878],[37.890894,48.372878],[37.89101,48.372951],[37.89101,48.372952],[37.89088,48.373041],[37.890764,48.372967]]]}},{"type":"Feature","properties":{"cadnum":"1411270300:01:000:0036"},"geometry":{"type":"Polygon","coordinates":[[[37.887372,48.374399],[37.887408,48.374426],[37.887538,48.374521],[37.887731,48.374411],[37.887543,48.374291],[37.887444,48.374354],[37.887372,48.374399]]]}},{"type":"Feature","properties":{"cadnum":"1411270300:02:000:0124"},"geometry":{"type":"Polygon","coordinates":[[[37.904323,48.376326],[37.904719,48.376401],[37.904742,48.37635],[37.904769,48.376341],[37.90493,48.375965],[37.90466,48.375921],[37.904584,48.376224],[37.904719,48.376252],[37.904696,48.376299],[37.904629,48.376281],[37.904616,48.376308],[37.904522,48.376284],[37.904356,48.376252],[37.904323,48.376326]]]}},{"type":"Feature","properties":{"cadnum":"1411270300:02:000:0171"},"geometry":{"type":"Polygon","coordinates":[[[37.904189,48.376302],[37.904323,48.376326],[37.904355,48.376252],[37.904356,48.376252],[37.904522,48.376284],[37.904616,48.376308],[37.904629,48.376281],[37.904696,48.376299],[37.904719,48.376252],[37.904584,48.376224],[37.90466,48.375921],[37.904364,48.375864],[37.90435,48.375905],[37.904189,48.376302]]]}},{"type":"Feature","properties":{"cadnum":"1411270300:02:000:0170"},"geometry":{"type":"Polygon","coordinates":[[[37.904216,48.374417],[37.904539,48.374485],[37.904851,48.37455],[37.904858,48.374551],[37.904863,48.374542],[37.904876,48.374512],[37.904966,48.374289],[37.904337,48.374157],[37.904216,48.374417]]]}},{"type":"Feature","properties":{"cadnum":"1411270300:02:000:0008"},"geometry":{"type":"Polygon","coordinates":[[[37.906187,48.375912],[37.906987,48.376028],[37.906987,48.376027],[37.90718,48.375514],[37.906403,48.375368],[37.906187,48.375912]]]}},{"type":"Feature","properties":{"cadnum":"1411270300:01:000:0532"},"geometry":{"type":"Polygon","coordinates":[[[37.90378,48.37589],[37.904314,48.375986],[37.90435,48.375905],[37.903811,48.37581],[37.90378,48.37589]]]}},{"type":"Feature","properties":{"cadnum":"1411270300:02:000:0147"},"geometry":{"type":"Polygon","coordinates":[[[37.903654,48.376204],[37.904189,48.376302],[37.904314,48.375986],[37.90378,48.37589],[37.903654,48.376204]]]}},{"type":"Feature","properties":{"cadnum":"1411270300:01:000:0528"},"geometry":{"type":"Polygon","coordinates":[[[37.903811,48.37581],[37.90435,48.375905],[37.904364,48.375864],[37.904432,48.3757],[37.903883,48.375613],[37.903811,48.37581]]]}},{"type":"Feature","properties":{"cadnum":"1411270300:02:000:0168"},"geometry":{"type":"Polygon","coordinates":[[[37.908141,48.37305],[37.908151,48.373274],[37.908239,48.373272],[37.908239,48.373273],[37.90896,48.373259],[37.90895,48.373032],[37.908298,48.373047],[37.908141,48.37305]]]}},{"type":"Feature","properties":{"cadnum":"1411270300:02:000:0173"},"geometry":{"type":"Polygon","coordinates":[[[37.907759,48.371314],[37.907805,48.371332],[37.907795,48.371337],[37.908239,48.371517],[37.908335,48.371555],[37.908411,48.371488],[37.908411,48.371487],[37.908451,48.371451],[37.908352,48.371409],[37.907971,48.371147],[37.907962,48.371149],[37.907922,48.371108],[37.907759,48.371314]]]}},{"type":"Feature","properties":{"cadnum":"1411270300:02:000:0167"},"geometry":{"type":"Polygon","coordinates":[[[37.908151,48.373274],[37.908159,48.373498],[37.908239,48.373496],[37.908239,48.373497],[37.908298,48.373496],[37.908411,48.373494],[37.908411,48.373493],[37.908968,48.373483],[37.90896,48.373259],[37.908411,48.37327],[37.908411,48.373269],[37.908151,48.373274]]]}},{"type":"Feature","properties":{"cadnum":"1411270300:01:000:0443"},"geometry":{"type":"Polygon","coordinates":[[[37.894119,48.369912],[37.894446,48.370419],[37.894639,48.370365],[37.894289,48.369837],[37.894119,48.369912]]]}},{"type":"Feature","properties":{"cadnum":"1411270300:01:000:0013"},"geometry":{"type":"Polygon","coordinates":[[[37.891712,48.370353],[37.89176,48.370413],[37.891852,48.370527],[37.891932,48.370627],[37.891949,48.370648],[37.891949,48.370649],[37.892121,48.370583],[37.891886,48.370288],[37.891712,48.370353]]]}},{"type":"Feature","properties":{"cadnum":"1411270300:01:000:0530"},"geometry":{"type":"Polygon","coordinates":[[[37.89154,48.370412],[37.89176,48.370691],[37.891783,48.37072],[37.891932,48.370657],[37.891932,48.370656],[37.891949,48.370649],[37.891949,48.370648],[37.891852,48.370527],[37.891712,48.370353],[37.89154,48.370412]]]}},{"type":"Feature","properties":{"cadnum":"1411270300:02:000:0133"},"geometry":{"type":"Polygon","coordinates":[[[37.895817,48.368488],[37.896203,48.36876],[37.896379,48.368658],[37.896432,48.3687],[37.896513,48.368655],[37.896463,48.368614],[37.896467,48.36861],[37.89609,48.368318],[37.895817,48.368488]]]}},{"type":"Feature","properties":{"cadnum":"1411270300:01:000:0448"},"geometry":{"type":"Polygon","coordinates":[[[37.893863,48.370857],[37.893884,48.37095],[37.893885,48.37095],[37.893943,48.371188],[37.894115,48.371171],[37.89406,48.370947],[37.894044,48.370893],[37.894029,48.370839],[37.893863,48.370857]]]}},{"type":"Feature","properties":{"cadnum":"1411270300:01:000:0440"},"geometry":{"type":"Polygon","coordinates":[[[37.894738,48.369843],[37.895031,48.370257],[37.895268,48.3702],[37.895115,48.369971],[37.894972,48.369768],[37.894738,48.369843]]]}},{"type":"Feature","properties":{"cadnum":"1411270300:01:000:0436"},"geometry":{"type":"Polygon","coordinates":[[[37.894523,48.369848],[37.894828,48.370314],[37.895031,48.370257],[37.894698,48.369789],[37.894523,48.369848]]]}},{"type":"Feature","properties":{"cadnum":"1411270300:02:000:0132"},"geometry":{"type":"Polygon","coordinates":[[[37.896392,48.369228],[37.896593,48.369538],[37.896639,48.369523],[37.896836,48.369464],[37.89662,48.369151],[37.896392,48.369228]]]}},{"type":"Feature","properties":{"cadnum":"1411270300:01:000:0557"},"geometry":{"type":"Polygon","coordinates":[[[37.902752,48.372477],[37.902918,48.372491],[37.903434,48.372531],[37.903497,48.372373],[37.902778,48.372298],[37.902752,48.372477]]]}},{"type":"Feature","properties":{"cadnum":"1411270300:02:000:0166"},"geometry":{"type":"Polygon","coordinates":[[[37.90201,48.373552],[37.902746,48.3736],[37.903017,48.373617],[37.903052,48.373441],[37.902864,48.373429],[37.902046,48.373373],[37.90201,48.373552]]]}},{"type":"Feature","properties":{"cadnum":"1411270300:02:001:0003"},"geometry":{"type":"Polygon","coordinates":[[[37.788575,48.384235],[37.788719,48.384348],[37.78885,48.384286],[37.788912,48.384253],[37.78898,48.384208],[37.789065,48.38414],[37.789321,48.383841],[37.789141,48.383695],[37.788805,48.384082],[37.788805,48.384083],[37.788575,48.384235]]]}},{"type":"Feature","properties":{"cadnum":"1411270300:01:000:0552"},"geometry":{"type":"Polygon","coordinates":[[[37.782247,48.411308],[37.782363,48.41145],[37.782665,48.411211],[37.782947,48.411035],[37.783141,48.410914],[37.783011,48.410824],[37.782975,48.4108],[37.782952,48.410815],[37.782726,48.41096],[37.782725,48.41096],[37.782556,48.411069],[37.782548,48.411074],[37.782549,48.411074],[37.782549,48.411075],[37.782247,48.411308]]]}},{"type":"Feature","properties":{"cadnum":"1411270300:01:000:0136"},"geometry":{"type":"Polygon","coordinates":[[[37.901952,48.366229],[37.90241,48.366677],[37.902648,48.366579],[37.902182,48.366115],[37.901952,48.366229]]]}},{"type":"Feature","properties":{"cadnum":"1411270300:02:000:0174"},"geometry":{"type":"Polygon","coordinates":[[[37.898983,48.366754],[37.899302,48.366984],[37.899415,48.367077],[37.899679,48.366942],[37.899356,48.366703],[37.899096,48.366588],[37.899042,48.36665],[37.898983,48.366754]]]}},{"type":"Feature","properties":{"cadnum":"1411270300:01:000:0128"},"geometry":{"type":"Polygon","coordinates":[[[37.901507,48.366453],[37.901983,48.366867],[37.902212,48.366772],[37.901727,48.366343],[37.901507,48.366453]]]}},{"type":"Feature","properties":{"cadnum":"1411270300:02:000:0125"},"geometry":{"type":"Polygon","coordinates":[[[37.913468,48.359282],[37.913541,48.359422],[37.913904,48.359344],[37.913998,48.359324],[37.913927,48.359183],[37.913841,48.359202],[37.913468,48.359282]]]}},{"type":"Feature","properties":{"cadnum":"1411270300:01:000:0435"},"geometry":{"type":"Polygon","coordinates":[[[37.883096,48.374694],[37.883177,48.374769],[37.883285,48.374715],[37.883209,48.374641],[37.883096,48.374694]]]}},{"type":"Feature","properties":{"cadnum":"1411270300:01:000:0408"},"geometry":{"type":"Polygon","coordinates":[[[37.866854,48.373829],[37.867116,48.373904],[37.867012,48.374083],[37.86743,48.374163],[37.867533,48.373847],[37.867533,48.373743],[37.867124,48.373661],[37.867133,48.373641],[37.86699,48.373608],[37.866854,48.373829]]]}},{"type":"Feature","properties":{"cadnum":"1411270300:01:000:0421"},"geometry":{"type":"Polygon","coordinates":[[[37.873561,48.368742],[37.873749,48.368926],[37.874194,48.368724],[37.874005,48.368539],[37.873561,48.368742]]]}},{"type":"Feature","properties":{"cadnum":"1411270300:01:000:0432"},"geometry":{"type":"Polygon","coordinates":[[[37.87158,48.369201],[37.871768,48.369333],[37.872056,48.369171],[37.871886,48.369031],[37.87158,48.369201]]]}},{"type":"Feature","properties":{"cadnum":"1411270300:01:000:0439"},"geometry":{"type":"Polygon","coordinates":[[[37.870871,48.369857],[37.871202,48.369974],[37.870942,48.369815],[37.870871,48.369857]]]}},{"type":"Feature","properties":{"cadnum":"1411270300:01:000:0438"},"geometry":{"type":"Polygon","coordinates":[[[37.870942,48.369815],[37.871202,48.369974],[37.87158,48.369738],[37.871342,48.369577],[37.870942,48.369815]]]}},{"type":"Feature","properties":{"cadnum":"1411270300:01:000:0428"},"geometry":{"type":"Polygon","coordinates":[[[37.869347,48.368435],[37.869599,48.368643],[37.869787,48.368548],[37.869787,48.368549],[37.86994,48.36847],[37.869676,48.368243],[37.869483,48.368345],[37.869347,48.368435]]]}},{"type":"Feature","properties":{"cadnum":"1411270300:01:000:0538"},"geometry":{"type":"Polygon","coordinates":[[[37.871301,48.368426],[37.871472,48.368568],[37.871796,48.36838],[37.871607,48.368247],[37.871301,48.368426]]]}},{"type":"Feature","properties":{"cadnum":"1411270300:01:000:0447"},"geometry":{"type":"Polygon","coordinates":[[[37.872137,48.367862],[37.87233,48.367995],[37.872825,48.367707],[37.87263,48.367572],[37.872137,48.367862]]]}},{"type":"Feature","properties":{"cadnum":"1411270300:01:000:0537"},"geometry":{"type":"Polygon","coordinates":[[[37.872227,48.369079],[37.872433,48.369228],[37.872748,48.369049],[37.872546,48.368903],[37.872227,48.369079]]]}},{"type":"Feature","properties":{"cadnum":"1411270300:01:000:0434"},"geometry":{"type":"Polygon","coordinates":[[[37.87154,48.368205],[37.871733,48.368324],[37.872056,48.36813],[37.871854,48.368014],[37.87154,48.368205]]]}},{"type":"Feature","properties":{"cadnum":"1411270300:01:000:0093"},"geometry":{"type":"Polygon","coordinates":[[[37.873632,48.367503],[37.873831,48.367643],[37.874248,48.367381],[37.87406,48.36725],[37.873632,48.367503]]]}},{"type":"Feature","properties":{"cadnum":"1411270300:01:000:0541"},"geometry":{"type":"Polygon","coordinates":[[[37.870848,48.368682],[37.871028,48.368816],[37.871351,48.368637],[37.871148,48.368508],[37.870848,48.368682]]]}},{"type":"Feature","properties":{"cadnum":"1411270300:01:000:0016"},"geometry":{"type":"Polygon","coordinates":[[[37.87958,48.371219],[37.879754,48.371376],[37.879727,48.371388],[37.8798,48.371451],[37.879836,48.37143],[37.879867,48.371457],[37.879917,48.37143],[37.879939,48.371451],[37.880083,48.371376],[37.879997,48.371299],[37.879966,48.371314],[37.87976,48.371129],[37.87958,48.371219]]]}},{"type":"Feature","properties":{"cadnum":"1411270300:01:000:0563"},"geometry":{"type":"Polygon","coordinates":[[[37.887641,48.382063],[37.887903,48.382338],[37.888024,48.382284],[37.887773,48.382018],[37.887641,48.382063]]]}},{"type":"Feature","properties":{"cadnum":"1411270300:01:000:0562"},"geometry":{"type":"Polygon","coordinates":[[[37.887773,48.382018],[37.888024,48.382284],[37.88836,48.382137],[37.888123,48.381893],[37.887773,48.382018]]]}},{"type":"Feature","properties":{"cadnum":"1411270300:01:000:0441"},"geometry":{"type":"Polygon","coordinates":[[[37.867825,48.365847],[37.868055,48.366029],[37.868458,48.365794],[37.868189,48.365611],[37.867825,48.365847]]]}},{"type":"Feature","properties":{"cadnum":"1411270300:01:000:0499"},"geometry":{"type":"Polygon","coordinates":[[[37.868472,48.366119],[37.868822,48.366376],[37.869083,48.366194],[37.868741,48.365969],[37.868472,48.366119]]]}},{"type":"Feature","properties":{"cadnum":"1411270300:01:000:0500"},"geometry":{"type":"Polygon","coordinates":[[[37.868328,48.366184],[37.868391,48.366232],[37.868468,48.366223],[37.868624,48.366438],[37.868822,48.366376],[37.868472,48.366119],[37.868328,48.366184]]]}},{"type":"Feature","properties":{"cadnum":"1411270300:01:000:0549"},"geometry":{"type":"Polygon","coordinates":[[[37.8991,48.383072],[37.899379,48.383277],[37.899406,48.383274],[37.899629,48.382776],[37.899572,48.38274],[37.8991,48.383072]]]}},{"type":"Feature","properties":{"cadnum":"1411270300:01:000:0604"},"geometry":{"type":"Polygon","coordinates":[[[37.897645,48.382108],[37.897675,48.382135],[37.897675,48.382137],[37.897712,48.382165],[37.897798,48.38223],[37.897834,48.382212],[37.897667,48.382093],[37.897645,48.382108]]]}},{"type":"Feature","properties":{"cadnum":"1411270300:01:000:0602"},"geometry":{"type":"Polygon","coordinates":[[[37.897958,48.382358],[37.898331,48.382636],[37.898453,48.38272],[37.89848,48.382701],[37.898,48.382335],[37.897958,48.382358]]]}},{"type":"Feature","properties":{"cadnum":"1411270300:01:000:0423"},"geometry":{"type":"Polygon","coordinates":[[[37.89905,48.382236],[37.899379,48.382453],[37.899629,48.382227],[37.89936,48.382037],[37.89905,48.382236]]]}},{"type":"Feature","properties":{"cadnum":"1411270300:01:000:0598"},"geometry":{"type":"Polygon","coordinates":[[[37.898939,48.383083],[37.899042,48.383161],[37.899055,48.383155],[37.899153,48.38311],[37.899119,48.383083],[37.899042,48.383119],[37.89897,48.383065],[37.898939,48.383083]]]}},{"type":"Feature","properties":{"cadnum":"1411270300:01:000:0600"},"geometry":{"type":"Polygon","coordinates":[[[37.89862,48.382842],[37.898777,48.382964],[37.898807,48.382943],[37.898646,48.382827],[37.89862,48.382842]]]}},{"type":"Feature","properties":{"cadnum":"1411270300:01:000:0603"},"geometry":{"type":"Polygon","coordinates":[[[37.897798,48.38223],[37.897882,48.382298],[37.897918,48.382325],[37.897958,48.382358],[37.898,48.382335],[37.897834,48.382212],[37.897798,48.38223]]]}},{"type":"Feature","properties":{"cadnum":"1411270300:01:000:0620"},"geometry":{"type":"Polygon","coordinates":[[[37.897572,48.382815],[37.897658,48.382877],[37.897725,48.382893],[37.897775,48.382928],[37.897807,48.382985],[37.897987,48.383116],[37.898027,48.383092],[37.897918,48.383015],[37.897914,48.383021],[37.897847,48.382979],[37.897861,48.38297],[37.897614,48.382791],[37.897572,48.382815]]]}},{"type":"Feature","properties":{"cadnum":"1411270300:01:000:0621"},"geometry":{"type":"Polygon","coordinates":[[[37.898062,48.383173],[37.898566,48.38354],[37.898587,48.383545],[37.89862,48.383525],[37.898103,48.383149],[37.898062,48.383173]]]}},{"type":"Feature","properties":{"cadnum":"1411270300:01:000:0597"},"geometry":{"type":"Polygon","coordinates":[[[37.899419,48.382075],[37.899455,48.382102],[37.899509,48.382048],[37.899585,48.382192],[37.899629,48.382227],[37.899621,48.382236],[37.899662,48.382269],[37.89967,48.382257],[37.899666,48.382245],[37.89954,48.381997],[37.899495,48.381964],[37.899455,48.381989],[37.899482,48.382009],[37.899419,48.382075]]]}},{"type":"Feature","properties":{"cadnum":"1411270300:01:000:0599"},"geometry":{"type":"Polygon","coordinates":[[[37.898777,48.382964],[37.898939,48.383083],[37.89897,48.383065],[37.898807,48.382943],[37.898777,48.382964]]]}},{"type":"Feature","properties":{"cadnum":"1411270300:01:000:0601"},"geometry":{"type":"Polygon","coordinates":[[[37.898453,48.38272],[37.898538,48.382788],[37.898574,48.382809],[37.89862,48.382842],[37.898646,48.382827],[37.89848,48.382701],[37.898453,48.38272]]]}},{"type":"Feature","properties":{"cadnum":"1411270300:01:000:0418"},"geometry":{"type":"Polygon","coordinates":[[[37.875928,48.365668],[37.875955,48.365767],[37.876125,48.365946],[37.876481,48.365758],[37.876449,48.365734],[37.87679,48.365522],[37.876502,48.365316],[37.875928,48.365668]]]}},{"type":"Feature","properties":{"cadnum":"1411270300:01:000:0159"},"geometry":{"type":"Polygon","coordinates":[[[37.89088,48.377725],[37.891033,48.377839],[37.891492,48.377555],[37.891325,48.377451],[37.89123,48.377511],[37.89115,48.377558],[37.89088,48.377725]]]}},{"type":"Feature","properties":{"cadnum":"1411270300:01:000:0156"},"geometry":{"type":"Polygon","coordinates":[[[37.890027,48.376976],[37.890184,48.377093],[37.890611,48.376836],[37.890454,48.376723],[37.890027,48.376976]]]}},{"type":"Feature","properties":{"cadnum":"1411270300:01:000:0012"},"geometry":{"type":"Polygon","coordinates":[[[37.888001,48.376619],[37.888622,48.377081],[37.888949,48.37689],[37.888985,48.376872],[37.889654,48.376478],[37.890045,48.376252],[37.890408,48.37604],[37.889748,48.375583],[37.888356,48.37641],[37.888307,48.37644],[37.888001,48.376619]]]}},{"type":"Feature","properties":{"cadnum":"1411270300:01:000:0081"},"geometry":{"type":"Polygon","coordinates":[[[37.889752,48.377517],[37.889915,48.377633],[37.890368,48.377365],[37.890202,48.377245],[37.889951,48.377398],[37.889857,48.377454],[37.889752,48.377517]]]}},{"type":"Feature","properties":{"cadnum":"1411270300:01:000:0493"},"geometry":{"type":"Polygon","coordinates":[[[37.890278,48.377884],[37.890436,48.377997],[37.89088,48.377725],[37.890723,48.377612],[37.890278,48.377884]]]}},{"type":"Feature","properties":{"cadnum":"1411270300:00:001:0023"},"geometry":{"type":"Polygon","coordinates":[[[37.886442,48.376195],[37.886811,48.376469],[37.88713,48.376281],[37.886766,48.376004],[37.886442,48.376195]]]}},{"type":"Feature","properties":{"cadnum":"1411270300:01:000:0492"},"geometry":{"type":"Polygon","coordinates":[[[37.890436,48.377997],[37.890593,48.37811],[37.891033,48.377839],[37.89088,48.377725],[37.890436,48.377997]]]}},{"type":"Feature","properties":{"cadnum":"1411270300:01:000:0154"},"geometry":{"type":"Polygon","coordinates":[[[37.890934,48.377],[37.89123,48.377227],[37.891555,48.377064],[37.891257,48.376836],[37.890934,48.377]]]}},{"type":"Feature","properties":{"cadnum":"1411270300:01:000:0031"},"geometry":{"type":"Polygon","coordinates":[[[37.887458,48.37524],[37.887808,48.375488],[37.887844,48.375512],[37.887871,48.375532],[37.887893,48.375545],[37.887947,48.37558],[37.888006,48.375541],[37.887997,48.375532],[37.88805,48.3755],[37.887983,48.375455],[37.887951,48.375434],[37.88793,48.375416],[37.887907,48.375383],[37.887853,48.375344],[37.887597,48.375156],[37.88758,48.375169],[37.887557,48.37518],[37.887458,48.37524]]]}},{"type":"Feature","properties":{"cadnum":"1411270300:01:000:0082"},"geometry":{"type":"Polygon","coordinates":[[[37.889609,48.3774],[37.889752,48.377517],[37.889857,48.377454],[37.889951,48.377398],[37.890202,48.377245],[37.890054,48.377126],[37.889924,48.377212],[37.889928,48.377218],[37.889928,48.377219],[37.889861,48.377263],[37.889609,48.3774]]]}},{"type":"Feature","properties":{"cadnum":"1411270300:01:000:0536"},"geometry":{"type":"Polygon","coordinates":[[[37.90983,48.376962],[37.909952,48.376974],[37.90996,48.376929],[37.909843,48.376917],[37.90983,48.376962]]]}},{"type":"Feature","properties":{"cadnum":"1411270300:02:000:0003"},"geometry":{"type":"Polygon","coordinates":[[[37.907176,48.369386],[37.907419,48.369568],[37.907723,48.369416],[37.907455,48.369213],[37.907176,48.369386]]]}},{"type":"Feature","properties":{"cadnum":"1411270300:02:000:0002"},"geometry":{"type":"Polygon","coordinates":[[[37.907526,48.369774],[37.907688,48.369861],[37.907795,48.369711],[37.907738,48.369669],[37.907526,48.369774]]]}},{"type":"Feature","properties":{"cadnum":"1411270300:02:000:0015"},"geometry":{"type":"Polygon","coordinates":[[[37.907571,48.369067],[37.907661,48.369132],[37.907759,48.369072],[37.907669,48.369007],[37.907571,48.369067]]]}},{"type":"Feature","properties":{"cadnum":"1411270300:02:000:0009"},"geometry":{"type":"Polygon","coordinates":[[[37.907683,48.369831],[37.907845,48.369941],[37.907773,48.369986],[37.907931,48.370087],[37.907966,48.370118],[37.908074,48.370052],[37.908052,48.370037],[37.908052,48.370036],[37.908078,48.370019],[37.908124,48.369989],[37.908137,48.369998],[37.908151,48.369989],[37.908304,48.369893],[37.908172,48.369801],[37.908132,48.369771],[37.907836,48.369559],[37.907702,48.369643],[37.90771,48.369652],[37.907832,48.369738],[37.907683,48.369831]]]}},{"type":"Feature","properties":{"cadnum":"1411270300:02:000:0158"},"geometry":{"type":"Polygon","coordinates":[[[37.909933,48.369472],[37.910302,48.36984],[37.910648,48.369744],[37.910243,48.369306],[37.909933,48.369472]]]}},{"type":"Feature","properties":{"cadnum":"1411270300:02:000:0004"},"geometry":{"type":"Polygon","coordinates":[[[37.90882,48.36975],[37.908927,48.369861],[37.909336,48.369673],[37.90921,48.369568],[37.90882,48.36975]]]}},{"type":"Feature","properties":{"cadnum":"1411270300:02:000:0117"},"geometry":{"type":"Polygon","coordinates":[[[37.90414,48.35328],[37.904233,48.353304],[37.90427,48.353241],[37.904176,48.353217],[37.90414,48.35328]]]}},{"type":"Feature","properties":{"cadnum":"1411270300:02:000:0118"},"geometry":{"type":"Polygon","coordinates":[[[37.904287,48.353029],[37.904382,48.353056],[37.904419,48.352993],[37.904323,48.352969],[37.904287,48.353029]]]}},{"type":"Feature","properties":{"cadnum":"1411270300:02:000:0116"},"geometry":{"type":"Polygon","coordinates":[[[37.903853,48.353692],[37.903928,48.35376],[37.904031,48.353709],[37.90396,48.353641],[37.903853,48.353692]]]}},{"type":"Feature","properties":{"cadnum":"1411270300:02:000:0120"},"geometry":{"type":"Polygon","coordinates":[[[37.905136,48.353599],[37.905136,48.353685],[37.905267,48.353685],[37.905267,48.353599],[37.905136,48.353599]]]}},{"type":"Feature","properties":{"cadnum":"1411270300:02:000:0121"},"geometry":{"type":"Polygon","coordinates":[[[37.905715,48.353214],[37.905788,48.353256],[37.905855,48.353208],[37.905778,48.353163],[37.905715,48.353214]]]}},{"type":"Feature","properties":{"cadnum":"1411270300:02:000:0122"},"geometry":{"type":"Polygon","coordinates":[[[37.906251,48.352814],[37.906327,48.352858],[37.906394,48.352808],[37.906318,48.352763],[37.906251,48.352814]]]}},{"type":"Feature","properties":{"cadnum":"1411270300:01:000:0478"},"geometry":{"type":"Polygon","coordinates":[[[37.89584,48.380545],[37.895857,48.380679],[37.896127,48.380881],[37.896383,48.38073],[37.89601,48.380456],[37.89584,48.380545]]]}},{"type":"Feature","properties":{"cadnum":"1411270300:01:000:0610"},"geometry":{"type":"Polygon","coordinates":[[[37.895044,48.380905],[37.895067,48.380918],[37.895094,48.380912],[37.895188,48.380825],[37.895148,48.380798],[37.895048,48.380891],[37.895044,48.380905]]]}},{"type":"Feature","properties":{"cadnum":"1411270300:01:000:0611"},"geometry":{"type":"Polygon","coordinates":[[[37.895161,48.380571],[37.895287,48.38067],[37.895264,48.380691],[37.8953,48.380717],[37.895327,48.380697],[37.895578,48.380872],[37.895821,48.381073],[37.895866,48.381051],[37.89562,48.380849],[37.895197,48.380547],[37.895161,48.380571]]]}},{"type":"Feature","properties":{"cadnum":"1411270300:01:000:0582"},"geometry":{"type":"Polygon","coordinates":[[[37.89631,48.37979],[37.89631,48.379804],[37.896482,48.379933],[37.896522,48.37991],[37.896356,48.379787],[37.896337,48.379781],[37.89631,48.37979]]]}},{"type":"Feature","properties":{"cadnum":"1411270300:01:000:0556"},"geometry":{"type":"Polygon","coordinates":[[[37.89654,48.379817],[37.896895,48.380076],[37.897169,48.379933],[37.896827,48.37968],[37.89654,48.379817]]]}},{"type":"Feature","properties":{"cadnum":"1411270300:01:000:0585"},"geometry":{"type":"Polygon","coordinates":[[[37.897029,48.380348],[37.897236,48.3805],[37.897276,48.380476],[37.897173,48.380399],[37.897173,48.380398],[37.897249,48.380333],[37.897209,48.380306],[37.897138,48.380372],[37.897069,48.380324],[37.897029,48.380348]]]}},{"type":"Feature","properties":{"cadnum":"1411270300:01:000:0608"},"geometry":{"type":"Polygon","coordinates":[[[37.896033,48.380923],[37.896037,48.380945],[37.896446,48.381243],[37.896486,48.381216],[37.896077,48.380918],[37.896059,48.380914],[37.896033,48.380923]]]}},{"type":"Feature","properties":{"cadnum":"1411270300:01:000:0607"},"geometry":{"type":"Polygon","coordinates":[[[37.896446,48.381243],[37.8968,48.381505],[37.89684,48.381482],[37.896486,48.381216],[37.896446,48.381243]]]}},{"type":"Feature","properties":{"cadnum":"1411270300:01:000:0609"},"geometry":{"type":"Polygon","coordinates":[[[37.894702,48.380166],[37.894708,48.380184],[37.894977,48.380431],[37.895017,48.380407],[37.894748,48.380162],[37.894729,48.380154],[37.894702,48.380166]]]}},{"type":"Feature","properties":{"cadnum":"1411270300:01:000:0612"},"geometry":{"type":"Polygon","coordinates":[[[37.89562,48.381365],[37.895633,48.381377],[37.895654,48.381377],[37.895668,48.381371],[37.895817,48.381225],[37.895933,48.381159],[37.895884,48.381124],[37.895853,48.381138],[37.895624,48.38135],[37.89562,48.381365]]]}},{"type":"Feature","properties":{"cadnum":"1411270300:01:000:0623"},"geometry":{"type":"Polygon","coordinates":[[[37.8968,48.381505],[37.897205,48.381803],[37.897209,48.38178],[37.897205,48.38175],[37.897025,48.381619],[37.897079,48.381553],[37.897042,48.381526],[37.896989,48.381592],[37.89684,48.381482],[37.8968,48.381505]]]}},{"type":"Feature","properties":{"cadnum":"1411270300:01:000:0614"},"geometry":{"type":"Polygon","coordinates":[[[37.896279,48.381451],[37.896432,48.381628],[37.89644,48.381637],[37.896473,48.381663],[37.896503,48.381687],[37.896517,48.381681],[37.896553,48.381663],[37.896522,48.381639],[37.896463,48.381597],[37.896419,48.381541],[37.896369,48.381508],[37.896306,48.38144],[37.896279,48.381451]]]}},{"type":"Feature","properties":{"cadnum":"1411270300:01:000:0613"},"geometry":{"type":"Polygon","coordinates":[[[37.895884,48.381124],[37.895933,48.381159],[37.895956,48.381177],[37.895991,48.381204],[37.896019,48.381225],[37.896019,48.381234],[37.89622,48.381398],[37.896257,48.381383],[37.896306,48.381431],[37.896316,48.381425],[37.896289,48.381395],[37.895929,48.381102],[37.895884,48.381124]]]}},{"type":"Feature","properties":{"cadnum":"1411270300:01:000:0583"},"geometry":{"type":"Polygon","coordinates":[[[37.896482,48.379933],[37.896765,48.380148],[37.896805,48.380124],[37.896729,48.380067],[37.896792,48.379999],[37.89675,48.379972],[37.896693,48.380038],[37.896692,48.380038],[37.896522,48.37991],[37.896482,48.379933]]]}},{"type":"Feature","properties":{"cadnum":"1411270300:01:000:0584"},"geometry":{"type":"Polygon","coordinates":[[[37.896765,48.380148],[37.897029,48.380348],[37.897069,48.380324],[37.896805,48.380124],[37.896765,48.380148]]]}},{"type":"Feature","properties":{"cadnum":"1411270300:01:000:0415"},"geometry":{"type":"Polygon","coordinates":[[[37.87132,48.361377],[37.871355,48.361412],[37.871405,48.361386],[37.871368,48.361353],[37.87132,48.361377]]]}},{"type":"Feature","properties":{"cadnum":"1411270300:01:000:0539"},"geometry":{"type":"Polygon","coordinates":[[[37.902941,48.380249],[37.903039,48.380268],[37.903071,48.380187],[37.902972,48.380169],[37.902941,48.380249]]]}},{"type":"Feature","properties":{"cadnum":"1411270300:01:000:0555"},"geometry":{"type":"Polygon","coordinates":[[[37.793162,48.392145],[37.793265,48.392309],[37.793751,48.392238],[37.793804,48.392145],[37.794221,48.390457],[37.794248,48.390344],[37.793772,48.390287],[37.793503,48.391075],[37.793494,48.391107],[37.793372,48.391474],[37.793363,48.39151],[37.793162,48.392145]]]}},{"type":"Feature","properties":{"cadnum":"1411270300:02:001:0002"},"geometry":{"type":"Polygon","coordinates":[[[37.778851,48.387116],[37.779489,48.387316],[37.779575,48.387348],[37.77992,48.387483],[37.779948,48.38748],[37.779969,48.387468],[37.780334,48.386979],[37.780338,48.386958],[37.780321,48.386943],[37.779776,48.386749],[37.779243,48.386579],[37.778851,48.387116]]]}},{"type":"Feature","properties":{"cadnum":"1411270300:01:000:0405"},"geometry":{"type":"Polygon","coordinates":[[[37.868611,48.368192],[37.869118,48.368581],[37.869483,48.368345],[37.86898,48.368002],[37.868611,48.368192]]]}},{"type":"Feature","properties":{"cadnum":"1411270300:01:000:0404"},"geometry":{"type":"Polygon","coordinates":[[[37.86898,48.368002],[37.869483,48.368345],[37.869676,48.368243],[37.869456,48.368115],[37.869236,48.367873],[37.86898,48.368002]]]}},{"type":"Feature","properties":{"cadnum":"1411270300:01:000:0551"},"geometry":{"type":"Polygon","coordinates":[[[37.773767,48.395501],[37.77436,48.39612],[37.774549,48.39627],[37.774558,48.396266],[37.774629,48.396225],[37.774696,48.396189],[37.774522,48.396055],[37.773933,48.395432],[37.773767,48.395501]]]}},{"type":"Feature","properties":{"cadnum":"1411270300:01:000:0547"},"geometry":{"type":"Polygon","coordinates":[[[37.775725,48.395092],[37.775851,48.395262],[37.776063,48.395485],[37.776403,48.395351],[37.776291,48.395208],[37.776098,48.394979],[37.775725,48.395092]]]}},{"type":"Feature","properties":{"cadnum":"1411270300:01:000:0540"},"geometry":{"type":"Polygon","coordinates":[[[37.893989,48.374059],[37.894029,48.374202],[37.894119,48.374193],[37.894218,48.374181],[37.894832,48.374094],[37.894792,48.373951],[37.894438,48.373999],[37.894195,48.374028],[37.894136,48.374035],[37.893989,48.374059]]]}},{"type":"Feature","properties":{"cadnum":"1411270300:01:000:0560"},"geometry":{"type":"Polygon","coordinates":[[[37.892354,48.371812],[37.892362,48.371821],[37.892375,48.371839],[37.892492,48.371991],[37.892511,48.372015],[37.892821,48.371914],[37.89278,48.371755],[37.892771,48.37171],[37.892767,48.371704],[37.892762,48.371686],[37.892713,48.37169],[37.892354,48.371812]]]}},{"type":"Feature","properties":{"cadnum":"1411270300:01:000:0565"},"geometry":{"type":"Polygon","coordinates":[[[37.891869,48.372573],[37.891886,48.372591],[37.891913,48.372584],[37.891962,48.372558],[37.892641,48.37308],[37.892475,48.373179],[37.89252,48.373199],[37.892713,48.373083],[37.891972,48.372507],[37.891878,48.372558],[37.891869,48.372573]]]}},{"type":"Feature","properties":{"cadnum":"1411270300:01:000:0495"},"geometry":{"type":"Polygon","coordinates":[[[37.891972,48.374399],[37.892151,48.374524],[37.892502,48.374354],[37.892362,48.374247],[37.892295,48.374196],[37.892111,48.374309],[37.892025,48.374366],[37.891972,48.374399]]]}},{"type":"Feature","properties":{"cadnum":"1411270300:01:000:0188"},"geometry":{"type":"Polygon","coordinates":[[[37.893737,48.37317],[37.893822,48.373453],[37.894029,48.373432],[37.894025,48.373382],[37.893993,48.373277],[37.893966,48.373194],[37.893953,48.373143],[37.893737,48.37317]]]}},{"type":"Feature","properties":{"cadnum":"1411270300:01:000:0183"},"geometry":{"type":"Polygon","coordinates":[[[37.892735,48.372316],[37.892754,48.372367],[37.89287,48.372331],[37.893283,48.372277],[37.893283,48.372272],[37.893356,48.372265],[37.89332,48.372119],[37.892974,48.372167],[37.892928,48.372185],[37.892735,48.372316]]]}},{"type":"Feature","properties":{"cadnum":"1411270300:01:000:0450"},"geometry":{"type":"Polygon","coordinates":[[[37.89375,48.37137],[37.893786,48.371502],[37.89379,48.371511],[37.894258,48.37146],[37.894209,48.37131],[37.894123,48.371319],[37.894038,48.371326],[37.89375,48.37137]]]}},{"type":"Feature","properties":{"cadnum":"1411270300:01:000:0433"},"geometry":{"type":"Polygon","coordinates":[[[37.893293,48.371424],[37.893328,48.371555],[37.893786,48.371502],[37.89375,48.37137],[37.893293,48.371424]]]}},{"type":"Feature","properties":{"cadnum":"1411270300:02:001:0001"},"geometry":{"type":"Polygon","coordinates":[[[37.790485,48.387316],[37.790512,48.387343],[37.790502,48.387348],[37.790588,48.387445],[37.790619,48.387489],[37.790632,48.38751],[37.790606,48.387519],[37.790718,48.387692],[37.790736,48.387722],[37.790831,48.387689],[37.790835,48.387698],[37.790902,48.387692],[37.791101,48.387656],[37.790776,48.387143],[37.790485,48.387316]]]}},{"type":"Feature","properties":{"cadnum":"1411270300:01:000:0522"},"geometry":{"type":"Polygon","coordinates":[[[37.905191,48.37177],[37.905308,48.371794],[37.905419,48.371815],[37.905577,48.371845],[37.906035,48.371922],[37.906071,48.371848],[37.905411,48.371719],[37.905302,48.371702],[37.905231,48.371686],[37.905191,48.37177]]]}},{"type":"Feature","properties":{"cadnum":"1411270300:01:000:0548"},"geometry":{"type":"Polygon","coordinates":[[[37.793135,48.382009],[37.794491,48.382165],[37.794783,48.382209],[37.79511,48.382275],[37.795164,48.382156],[37.794828,48.382087],[37.793818,48.381986],[37.793799,48.382039],[37.793143,48.381971],[37.793135,48.382009]]]}}]}