{"type":"FeatureCollection","features":[{"type":"Feature","properties":{"cadnum":"1412330000:01:013:0203"},"geometry":{"type":"Polygon","coordinates":[[[37.667258,47.105622],[37.667267,47.105692],[37.667276,47.105692],[37.667339,47.105689],[37.667347,47.105689],[37.667357,47.105686],[37.667353,47.105646],[37.667347,47.105616],[37.667258,47.105622]]]}},{"type":"Feature","properties":{"cadnum":"1412330000:01:007:0346"},"geometry":{"type":"Polygon","coordinates":[[[37.55314,47.097104],[37.55315,47.097119],[37.553146,47.097119],[37.55319,47.097177],[37.553199,47.097189],[37.553236,47.097177],[37.553222,47.097166],[37.553222,47.097165],[37.553433,47.097086],[37.553446,47.097101],[37.553477,47.097089],[37.553464,47.097073],[37.553477,47.097067],[37.553406,47.096982],[37.553401,47.096985],[37.553401,47.096982],[37.553397,47.096985],[37.553366,47.096997],[37.553333,47.097009],[37.553329,47.097021],[37.553297,47.09703],[37.553307,47.097043],[37.553199,47.097086],[37.553207,47.097098],[37.553186,47.097104],[37.553177,47.097091],[37.55314,47.097104]]]}},{"type":"Feature","properties":{"cadnum":"1412330000:04:008:0366"},"geometry":{"type":"Polygon","coordinates":[[[37.499058,47.141113],[37.499157,47.141129],[37.49926,47.140759],[37.499161,47.140746],[37.499058,47.141113]]]}}]}