{"type":"FeatureCollection","features":[{"type":"Feature","properties":{"cadnum":"1412045300:00:000:0010"},"geometry":{"type":"Polygon","coordinates":[[[38.285662,48.269897],[38.285681,48.269924],[38.285695,48.26992],[38.285725,48.269911],[38.285735,48.269908],[38.285721,48.269882],[38.285662,48.269897]]]}},{"type":"Feature","properties":{"cadnum":"1412045300:00:001:0036"},"geometry":{"type":"Polygon","coordinates":[[[38.286067,48.268778],[38.286305,48.269077],[38.286345,48.269128],[38.286391,48.26911],[38.286718,48.268987],[38.28644,48.268638],[38.286291,48.268694],[38.286067,48.268778]]]}},{"type":"Feature","properties":{"cadnum":"1412045300:00:001:0092"},"geometry":{"type":"Polygon","coordinates":[[[38.285048,48.269152],[38.285318,48.269442],[38.285519,48.269367],[38.285569,48.26935],[38.285546,48.269323],[38.285475,48.269239],[38.285421,48.269179],[38.285389,48.269146],[38.285335,48.26908],[38.285308,48.269053],[38.285048,48.269152]]]}},{"type":"Feature","properties":{"cadnum":"1412045300:00:001:0013"},"geometry":{"type":"Polygon","coordinates":[[[38.286215,48.27183],[38.28622,48.271923],[38.286318,48.271989],[38.286454,48.271969],[38.28653,48.271845],[38.286458,48.271768],[38.286458,48.271741],[38.286417,48.271741],[38.286417,48.271768],[38.286318,48.27177],[38.286215,48.27183]]]}},{"type":"Feature","properties":{"cadnum":"1412045300:00:001:0031"},"geometry":{"type":"Polygon","coordinates":[[[38.285618,48.271012],[38.286458,48.271289],[38.286601,48.271101],[38.285748,48.270856],[38.285618,48.271012]]]}},{"type":"Feature","properties":{"cadnum":"1412045300:00:001:0109"},"geometry":{"type":"Polygon","coordinates":[[[38.285318,48.269059],[38.285569,48.26935],[38.285712,48.269284],[38.285784,48.26925],[38.285505,48.268996],[38.285488,48.268978],[38.285456,48.268993],[38.285318,48.269059]]]}},{"type":"Feature","properties":{"cadnum":"1412045300:00:001:0034"},"geometry":{"type":"Polygon","coordinates":[[[38.286058,48.270291],[38.286305,48.270569],[38.286377,48.270542],[38.28636,48.270522],[38.286471,48.270476],[38.28648,48.270485],[38.286566,48.270452],[38.286557,48.270441],[38.286557,48.27044],[38.286628,48.270414],[38.286643,48.270425],[38.286727,48.270393],[38.286476,48.270132],[38.286058,48.270291]]]}},{"type":"Feature","properties":{"cadnum":"1412045300:00:001:0090"},"geometry":{"type":"Polygon","coordinates":[[[38.286723,48.26946],[38.28692,48.2697],[38.287123,48.269625],[38.286979,48.269448],[38.28697,48.269436],[38.28693,48.269385],[38.286723,48.26946]]]}},{"type":"Feature","properties":{"cadnum":"1412045300:00:001:0102"},"geometry":{"type":"Polygon","coordinates":[[[38.281966,48.268351],[38.28204,48.268557],[38.282072,48.268644],[38.282082,48.268671],[38.28211,48.268748],[38.282343,48.268677],[38.28228,48.268557],[38.282159,48.268324],[38.282146,48.2683],[38.28211,48.268311],[38.281966,48.268351]]]}},{"type":"Feature","properties":{"cadnum":"1412045300:00:001:0101"},"geometry":{"type":"Polygon","coordinates":[[[38.287096,48.270255],[38.287268,48.270461],[38.287268,48.270462],[38.287276,48.270471],[38.28732,48.270527],[38.287343,48.270551],[38.287439,48.270515],[38.287439,48.270514],[38.287459,48.270506],[38.287509,48.270489],[38.287496,48.270471],[38.287325,48.270261],[38.287303,48.270234],[38.287284,48.270214],[38.287266,48.27019],[38.287222,48.270207],[38.287119,48.270246],[38.287096,48.270255]]]}},{"type":"Feature","properties":{"cadnum":"1412045300:00:001:0022"},"geometry":{"type":"Polygon","coordinates":[[[38.285379,48.269998],[38.285434,48.270061],[38.285492,48.270037],[38.285438,48.269974],[38.285379,48.269998]]]}},{"type":"Feature","properties":{"cadnum":"1412045300:00:000:0009"},"geometry":{"type":"Polygon","coordinates":[[[38.285699,48.269953],[38.285721,48.269989],[38.285779,48.269971],[38.285758,48.269935],[38.285748,48.269941],[38.285712,48.26995],[38.285699,48.269953]]]}},{"type":"Feature","properties":{"cadnum":"1412045300:01:000:0029"},"geometry":{"type":"Polygon","coordinates":[[[38.291488,48.266075],[38.291555,48.266219],[38.292356,48.266028],[38.29231,48.265887],[38.291488,48.266075]]]}},{"type":"Feature","properties":{"cadnum":"1412045300:00:001:0014"},"geometry":{"type":"Polygon","coordinates":[[[38.291048,48.265325],[38.291079,48.265432],[38.291147,48.265423],[38.291115,48.265322],[38.291126,48.264935],[38.291129,48.264874],[38.291147,48.264721],[38.291148,48.264721],[38.291219,48.26464],[38.291197,48.264581],[38.291084,48.264709],[38.291062,48.264871],[38.291061,48.2649],[38.29106,48.2649],[38.29106,48.264927],[38.291056,48.265015],[38.291057,48.265015],[38.291048,48.265325]]]}},{"type":"Feature","properties":{"cadnum":"1412045300:00:001:0030"},"geometry":{"type":"Polygon","coordinates":[[[38.289238,48.264634],[38.289452,48.2649],[38.289451,48.2649],[38.289497,48.264956],[38.289544,48.265015],[38.289561,48.265035],[38.289903,48.264922],[38.289616,48.264512],[38.289238,48.264634]]]}},{"type":"Feature","properties":{"cadnum":"1412045300:00:000:0015"},"geometry":{"type":"Polygon","coordinates":[[[38.288138,48.265624],[38.288668,48.266174],[38.288802,48.26613],[38.288519,48.265789],[38.288326,48.265549],[38.288138,48.265624]]]}},{"type":"Feature","properties":{"cadnum":"1412045300:00:000:0024"},"geometry":{"type":"Polygon","coordinates":[[[38.278005,48.28351],[38.278162,48.283758],[38.278324,48.283707],[38.278324,48.283713],[38.278477,48.283668],[38.278324,48.283417],[38.278005,48.28351]]]}},{"type":"Feature","properties":{"cadnum":"1412045300:00:001:0032"},"geometry":{"type":"Polygon","coordinates":[[[38.280264,48.275621],[38.280339,48.275869],[38.280338,48.275869],[38.280372,48.27598],[38.280838,48.275971],[38.280727,48.275561],[38.280412,48.275606],[38.280408,48.275588],[38.280354,48.275597],[38.280354,48.275609],[38.280354,48.27561],[38.280264,48.275621]]]}},{"type":"Feature","properties":{"cadnum":"1412045300:00:001:0106"},"geometry":{"type":"Polygon","coordinates":[[[38.280897,48.277023],[38.281001,48.277821],[38.281211,48.277819],[38.281095,48.276948],[38.280897,48.277023]]]}},{"type":"Feature","properties":{"cadnum":"1412045300:00:001:0012"},"geometry":{"type":"Polygon","coordinates":[[[38.283454,48.274482],[38.283798,48.274865],[38.284014,48.274733],[38.283731,48.274378],[38.283454,48.274482]]]}},{"type":"Feature","properties":{"cadnum":"1412045300:00:000:0023"},"geometry":{"type":"Polygon","coordinates":[[[38.281234,48.272007],[38.28151,48.272327],[38.281511,48.272327],[38.281511,48.272328],[38.281774,48.272632],[38.281775,48.272632],[38.281819,48.272683],[38.281946,48.272635],[38.281946,48.272634],[38.28206,48.27259],[38.281882,48.272404],[38.281729,48.272244],[38.281661,48.27227],[38.281647,48.272276],[38.281477,48.272097],[38.281553,48.272061],[38.281431,48.271932],[38.281234,48.272007]]]}},{"type":"Feature","properties":{"cadnum":"1412045300:01:000:0027"},"geometry":{"type":"Polygon","coordinates":[[[38.281962,48.267779],[38.282236,48.268142],[38.282618,48.268022],[38.282343,48.267657],[38.28219,48.267705],[38.281962,48.267779]]]}},{"type":"Feature","properties":{"cadnum":"1412045300:00:001:0099"},"geometry":{"type":"Polygon","coordinates":[[[38.283085,48.268004],[38.283188,48.268133],[38.283228,48.268189],[38.283287,48.268276],[38.283309,48.268309],[38.283543,48.268228],[38.283318,48.26792],[38.283148,48.26798],[38.283085,48.268004]]]}},{"type":"Feature","properties":{"cadnum":"1412045300:00:001:0037"},"geometry":{"type":"Polygon","coordinates":[[[38.282259,48.26557],[38.282613,48.266088],[38.282788,48.26603],[38.282605,48.265678],[38.282425,48.26551],[38.282259,48.26557]]]}},{"type":"Feature","properties":{"cadnum":"1412045300:00:000:0025"},"geometry":{"type":"Polygon","coordinates":[[[38.284419,48.268366],[38.28454,48.268527],[38.284773,48.268441],[38.285186,48.268306],[38.285123,48.268228],[38.284846,48.26833],[38.284886,48.268377],[38.284886,48.268378],[38.284765,48.268422],[38.284653,48.268282],[38.284419,48.268366]]]}},{"type":"Feature","properties":{"cadnum":"1412045300:00:001:0026"},"geometry":{"type":"Polygon","coordinates":[[[38.281404,48.267863],[38.281683,48.268321],[38.281774,48.268292],[38.281775,48.268292],[38.281775,48.268293],[38.281899,48.268252],[38.281607,48.26781],[38.281404,48.267863]]]}},{"type":"Feature","properties":{"cadnum":"1412045300:00:001:0035"},"geometry":{"type":"Polygon","coordinates":[[[38.287595,48.270103],[38.287823,48.270363],[38.288115,48.270255],[38.288052,48.270177],[38.288035,48.270183],[38.288016,48.270159],[38.288029,48.270154],[38.287891,48.269992],[38.287595,48.270103]]]}},{"type":"Feature","properties":{"cadnum":"1412045300:00:001:0093"},"geometry":{"type":"Polygon","coordinates":[[[38.287891,48.269992],[38.288029,48.270154],[38.288016,48.270159],[38.288035,48.270183],[38.288052,48.270177],[38.288115,48.270255],[38.288402,48.270141],[38.288196,48.269878],[38.287891,48.269992]]]}},{"type":"Feature","properties":{"cadnum":"1412045300:00:001:0016"},"geometry":{"type":"Polygon","coordinates":[[[38.287842,48.26917],[38.287949,48.269301],[38.287999,48.269281],[38.288056,48.269259],[38.288232,48.269193],[38.288119,48.269065],[38.287842,48.26917]]]}},{"type":"Feature","properties":{"cadnum":"1412045300:00:001:0098"},"geometry":{"type":"Polygon","coordinates":[[[38.287612,48.269684],[38.287616,48.269693],[38.287819,48.269957],[38.287828,48.269953],[38.287842,48.269968],[38.287868,48.270001],[38.287869,48.270001],[38.287891,48.269992],[38.287945,48.269971],[38.287976,48.269959],[38.288039,48.269938],[38.287882,48.269753],[38.287905,48.269744],[38.287859,48.26969],[38.287805,48.269621],[38.287801,48.269616],[38.287612,48.269684]]]}},{"type":"Feature","properties":{"cadnum":"1412045300:00:001:0091"},"geometry":{"type":"Polygon","coordinates":[[[38.288029,48.269532],[38.288259,48.269842],[38.288587,48.269726],[38.288335,48.269415],[38.288029,48.269532]]]}},{"type":"Feature","properties":{"cadnum":"1412045300:01:000:0028"},"geometry":{"type":"Polygon","coordinates":[[[38.288978,48.269561],[38.289203,48.269824],[38.289513,48.269714],[38.289301,48.269442],[38.288978,48.269561]]]}},{"type":"Feature","properties":{"cadnum":"1412045300:00:001:0038"},"geometry":{"type":"Polygon","coordinates":[[[38.280089,48.273571],[38.280439,48.274187],[38.280668,48.274112],[38.280295,48.273505],[38.280089,48.273571]]]}},{"type":"Feature","properties":{"cadnum":"1412045300:00:001:0033"},"geometry":{"type":"Polygon","coordinates":[[[38.28954,48.264368],[38.289643,48.264524],[38.289916,48.264936],[38.290177,48.264856],[38.289796,48.264291],[38.28954,48.264368]]]}},{"type":"Feature","properties":{"cadnum":"1412045300:00:001:0089"},"geometry":{"type":"Polygon","coordinates":[[[38.280893,48.268506],[38.280907,48.268572],[38.281171,48.268485],[38.281045,48.268028],[38.28096,48.268036],[38.280893,48.268506]]]}},{"type":"Feature","properties":{"cadnum":"1412045300:00:001:0094"},"geometry":{"type":"Polygon","coordinates":[[[38.285995,48.278862],[38.286255,48.279474],[38.286435,48.279406],[38.286184,48.278816],[38.285995,48.278862]]]}}]}