{"type":"FeatureCollection","features":[{"type":"Feature","properties":{"cadnum":"1412047400:00:001:0058"},"geometry":{"type":"Polygon","coordinates":[[[38.270791,48.253899],[38.270792,48.253929],[38.270791,48.253929],[38.270831,48.254805],[38.27096,48.254804],[38.27096,48.254803],[38.271039,48.254802],[38.27099,48.254003],[38.270984,48.253893],[38.270791,48.253899]]]}},{"type":"Feature","properties":{"cadnum":"1412047400:00:000:0005"},"geometry":{"type":"Polygon","coordinates":[[[38.277456,48.261701],[38.277519,48.26171],[38.277785,48.261716],[38.277821,48.261501],[38.277502,48.261471],[38.277456,48.261701]]]}},{"type":"Feature","properties":{"cadnum":"1412047400:00:001:0053"},"geometry":{"type":"Polygon","coordinates":[[[38.257388,48.265827],[38.25781,48.266177],[38.258134,48.266015],[38.257712,48.265665],[38.257388,48.265827]]]}},{"type":"Feature","properties":{"cadnum":"1412047400:00:001:0032"},"geometry":{"type":"Polygon","coordinates":[[[38.253103,48.261618],[38.253103,48.261644],[38.253112,48.261653],[38.253153,48.261725],[38.253593,48.261609],[38.253652,48.261611],[38.253755,48.261605],[38.253782,48.261591],[38.253782,48.261578],[38.253988,48.261492],[38.253881,48.261279],[38.253818,48.261285],[38.253618,48.261358],[38.253512,48.261396],[38.253103,48.261618]]]}},{"type":"Feature","properties":{"cadnum":"1412047400:00:001:0034"},"geometry":{"type":"Polygon","coordinates":[[[38.271039,48.259324],[38.271263,48.259368],[38.271447,48.259133],[38.271227,48.259078],[38.271039,48.259324]]]}},{"type":"Feature","properties":{"cadnum":"1412047400:00:001:0083"},"geometry":{"type":"Polygon","coordinates":[[[38.274263,48.261507],[38.274433,48.261563],[38.274546,48.261503],[38.275048,48.261345],[38.275049,48.261345],[38.275023,48.261301],[38.274995,48.261252],[38.274946,48.261201],[38.274829,48.261148],[38.274663,48.261094],[38.274613,48.261076],[38.274596,48.261097],[38.274609,48.261103],[38.274519,48.261232],[38.274506,48.261237],[38.274503,48.261243],[38.274488,48.261285],[38.274448,48.261301],[38.274322,48.261348],[38.274337,48.261358],[38.274338,48.261358],[38.274385,48.261387],[38.274699,48.261294],[38.274708,48.261292],[38.274852,48.261246],[38.274879,48.261294],[38.274878,48.261294],[38.274695,48.261358],[38.274263,48.261507]]]}},{"type":"Feature","properties":{"cadnum":"1412047400:00:001:0061"},"geometry":{"type":"Polygon","coordinates":[[[38.27173,48.260714],[38.272121,48.260918],[38.272502,48.260561],[38.272081,48.260457],[38.27173,48.260714]]]}},{"type":"Feature","properties":{"cadnum":"1412047400:00:001:0070"},"geometry":{"type":"Polygon","coordinates":[[[38.273454,48.260603],[38.27372,48.260672],[38.274129,48.260277],[38.273957,48.260215],[38.273454,48.260603]]]}},{"type":"Feature","properties":{"cadnum":"1412047400:00:001:0118"},"geometry":{"type":"Polygon","coordinates":[[[38.271129,48.260804],[38.271473,48.260858],[38.272009,48.260463],[38.271626,48.260385],[38.271129,48.260804]]]}},{"type":"Feature","properties":{"cadnum":"1412047400:00:001:0033"},"geometry":{"type":"Polygon","coordinates":[[[38.2708,48.259638],[38.27096,48.259683],[38.27096,48.259682],[38.271213,48.259751],[38.271223,48.259419],[38.271016,48.259357],[38.2708,48.259638]]]}},{"type":"Feature","properties":{"cadnum":"1412047400:00:001:0066"},"geometry":{"type":"Polygon","coordinates":[[[38.271659,48.259073],[38.271936,48.259153],[38.272242,48.258705],[38.272035,48.258627],[38.271659,48.259073]]]}},{"type":"Feature","properties":{"cadnum":"1412047400:00:001:0059"},"geometry":{"type":"Polygon","coordinates":[[[38.27319,48.260051],[38.273343,48.260093],[38.27337,48.26006],[38.273697,48.260149],[38.273873,48.259868],[38.273454,48.259748],[38.27319,48.260051]]]}},{"type":"Feature","properties":{"cadnum":"1412047400:00:001:0045"},"geometry":{"type":"Polygon","coordinates":[[[38.255606,48.260741],[38.255803,48.261067],[38.256243,48.260816],[38.256055,48.260526],[38.255606,48.260741]]]}},{"type":"Feature","properties":{"cadnum":"1412047400:00:001:0052"},"geometry":{"type":"Polygon","coordinates":[[[38.25538,48.260385],[38.255565,48.260658],[38.256118,48.260451],[38.255982,48.2602],[38.25538,48.260385]]]}},{"type":"Feature","properties":{"cadnum":"1412047400:00:001:0024"},"geometry":{"type":"Polygon","coordinates":[[[38.254038,48.261426],[38.254154,48.261651],[38.25448,48.261579],[38.254711,48.261527],[38.254586,48.261288],[38.254309,48.261357],[38.254309,48.261358],[38.254038,48.261426]]]}},{"type":"Feature","properties":{"cadnum":"1412047400:00:001:0121"},"geometry":{"type":"Polygon","coordinates":[[[38.256001,48.261408],[38.256015,48.261426],[38.256076,48.261516],[38.256145,48.261485],[38.256269,48.261429],[38.256387,48.261372],[38.256525,48.261303],[38.256526,48.261303],[38.256527,48.261301],[38.256531,48.261294],[38.256621,48.261243],[38.257231,48.260933],[38.257105,48.260828],[38.256508,48.261142],[38.256328,48.261241],[38.256323,48.261243],[38.256249,48.261282],[38.256248,48.261283],[38.256218,48.261301],[38.256198,48.261312],[38.256103,48.261358],[38.256104,48.261358],[38.256001,48.261408]]]}},{"type":"Feature","properties":{"cadnum":"1412047400:00:001:0113"},"geometry":{"type":"Polygon","coordinates":[[[38.255026,48.261261],[38.255081,48.261358],[38.255082,48.261358],[38.255133,48.261447],[38.255399,48.261366],[38.255353,48.261286],[38.255264,48.26113],[38.255059,48.261243],[38.255058,48.261243],[38.255028,48.26126],[38.255026,48.261261]]]}},{"type":"Feature","properties":{"cadnum":"1412047400:00:001:0022"},"geometry":{"type":"Polygon","coordinates":[[[38.260743,48.265606],[38.260905,48.265693],[38.260869,48.26572],[38.2609,48.26574],[38.260942,48.265729],[38.261036,48.265848],[38.261085,48.265854],[38.261225,48.265839],[38.261238,48.265833],[38.261305,48.26589],[38.261435,48.265822],[38.261413,48.2658],[38.261485,48.265758],[38.261413,48.265705],[38.261395,48.265675],[38.261328,48.26563],[38.261252,48.265618],[38.260873,48.265612],[38.260743,48.265606]]]}},{"type":"Feature","properties":{"cadnum":"1412047400:00:001:0028"},"geometry":{"type":"Polygon","coordinates":[[[38.257594,48.262897],[38.257833,48.263079],[38.258246,48.262768],[38.258223,48.262708],[38.25813,48.262553],[38.257594,48.262897]]]}},{"type":"Feature","properties":{"cadnum":"1412047400:00:001:0019"},"geometry":{"type":"Polygon","coordinates":[[[38.25755,48.264159],[38.257847,48.264353],[38.257999,48.264249],[38.257699,48.264054],[38.25755,48.264159]]]}},{"type":"Feature","properties":{"cadnum":"1412047400:00:001:0119"},"geometry":{"type":"Polygon","coordinates":[[[38.256504,48.261991],[38.256728,48.262176],[38.257353,48.26182],[38.25716,48.261662],[38.256697,48.261892],[38.256504,48.261991]]]}},{"type":"Feature","properties":{"cadnum":"1412047400:00:001:0050"},"geometry":{"type":"Polygon","coordinates":[[[38.256001,48.262442],[38.256332,48.262706],[38.256522,48.262607],[38.256387,48.262493],[38.256208,48.262338],[38.256001,48.262442]]]}},{"type":"Feature","properties":{"cadnum":"1412047400:00:001:0027"},"geometry":{"type":"Polygon","coordinates":[[[38.256558,48.262658],[38.256818,48.262882],[38.256994,48.26279],[38.256745,48.262565],[38.256558,48.262658]]]}},{"type":"Feature","properties":{"cadnum":"1412047400:00:001:0017"},"geometry":{"type":"Polygon","coordinates":[[[38.255269,48.263998],[38.255449,48.264072],[38.255466,48.264081],[38.255479,48.264087],[38.255529,48.264016],[38.255497,48.264003],[38.255579,48.263887],[38.25538,48.263818],[38.255286,48.263943],[38.255309,48.263949],[38.255309,48.26395],[38.255269,48.263998]]]}},{"type":"Feature","properties":{"cadnum":"1412047400:00:001:0054"},"geometry":{"type":"Polygon","coordinates":[[[38.258368,48.263564],[38.258596,48.263728],[38.258691,48.263663],[38.258781,48.263594],[38.258556,48.263429],[38.258368,48.263564]]]}},{"type":"Feature","properties":{"cadnum":"1412047400:00:001:0020"},"geometry":{"type":"Polygon","coordinates":[[[38.257401,48.264063],[38.257487,48.26412],[38.25764,48.264016],[38.257554,48.263958],[38.257401,48.264063]]]}},{"type":"Feature","properties":{"cadnum":"1412047400:00:001:0072"},"geometry":{"type":"Polygon","coordinates":[[[38.25525,48.261659],[38.25539,48.261901],[38.255669,48.261742],[38.255642,48.261704],[38.255556,48.261563],[38.25525,48.261659]]]}},{"type":"Feature","properties":{"cadnum":"1412047400:00:001:0079"},"geometry":{"type":"Polygon","coordinates":[[[38.254711,48.261527],[38.25482,48.261742],[38.255111,48.261677],[38.255053,48.261569],[38.255013,48.261492],[38.255007,48.261485],[38.254711,48.261527]]]}},{"type":"Feature","properties":{"cadnum":"1412047400:00:001:0082"},"geometry":{"type":"Polygon","coordinates":[[[38.256158,48.261665],[38.256229,48.26174],[38.256256,48.261767],[38.256342,48.261853],[38.257043,48.261584],[38.256868,48.261396],[38.256158,48.261665]]]}},{"type":"Feature","properties":{"cadnum":"1412047400:00:001:0097"},"geometry":{"type":"Polygon","coordinates":[[[38.256745,48.262565],[38.256778,48.262595],[38.256877,48.262682],[38.25694,48.262742],[38.256994,48.26279],[38.257173,48.262702],[38.256971,48.262511],[38.25694,48.262482],[38.256872,48.262509],[38.256804,48.262538],[38.256745,48.262565]]]}},{"type":"Feature","properties":{"cadnum":"1412047400:00:001:0025"},"geometry":{"type":"Polygon","coordinates":[[[38.257833,48.263079],[38.258156,48.263333],[38.258353,48.263148],[38.258363,48.262846],[38.258246,48.262768],[38.257833,48.263079]]]}},{"type":"Feature","properties":{"cadnum":"1412047400:00:001:0105"},"geometry":{"type":"Polygon","coordinates":[[[38.256208,48.262338],[38.256359,48.262473],[38.256508,48.262385],[38.256589,48.262338],[38.256678,48.262287],[38.256522,48.262165],[38.256208,48.262338]]]}},{"type":"Feature","properties":{"cadnum":"1412047400:00:001:0029"},"geometry":{"type":"Polygon","coordinates":[[[38.254101,48.264045],[38.254309,48.26423],[38.254309,48.264231],[38.254464,48.264368],[38.25448,48.264355],[38.25448,48.264354],[38.254648,48.264209],[38.254311,48.263916],[38.254101,48.264045]]]}},{"type":"Feature","properties":{"cadnum":"1412047400:00:001:0080"},"geometry":{"type":"Polygon","coordinates":[[[38.254002,48.262311],[38.254218,48.262517],[38.254298,48.262478],[38.254307,48.262467],[38.254303,48.262451],[38.254309,48.26245],[38.254352,48.262442],[38.254352,48.26244],[38.254401,48.262431],[38.254455,48.262416],[38.254352,48.262227],[38.254002,48.262311]]]}},{"type":"Feature","properties":{"cadnum":"1412047400:00:001:0062"},"geometry":{"type":"Polygon","coordinates":[[[38.255133,48.261447],[38.25525,48.261659],[38.255556,48.261563],[38.255412,48.261363],[38.255133,48.261447]]]}},{"type":"Feature","properties":{"cadnum":"1412047400:00:001:0099"},"geometry":{"type":"Polygon","coordinates":[[[38.256374,48.263256],[38.256441,48.263316],[38.256445,48.263316],[38.256512,48.263373],[38.256715,48.263465],[38.256768,48.263483],[38.256814,48.26351],[38.256898,48.263453],[38.256935,48.263433],[38.256898,48.263406],[38.256715,48.263271],[38.256562,48.26316],[38.256535,48.263175],[38.256374,48.263256]]]}},{"type":"Feature","properties":{"cadnum":"1412047400:00:001:0067"},"geometry":{"type":"Polygon","coordinates":[[[38.256194,48.263079],[38.256284,48.26316],[38.256382,48.263109],[38.256292,48.263038],[38.256288,48.263032],[38.256194,48.263079]]]}},{"type":"Feature","properties":{"cadnum":"1412047400:00:001:0026"},"geometry":{"type":"Polygon","coordinates":[[[38.254661,48.264428],[38.255053,48.264736],[38.255323,48.264565],[38.254891,48.264291],[38.254661,48.264428]]]}},{"type":"Feature","properties":{"cadnum":"1412047400:00:001:0048"},"geometry":{"type":"Polygon","coordinates":[[[38.257653,48.264078],[38.257959,48.264275],[38.258026,48.264231],[38.258107,48.264291],[38.258229,48.264218],[38.25813,48.264159],[38.25782,48.263961],[38.257653,48.264078]]]}},{"type":"Feature","properties":{"cadnum":"1412047400:00:001:0049"},"geometry":{"type":"Polygon","coordinates":[[[38.255799,48.262942],[38.255835,48.26295],[38.255852,48.262927],[38.255812,48.262915],[38.255799,48.262942]]]}},{"type":"Feature","properties":{"cadnum":"1412047400:00:001:0098"},"geometry":{"type":"Polygon","coordinates":[[[38.267737,48.263244],[38.26802,48.263708],[38.268357,48.263599],[38.26807,48.263151],[38.267737,48.263244]]]}},{"type":"Feature","properties":{"cadnum":"1412047400:00:001:0088"},"geometry":{"type":"Polygon","coordinates":[[[38.270068,48.26235],[38.270423,48.262915],[38.270666,48.262834],[38.27059,48.262702],[38.270571,48.262675],[38.270342,48.26229],[38.270068,48.26235]]]}},{"type":"Feature","properties":{"cadnum":"1412047400:00:001:0065"},"geometry":{"type":"Polygon","coordinates":[[[38.270167,48.256895],[38.270473,48.257455],[38.27068,48.257398],[38.270405,48.256857],[38.270167,48.256895]]]}},{"type":"Feature","properties":{"cadnum":"1412047400:00:001:0055"},"geometry":{"type":"Polygon","coordinates":[[[38.267894,48.256001],[38.268024,48.256387],[38.268473,48.256334],[38.268343,48.255942],[38.267894,48.256001]]]}},{"type":"Feature","properties":{"cadnum":"1412047400:00:001:0023"},"geometry":{"type":"Polygon","coordinates":[[[38.269223,48.254474],[38.269242,48.254835],[38.269646,48.254826],[38.269619,48.254288],[38.269223,48.254474]]]}},{"type":"Feature","properties":{"cadnum":"1412047400:00:001:0057"},"geometry":{"type":"Polygon","coordinates":[[[38.269664,48.254955],[38.269686,48.255365],[38.270148,48.255367],[38.270095,48.25496],[38.269664,48.254955]]]}},{"type":"Feature","properties":{"cadnum":"1412047400:00:001:0063"},"geometry":{"type":"Polygon","coordinates":[[[38.26846,48.257635],[38.268532,48.257701],[38.268533,48.257701],[38.268806,48.257948],[38.268905,48.257912],[38.268879,48.257879],[38.268919,48.257861],[38.268694,48.257645],[38.268604,48.257557],[38.268549,48.257586],[38.26846,48.257634],[38.26846,48.257635]]]}},{"type":"Feature","properties":{"cadnum":"1412047400:00:001:0064"},"geometry":{"type":"Polygon","coordinates":[[[38.267494,48.257715],[38.268038,48.25822],[38.268146,48.258185],[38.268124,48.258161],[38.268124,48.25816],[38.268204,48.258134],[38.268119,48.258026],[38.268078,48.258026],[38.267625,48.257643],[38.26752,48.257701],[38.267494,48.257715]]]}},{"type":"Feature","properties":{"cadnum":"1412047400:00:001:0044"},"geometry":{"type":"Polygon","coordinates":[[[38.269768,48.255633],[38.269817,48.255842],[38.270148,48.255816],[38.270118,48.255636],[38.269768,48.255633]]]}},{"type":"Feature","properties":{"cadnum":"1412047400:00:001:0089"},"geometry":{"type":"Polygon","coordinates":[[[38.268047,48.257371],[38.268296,48.257586],[38.268379,48.257657],[38.26838,48.257658],[38.268403,48.257643],[38.268447,48.257617],[38.268582,48.257535],[38.268663,48.257485],[38.268469,48.257263],[38.268402,48.257185],[38.268227,48.257276],[38.268244,48.25729],[38.268177,48.257323],[38.268164,48.257309],[38.268047,48.257371]]]}},{"type":"Feature","properties":{"cadnum":"1412047400:00:001:0107"},"geometry":{"type":"Polygon","coordinates":[[[38.270181,48.256241],[38.270387,48.2568],[38.270594,48.256758],[38.2705,48.256199],[38.270181,48.256241]]]}},{"type":"Feature","properties":{"cadnum":"1412047400:00:001:0039"},"geometry":{"type":"Polygon","coordinates":[[[38.267477,48.255984],[38.26763,48.256426],[38.268024,48.256387],[38.267877,48.255944],[38.267477,48.255984]]]}},{"type":"Feature","properties":{"cadnum":"1412047400:00:001:0043"},"geometry":{"type":"Polygon","coordinates":[[[38.269628,48.255609],[38.269762,48.256192],[38.270091,48.256163],[38.270077,48.256112],[38.270078,48.256112],[38.270148,48.256106],[38.27019,48.2561],[38.270175,48.256019],[38.270167,48.255909],[38.270148,48.255816],[38.269817,48.255842],[38.269768,48.255634],[38.269768,48.255633],[38.269768,48.255613],[38.269749,48.255613],[38.269628,48.255609]]]}},{"type":"Feature","properties":{"cadnum":"1412047400:00:001:0051"},"geometry":{"type":"Polygon","coordinates":[[[38.268546,48.254647],[38.268563,48.254853],[38.268909,48.254844],[38.268896,48.254634],[38.268546,48.254647]]]}},{"type":"Feature","properties":{"cadnum":"1412047400:00:001:0071"},"geometry":{"type":"Polygon","coordinates":[[[38.269686,48.255365],[38.269699,48.25558],[38.270118,48.255609],[38.270175,48.255616],[38.270148,48.255367],[38.269686,48.255365]]]}},{"type":"Feature","properties":{"cadnum":"1412047400:00:001:0037"},"geometry":{"type":"Polygon","coordinates":[[[38.269619,48.254315],[38.269646,48.254826],[38.269925,48.254823],[38.269925,48.254763],[38.269831,48.254658],[38.269808,48.25424],[38.269619,48.254315]]]}},{"type":"Feature","properties":{"cadnum":"1412047400:00:001:0078"},"geometry":{"type":"Polygon","coordinates":[[[38.265873,48.256256],[38.265932,48.256354],[38.267099,48.256289],[38.267064,48.256184],[38.266884,48.256192],[38.265873,48.256256]]]}},{"type":"Feature","properties":{"cadnum":"1412047400:00:001:0090"},"geometry":{"type":"Polygon","coordinates":[[[38.270787,48.255645],[38.270788,48.25565],[38.2709,48.256088],[38.27096,48.256083],[38.27096,48.256082],[38.271246,48.256055],[38.271187,48.255744],[38.271164,48.255618],[38.271066,48.255625],[38.270845,48.255641],[38.270787,48.255645]]]}},{"type":"Feature","properties":{"cadnum":"1412047400:00:001:0040"},"geometry":{"type":"Polygon","coordinates":[[[38.267198,48.255167],[38.267477,48.255984],[38.267877,48.255944],[38.267764,48.255616],[38.26789,48.255589],[38.26771,48.255092],[38.267198,48.255167]]]}},{"type":"Feature","properties":{"cadnum":"1412047400:00:001:0093"},"geometry":{"type":"Polygon","coordinates":[[[38.261808,48.263779],[38.262037,48.264126],[38.262154,48.264302],[38.262441,48.264231],[38.262118,48.263704],[38.261808,48.263779]]]}},{"type":"Feature","properties":{"cadnum":"1412047400:00:001:0047"},"geometry":{"type":"Polygon","coordinates":[[[38.261556,48.263841],[38.261759,48.264204],[38.262037,48.264126],[38.261808,48.263779],[38.261556,48.263841]]]}},{"type":"Feature","properties":{"cadnum":"1412047400:00:001:0087"},"geometry":{"type":"Polygon","coordinates":[[[38.251881,48.264982],[38.251923,48.265015],[38.252237,48.265262],[38.2523,48.26522],[38.25238,48.265173],[38.252134,48.264973],[38.25203,48.264889],[38.252012,48.2649],[38.252011,48.2649],[38.251881,48.264982]]]}},{"type":"Feature","properties":{"cadnum":"1412047400:00:001:0095"},"geometry":{"type":"Polygon","coordinates":[[[38.252309,48.264931],[38.25231,48.264931],[38.252379,48.265015],[38.252466,48.265119],[38.252726,48.265483],[38.252866,48.265399],[38.252749,48.265248],[38.252713,48.265199],[38.252546,48.264975],[38.252434,48.264838],[38.25235,48.2649],[38.252349,48.2649],[38.252309,48.264931]]]}},{"type":"Feature","properties":{"cadnum":"1412047400:00:001:0042"},"geometry":{"type":"Polygon","coordinates":[[[38.253359,48.261982],[38.253468,48.262165],[38.25424,48.261994],[38.254141,48.2618],[38.254082,48.261811],[38.25402,48.261848],[38.25402,48.261866],[38.253359,48.261982]]]}},{"type":"Feature","properties":{"cadnum":"1412047400:00:001:0046"},"geometry":{"type":"Polygon","coordinates":[[[38.271982,48.262012],[38.272009,48.262194],[38.272035,48.262188],[38.272592,48.262009],[38.272345,48.261656],[38.272166,48.261653],[38.272175,48.261764],[38.272112,48.261892],[38.272013,48.261919],[38.272053,48.261991],[38.271982,48.262012]]]}},{"type":"Feature","properties":{"cadnum":"1412047400:00:001:0075"},"geometry":{"type":"Polygon","coordinates":[[[38.271582,48.261651],[38.271991,48.262242],[38.272013,48.262234],[38.272009,48.262194],[38.271982,48.262012],[38.272053,48.261991],[38.272013,48.261919],[38.272112,48.261892],[38.272175,48.261764],[38.272166,48.261653],[38.271892,48.261602],[38.271582,48.261651]]]}},{"type":"Feature","properties":{"cadnum":"1412047400:00:001:0060"},"geometry":{"type":"Polygon","coordinates":[[[38.26881,48.259273],[38.268936,48.259333],[38.268968,48.259306],[38.269133,48.259399],[38.269341,48.2593],[38.269336,48.259282],[38.269749,48.259111],[38.269548,48.258926],[38.26881,48.259273]]]}},{"type":"Feature","properties":{"cadnum":"1412047400:00:001:0073"},"geometry":{"type":"Polygon","coordinates":[[[38.266762,48.258247],[38.267144,48.258552],[38.267517,48.25837],[38.267135,48.258068],[38.266762,48.258247]]]}},{"type":"Feature","properties":{"cadnum":"1412047400:00:001:0110"},"geometry":{"type":"Polygon","coordinates":[[[38.269049,48.26014],[38.269349,48.260268],[38.269534,48.260047],[38.269561,48.260011],[38.269624,48.259916],[38.269709,48.259787],[38.269431,48.259692],[38.269049,48.26014]]]}},{"type":"Feature","properties":{"cadnum":"1412047400:00:000:0108"},"geometry":{"type":"Polygon","coordinates":[[[38.251118,48.265785],[38.251199,48.265851],[38.251145,48.265881],[38.251154,48.265887],[38.251419,48.266097],[38.251468,48.266139],[38.251535,48.266186],[38.251554,48.266204],[38.251581,48.266192],[38.251711,48.266114],[38.25168,48.266088],[38.251239,48.26572],[38.251118,48.265785]]]}},{"type":"Feature","properties":{"cadnum":"1412047400:00:001:0074"},"geometry":{"type":"Polygon","coordinates":[[[38.251854,48.266912],[38.25207,48.267062],[38.252376,48.266892],[38.252147,48.266715],[38.251873,48.266877],[38.251854,48.266912]]]}},{"type":"Feature","properties":{"cadnum":"1412047400:00:001:0081"},"geometry":{"type":"Polygon","coordinates":[[[38.25057,48.265813],[38.250831,48.266001],[38.250908,48.266057],[38.250998,48.266004],[38.251069,48.265962],[38.250849,48.2658],[38.250799,48.265764],[38.250776,48.265747],[38.250732,48.265714],[38.250705,48.265731],[38.25057,48.265813]]]}},{"type":"Feature","properties":{"cadnum":"1412047400:00:001:0076"},"geometry":{"type":"Polygon","coordinates":[[[38.252061,48.267158],[38.2523,48.267316],[38.252537,48.26717],[38.252323,48.267003],[38.252061,48.267158]]]}},{"type":"Feature","properties":{"cadnum":"1412047400:00:001:0102"},"geometry":{"type":"Polygon","coordinates":[[[38.251639,48.26563],[38.25172,48.265696],[38.251778,48.265744],[38.251998,48.265926],[38.252011,48.265917],[38.252026,48.265926],[38.252044,48.265914],[38.25203,48.265905],[38.252133,48.265842],[38.252084,48.265794],[38.252034,48.265753],[38.251787,48.265534],[38.251639,48.26563]]]}},{"type":"Feature","properties":{"cadnum":"1412047400:00:001:0120"},"geometry":{"type":"Polygon","coordinates":[[[38.252344,48.266605],[38.252577,48.266784],[38.252766,48.266676],[38.252793,48.266658],[38.25256,48.266479],[38.25256,48.266482],[38.25247,48.266533],[38.252344,48.266605]]]}},{"type":"Feature","properties":{"cadnum":"1412047400:00:001:0077"},"geometry":{"type":"Polygon","coordinates":[[[38.250355,48.26595],[38.250588,48.266126],[38.250831,48.266001],[38.25057,48.265813],[38.250355,48.26595]]]}},{"type":"Feature","properties":{"cadnum":"1412047400:00:001:0100"},"geometry":{"type":"Polygon","coordinates":[[[38.25243,48.26732],[38.252659,48.267517],[38.253032,48.267313],[38.253005,48.267292],[38.252785,48.267125],[38.25243,48.26732]]]}},{"type":"Feature","properties":{"cadnum":"1412047400:00:001:0068"},"geometry":{"type":"Polygon","coordinates":[[[38.271187,48.255744],[38.271246,48.256055],[38.271815,48.256001],[38.271775,48.255696],[38.271187,48.255744]]]}}]}