{"type":"FeatureCollection","features":[{"type":"Feature","properties":{"cadnum":"1412945300:00:001:0106"},"geometry":{"type":"Polygon","coordinates":[[[37.45222,48.749487],[37.45222,48.749829],[37.452655,48.749829],[37.452673,48.749425],[37.452655,48.749348],[37.452579,48.749372],[37.452395,48.749431],[37.452367,48.74944],[37.45222,48.749487]]]}},{"type":"Feature","properties":{"cadnum":"1412945300:00:001:0054"},"geometry":{"type":"Polygon","coordinates":[[[37.453913,48.749461],[37.453994,48.749783],[37.45403,48.749781],[37.454065,48.749807],[37.454501,48.749763],[37.45443,48.749405],[37.453913,48.749461]]]}},{"type":"Feature","properties":{"cadnum":"1412945300:00:001:0129"},"geometry":{"type":"Polygon","coordinates":[[[37.452983,48.7491],[37.453001,48.749126],[37.45314,48.749067],[37.453145,48.749046],[37.453199,48.749041],[37.453212,48.749043],[37.453333,48.74899],[37.453347,48.748984],[37.453451,48.748504],[37.453158,48.748469],[37.453068,48.748774],[37.453078,48.748791],[37.453055,48.748824],[37.453026,48.748934],[37.453007,48.749004],[37.452996,48.749047],[37.452983,48.7491]]]}},{"type":"Feature","properties":{"cadnum":"1412945300:00:001:0098"},"geometry":{"type":"Polygon","coordinates":[[[37.455849,48.74915],[37.456162,48.749058],[37.456162,48.748872],[37.455954,48.748934],[37.455953,48.748934],[37.455854,48.748963],[37.455853,48.748964],[37.45585,48.749047],[37.455851,48.749047],[37.455849,48.74915]]]}},{"type":"Feature","properties":{"cadnum":"1412945300:00:001:0081"},"geometry":{"type":"Polygon","coordinates":[[[37.455045,48.749577],[37.455314,48.749493],[37.455368,48.749064],[37.455076,48.749133],[37.455045,48.749577]]]}},{"type":"Feature","properties":{"cadnum":"1412945300:00:001:0078"},"geometry":{"type":"Polygon","coordinates":[[[37.456154,48.74905],[37.456341,48.749032],[37.456347,48.749032],[37.456401,48.748178],[37.456154,48.74824],[37.456154,48.74905]]]}},{"type":"Feature","properties":{"cadnum":"1412945300:00:001:0094"},"geometry":{"type":"Polygon","coordinates":[[[37.454837,48.749357],[37.455063,48.749346],[37.455091,48.748935],[37.45512,48.748519],[37.454883,48.748573],[37.454862,48.748934],[37.454861,48.748942],[37.454855,48.749047],[37.454837,48.749357]]]}},{"type":"Feature","properties":{"cadnum":"1412945300:00:001:0095"},"geometry":{"type":"Polygon","coordinates":[[[37.454833,48.749452],[37.455053,48.74944],[37.455063,48.749346],[37.454837,48.749357],[37.454833,48.749452]]]}},{"type":"Feature","properties":{"cadnum":"1412945300:00:001:0080"},"geometry":{"type":"Polygon","coordinates":[[[37.455076,48.749133],[37.455368,48.749064],[37.455385,48.748934],[37.455384,48.748934],[37.455445,48.748451],[37.45512,48.748519],[37.45509,48.748934],[37.455086,48.74898],[37.455081,48.749047],[37.455082,48.749047],[37.455076,48.749133]]]}},{"type":"Feature","properties":{"cadnum":"1412945300:00:001:0117"},"geometry":{"type":"Polygon","coordinates":[[[37.458426,48.744873],[37.458523,48.745311],[37.458523,48.745312],[37.458584,48.745587],[37.458822,48.745454],[37.458792,48.745312],[37.458792,48.745311],[37.458696,48.744841],[37.458426,48.744873]]]}},{"type":"Feature","properties":{"cadnum":"1412945300:00:001:0025"},"geometry":{"type":"Polygon","coordinates":[[[37.449929,48.746861],[37.450042,48.747394],[37.450296,48.747376],[37.450203,48.746837],[37.449929,48.746861]]]}},{"type":"Feature","properties":{"cadnum":"1412945300:00:001:0102"},"geometry":{"type":"Polygon","coordinates":[[[37.449663,48.74689],[37.449767,48.747426],[37.450042,48.747394],[37.449929,48.746861],[37.449663,48.74689]]]}},{"type":"Feature","properties":{"cadnum":"1412945300:00:001:0128"},"geometry":{"type":"Polygon","coordinates":[[[37.449606,48.74809],[37.449669,48.748617],[37.450019,48.748587],[37.449942,48.74806],[37.449606,48.74809]]]}},{"type":"Feature","properties":{"cadnum":"1412945300:00:001:0048"},"geometry":{"type":"Polygon","coordinates":[[[37.449682,48.745649],[37.449799,48.746183],[37.450068,48.746159],[37.449952,48.745625],[37.449682,48.745649]]]}},{"type":"Feature","properties":{"cadnum":"1412945300:00:001:0127"},"geometry":{"type":"Polygon","coordinates":[[[37.449669,48.748617],[37.449686,48.748768],[37.450042,48.748744],[37.450019,48.748587],[37.449669,48.748617]]]}},{"type":"Feature","properties":{"cadnum":"1412945300:00:001:0138"},"geometry":{"type":"Polygon","coordinates":[[[37.450705,48.748001],[37.450759,48.748279],[37.450895,48.748815],[37.450917,48.748904],[37.451115,48.748881],[37.450958,48.748268],[37.450912,48.747986],[37.450705,48.748001]]]}},{"type":"Feature","properties":{"cadnum":"1412945300:00:001:0041"},"geometry":{"type":"Polygon","coordinates":[[[37.452009,48.746683],[37.452022,48.74676],[37.452049,48.746872],[37.452098,48.747127],[37.452103,48.747148],[37.452147,48.747145],[37.452478,48.747116],[37.452478,48.747115],[37.452516,48.747112],[37.452457,48.746834],[37.452435,48.746725],[37.452417,48.746644],[37.452009,48.746683]]]}},{"type":"Feature","properties":{"cadnum":"1412945300:00:001:0139"},"geometry":{"type":"Polygon","coordinates":[[[37.450229,48.748036],[37.450296,48.748525],[37.450589,48.748504],[37.450549,48.7483],[37.450535,48.748235],[37.450526,48.748172],[37.450508,48.748013],[37.450229,48.748036]]]}},{"type":"Feature","properties":{"cadnum":"1412945300:00:001:0082"},"geometry":{"type":"Polygon","coordinates":[[[37.450476,48.746816],[37.450579,48.747349],[37.450854,48.747329],[37.450742,48.746793],[37.450476,48.746816]]]}},{"type":"Feature","properties":{"cadnum":"1412945300:00:001:0108"},"geometry":{"type":"Polygon","coordinates":[[[37.452107,48.747154],[37.45225,48.747693],[37.452307,48.747687],[37.452307,48.747688],[37.452476,48.747669],[37.452332,48.747133],[37.452107,48.747154]]]}},{"type":"Feature","properties":{"cadnum":"1412945300:00:001:0046"},"geometry":{"type":"Polygon","coordinates":[[[37.450841,48.747485],[37.450948,48.748031],[37.451208,48.748007],[37.451115,48.747465],[37.450841,48.747485]]]}},{"type":"Feature","properties":{"cadnum":"1412945300:00:001:0119"},"geometry":{"type":"Polygon","coordinates":[[[37.450508,48.748013],[37.450526,48.748172],[37.450535,48.748235],[37.450549,48.7483],[37.450652,48.748842],[37.450895,48.748815],[37.450759,48.748279],[37.450705,48.748001],[37.450508,48.748013]]]}},{"type":"Feature","properties":{"cadnum":"1412945300:00:001:0099"},"geometry":{"type":"Polygon","coordinates":[[[37.449399,48.746914],[37.449502,48.74745],[37.449503,48.74745],[37.449767,48.747426],[37.449663,48.74689],[37.449484,48.746905],[37.449439,48.746908],[37.449399,48.746914]]]}},{"type":"Feature","properties":{"cadnum":"1412945300:00:001:0026"},"geometry":{"type":"Polygon","coordinates":[[[37.451214,48.746925],[37.451348,48.747459],[37.4516,48.747429],[37.451505,48.746896],[37.451214,48.746925]]]}},{"type":"Feature","properties":{"cadnum":"1412945300:00:001:0109"},"geometry":{"type":"Polygon","coordinates":[[[37.449269,48.746242],[37.449367,48.746778],[37.449637,48.746757],[37.449537,48.746218],[37.449269,48.746242]]]}},{"type":"Feature","properties":{"cadnum":"1412945300:00:001:0089"},"geometry":{"type":"Polygon","coordinates":[[[37.451204,48.746313],[37.451258,48.746611],[37.451528,48.746585],[37.451465,48.746292],[37.451204,48.746313]]]}},{"type":"Feature","properties":{"cadnum":"1412945300:00:001:0087"},"geometry":{"type":"Polygon","coordinates":[[[37.450203,48.746837],[37.450296,48.747376],[37.450579,48.747353],[37.450476,48.746816],[37.450279,48.746831],[37.450256,48.746834],[37.450203,48.746837]]]}},{"type":"Feature","properties":{"cadnum":"1412945300:00:001:0101"},"geometry":{"type":"Polygon","coordinates":[[[37.450342,48.746138],[37.450449,48.746683],[37.450715,48.746659],[37.450612,48.746117],[37.450342,48.746138]]]}},{"type":"Feature","properties":{"cadnum":"1412945300:00:001:0137"},"geometry":{"type":"Polygon","coordinates":[[[37.450311,48.747376],[37.450409,48.747915],[37.450684,48.747891],[37.450579,48.747353],[37.450311,48.747376]]]}},{"type":"Feature","properties":{"cadnum":"1412945300:00:001:0112"},"geometry":{"type":"Polygon","coordinates":[[[37.450612,48.746111],[37.450719,48.746659],[37.450988,48.746633],[37.450885,48.746093],[37.450612,48.746111]]]}},{"type":"Feature","properties":{"cadnum":"1412945300:00:001:0065"},"geometry":{"type":"Polygon","coordinates":[[[37.451115,48.747465],[37.451208,48.748007],[37.451208,48.74801],[37.451478,48.747983],[37.45138,48.747444],[37.451115,48.747465]]]}},{"type":"Feature","properties":{"cadnum":"1412945300:00:001:0140"},"geometry":{"type":"Polygon","coordinates":[[[37.449413,48.745673],[37.449537,48.746218],[37.449803,48.746194],[37.449799,48.746183],[37.449682,48.745649],[37.449413,48.745673]]]}},{"type":"Feature","properties":{"cadnum":"1412945300:00:001:0107"},"geometry":{"type":"Polygon","coordinates":[[[37.449952,48.745625],[37.450068,48.746159],[37.450319,48.746132],[37.450225,48.745602],[37.449952,48.745625]]]}},{"type":"Feature","properties":{"cadnum":"1412945300:00:001:0124"},"geometry":{"type":"Polygon","coordinates":[[[37.45217,48.746102],[37.452193,48.746194],[37.452363,48.746179],[37.452346,48.746084],[37.45217,48.746102]]]}},{"type":"Feature","properties":{"cadnum":"1412945300:00:001:0085"},"geometry":{"type":"Polygon","coordinates":[[[37.448868,48.74572],[37.448967,48.746271],[37.449246,48.746236],[37.449187,48.745948],[37.449143,48.745696],[37.448868,48.74572]]]}},{"type":"Feature","properties":{"cadnum":"1412945300:00:001:0088"},"geometry":{"type":"Polygon","coordinates":[[[37.45049,48.745581],[37.450495,48.745608],[37.450526,48.745812],[37.450589,48.746111],[37.450858,48.746093],[37.450791,48.745753],[37.450759,48.745557],[37.450526,48.745579],[37.45049,48.745581]]]}},{"type":"Feature","properties":{"cadnum":"1412945300:00:001:0047"},"geometry":{"type":"Polygon","coordinates":[[[37.452179,48.74545],[37.452224,48.745786],[37.45225,48.745999],[37.452307,48.745996],[37.452374,48.745992],[37.452478,48.745986],[37.452479,48.745986],[37.452512,48.745984],[37.452489,48.745771],[37.452449,48.745436],[37.452179,48.74545]]]}},{"type":"Feature","properties":{"cadnum":"1412945300:00:001:0086"},"geometry":{"type":"Polygon","coordinates":[[[37.451034,48.745531],[37.451137,48.746099],[37.451411,48.746076],[37.451308,48.745507],[37.451034,48.745531]]]}},{"type":"Feature","properties":{"cadnum":"1412945300:00:001:0110"},"geometry":{"type":"Polygon","coordinates":[[[37.456195,48.745068],[37.456204,48.745113],[37.456268,48.745425],[37.456269,48.745425],[37.456311,48.745623],[37.456514,48.745608],[37.456495,48.745528],[37.456449,48.745312],[37.456449,48.745311],[37.456397,48.745057],[37.45637,48.745057],[37.456338,48.74506],[37.456239,48.745066],[37.456195,48.745068]]]}},{"type":"Feature","properties":{"cadnum":"1412945300:00:001:0027"},"geometry":{"type":"Polygon","coordinates":[[[37.453558,48.745392],[37.453563,48.745425],[37.453564,48.745425],[37.453565,48.745425],[37.453665,48.745928],[37.453935,48.745904],[37.453828,48.745368],[37.453558,48.745392]]]}},{"type":"Feature","properties":{"cadnum":"1412945300:00:001:0076"},"geometry":{"type":"Polygon","coordinates":[[[37.453351,48.745323],[37.453373,48.745425],[37.453468,48.745862],[37.453742,48.745847],[37.453665,48.745388],[37.453652,48.745309],[37.453351,48.745323]]]}},{"type":"Feature","properties":{"cadnum":"1412945300:00:001:0079"},"geometry":{"type":"Polygon","coordinates":[[[37.455377,48.745149],[37.455449,48.745425],[37.45545,48.745425],[37.455521,48.745691],[37.455709,48.745673],[37.455625,48.745312],[37.455624,48.745312],[37.455624,48.745311],[37.455583,48.745131],[37.455377,48.745149]]]}},{"type":"Feature","properties":{"cadnum":"1412945300:00:001:0122"},"geometry":{"type":"Polygon","coordinates":[[[37.455791,48.74511],[37.455836,48.745311],[37.455836,48.745312],[37.455835,48.745312],[37.455849,48.745374],[37.455861,48.745425],[37.455912,48.745647],[37.456118,48.745634],[37.456069,48.745425],[37.456001,48.745134],[37.455992,48.745092],[37.455791,48.74511]]]}},{"type":"Feature","properties":{"cadnum":"1412945300:00:001:0121"},"geometry":{"type":"Polygon","coordinates":[[[37.455992,48.745092],[37.456001,48.745134],[37.456042,48.745311],[37.456042,48.745312],[37.456118,48.745634],[37.456311,48.745623],[37.456246,48.745312],[37.456245,48.745312],[37.456245,48.745311],[37.456204,48.745113],[37.456195,48.745068],[37.456032,48.745087],[37.455992,48.745092]]]}},{"type":"Feature","properties":{"cadnum":"1412945300:00:001:0067"},"geometry":{"type":"Polygon","coordinates":[[[37.456747,48.745092],[37.456803,48.745311],[37.456803,48.745312],[37.456802,48.745312],[37.456805,48.74532],[37.45683,48.745425],[37.456831,48.745425],[37.456887,48.745643],[37.45708,48.745617],[37.456998,48.745312],[37.456998,48.745311],[37.456994,48.745297],[37.456931,48.745072],[37.456747,48.745092]]]}},{"type":"Feature","properties":{"cadnum":"1412945300:00:001:0083"},"geometry":{"type":"Polygon","coordinates":[[[37.455588,48.745128],[37.455629,48.745311],[37.455629,48.745312],[37.455709,48.74567],[37.455912,48.745647],[37.455849,48.745374],[37.455791,48.74511],[37.455588,48.745128]]]}},{"type":"Feature","properties":{"cadnum":"1412945300:00:001:0072"},"geometry":{"type":"Polygon","coordinates":[[[37.454973,48.745264],[37.454982,48.745311],[37.454982,48.745312],[37.454989,48.745343],[37.455005,48.745425],[37.455086,48.745815],[37.455287,48.745794],[37.455204,48.745406],[37.45517,48.745246],[37.454973,48.745264]]]}},{"type":"Feature","properties":{"cadnum":"1412945300:00:001:0125"},"geometry":{"type":"Polygon","coordinates":[[[37.453091,48.745347],[37.453106,48.745425],[37.453107,48.745425],[37.453225,48.746025],[37.453495,48.745999],[37.453468,48.745862],[37.453351,48.745323],[37.453091,48.745347]]]}},{"type":"Feature","properties":{"cadnum":"1412945300:00:001:0090"},"geometry":{"type":"Polygon","coordinates":[[[37.456401,48.745057],[37.456451,48.745311],[37.456451,48.745312],[37.456465,48.745381],[37.456474,48.745425],[37.456495,48.745528],[37.456702,48.74551],[37.456676,48.745385],[37.456608,48.745039],[37.456455,48.745051],[37.456405,48.745057],[37.456401,48.745057]]]}},{"type":"Feature","properties":{"cadnum":"1412945300:00:001:0111"},"geometry":{"type":"Polygon","coordinates":[[[37.450935,48.749869],[37.451245,48.749754],[37.451388,48.749153],[37.451088,48.749221],[37.450971,48.749636],[37.450935,48.749869]]]}},{"type":"Feature","properties":{"cadnum":"1412945300:00:001:0073"},"geometry":{"type":"Polygon","coordinates":[[[37.449537,48.750512],[37.449879,48.750391],[37.450023,48.749843],[37.449659,48.749937],[37.449537,48.750512]]]}},{"type":"Feature","properties":{"cadnum":"1412945300:00:001:0049"},"geometry":{"type":"Polygon","coordinates":[[[37.450315,48.750325],[37.450616,48.750841],[37.450948,48.750799],[37.450579,48.750234],[37.450579,48.750233],[37.450315,48.750325]]]}},{"type":"Feature","properties":{"cadnum":"1412945300:00:001:0084"},"geometry":{"type":"Polygon","coordinates":[[[37.450243,48.75112],[37.450459,48.751069],[37.450482,48.750119],[37.450325,48.750174],[37.450243,48.75112]]]}},{"type":"Feature","properties":{"cadnum":"1412945300:00:001:0028"},"geometry":{"type":"Polygon","coordinates":[[[37.453988,48.74583],[37.454133,48.746348],[37.454407,48.74633],[37.454267,48.745809],[37.453988,48.74583]]]}},{"type":"Feature","properties":{"cadnum":"1412945300:00:001:0113"},"geometry":{"type":"Polygon","coordinates":[[[37.45721,48.745619],[37.457294,48.746082],[37.457592,48.746058],[37.457646,48.746029],[37.457663,48.746005],[37.457667,48.745957],[37.457605,48.745584],[37.45721,48.745619]]]}},{"type":"Feature","properties":{"cadnum":"1412945300:00:001:0051"},"geometry":{"type":"Polygon","coordinates":[[[37.452449,48.745436],[37.452512,48.745984],[37.452786,48.745972],[37.452718,48.745421],[37.452449,48.745436]]]}},{"type":"Feature","properties":{"cadnum":"1412945300:00:001:0096"},"geometry":{"type":"Polygon","coordinates":[[[37.452543,48.745401],[37.452659,48.745939],[37.452929,48.745916],[37.452812,48.745377],[37.452543,48.745401]]]}},{"type":"Feature","properties":{"cadnum":"1412945300:00:001:0114"},"geometry":{"type":"Polygon","coordinates":[[[37.457196,48.745546],[37.45721,48.745619],[37.457605,48.745584],[37.457592,48.745513],[37.457317,48.745537],[37.457196,48.745546]]]}},{"type":"Feature","properties":{"cadnum":"1412945300:00:001:0115"},"geometry":{"type":"Polygon","coordinates":[[[37.455309,48.745724],[37.455413,48.746253],[37.455615,48.746236],[37.455516,48.745709],[37.455309,48.745724]]]}},{"type":"Feature","properties":{"cadnum":"1412945300:00:001:0118"},"geometry":{"type":"Polygon","coordinates":[[[37.456514,48.745608],[37.456617,48.746135],[37.456818,48.74612],[37.456715,48.745593],[37.456514,48.745608]]]}},{"type":"Feature","properties":{"cadnum":"1412945300:00:001:0091"},"geometry":{"type":"Polygon","coordinates":[[[37.45434,48.748602],[37.454609,48.748543],[37.454699,48.748172],[37.454744,48.747903],[37.454483,48.747965],[37.454447,48.748178],[37.454389,48.748433],[37.45434,48.748602]]]}},{"type":"Feature","properties":{"cadnum":"1412945300:00:001:0126"},"geometry":{"type":"Polygon","coordinates":[[[37.453347,48.748984],[37.453567,48.748872],[37.453774,48.748152],[37.453535,48.7482],[37.453347,48.748984]]]}},{"type":"Feature","properties":{"cadnum":"1412945300:00:001:0024"},"geometry":{"type":"Polygon","coordinates":[[[37.453239,48.748205],[37.453396,48.748167],[37.453549,48.748131],[37.453706,48.748093],[37.453706,48.748078],[37.453423,48.748087],[37.453266,48.748093],[37.453239,48.748205]]]}},{"type":"Feature","properties":{"cadnum":"1412945300:00:001:0103"},"geometry":{"type":"Polygon","coordinates":[[[37.456342,48.748095],[37.456397,48.748093],[37.456397,48.748078],[37.456464,48.748066],[37.4565,48.748069],[37.456612,48.748048],[37.456747,48.747388],[37.456478,48.747376],[37.456347,48.748063],[37.456342,48.748095]]]}},{"type":"Feature","properties":{"cadnum":"1412945300:00:001:0092"},"geometry":{"type":"Polygon","coordinates":[[[37.454609,48.748543],[37.45499,48.748466],[37.455112,48.748027],[37.45473,48.747992],[37.454699,48.748172],[37.454609,48.748543]]]}},{"type":"Feature","properties":{"cadnum":"1412945300:00:001:0097"},"geometry":{"type":"Polygon","coordinates":[[[37.455853,48.748964],[37.456162,48.748872],[37.456158,48.74824],[37.455894,48.748327],[37.455862,48.748629],[37.455853,48.748964]]]}},{"type":"Feature","properties":{"cadnum":"1412945300:00:001:0120"},"geometry":{"type":"Polygon","coordinates":[[[37.452493,48.747865],[37.452678,48.748558],[37.452925,48.748528],[37.452862,48.748288],[37.452745,48.747841],[37.452493,48.747865]]]}},{"type":"Feature","properties":{"cadnum":"1412945300:00:001:0116"},"geometry":{"type":"Polygon","coordinates":[[[37.453334,48.746556],[37.453374,48.746855],[37.453423,48.747089],[37.45372,48.747074],[37.453652,48.746843],[37.453598,48.746535],[37.453334,48.746556]]]}},{"type":"Feature","properties":{"cadnum":"1412945300:00:001:0123"},"geometry":{"type":"Polygon","coordinates":[[[37.454128,48.746475],[37.454254,48.747017],[37.454528,48.746994],[37.454411,48.746455],[37.454128,48.746475]]]}},{"type":"Feature","properties":{"cadnum":"1412945300:00:001:0030"},"geometry":{"type":"Polygon","coordinates":[[[37.45499,48.748466],[37.455265,48.748398],[37.455458,48.747702],[37.455189,48.74774],[37.45499,48.748466]]]}},{"type":"Feature","properties":{"cadnum":"1412945300:00:001:0053"},"geometry":{"type":"Polygon","coordinates":[[[37.455638,48.748409],[37.455925,48.748332],[37.456136,48.747684],[37.455845,48.747713],[37.455638,48.748409]]]}},{"type":"Feature","properties":{"cadnum":"1412945300:00:001:0093"},"geometry":{"type":"Polygon","coordinates":[[[37.454694,48.747571],[37.454744,48.747903],[37.45473,48.747992],[37.455112,48.748027],[37.455183,48.747749],[37.455233,48.747494],[37.454694,48.747571]]]}},{"type":"Feature","properties":{"cadnum":"1412945300:00:001:0130"},"geometry":{"type":"Polygon","coordinates":[[[37.453158,48.748469],[37.453451,48.748504],[37.453527,48.748205],[37.453208,48.748264],[37.453158,48.748469]]]}},{"type":"Feature","properties":{"cadnum":"1412945300:00:001:0136"},"geometry":{"type":"Polygon","coordinates":[[[37.454524,48.747032],[37.454583,48.747311],[37.454596,48.747361],[37.454613,48.747459],[37.454627,48.747513],[37.454676,48.747509],[37.454883,48.747489],[37.45487,48.747435],[37.454847,48.747322],[37.45478,48.747009],[37.454524,48.747032]]]}},{"type":"Feature","properties":{"cadnum":"1412945300:00:001:0055"},"geometry":{"type":"Polygon","coordinates":[[[37.452543,48.747441],[37.452543,48.747453],[37.452547,48.747494],[37.452615,48.747485],[37.452816,48.747467],[37.452812,48.747414],[37.452543,48.747441]]]}},{"type":"Feature","properties":{"cadnum":"1412945300:00:001:0104"},"geometry":{"type":"Polygon","coordinates":[[[37.452862,48.748288],[37.45292,48.74851],[37.453099,48.748495],[37.453145,48.748282],[37.452862,48.748288]]]}},{"type":"Feature","properties":{"cadnum":"1412945300:00:001:0100"},"geometry":{"type":"Polygon","coordinates":[[[37.456944,48.748013],[37.456958,48.74843],[37.457349,48.748306],[37.457246,48.747915],[37.456944,48.748013]]]}},{"type":"Feature","properties":{"cadnum":"1412945300:00:001:0105"},"geometry":{"type":"Polygon","coordinates":[[[37.452745,48.747841],[37.452862,48.748288],[37.453145,48.748282],[37.453221,48.747948],[37.453221,48.747794],[37.452745,48.747841]]]}},{"type":"Feature","properties":{"cadnum":"1412945300:00:001:0023"},"geometry":{"type":"Polygon","coordinates":[[[37.453266,48.748093],[37.453423,48.748087],[37.453706,48.748078],[37.453652,48.747675],[37.453554,48.747681],[37.453409,48.747684],[37.453378,48.747796],[37.453347,48.747805],[37.453298,48.747963],[37.453266,48.748093]]]}}]}