{"type":"FeatureCollection","features":[{"type":"Feature","properties":{"cadnum":"1412900003:00:001:0013"},"geometry":{"type":"Polygon","coordinates":[[[37.652072,48.666101],[37.652382,48.666312],[37.652678,48.666116],[37.652365,48.665909],[37.652072,48.666101]]]}},{"type":"Feature","properties":{"cadnum":"1412900003:00:001:0014"},"geometry":{"type":"Polygon","coordinates":[[[37.651789,48.665905],[37.652072,48.666101],[37.652365,48.665909],[37.652045,48.665698],[37.651789,48.665905]]]}},{"type":"Feature","properties":{"cadnum":"1412900003:00:001:0035"},"geometry":{"type":"Polygon","coordinates":[[[37.61137,48.6793],[37.611549,48.679454],[37.611608,48.679426],[37.611609,48.679426],[37.612007,48.67923],[37.611832,48.679075],[37.611609,48.679184],[37.611608,48.679184],[37.611608,48.679185],[37.61137,48.6793]]]}},{"type":"Feature","properties":{"cadnum":"1412900003:00:001:0034"},"geometry":{"type":"Polygon","coordinates":[[[37.616391,48.678274],[37.616548,48.678449],[37.616926,48.678269],[37.616746,48.678115],[37.616391,48.678274]]]}},{"type":"Feature","properties":{"cadnum":"1412900003:00:001:0027"},"geometry":{"type":"Polygon","coordinates":[[[37.61481,48.678188],[37.615012,48.678434],[37.615416,48.678292],[37.615192,48.678064],[37.61481,48.678188]]]}},{"type":"Feature","properties":{"cadnum":"1412900003:00:001:0041"},"geometry":{"type":"Polygon","coordinates":[[[37.619347,48.673209],[37.619701,48.673508],[37.619949,48.673387],[37.619584,48.673096],[37.619347,48.673209]]]}},{"type":"Feature","properties":{"cadnum":"1412900003:00:001:0037"},"geometry":{"type":"Polygon","coordinates":[[[37.617635,48.677219],[37.61781,48.677388],[37.618305,48.677186],[37.618129,48.677005],[37.617635,48.677219]]]}},{"type":"Feature","properties":{"cadnum":"1412900003:00:001:0038"},"geometry":{"type":"Polygon","coordinates":[[[37.618129,48.677005],[37.618305,48.677186],[37.618534,48.677094],[37.618301,48.676931],[37.618264,48.676948],[37.618129,48.677005]]]}},{"type":"Feature","properties":{"cadnum":"1412900003:00:001:0031"},"geometry":{"type":"Polygon","coordinates":[[[37.610045,48.676498],[37.610125,48.676555],[37.610126,48.676555],[37.610229,48.676629],[37.610342,48.676555],[37.610343,48.676555],[37.610538,48.67643],[37.610462,48.676383],[37.610345,48.676302],[37.61013,48.676442],[37.610129,48.676442],[37.610045,48.676498]]]}},{"type":"Feature","properties":{"cadnum":"1412900003:00:001:0040"},"geometry":{"type":"Polygon","coordinates":[[[37.608873,48.675229],[37.609016,48.675317],[37.609173,48.675412],[37.60938,48.675291],[37.609079,48.675104],[37.608873,48.675229]]]}},{"type":"Feature","properties":{"cadnum":"1412900003:00:001:0039"},"geometry":{"type":"Polygon","coordinates":[[[37.609079,48.675104],[37.60938,48.675291],[37.609708,48.675098],[37.609416,48.674899],[37.609079,48.675104]]]}}]}