{"type":"FeatureCollection","features":[{"type":"Feature","properties":{"cadnum":"1413536600:00:019:0037"},"geometry":{"type":"Polygon","coordinates":[[[38.057212,48.077048],[38.057688,48.07709],[38.057638,48.077348],[38.058816,48.077456],[38.058902,48.077498],[38.059309,48.077532],[38.059292,48.077652],[38.059499,48.077666],[38.059529,48.077507],[38.059688,48.077528],[38.059741,48.077276],[38.059822,48.077291],[38.059948,48.076613],[38.058416,48.076475],[38.058277,48.076484],[38.057764,48.076439],[38.057334,48.0764],[38.057212,48.077048]]]}},{"type":"Feature","properties":{"cadnum":"1413536600:00:024:0028"},"geometry":{"type":"Polygon","coordinates":[[[38.051365,48.059468],[38.053112,48.059481],[38.053745,48.059385],[38.053749,48.05933],[38.053749,48.059168],[38.053856,48.059171],[38.053856,48.059078],[38.053862,48.058961],[38.053692,48.058907],[38.053592,48.058904],[38.053596,48.058751],[38.05338,48.058751],[38.053008,48.058718],[38.05268,48.058712],[38.052443,48.0587],[38.051485,48.058697],[38.051405,48.058691],[38.051365,48.059468]]]}},{"type":"Feature","properties":{"cadnum":"1413536600:00:019:0038"},"geometry":{"type":"Polygon","coordinates":[[[38.060191,48.078351],[38.0602,48.078468],[38.060734,48.078453],[38.06073,48.078339],[38.060191,48.078351]]]}}]}