{"type":"FeatureCollection","features":[{"type":"Feature","properties":{"cadnum":"1413569300:21:000:0003"},"geometry":{"type":"Polygon","coordinates":[[[38.040832,47.955967],[38.041976,47.956926],[38.04221,47.957122],[38.042599,47.956926],[38.043256,47.956596],[38.043769,47.956316],[38.043046,47.955766],[38.042719,47.955982],[38.042426,47.95573],[38.042027,47.955955],[38.041308,47.955356],[38.040832,47.955967]]]}},{"type":"Feature","properties":{"cadnum":"1413569300:21:000:0016"},"geometry":{"type":"Polygon","coordinates":[[[38.041082,47.956],[38.042401,47.956926],[38.042402,47.956926],[38.04257,47.957044],[38.042768,47.956926],[38.043944,47.956229],[38.043181,47.955739],[38.043482,47.955534],[38.04323,47.955371],[38.043185,47.955414],[38.042601,47.955768],[38.042377,47.955601],[38.042336,47.955624],[38.042111,47.955483],[38.041082,47.956]]]}},{"type":"Feature","properties":{"cadnum":"1413569300:21:000:0013"},"geometry":{"type":"Polygon","coordinates":[[[38.04323,47.955371],[38.043482,47.955534],[38.043948,47.955221],[38.043639,47.955014],[38.043486,47.955124],[38.04323,47.955371]]]}},{"type":"Feature","properties":{"cadnum":"1413569300:21:000:0015"},"geometry":{"type":"Polygon","coordinates":[[[38.045327,47.954941],[38.045568,47.955045],[38.045606,47.955062],[38.045709,47.95514],[38.04574,47.955132],[38.04574,47.955131],[38.045889,47.955089],[38.046149,47.954921],[38.046321,47.955046],[38.045906,47.955282],[38.046298,47.955468],[38.046568,47.955549],[38.04668,47.955564],[38.046734,47.955531],[38.046644,47.955465],[38.046814,47.955264],[38.046702,47.954963],[38.046572,47.95489],[38.046438,47.954839],[38.046437,47.954839],[38.046307,47.954689],[38.045992,47.954722],[38.045952,47.954638],[38.046248,47.954625],[38.046168,47.954562],[38.046105,47.954542],[38.046105,47.954541],[38.046141,47.954454],[38.046051,47.954409],[38.046028,47.954382],[38.045597,47.954788],[38.045327,47.954941]]]}},{"type":"Feature","properties":{"cadnum":"1413569300:16:000:0013"},"geometry":{"type":"Polygon","coordinates":[[[38.063483,47.967445],[38.063649,47.967721],[38.06395,47.967643],[38.063779,47.96736],[38.063483,47.967445]]]}},{"type":"Feature","properties":{"cadnum":"1413569300:16:000:0039"},"geometry":{"type":"Polygon","coordinates":[[[38.062607,47.967075],[38.062655,47.967162],[38.062701,47.967149],[38.063047,47.967057],[38.063433,47.966957],[38.063374,47.966861],[38.062957,47.966969],[38.062782,47.967026],[38.062782,47.967033],[38.062781,47.967033],[38.062651,47.967062],[38.062607,47.967075]]]}},{"type":"Feature","properties":{"cadnum":"1413569300:08:000:0001"},"geometry":{"type":"Polygon","coordinates":[[[38.123787,47.901198],[38.123791,47.901204],[38.123841,47.901334],[38.123877,47.901463],[38.12392,47.901601],[38.12393,47.901632],[38.123956,47.901716],[38.123975,47.901774],[38.124244,47.90174],[38.124218,47.901602],[38.12416,47.901346],[38.124146,47.901292],[38.124132,47.901285],[38.124128,47.901271],[38.124137,47.901271],[38.124078,47.901132],[38.123787,47.901198]]]}},{"type":"Feature","properties":{"cadnum":"1413569300:01:000:0001"},"geometry":{"type":"Polygon","coordinates":[[[38.086582,47.942414],[38.0874,47.943277],[38.087557,47.943208],[38.087086,47.942728],[38.08696,47.942595],[38.086735,47.942363],[38.086582,47.942414]]]}},{"type":"Feature","properties":{"cadnum":"1413569300:01:000:0008"},"geometry":{"type":"Polygon","coordinates":[[[38.083982,47.944722],[38.084021,47.944759],[38.084125,47.944858],[38.084192,47.944827],[38.084328,47.944764],[38.084603,47.94502],[38.084836,47.944911],[38.084408,47.944512],[38.084092,47.944668],[38.083982,47.944722]]]}},{"type":"Feature","properties":{"cadnum":"1413569300:01:000:0007"},"geometry":{"type":"Polygon","coordinates":[[[38.084912,47.945576],[38.085047,47.945667],[38.085217,47.945793],[38.085613,47.945549],[38.085312,47.945321],[38.084912,47.945576]]]}},{"type":"Feature","properties":{"cadnum":"1413569300:01:000:0031"},"geometry":{"type":"Polygon","coordinates":[[[38.089457,47.943034],[38.089514,47.943094],[38.089678,47.943268],[38.089685,47.943276],[38.089866,47.943467],[38.089924,47.943524],[38.09019,47.943404],[38.089991,47.943197],[38.089691,47.942929],[38.089574,47.942981],[38.089457,47.943034]]]}},{"type":"Feature","properties":{"cadnum":"1413569300:01:000:0018"},"geometry":{"type":"Polygon","coordinates":[[[38.086368,47.944623],[38.086528,47.944731],[38.086817,47.944553],[38.087073,47.944418],[38.086947,47.944304],[38.086672,47.944448],[38.086368,47.944623]]]}},{"type":"Feature","properties":{"cadnum":"1413569300:01:000:0024"},"geometry":{"type":"Polygon","coordinates":[[[38.089551,47.943855],[38.089647,47.943937],[38.089685,47.943913],[38.089951,47.943754],[38.089951,47.943753],[38.090163,47.943645],[38.090073,47.943569],[38.089857,47.943665],[38.089798,47.943711],[38.089551,47.943855]]]}},{"type":"Feature","properties":{"cadnum":"1413569300:01:000:0015"},"geometry":{"type":"Polygon","coordinates":[[[38.086408,47.945949],[38.086637,47.946139],[38.08718,47.945811],[38.087037,47.945715],[38.086876,47.945774],[38.086857,47.945781],[38.086569,47.945889],[38.086408,47.945949]]]}},{"type":"Feature","properties":{"cadnum":"1413569300:01:000:0006"},"geometry":{"type":"Polygon","coordinates":[[[38.088272,47.941662],[38.0887,47.942209],[38.088752,47.942276],[38.088949,47.942204],[38.088941,47.942194],[38.088446,47.941599],[38.088272,47.941662]]]}},{"type":"Feature","properties":{"cadnum":"1413569300:01:000:0003"},"geometry":{"type":"Polygon","coordinates":[[[38.08753,47.946009],[38.087624,47.946076],[38.087647,47.946076],[38.088285,47.945784],[38.08833,47.945594],[38.088226,47.945495],[38.088002,47.945625],[38.087819,47.945774],[38.08753,47.946009]]]}},{"type":"Feature","properties":{"cadnum":"1413569300:01:000:0016"},"geometry":{"type":"Polygon","coordinates":[[[38.086637,47.946139],[38.086803,47.946274],[38.087377,47.945968],[38.087182,47.945812],[38.08718,47.945811],[38.08705,47.945889],[38.086637,47.946139]]]}},{"type":"Feature","properties":{"cadnum":"1413569300:01:000:0029"},"geometry":{"type":"Polygon","coordinates":[[[38.086659,47.943762],[38.086748,47.943874],[38.086834,47.943982],[38.08692,47.944066],[38.086924,47.944072],[38.08705,47.944012],[38.086933,47.943888],[38.08679,47.943711],[38.086659,47.943762]]]}},{"type":"Feature","properties":{"cadnum":"1413569300:06:000:0004"},"geometry":{"type":"Polygon","coordinates":[[[38.067538,47.958484],[38.067541,47.958487],[38.067629,47.958563],[38.067713,47.958637],[38.067839,47.958747],[38.068288,47.958557],[38.068095,47.958283],[38.06761,47.958458],[38.067538,47.958484]]]}},{"type":"Feature","properties":{"cadnum":"1413569300:19:000:0014"},"geometry":{"type":"Polygon","coordinates":[[[38.017557,47.975534],[38.017844,47.975648],[38.018102,47.975385],[38.018103,47.975385],[38.018103,47.975386],[38.018171,47.975317],[38.018171,47.975316],[38.01827,47.975216],[38.01827,47.975215],[38.01796,47.975088],[38.017857,47.975202],[38.017839,47.975222],[38.017753,47.975316],[38.017753,47.975317],[38.017557,47.975534]]]}},{"type":"Feature","properties":{"cadnum":"1413569300:14:000:0003"},"geometry":{"type":"Polygon","coordinates":[[[38.100897,47.972911],[38.101159,47.973323],[38.101495,47.973221],[38.101252,47.972803],[38.100897,47.972911]]]}},{"type":"Feature","properties":{"cadnum":"1413569300:23:000:0008"},"geometry":{"type":"Polygon","coordinates":[[[38.040468,47.971964],[38.040696,47.972277],[38.040989,47.97219],[38.040795,47.971928],[38.040778,47.971913],[38.040683,47.971892],[38.040468,47.971964]]]}},{"type":"Feature","properties":{"cadnum":"1413569300:00:000:0000"},"geometry":{"type":"Polygon","coordinates":[[[38.105834,47.941553],[38.10592,47.94165],[38.105993,47.941645],[38.105996,47.941645],[38.106165,47.941632],[38.106709,47.94159],[38.10675,47.941578],[38.106444,47.941277],[38.106165,47.941403],[38.105834,47.941553]]]}},{"type":"Feature","properties":{"cadnum":"1413569300:09:000:0004"},"geometry":{"type":"Polygon","coordinates":[[[38.104409,47.909337],[38.104788,47.909361],[38.104828,47.909027],[38.104759,47.909023],[38.104486,47.909009],[38.104468,47.909081],[38.104469,47.909081],[38.104409,47.909337]]]}},{"type":"Feature","properties":{"cadnum":"1413569300:09:000:0013"},"geometry":{"type":"Polygon","coordinates":[[[38.105506,47.906112],[38.105541,47.906112],[38.105533,47.906157],[38.10587,47.906191],[38.105865,47.906206],[38.105861,47.90623],[38.105993,47.906236],[38.10611,47.906241],[38.106165,47.906244],[38.106165,47.906243],[38.106346,47.906251],[38.106386,47.906043],[38.106058,47.906016],[38.105537,47.905974],[38.105506,47.906112]]]}},{"type":"Feature","properties":{"cadnum":"1413569300:09:000:0006"},"geometry":{"type":"Polygon","coordinates":[[[38.106,47.905372],[38.106071,47.905381],[38.106063,47.905399],[38.106165,47.905414],[38.106165,47.905413],[38.106404,47.905447],[38.106422,47.905387],[38.106423,47.905387],[38.106485,47.905399],[38.106486,47.905399],[38.106979,47.905489],[38.107046,47.905351],[38.107043,47.90535],[38.106327,47.905206],[38.106058,47.905179],[38.106026,47.905283],[38.106025,47.905283],[38.106,47.905372]]]}},{"type":"Feature","properties":{"cadnum":"1413569300:09:000:0017"},"geometry":{"type":"Polygon","coordinates":[[[38.105105,47.906184],[38.105272,47.9062],[38.105285,47.906133],[38.105533,47.906157],[38.105541,47.906112],[38.105507,47.906112],[38.105506,47.906112],[38.105514,47.906067],[38.105128,47.906022],[38.105105,47.906184]]]}},{"type":"Feature","properties":{"cadnum":"1413569300:08:000:0008"},"geometry":{"type":"Polygon","coordinates":[[[38.120086,47.904661],[38.120108,47.904908],[38.12031,47.904902],[38.120302,47.904722],[38.120306,47.904454],[38.120252,47.903954],[38.120086,47.903959],[38.120108,47.904285],[38.120108,47.904552],[38.120108,47.904553],[38.120086,47.904661]]]}},{"type":"Feature","properties":{"cadnum":"1413569300:08:000:0005"},"geometry":{"type":"Polygon","coordinates":[[[38.117053,47.905004],[38.117151,47.905003],[38.117273,47.905001],[38.117265,47.9048],[38.117229,47.9048],[38.117206,47.90414],[38.117053,47.90417],[38.11704,47.904664],[38.117053,47.905004]]]}},{"type":"Feature","properties":{"cadnum":"1413569300:08:000:0006"},"geometry":{"type":"Polygon","coordinates":[[[38.11951,47.903403],[38.11973,47.903369],[38.119753,47.903108],[38.119762,47.902629],[38.119516,47.902629],[38.11951,47.903403]]]}},{"type":"Feature","properties":{"cadnum":"1413569300:17:000:0013"},"geometry":{"type":"Polygon","coordinates":[[[38.06377,47.943961],[38.064332,47.944526],[38.064565,47.944439],[38.063999,47.94387],[38.06377,47.943961]]]}},{"type":"Feature","properties":{"cadnum":"1413569300:17:000:0018"},"geometry":{"type":"Polygon","coordinates":[[[38.062791,47.943362],[38.062908,47.943482],[38.063028,47.943585],[38.06337,47.943906],[38.063594,47.943823],[38.063254,47.943482],[38.063047,47.943277],[38.062863,47.943332],[38.062791,47.943362]]]}},{"type":"Feature","properties":{"cadnum":"1413569300:17:000:0012"},"geometry":{"type":"Polygon","coordinates":[[[38.063533,47.944057],[38.064085,47.944602],[38.064332,47.944526],[38.06377,47.943961],[38.063533,47.944057]]]}},{"type":"Feature","properties":{"cadnum":"1413569300:21:000:0017"},"geometry":{"type":"Polygon","coordinates":[[[38.042346,47.958247],[38.042933,47.958665],[38.04323,47.958491],[38.042902,47.958283],[38.042615,47.958096],[38.042346,47.958247]]]}},{"type":"Feature","properties":{"cadnum":"1413569300:21:000:0018"},"geometry":{"type":"Polygon","coordinates":[[[38.041833,47.957832],[38.042035,47.958013],[38.042346,47.958247],[38.042615,47.958096],[38.042057,47.957703],[38.042027,47.957721],[38.042013,47.957724],[38.041964,47.957748],[38.04196,47.95776],[38.041833,47.957832]]]}},{"type":"Feature","properties":{"cadnum":"1413569300:13:000:0001"},"geometry":{"type":"Polygon","coordinates":[[[38.105151,47.925421],[38.105331,47.92564],[38.105541,47.925574],[38.105946,47.92546],[38.105803,47.925213],[38.105528,47.925292],[38.105402,47.92533],[38.105151,47.925421]]]}},{"type":"Feature","properties":{"cadnum":"1413569300:13:000:0002"},"geometry":{"type":"Polygon","coordinates":[[[38.104509,47.925649],[38.104671,47.925845],[38.105331,47.92564],[38.105151,47.925421],[38.104509,47.925649]]]}},{"type":"Feature","properties":{"cadnum":"1413569300:13:000:0004"},"geometry":{"type":"Polygon","coordinates":[[[38.104136,47.924244],[38.104189,47.924358],[38.105223,47.92415],[38.105168,47.924034],[38.104136,47.924244]]]}},{"type":"Feature","properties":{"cadnum":"1413569300:13:000:0003"},"geometry":{"type":"Polygon","coordinates":[[[38.10418,47.924099],[38.104262,47.924244],[38.105254,47.924043],[38.105155,47.923858],[38.10418,47.924099]]]}},{"type":"Feature","properties":{"cadnum":"1413569300:17:000:0015"},"geometry":{"type":"Polygon","coordinates":[[[38.056885,47.941978],[38.056974,47.942094],[38.056973,47.942094],[38.057041,47.942182],[38.057042,47.942182],[38.057598,47.941993],[38.05737,47.9418],[38.056921,47.941966],[38.056885,47.941978]]]}},{"type":"Feature","properties":{"cadnum":"1413569300:21:000:0012"},"geometry":{"type":"Polygon","coordinates":[[[38.037539,47.956957],[38.037553,47.956999],[38.037719,47.957222],[38.038046,47.957438],[38.03891,47.956867],[38.03912,47.956729],[38.038608,47.956391],[38.038522,47.956361],[38.038451,47.956364],[38.038339,47.956412],[38.037584,47.956926],[38.037539,47.956957]]]}},{"type":"Feature","properties":{"cadnum":"1413569300:16:000:0016"},"geometry":{"type":"Polygon","coordinates":[[[38.067561,47.968671],[38.067709,47.968933],[38.067713,47.968932],[38.067961,47.968864],[38.067808,47.968605],[38.067561,47.968671]]]}},{"type":"Feature","properties":{"cadnum":"1413569300:16:000:0043"},"geometry":{"type":"Polygon","coordinates":[[[38.066559,47.96897],[38.066703,47.969231],[38.067206,47.96909],[38.067072,47.968846],[38.066559,47.96897]]]}},{"type":"Feature","properties":{"cadnum":"1413569300:16:000:0030"},"geometry":{"type":"Polygon","coordinates":[[[38.067372,47.968341],[38.067541,47.968636],[38.067561,47.968671],[38.067713,47.968631],[38.067808,47.968605],[38.067894,47.968587],[38.067709,47.968254],[38.067372,47.968341]]]}},{"type":"Feature","properties":{"cadnum":"1413569300:12:000:0002"},"geometry":{"type":"Polygon","coordinates":[[[38.100583,47.916779],[38.100623,47.9168],[38.100672,47.916812],[38.100672,47.916811],[38.101059,47.916899],[38.101346,47.916631],[38.101059,47.916523],[38.100817,47.916508],[38.100583,47.916779]]]}},{"type":"Feature","properties":{"cadnum":"1413569300:23:000:0005"},"geometry":{"type":"Polygon","coordinates":[[[38.035658,47.974132],[38.035693,47.974168],[38.035725,47.974199],[38.035742,47.974217],[38.036098,47.974087],[38.03612,47.974105],[38.036377,47.974],[38.036371,47.973994],[38.036354,47.97397],[38.036425,47.973937],[38.036564,47.973876],[38.036322,47.973762],[38.036245,47.973724],[38.036197,47.973702],[38.0359,47.973946],[38.035945,47.973979],[38.035658,47.974132]],[[38.036031,47.974094],[38.03603,47.974094],[38.036017,47.974078],[38.036039,47.974069],[38.036052,47.974085],[38.036031,47.974094]]]}},{"type":"Feature","properties":{"cadnum":"1413569300:23:000:0009"},"geometry":{"type":"Polygon","coordinates":[[[38.035231,47.973071],[38.035478,47.973179],[38.035792,47.972842],[38.035545,47.972743],[38.035388,47.972917],[38.035231,47.973071]]]}},{"type":"Feature","properties":{"cadnum":"1413569300:23:000:0006"},"geometry":{"type":"Polygon","coordinates":[[[38.034327,47.972208],[38.03457,47.972313],[38.034582,47.972302],[38.034692,47.972202],[38.034736,47.972171],[38.034754,47.972153],[38.034889,47.972012],[38.034637,47.971901],[38.034327,47.972208]]]}},{"type":"Feature","properties":{"cadnum":"1413569300:01:000:0012"},"geometry":{"type":"Polygon","coordinates":[[[38.095561,47.942583],[38.09575,47.942673],[38.095926,47.942541],[38.096276,47.942303],[38.096406,47.942216],[38.096348,47.94217],[38.09619,47.942044],[38.096131,47.942094],[38.095561,47.942583]]]}},{"type":"Feature","properties":{"cadnum":"1413569300:10:000:0001"},"geometry":{"type":"Polygon","coordinates":[[[38.096258,47.907416],[38.096272,47.907576],[38.096302,47.907789],[38.096805,47.907735],[38.096752,47.907527],[38.096716,47.907377],[38.096258,47.907416]]]}},{"type":"Feature","properties":{"cadnum":"1413569300:06:000:0005"},"geometry":{"type":"Polygon","coordinates":[[[38.075637,47.9565],[38.075704,47.956587],[38.075857,47.956758],[38.075899,47.956811],[38.07593,47.95685],[38.07599,47.956926],[38.075991,47.956926],[38.075991,47.956927],[38.076337,47.956834],[38.076117,47.956527],[38.076032,47.956457],[38.075884,47.956479],[38.075848,47.956433],[38.075637,47.9565]]]}},{"type":"Feature","properties":{"cadnum":"1413569300:06:000:0001"},"geometry":{"type":"Polygon","coordinates":[[[38.07419,47.95665],[38.074306,47.956811],[38.074366,47.956894],[38.074381,47.956926],[38.07454,47.957276],[38.074788,47.957222],[38.074632,47.95688],[38.074505,47.956599],[38.07419,47.95665]]]}},{"type":"Feature","properties":{"cadnum":"1413569300:06:000:0007"},"geometry":{"type":"Polygon","coordinates":[[[38.073944,47.956849],[38.073986,47.956926],[38.073987,47.956926],[38.074271,47.957432],[38.074559,47.957357],[38.074339,47.956987],[38.074287,47.956926],[38.074177,47.956798],[38.074115,47.956811],[38.073948,47.956848],[38.073944,47.956849]]]}},{"type":"Feature","properties":{"cadnum":"1413569300:06:000:0002"},"geometry":{"type":"Polygon","coordinates":[[[38.073974,47.956154],[38.0741,47.956479],[38.07419,47.95665],[38.074505,47.956599],[38.074276,47.956103],[38.073974,47.956154]]]}},{"type":"Feature","properties":{"cadnum":"1413569300:06:000:0006"},"geometry":{"type":"Polygon","coordinates":[[[38.077119,47.956313],[38.077299,47.956562],[38.077915,47.956379],[38.077672,47.956139],[38.077119,47.956313]]]}},{"type":"Feature","properties":{"cadnum":"1413569300:14:000:0001"},"geometry":{"type":"Polygon","coordinates":[[[38.10295,47.97019],[38.103117,47.970452],[38.103709,47.970296],[38.103543,47.970034],[38.10295,47.97019]]]}},{"type":"Feature","properties":{"cadnum":"1413569300:14:000:0002"},"geometry":{"type":"Polygon","coordinates":[[[38.102429,47.970731],[38.102587,47.971041],[38.102842,47.970984],[38.10269,47.970675],[38.102429,47.970731]]]}},{"type":"Feature","properties":{"cadnum":"1413569300:22:000:0002"},"geometry":{"type":"Polygon","coordinates":[[[38.04548,47.963689],[38.045568,47.963732],[38.04572,47.963805],[38.04574,47.963815],[38.046465,47.964168],[38.046464,47.964168],[38.046554,47.964211],[38.046554,47.964218],[38.046555,47.964218],[38.046706,47.964283],[38.046818,47.964332],[38.046985,47.964173],[38.045593,47.963556],[38.04548,47.963689]]]}},{"type":"Feature","properties":{"cadnum":"1413569300:17:000:0014"},"geometry":{"type":"Polygon","coordinates":[[[38.057518,47.942613],[38.057715,47.94279],[38.058393,47.942499],[38.058191,47.942318],[38.057621,47.942565],[38.057518,47.942613]]]}},{"type":"Feature","properties":{"cadnum":"1413569300:17:000:0002"},"geometry":{"type":"Polygon","coordinates":[[[38.060397,47.944087],[38.060464,47.944165],[38.06072,47.944069],[38.060653,47.943991],[38.060397,47.944087]]]}},{"type":"Feature","properties":{"cadnum":"1413569300:17:000:0001"},"geometry":{"type":"Polygon","coordinates":[[[38.059059,47.944568],[38.059185,47.94471],[38.059512,47.944575],[38.059548,47.944559],[38.059661,47.944514],[38.059558,47.944397],[38.059265,47.944512],[38.059126,47.944535],[38.059059,47.944568]]]}},{"type":"Feature","properties":{"cadnum":"1413569300:17:000:0003"},"geometry":{"type":"Polygon","coordinates":[[[38.059364,47.943952],[38.059468,47.94406],[38.05993,47.943877],[38.059827,47.943759],[38.059508,47.943861],[38.059485,47.94387],[38.059364,47.943952]]]}},{"type":"Feature","properties":{"cadnum":"1413569300:18:000:0001"},"geometry":{"type":"Polygon","coordinates":[[[37.976099,47.992964],[37.976247,47.993064],[37.976759,47.992534],[37.976432,47.992409],[37.976319,47.99258],[37.976099,47.992964]]]}},{"type":"Feature","properties":{"cadnum":"1413569300:18:000:0005"},"geometry":{"type":"Polygon","coordinates":[[[37.976485,47.992367],[37.976669,47.992438],[37.977114,47.992072],[37.976853,47.99197],[37.976485,47.992367]]]}},{"type":"Feature","properties":{"cadnum":"1413569300:18:000:0002"},"geometry":{"type":"Polygon","coordinates":[[[37.97609,47.992216],[37.976283,47.992288],[37.976602,47.991855],[37.976646,47.99178],[37.976355,47.991684],[37.976329,47.991771],[37.976256,47.991912],[37.97609,47.992216]]]}},{"type":"Feature","properties":{"cadnum":"1413569300:18:000:0004"},"geometry":{"type":"Polygon","coordinates":[[[37.976283,47.992288],[37.976485,47.992367],[37.976853,47.99197],[37.976575,47.991892],[37.976283,47.992288]]]}},{"type":"Feature","properties":{"cadnum":"1413569300:18:000:0003"},"geometry":{"type":"Polygon","coordinates":[[[37.975533,47.992454],[37.975834,47.992559],[37.97608,47.992267],[37.975753,47.992144],[37.975686,47.992234],[37.975637,47.992322],[37.975533,47.992454]]]}},{"type":"Feature","properties":{"cadnum":"1413569300:21:000:0001"},"geometry":{"type":"Polygon","coordinates":[[[38.038038,47.958969],[38.038088,47.958987],[38.038141,47.958924],[38.038092,47.958906],[38.038038,47.958969]]]}},{"type":"Feature","properties":{"cadnum":"1413569300:19:000:0013"},"geometry":{"type":"Polygon","coordinates":[[[38.01505,47.974547],[38.015391,47.974692],[38.015746,47.974324],[38.015374,47.974177],[38.015373,47.974177],[38.01505,47.974547]]]}},{"type":"Feature","properties":{"cadnum":"1413569300:19:000:0004"},"geometry":{"type":"Polygon","coordinates":[[[38.016941,47.974587],[38.017211,47.974685],[38.017628,47.974205],[38.017385,47.974112],[38.017322,47.974186],[38.017238,47.974255],[38.016941,47.974587]]]}},{"type":"Feature","properties":{"cadnum":"1413569300:19:000:0012"},"geometry":{"type":"Polygon","coordinates":[[[38.015737,47.974839],[38.016106,47.974977],[38.016218,47.974845],[38.01646,47.974607],[38.016096,47.974473],[38.015737,47.974839]]]}},{"type":"Feature","properties":{"cadnum":"1413569300:21:000:0009"},"geometry":{"type":"Polygon","coordinates":[[[38.029819,47.957008],[38.030119,47.957177],[38.030551,47.956854],[38.030218,47.956665],[38.030047,47.956811],[38.030005,47.956847],[38.029912,47.956926],[38.029913,47.956926],[38.029819,47.957008]]]}},{"type":"Feature","properties":{"cadnum":"1413569300:21:000:0007"},"geometry":{"type":"Polygon","coordinates":[[[38.030218,47.956665],[38.030551,47.956854],[38.031013,47.956509],[38.030614,47.956319],[38.030218,47.956665]]]}},{"type":"Feature","properties":{"cadnum":"1413569300:21:000:0008"},"geometry":{"type":"Polygon","coordinates":[[[38.029023,47.956593],[38.029089,47.956627],[38.029154,47.956661],[38.029261,47.956716],[38.029342,47.956758],[38.029742,47.956412],[38.029392,47.956241],[38.029261,47.956367],[38.029023,47.956593]]]}},{"type":"Feature","properties":{"cadnum":"1413569300:21:000:0006"},"geometry":{"type":"Polygon","coordinates":[[[38.029392,47.956241],[38.029742,47.956412],[38.030102,47.956105],[38.029692,47.955955],[38.029392,47.956241]]]}},{"type":"Feature","properties":{"cadnum":"1413569300:21:000:0004"},"geometry":{"type":"Polygon","coordinates":[[[38.030119,47.957177],[38.030434,47.957387],[38.031049,47.956926],[38.03105,47.956926],[38.031327,47.956719],[38.031013,47.956509],[38.030608,47.956811],[38.030607,47.956811],[38.030119,47.957177]]]}},{"type":"Feature","properties":{"cadnum":"1413569300:04:000:0002"},"geometry":{"type":"Polygon","coordinates":[[[38.080213,47.935497],[38.080343,47.935587],[38.080712,47.935683],[38.080779,47.93571],[38.080991,47.935457],[38.080412,47.935259],[38.080213,47.935497]]]}},{"type":"Feature","properties":{"cadnum":"1413569300:19:000:0001"},"geometry":{"type":"Polygon","coordinates":[[[38.014295,47.966647],[38.014322,47.966921],[38.014668,47.966777],[38.015014,47.966629],[38.015714,47.96634],[38.015733,47.965357],[38.015369,47.965246],[38.014295,47.966647]]]}},{"type":"Feature","properties":{"cadnum":"1413569300:16:000:0007"},"geometry":{"type":"Polygon","coordinates":[[[38.075548,47.966828],[38.075641,47.966966],[38.075888,47.966897],[38.075938,47.966885],[38.075934,47.966879],[38.076045,47.966849],[38.075969,47.966717],[38.075907,47.966732],[38.075548,47.966828]]]}},{"type":"Feature","properties":{"cadnum":"1413569300:16:000:0004"},"geometry":{"type":"Polygon","coordinates":[[[38.075066,47.965009],[38.075188,47.96518],[38.075431,47.965102],[38.075515,47.965225],[38.075965,47.965084],[38.075879,47.96496],[38.075731,47.965005],[38.075615,47.964837],[38.075066,47.965009]]]}},{"type":"Feature","properties":{"cadnum":"1413569300:16:000:0008"},"geometry":{"type":"Polygon","coordinates":[[[38.073081,47.967902],[38.07313,47.967961],[38.073206,47.968054],[38.073368,47.96825],[38.073683,47.968163],[38.073535,47.967974],[38.073522,47.967959],[38.073395,47.967809],[38.073273,47.967846],[38.07327,47.967847],[38.073081,47.967902]]]}},{"type":"Feature","properties":{"cadnum":"1413569300:16:000:0038"},"geometry":{"type":"Polygon","coordinates":[[[38.07375,47.966984],[38.073926,47.967231],[38.074379,47.967098],[38.074223,47.966849],[38.074033,47.966903],[38.073921,47.966937],[38.07375,47.966984]]]}},{"type":"Feature","properties":{"cadnum":"1413569300:16:000:0040"},"geometry":{"type":"Polygon","coordinates":[[[38.076185,47.967553],[38.076361,47.967846],[38.07636,47.967846],[38.076423,47.967949],[38.07643,47.967961],[38.076431,47.967961],[38.076544,47.968136],[38.076787,47.968082],[38.076688,47.967863],[38.076687,47.967862],[38.07663,47.967769],[38.076454,47.967483],[38.076185,47.967553]]]}},{"type":"Feature","properties":{"cadnum":"1413569300:16:000:0025"},"geometry":{"type":"Polygon","coordinates":[[[38.077972,47.961355],[38.078282,47.962229],[38.078527,47.96219],[38.080106,47.961935],[38.080119,47.961453],[38.080137,47.961005],[38.078699,47.961238],[38.077972,47.961355]]]}},{"type":"Feature","properties":{"cadnum":"1413569300:23:000:0002"},"geometry":{"type":"Polygon","coordinates":[[[38.032989,47.972777],[38.033205,47.972884],[38.03356,47.972527],[38.033348,47.972421],[38.032989,47.972777]]]}},{"type":"Feature","properties":{"cadnum":"1413569300:23:000:0001"},"geometry":{"type":"Polygon","coordinates":[[[38.033008,47.972196],[38.033236,47.972298],[38.033771,47.971754],[38.033537,47.971652],[38.033008,47.972196]]]}},{"type":"Feature","properties":{"cadnum":"1413569300:23:000:0010"},"geometry":{"type":"Polygon","coordinates":[[[38.031553,47.974923],[38.031736,47.975158],[38.031718,47.975197],[38.031721,47.975201],[38.031721,47.975202],[38.03172,47.975202],[38.03188,47.975422],[38.032198,47.975305],[38.032199,47.975305],[38.032198,47.975304],[38.031817,47.974821],[38.031553,47.974923]]]}},{"type":"Feature","properties":{"cadnum":"1413569300:23:000:0007"},"geometry":{"type":"Polygon","coordinates":[[[38.032819,47.973182],[38.033002,47.973281],[38.033102,47.973198],[38.033106,47.973198],[38.033169,47.973146],[38.033367,47.972969],[38.033205,47.972884],[38.033195,47.972882],[38.032819,47.973182]]]}},{"type":"Feature","properties":{"cadnum":"1413569300:08:000:0004"},"geometry":{"type":"Polygon","coordinates":[[[38.115913,47.905001],[38.116128,47.905004],[38.11616,47.904769],[38.116254,47.904351],[38.116078,47.904351],[38.115948,47.904766],[38.115913,47.905001]]]}},{"type":"Feature","properties":{"cadnum":"1413569300:08:000:0007"},"geometry":{"type":"Polygon","coordinates":[[[38.112216,47.905947],[38.112476,47.905974],[38.112585,47.905459],[38.112656,47.905287],[38.112669,47.9052],[38.112656,47.905194],[38.112656,47.905193],[38.112642,47.905149],[38.112526,47.905158],[38.112478,47.905283],[38.112445,47.905369],[38.112431,47.905399],[38.112432,47.905399],[38.112329,47.905624],[38.112216,47.905947]]]}},{"type":"Feature","properties":{"cadnum":"1413569300:17:000:0010"},"geometry":{"type":"Polygon","coordinates":[[[38.055424,47.93974],[38.055627,47.93986],[38.056252,47.93939],[38.056036,47.939267],[38.055424,47.93974]]]}},{"type":"Feature","properties":{"cadnum":"1413569300:19:000:0011"},"geometry":{"type":"Polygon","coordinates":[[[38.030752,47.964774],[38.03113,47.965014],[38.031404,47.965195],[38.031435,47.965216],[38.031637,47.965072],[38.03104,47.964699],[38.03095,47.964639],[38.030918,47.964663],[38.030752,47.964774]]]}},{"type":"Feature","properties":{"cadnum":"1413569300:19:000:0008"},"geometry":{"type":"Polygon","coordinates":[[[38.030228,47.965132],[38.030618,47.96537],[38.030752,47.965274],[38.030851,47.965336],[38.031013,47.965228],[38.030958,47.96518],[38.030555,47.964913],[38.030228,47.965132]]]}},{"type":"Feature","properties":{"cadnum":"1413569300:19:000:0010"},"geometry":{"type":"Polygon","coordinates":[[[38.030555,47.965649],[38.030874,47.965836],[38.031157,47.965697],[38.030788,47.965468],[38.030555,47.965649]]]}},{"type":"Feature","properties":{"cadnum":"1413569300:19:000:0007"},"geometry":{"type":"Polygon","coordinates":[[[38.030555,47.964913],[38.030958,47.96518],[38.031013,47.965228],[38.031201,47.965343],[38.031404,47.965195],[38.03113,47.965014],[38.030752,47.964774],[38.030555,47.964913]]]}},{"type":"Feature","properties":{"cadnum":"1413569300:19:000:0009"},"geometry":{"type":"Polygon","coordinates":[[[38.03002,47.96527],[38.030034,47.965321],[38.030218,47.965453],[38.030555,47.965649],[38.030788,47.965468],[38.030717,47.965424],[38.030618,47.96537],[38.030228,47.965132],[38.03002,47.96527]]]}},{"type":"Feature","properties":{"cadnum":"1413569300:16:000:0031"},"geometry":{"type":"Polygon","coordinates":[[[38.070544,47.968611],[38.070768,47.968966],[38.071041,47.968894],[38.070921,47.968705],[38.070827,47.968548],[38.070821,47.968539],[38.070544,47.968611]]]}},{"type":"Feature","properties":{"cadnum":"1413569300:16:000:0032"},"geometry":{"type":"Polygon","coordinates":[[[38.069559,47.968593],[38.069726,47.968849],[38.069986,47.968767],[38.069829,47.968518],[38.069559,47.968593]]]}},{"type":"Feature","properties":{"cadnum":"1413569300:16:000:0028"},"geometry":{"type":"Polygon","coordinates":[[[38.068028,47.969303],[38.068248,47.969643],[38.068544,47.969561],[38.068343,47.969219],[38.068204,47.969255],[38.068028,47.969303]]]}},{"type":"Feature","properties":{"cadnum":"1413569300:16:000:0014"},"geometry":{"type":"Polygon","coordinates":[[[38.068135,47.970112],[38.068311,47.970368],[38.068701,47.970287],[38.068737,47.970278],[38.068621,47.970069],[38.068271,47.970154],[38.068135,47.970112]]]}},{"type":"Feature","properties":{"cadnum":"1413569300:05:000:0001"},"geometry":{"type":"Polygon","coordinates":[[[38.071487,47.937161],[38.071716,47.937311],[38.072619,47.936785],[38.072255,47.936598],[38.071487,47.937161]]]}},{"type":"Feature","properties":{"cadnum":"1413569300:05:000:0002"},"geometry":{"type":"Polygon","coordinates":[[[38.071855,47.936577],[38.072089,47.936722],[38.072255,47.936598],[38.072259,47.936592],[38.072645,47.936318],[38.072349,47.936174],[38.07202,47.936448],[38.071855,47.936577]]]}},{"type":"Feature","properties":{"cadnum":"1413569300:05:000:0003"},"geometry":{"type":"Polygon","coordinates":[[[38.072511,47.936865],[38.072829,47.93698],[38.073034,47.93684],[38.073347,47.936625],[38.073206,47.936565],[38.073028,47.93649],[38.072619,47.936785],[38.072511,47.936865]]]}},{"type":"Feature","properties":{"cadnum":"1413569300:21:000:0019"},"geometry":{"type":"Polygon","coordinates":[[[38.033178,47.958004],[38.033331,47.958115],[38.03395,47.957802],[38.034113,47.95769],[38.033887,47.957561],[38.033178,47.958004]]]}},{"type":"Feature","properties":{"cadnum":"1413569300:21:000:0014"},"geometry":{"type":"Polygon","coordinates":[[[38.032702,47.958888],[38.033088,47.959099],[38.033169,47.959062],[38.033331,47.958954],[38.032918,47.958731],[38.032702,47.958888]]]}},{"type":"Feature","properties":{"cadnum":"1413569300:21:000:0002"},"geometry":{"type":"Polygon","coordinates":[[[38.034396,47.957597],[38.03444,47.957612],[38.034494,47.957552],[38.034449,47.957534],[38.034396,47.957597]]]}},{"type":"Feature","properties":{"cadnum":"1413569300:21:000:0011"},"geometry":{"type":"Polygon","coordinates":[[[38.046527,47.953955],[38.046998,47.954159],[38.046963,47.954207],[38.047111,47.954268],[38.047223,47.954102],[38.047067,47.954051],[38.0476,47.953323],[38.047229,47.953134],[38.04717,47.953104],[38.047147,47.953132],[38.047146,47.953132],[38.04672,47.953666],[38.046657,47.953784],[38.046527,47.953955]]]}},{"type":"Feature","properties":{"cadnum":"1413569300:21:000:0010"},"geometry":{"type":"Polygon","coordinates":[[[38.046302,47.954241],[38.046315,47.954261],[38.046361,47.954288],[38.046478,47.954346],[38.046702,47.954445],[38.04672,47.954418],[38.046778,47.954357],[38.046837,47.954304],[38.046963,47.954207],[38.046998,47.954159],[38.046527,47.953955],[38.046321,47.95421],[38.046302,47.954241]]]}},{"type":"Feature","properties":{"cadnum":"1413569300:19:000:0003"},"geometry":{"type":"Polygon","coordinates":[[[38.015966,47.970939],[38.016479,47.971116],[38.016609,47.97099],[38.016348,47.9709],[38.01607,47.970807],[38.015966,47.970939]]]}},{"type":"Feature","properties":{"cadnum":"1413569300:19:000:0015"},"geometry":{"type":"Polygon","coordinates":[[[38.016182,47.969766],[38.016609,47.970073],[38.016712,47.970009],[38.01677,47.970004],[38.016878,47.969928],[38.016389,47.969637],[38.016182,47.969766]]]}},{"type":"Feature","properties":{"cadnum":"1413569300:16:000:0051"},"geometry":{"type":"Polygon","coordinates":[[[38.070125,47.963664],[38.070261,47.963821],[38.070661,47.963682],[38.070399,47.96331],[38.070261,47.963346],[38.070125,47.963664]]]}},{"type":"Feature","properties":{"cadnum":"1413569300:16:000:0042"},"geometry":{"type":"Polygon","coordinates":[[[38.07172,47.962434],[38.071882,47.962615],[38.072049,47.962771],[38.072215,47.962711],[38.072079,47.962575],[38.071904,47.962368],[38.07172,47.962434]]]}},{"type":"Feature","properties":{"cadnum":"1413569300:16:000:0026"},"geometry":{"type":"Polygon","coordinates":[[[38.073504,47.968346],[38.073827,47.968711],[38.073894,47.96878],[38.074141,47.968689],[38.073768,47.968272],[38.073504,47.968346]]]}},{"type":"Feature","properties":{"cadnum":"1413569300:16:000:0041"},"geometry":{"type":"Polygon","coordinates":[[[38.076544,47.968136],[38.076706,47.968395],[38.076913,47.968346],[38.076903,47.968319],[38.076787,47.968082],[38.076544,47.968136]]]}},{"type":"Feature","properties":{"cadnum":"1413569300:17:000:0011"},"geometry":{"type":"Polygon","coordinates":[[[38.046958,47.946365],[38.047317,47.946633],[38.047488,47.946626],[38.047717,47.946509],[38.047533,47.946343],[38.047394,47.946184],[38.046958,47.946365]]]}},{"type":"Feature","properties":{"cadnum":"1413569300:16:000:0005"},"geometry":{"type":"Polygon","coordinates":[[[38.074299,47.96068],[38.074567,47.961357],[38.074739,47.961562],[38.075138,47.961462],[38.075282,47.961192],[38.0749,47.960918],[38.074865,47.960611],[38.074299,47.96068]]]}},{"type":"Feature","properties":{"cadnum":"1413569300:16:000:0023"},"geometry":{"type":"Polygon","coordinates":[[[38.075273,47.962981],[38.075403,47.963174],[38.075637,47.96311],[38.075785,47.963065],[38.075776,47.96305],[38.075664,47.962873],[38.075609,47.962885],[38.075273,47.962981]]]}},{"type":"Feature","properties":{"cadnum":"1413569300:16:000:0024"},"geometry":{"type":"Polygon","coordinates":[[[38.075907,47.961688],[38.076364,47.962536],[38.078282,47.962229],[38.077972,47.961355],[38.075907,47.961688]]]}},{"type":"Feature","properties":{"cadnum":"1413569300:24:000:0001"},"geometry":{"type":"Polygon","coordinates":[[[38.007018,47.993019],[38.007116,47.993058],[38.007171,47.993079],[38.007288,47.992956],[38.007288,47.992955],[38.00754,47.992688],[38.007584,47.992628],[38.007751,47.992445],[38.007603,47.992378],[38.007356,47.992658],[38.007168,47.99286],[38.007018,47.993019]]]}},{"type":"Feature","properties":{"cadnum":"1413569300:17:000:0016"},"geometry":{"type":"Polygon","coordinates":[[[38.051296,47.94477],[38.051522,47.945023],[38.051835,47.945335],[38.051975,47.945279],[38.051553,47.944869],[38.051625,47.944842],[38.051495,47.944692],[38.051296,47.94477]]]}},{"type":"Feature","properties":{"cadnum":"1413569300:17:000:0017"},"geometry":{"type":"Polygon","coordinates":[[[38.055762,47.944087],[38.0559,47.94422],[38.056535,47.943928],[38.056413,47.943801],[38.056386,47.94381],[38.055762,47.944087]]]}},{"type":"Feature","properties":{"cadnum":"1413569300:09:000:0002"},"geometry":{"type":"Polygon","coordinates":[[[38.1094,47.903724],[38.110401,47.903854],[38.110438,47.903709],[38.109422,47.903589],[38.1094,47.903724]]]}},{"type":"Feature","properties":{"cadnum":"1413569300:09:000:0016"},"geometry":{"type":"Polygon","coordinates":[[[38.109252,47.903932],[38.109575,47.903972],[38.110235,47.904098],[38.110275,47.903941],[38.109292,47.90376],[38.109252,47.903932]]]}},{"type":"Feature","properties":{"cadnum":"1413569300:09:000:0015"},"geometry":{"type":"Polygon","coordinates":[[[38.106296,47.904366],[38.10661,47.904399],[38.107501,47.904486],[38.107536,47.904342],[38.106337,47.904218],[38.106296,47.904366]]]}},{"type":"Feature","properties":{"cadnum":"1413569300:09:000:0012"},"geometry":{"type":"Polygon","coordinates":[[[38.11086,47.904595],[38.111071,47.90464],[38.111174,47.904411],[38.111233,47.90442],[38.111407,47.904074],[38.111187,47.904014],[38.11103,47.904369],[38.11095,47.904405],[38.11086,47.904595]]]}},{"type":"Feature","properties":{"cadnum":"1413569300:09:000:0007"},"geometry":{"type":"Polygon","coordinates":[[[38.110316,47.904441],[38.110537,47.904483],[38.110824,47.903857],[38.110514,47.903803],[38.110379,47.904218],[38.110316,47.904441]]]}},{"type":"Feature","properties":{"cadnum":"1413569300:09:000:0010"},"geometry":{"type":"Polygon","coordinates":[[[38.10556,47.903059],[38.105797,47.903086],[38.105993,47.903119],[38.106346,47.903177],[38.106363,47.903173],[38.106436,47.902966],[38.106166,47.90293],[38.106165,47.902929],[38.106139,47.902912],[38.105914,47.902872],[38.105641,47.902839],[38.10556,47.903059]]]}},{"type":"Feature","properties":{"cadnum":"1413569300:09:000:0018"},"geometry":{"type":"Polygon","coordinates":[[[38.108273,47.90386],[38.109076,47.903926],[38.109109,47.903809],[38.108973,47.903794],[38.108996,47.903704],[38.108331,47.903598],[38.108273,47.90386]]]}},{"type":"Feature","properties":{"cadnum":"1413569300:23:000:0003"},"geometry":{"type":"Polygon","coordinates":[[[38.033178,47.971123],[38.033591,47.971303],[38.033928,47.971023],[38.033537,47.970827],[38.033178,47.971123]]]}},{"type":"Feature","properties":{"cadnum":"1413569300:01:000:0023"},"geometry":{"type":"Polygon","coordinates":[[[38.091739,47.9405],[38.091972,47.940804],[38.092228,47.940675],[38.092048,47.940416],[38.091739,47.9405]]]}},{"type":"Feature","properties":{"cadnum":"1413569300:01:000:0021"},"geometry":{"type":"Polygon","coordinates":[[[38.088905,47.941464],[38.089075,47.941635],[38.089035,47.94168],[38.089062,47.941701],[38.089048,47.941711],[38.089327,47.941987],[38.089372,47.942048],[38.089514,47.941985],[38.089514,47.941986],[38.089624,47.941936],[38.08935,47.941641],[38.089098,47.941385],[38.088905,47.941464]]]}},{"type":"Feature","properties":{"cadnum":"1413569300:01:000:0017"},"geometry":{"type":"Polygon","coordinates":[[[38.091972,47.940804],[38.092094,47.940931],[38.092386,47.940777],[38.092448,47.940739],[38.092547,47.940669],[38.09244,47.940563],[38.092228,47.940675],[38.091972,47.940804]]]}},{"type":"Feature","properties":{"cadnum":"1413569300:01:000:0019"},"geometry":{"type":"Polygon","coordinates":[[[38.092731,47.941632],[38.093109,47.941867],[38.093203,47.941782],[38.093509,47.941569],[38.093253,47.941385],[38.092731,47.941632]]]}},{"type":"Feature","properties":{"cadnum":"1413569300:01:000:0030"},"geometry":{"type":"Polygon","coordinates":[[[38.090423,47.940299],[38.090616,47.940663],[38.090886,47.940585],[38.090945,47.94057],[38.090796,47.940413],[38.090679,47.940224],[38.090423,47.940299]]]}},{"type":"Feature","properties":{"cadnum":"1413569300:16:000:0033"},"geometry":{"type":"Polygon","coordinates":[[[38.070565,47.965111],[38.070907,47.965571],[38.071244,47.965463],[38.07111,47.965306],[38.070867,47.965014],[38.070565,47.965111]]]}},{"type":"Feature","properties":{"cadnum":"1413569300:16:000:0009"},"geometry":{"type":"Polygon","coordinates":[[[38.067701,47.965943],[38.067736,47.965989],[38.067732,47.96604],[38.067799,47.966043],[38.067997,47.965974],[38.067984,47.965956],[38.068037,47.965938],[38.067992,47.965878],[38.067938,47.965896],[38.067921,47.965869],[38.067871,47.965887],[38.067831,47.965872],[38.067754,47.965899],[38.067749,47.965925],[38.067701,47.965943]]]}},{"type":"Feature","properties":{"cadnum":"1413569300:16:000:0011"},"geometry":{"type":"Polygon","coordinates":[[[38.068104,47.965802],[38.068158,47.965892],[38.068361,47.965838],[38.068473,47.965805],[38.068361,47.965625],[38.068208,47.965667],[38.068261,47.965757],[38.068261,47.965758],[38.068104,47.965802]]]}},{"type":"Feature","properties":{"cadnum":"1413569300:16:000:0029"},"geometry":{"type":"Polygon","coordinates":[[[38.072303,47.966416],[38.072439,47.966618],[38.072915,47.967183],[38.073104,47.967126],[38.072632,47.966578],[38.072565,47.96648],[38.072565,47.966479],[38.072573,47.966407],[38.072542,47.966353],[38.072303,47.966416]]]}},{"type":"Feature","properties":{"cadnum":"1413569300:16:000:0018"},"geometry":{"type":"Polygon","coordinates":[[[38.071141,47.966443],[38.071194,47.966515],[38.071253,47.966491],[38.0712,47.966422],[38.071141,47.966443]]]}},{"type":"Feature","properties":{"cadnum":"1413569300:16:000:0034"},"geometry":{"type":"Polygon","coordinates":[[[38.071469,47.966672],[38.071909,47.967228],[38.071932,47.967219],[38.072183,47.967477],[38.072299,47.967432],[38.072286,47.967414],[38.072066,47.967174],[38.072026,47.967189],[38.07172,47.966756],[38.071613,47.966623],[38.071469,47.966672]]]}},{"type":"Feature","properties":{"cadnum":"1413569300:16:000:0012"},"geometry":{"type":"Polygon","coordinates":[[[38.070907,47.965571],[38.070965,47.965655],[38.07133,47.965541],[38.071271,47.965453],[38.070907,47.965571]]]}},{"type":"Feature","properties":{"cadnum":"1413569300:06:000:0003"},"geometry":{"type":"Polygon","coordinates":[[[38.067839,47.958747],[38.068167,47.959032],[38.068554,47.958927],[38.068288,47.958557],[38.067839,47.958747]]]}},{"type":"Feature","properties":{"cadnum":"1413569300:19:000:0006"},"geometry":{"type":"Polygon","coordinates":[[[38.028381,47.966299],[38.028744,47.966335],[38.028807,47.966326],[38.0291,47.966329],[38.029109,47.966052],[38.028853,47.966058],[38.028412,47.966088],[38.028381,47.966299]]]}},{"type":"Feature","properties":{"cadnum":"1413569300:02:000:0001"},"geometry":{"type":"Polygon","coordinates":[[[38.107698,47.941551],[38.1079,47.941569],[38.108052,47.941433],[38.108313,47.941277],[38.10848,47.941192],[38.108501,47.941181],[38.108273,47.940985],[38.108134,47.94106],[38.108017,47.941145],[38.107882,47.941286],[38.107878,47.941328],[38.107859,47.941358],[38.107698,47.941551]]]}},{"type":"Feature","properties":{"cadnum":"1413569300:02:000:0002"},"geometry":{"type":"Polygon","coordinates":[[[38.1079,47.941569],[38.10834,47.94165],[38.108443,47.941632],[38.108623,47.941599],[38.10848,47.941192],[38.108313,47.941277],[38.108052,47.941433],[38.1079,47.941569]]]}},{"type":"Feature","properties":{"cadnum":"1413569300:09:000:0008"},"geometry":{"type":"Polygon","coordinates":[[[38.106363,47.907654],[38.106642,47.907684],[38.107558,47.907813],[38.107617,47.907675],[38.106687,47.90753],[38.1064,47.907485],[38.106363,47.907654]]]}},{"type":"Feature","properties":{"cadnum":"1413569300:09:000:0009"},"geometry":{"type":"Polygon","coordinates":[[[38.106279,47.908103],[38.107226,47.908214],[38.107293,47.908042],[38.106323,47.907909],[38.106279,47.908103]]]}},{"type":"Feature","properties":{"cadnum":"1413569300:09:000:0014"},"geometry":{"type":"Polygon","coordinates":[[[38.108165,47.905624],[38.108627,47.905709],[38.108789,47.905724],[38.108834,47.90548],[38.108224,47.905429],[38.108165,47.905624]]]}},{"type":"Feature","properties":{"cadnum":"1413569300:08:000:0002"},"geometry":{"type":"Polygon","coordinates":[[[38.123975,47.901774],[38.124061,47.90205],[38.124078,47.902276],[38.124114,47.902463],[38.12442,47.902427],[38.124307,47.902017],[38.124244,47.90174],[38.123975,47.901774]]]}},{"type":"Feature","properties":{"cadnum":"1413569300:16:000:0027"},"geometry":{"type":"Polygon","coordinates":[[[38.06377,47.963721],[38.063946,47.964106],[38.063963,47.964124],[38.064192,47.964103],[38.064156,47.963941],[38.064196,47.963935],[38.064112,47.963655],[38.06377,47.963721]]]}},{"type":"Feature","properties":{"cadnum":"1413569300:01:000:0028"},"geometry":{"type":"Polygon","coordinates":[[[38.092907,47.942613],[38.093297,47.942806],[38.093406,47.942715],[38.093648,47.942474],[38.093402,47.942318],[38.093262,47.942438],[38.09318,47.942405],[38.092907,47.942613]]]}},{"type":"Feature","properties":{"cadnum":"1413569300:01:000:0022"},"geometry":{"type":"Polygon","coordinates":[[[38.092327,47.944276],[38.092517,47.944548],[38.093159,47.944361],[38.093042,47.944165],[38.092718,47.944253],[38.092677,47.944187],[38.092327,47.944276]]]}},{"type":"Feature","properties":{"cadnum":"1413569300:01:000:0020"},"geometry":{"type":"Polygon","coordinates":[[[38.093513,47.942911],[38.093679,47.942992],[38.093823,47.942842],[38.094065,47.942631],[38.093945,47.942565],[38.093868,47.942616],[38.093652,47.942784],[38.093589,47.942842],[38.093513,47.942911]]]}},{"type":"Feature","properties":{"cadnum":"1413569300:01:000:0014"},"geometry":{"type":"Polygon","coordinates":[[[38.089938,47.942815],[38.089997,47.94286],[38.090096,47.942929],[38.09053,47.943347],[38.090603,47.943323],[38.090675,47.94329],[38.090086,47.942742],[38.089938,47.942815]]]}},{"type":"Feature","properties":{"cadnum":"1413569300:01:000:0025"},"geometry":{"type":"Polygon","coordinates":[[[38.093297,47.942806],[38.093513,47.942911],[38.093589,47.942842],[38.093652,47.942784],[38.093868,47.942616],[38.093648,47.942474],[38.093406,47.942715],[38.093297,47.942806]]]}},{"type":"Feature","properties":{"cadnum":"1413569300:01:000:0027"},"geometry":{"type":"Polygon","coordinates":[[[38.091079,47.943774],[38.091393,47.944072],[38.091595,47.943979],[38.091196,47.943654],[38.091079,47.943774]]]}},{"type":"Feature","properties":{"cadnum":"1413569300:01:000:0026"},"geometry":{"type":"Polygon","coordinates":[[[38.093463,47.943549],[38.093711,47.943771],[38.094025,47.943458],[38.093819,47.943329],[38.093463,47.943549]]]}},{"type":"Feature","properties":{"cadnum":"1413569300:01:000:0010"},"geometry":{"type":"Polygon","coordinates":[[[38.093945,47.942565],[38.094182,47.942694],[38.094407,47.942478],[38.094637,47.942306],[38.094444,47.94218],[38.093945,47.942565]]]}},{"type":"Feature","properties":{"cadnum":"1413569300:09:000:0003"},"geometry":{"type":"Polygon","coordinates":[[[38.104788,47.909361],[38.105321,47.909391],[38.105362,47.909056],[38.104828,47.909027],[38.104788,47.909361]]]}},{"type":"Feature","properties":{"cadnum":"1413569300:01:000:0009"},"geometry":{"type":"Polygon","coordinates":[[[38.08771,47.940777],[38.087746,47.940804],[38.08833,47.940453],[38.088267,47.940371],[38.088209,47.940335],[38.088087,47.94044],[38.088025,47.940588],[38.08771,47.940777]]]}},{"type":"Feature","properties":{"cadnum":"1413569300:01:000:0013"},"geometry":{"type":"Polygon","coordinates":[[[38.087742,47.94116],[38.088155,47.941533],[38.088469,47.941412],[38.088132,47.941057],[38.088096,47.941018],[38.087742,47.94116]]]}},{"type":"Feature","properties":{"cadnum":"1413569300:22:000:0005"},"geometry":{"type":"Polygon","coordinates":[[[38.046684,47.962888],[38.047304,47.96315],[38.047591,47.963285],[38.047749,47.96315],[38.047174,47.962897],[38.046818,47.962753],[38.046684,47.962888]]]}},{"type":"Feature","properties":{"cadnum":"1413569300:22:000:0001"},"geometry":{"type":"Polygon","coordinates":[[[38.045656,47.963444],[38.046981,47.963944],[38.047115,47.963803],[38.045817,47.963246],[38.045656,47.963444]]]}},{"type":"Feature","properties":{"cadnum":"1413569300:22:000:0007"},"geometry":{"type":"Polygon","coordinates":[[[38.046994,47.962825],[38.047174,47.962897],[38.047749,47.96315],[38.047789,47.963105],[38.047784,47.963105],[38.047906,47.962967],[38.047488,47.962774],[38.047453,47.962789],[38.04712,47.962675],[38.046994,47.962825]]]}},{"type":"Feature","properties":{"cadnum":"1413569300:19:000:0002"},"geometry":{"type":"Polygon","coordinates":[[[38.023184,47.968671],[38.023596,47.969055],[38.023596,47.969056],[38.023836,47.969279],[38.024046,47.969189],[38.023687,47.968854],[38.023391,47.968578],[38.023184,47.968671]]]}},{"type":"Feature","properties":{"cadnum":"1413569300:15:000:0001"},"geometry":{"type":"Polygon","coordinates":[[[38.091079,47.968665],[38.091169,47.968822],[38.091344,47.968776],[38.091635,47.968683],[38.092018,47.968542],[38.091982,47.968504],[38.091982,47.968503],[38.092211,47.96844],[38.092242,47.968419],[38.092188,47.968355],[38.092107,47.968346],[38.091586,47.968518],[38.091079,47.968665]]]}},{"type":"Feature","properties":{"cadnum":"1413569300:09:000:0011"},"geometry":{"type":"Polygon","coordinates":[[[38.104881,47.902987],[38.104918,47.902993],[38.10556,47.903059],[38.105641,47.902839],[38.10534,47.902807],[38.104975,47.902755],[38.104881,47.902987]]]}}]}