{"type":"FeatureCollection","features":[{"type":"Feature","properties":{"cadnum":"1413567800:01:000:0014"},"geometry":{"type":"Polygon","coordinates":[[[38.016263,48.11825],[38.016271,48.118422],[38.016276,48.118536],[38.016277,48.118536],[38.016326,48.119476],[38.016343,48.120261],[38.016316,48.121072],[38.017205,48.121092],[38.017381,48.121096],[38.018274,48.121118],[38.018473,48.121123],[38.018253,48.122064],[38.01826,48.122089],[38.018261,48.122095],[38.01829,48.122203],[38.018291,48.122203],[38.018329,48.122343],[38.018274,48.122363],[38.018001,48.122466],[38.017507,48.123098],[38.017417,48.12326],[38.017364,48.124034],[38.017171,48.124063],[38.017412,48.124754],[38.018068,48.125233],[38.018102,48.125208],[38.018103,48.125208],[38.018176,48.125155],[38.018274,48.125163],[38.019758,48.125284],[38.020125,48.125275],[38.020121,48.125261],[38.020121,48.12526],[38.020938,48.125296],[38.021836,48.123602],[38.022641,48.12371],[38.022636,48.123737],[38.023031,48.12379],[38.023054,48.123716],[38.023098,48.123725],[38.02314,48.123605],[38.023566,48.123656],[38.023596,48.123439],[38.023637,48.123132],[38.023696,48.123098],[38.023696,48.123054],[38.023683,48.122945],[38.023767,48.122946],[38.023768,48.122946],[38.02419,48.122948],[38.024168,48.122253],[38.024169,48.122252],[38.024846,48.122256],[38.02484,48.122089],[38.024788,48.120295],[38.024745,48.118521],[38.024742,48.118382],[38.024742,48.118238],[38.023768,48.118247],[38.023767,48.118247],[38.022008,48.118262],[38.019695,48.118262],[38.018204,48.118255],[38.017844,48.118253],[38.016263,48.11825]]]}},{"type":"Feature","properties":{"cadnum":"1413567800:01:000:0081"},"geometry":{"type":"Polygon","coordinates":[[[38.023108,48.125068],[38.023108,48.125137],[38.023134,48.125305],[38.023153,48.125311],[38.023157,48.125335],[38.023167,48.125365],[38.023368,48.12529],[38.023484,48.125242],[38.023458,48.125209],[38.023467,48.125197],[38.02345,48.125167],[38.02344,48.12505],[38.023108,48.125068]]]}},{"type":"Feature","properties":{"cadnum":"1413567800:01:000:0005"},"geometry":{"type":"Polygon","coordinates":[[[38.021931,48.125872],[38.021932,48.125872],[38.02194,48.125886],[38.021958,48.125946],[38.02198,48.125997],[38.023027,48.125974],[38.023596,48.125971],[38.023667,48.125971],[38.023767,48.12597],[38.023768,48.12597],[38.025308,48.125961],[38.025381,48.125959],[38.025404,48.126003],[38.026287,48.126006],[38.028543,48.12601],[38.028704,48.126025],[38.028888,48.12591],[38.029089,48.125859],[38.029128,48.125849],[38.029261,48.125815],[38.029458,48.125764],[38.031807,48.125161],[38.031696,48.124954],[38.031669,48.124903],[38.031547,48.124918],[38.031467,48.124909],[38.030748,48.124841],[38.029356,48.124774],[38.029191,48.124754],[38.027339,48.124519],[38.026293,48.124436],[38.025937,48.12443],[38.025048,48.124441],[38.024918,48.124448],[38.024918,48.124447],[38.024899,48.124328],[38.024087,48.124363],[38.024069,48.124432],[38.024064,48.124474],[38.024079,48.124601],[38.024083,48.124687],[38.023957,48.125113],[38.023768,48.125187],[38.023767,48.125187],[38.023368,48.125344],[38.022919,48.125515],[38.022725,48.125581],[38.022209,48.125755],[38.022208,48.125755],[38.021936,48.125848],[38.021931,48.12587],[38.021932,48.12587],[38.021931,48.125872]]]}},{"type":"Feature","properties":{"cadnum":"1413567800:01:000:0030"},"geometry":{"type":"Polygon","coordinates":[[[38.034382,48.134038],[38.034582,48.134156],[38.034732,48.134245],[38.034754,48.13423],[38.034754,48.134229],[38.035056,48.134016],[38.03471,48.133798],[38.034382,48.134038]]]}},{"type":"Feature","properties":{"cadnum":"1413567800:01:000:0070"},"geometry":{"type":"Polygon","coordinates":[[[38.040854,48.124541],[38.041317,48.124738],[38.041424,48.124619],[38.040966,48.12443],[38.040854,48.124541]]]}},{"type":"Feature","properties":{"cadnum":"1413567800:01:000:0146"},"geometry":{"type":"Polygon","coordinates":[[[38.040786,48.123917],[38.041119,48.124063],[38.041281,48.123917],[38.040935,48.123764],[38.040786,48.123917]]]}},{"type":"Feature","properties":{"cadnum":"1413567800:01:000:0164"},"geometry":{"type":"Polygon","coordinates":[[[38.039461,48.123947],[38.040247,48.124291],[38.040373,48.124345],[38.040495,48.124226],[38.040151,48.124079],[38.039633,48.123857],[38.03957,48.123833],[38.039461,48.123947]]]}},{"type":"Feature","properties":{"cadnum":"1413567800:01:000:0118"},"geometry":{"type":"Polygon","coordinates":[[[38.041308,48.124892],[38.041883,48.125143],[38.042098,48.124912],[38.041528,48.124675],[38.041308,48.124892]]]}},{"type":"Feature","properties":{"cadnum":"1413567800:01:000:0151"},"geometry":{"type":"Polygon","coordinates":[[[38.040172,48.124738],[38.040989,48.125077],[38.041101,48.124957],[38.040585,48.124735],[38.040679,48.124634],[38.040382,48.124508],[38.040172,48.124738]]]}},{"type":"Feature","properties":{"cadnum":"1413567800:01:000:0043"},"geometry":{"type":"Polygon","coordinates":[[[38.042251,48.125299],[38.042799,48.125404],[38.042839,48.125218],[38.042436,48.12505],[38.042251,48.125299]]]}},{"type":"Feature","properties":{"cadnum":"1413567800:01:000:0142"},"geometry":{"type":"Polygon","coordinates":[[[38.041262,48.125059],[38.041573,48.125182],[38.041891,48.125323],[38.041946,48.125269],[38.042147,48.125353],[38.042188,48.125272],[38.041964,48.125182],[38.041388,48.124933],[38.041262,48.125059]]]}},{"type":"Feature","properties":{"cadnum":"1413567800:01:000:0119"},"geometry":{"type":"Polygon","coordinates":[[[38.041883,48.125143],[38.042107,48.12523],[38.042174,48.125092],[38.042251,48.124978],[38.04221,48.124957],[38.042098,48.124912],[38.041883,48.125143]]]}},{"type":"Feature","properties":{"cadnum":"1413567800:01:000:0015"},"geometry":{"type":"Polygon","coordinates":[[[38.025008,48.118234],[38.025008,48.118382],[38.025008,48.118421],[38.025008,48.118422],[38.025009,48.118465],[38.025009,48.118536],[38.02501,48.118536],[38.025039,48.12028],[38.025099,48.122089],[38.025098,48.122089],[38.025102,48.122187],[38.025102,48.122256],[38.025129,48.123068],[38.025151,48.123881],[38.027698,48.123881],[38.027752,48.124528],[38.029089,48.124703],[38.029089,48.124704],[38.029186,48.124716],[38.029261,48.124726],[38.029379,48.124741],[38.030828,48.124807],[38.031656,48.124852],[38.031677,48.124828],[38.033043,48.123611],[38.033637,48.12281],[38.034,48.122163],[38.034463,48.121257],[38.034539,48.120952],[38.034534,48.119392],[38.034409,48.118536],[38.034373,48.118285],[38.030339,48.118259],[38.02921,48.118253],[38.025493,48.118232],[38.025008,48.118234]]]}},{"type":"Feature","properties":{"cadnum":"1413567800:01:000:0128"},"geometry":{"type":"Polygon","coordinates":[[[38.035558,48.121488],[38.035904,48.121608],[38.036169,48.12171],[38.036367,48.121563],[38.035886,48.121365],[38.035868,48.121386],[38.035811,48.121365],[38.035832,48.121338],[38.035811,48.121329],[38.035832,48.121303],[38.035738,48.121266],[38.035558,48.121488]]]}},{"type":"Feature","properties":{"cadnum":"1413567800:01:000:0155"},"geometry":{"type":"Polygon","coordinates":[[[38.040063,48.121599],[38.040075,48.121604],[38.040132,48.121628],[38.040247,48.121677],[38.040247,48.121676],[38.041042,48.12201],[38.041159,48.121908],[38.040122,48.12153],[38.040063,48.121599]]]}},{"type":"Feature","properties":{"cadnum":"1413567800:01:000:0023"},"geometry":{"type":"Polygon","coordinates":[[[38.035693,48.121294],[38.035788,48.121326],[38.035765,48.121354],[38.035788,48.121363],[38.035765,48.121389],[38.035828,48.121414],[38.035841,48.121392],[38.035842,48.121392],[38.036322,48.12159],[38.036484,48.121423],[38.035801,48.121161],[38.035693,48.121294]]]}},{"type":"Feature","properties":{"cadnum":"1413567800:01:000:0120"},"geometry":{"type":"Polygon","coordinates":[[[38.036088,48.120841],[38.036928,48.121141],[38.03704,48.121003],[38.036354,48.120748],[38.036191,48.12069],[38.036088,48.120841]]]}},{"type":"Feature","properties":{"cadnum":"1413567800:01:000:0125"},"geometry":{"type":"Polygon","coordinates":[[[38.019851,48.115515],[38.019972,48.115542],[38.020085,48.115578],[38.020098,48.115581],[38.020287,48.115332],[38.020062,48.11524],[38.019851,48.115515]]]}},{"type":"Feature","properties":{"cadnum":"1413567800:01:000:0108"},"geometry":{"type":"Polygon","coordinates":[[[38.020041,48.115653],[38.020395,48.115782],[38.020611,48.115464],[38.02062,48.115455],[38.020287,48.115332],[38.020098,48.115581],[38.020085,48.115578],[38.020041,48.115653]]]}},{"type":"Feature","properties":{"cadnum":"1413567800:01:000:0103"},"geometry":{"type":"Polygon","coordinates":[[[38.020395,48.115782],[38.020853,48.11592],[38.021077,48.115593],[38.02062,48.115455],[38.020395,48.115782]]]}},{"type":"Feature","properties":{"cadnum":"1413567800:01:000:0162"},"geometry":{"type":"Polygon","coordinates":[[[38.018976,48.117488],[38.019385,48.11756],[38.019442,48.117383],[38.019033,48.117311],[38.018976,48.117488]]]}},{"type":"Feature","properties":{"cadnum":"1413567800:01:000:0145"},"geometry":{"type":"Polygon","coordinates":[[[38.025955,48.115548],[38.025955,48.11559],[38.025974,48.115629],[38.02601,48.115656],[38.026494,48.115845],[38.026517,48.115815],[38.026549,48.115782],[38.02658,48.115743],[38.026763,48.115809],[38.026764,48.115809],[38.027501,48.114969],[38.027092,48.114811],[38.026706,48.11466],[38.026625,48.114754],[38.026624,48.114754],[38.026556,48.114834],[38.026526,48.114869],[38.026423,48.114991],[38.026396,48.11502],[38.025974,48.115509],[38.025955,48.115548]],[[38.026723,48.115164],[38.026723,48.115147],[38.026723,48.115146],[38.02675,48.115149],[38.02675,48.115167],[38.026723,48.115164]],[[38.026566,48.115362],[38.026566,48.11538],[38.02654,48.11538],[38.02654,48.115362],[38.026566,48.115362]],[[38.026337,48.115605],[38.026337,48.115623],[38.02631,48.115623],[38.02631,48.115605],[38.026337,48.115605]]]}},{"type":"Feature","properties":{"cadnum":"1413567800:02:000:0011"},"geometry":{"type":"Polygon","coordinates":[[[38.024146,48.114915],[38.024375,48.115002],[38.024504,48.114853],[38.024649,48.114687],[38.024536,48.114651],[38.024496,48.114666],[38.024392,48.114624],[38.024347,48.114675],[38.024281,48.114754],[38.02428,48.114754],[38.024146,48.114915]]]}},{"type":"Feature","properties":{"cadnum":"1413567800:02:000:0006"},"geometry":{"type":"Polygon","coordinates":[[[38.02349,48.112423],[38.023596,48.112464],[38.023596,48.112465],[38.023692,48.112501],[38.023767,48.112494],[38.023767,48.112493],[38.023768,48.112493],[38.023777,48.112492],[38.023826,48.112408],[38.02388,48.112342],[38.024016,48.112184],[38.023939,48.112159],[38.023763,48.112097],[38.02349,48.112423]]]}},{"type":"Feature","properties":{"cadnum":"1413567800:01:000:0154"},"geometry":{"type":"Polygon","coordinates":[[[38.023274,48.11386],[38.023391,48.113904],[38.023444,48.113926],[38.023596,48.113977],[38.023596,48.113978],[38.023754,48.114031],[38.023767,48.114016],[38.023863,48.113908],[38.023667,48.113837],[38.023377,48.113731],[38.023364,48.113746],[38.02332,48.113793],[38.023328,48.1138],[38.023297,48.113836],[38.023274,48.11386]]]}},{"type":"Feature","properties":{"cadnum":"1413567800:01:000:0144"},"geometry":{"type":"Polygon","coordinates":[[[38.024616,48.114313],[38.02463,48.114315],[38.02463,48.114316],[38.024626,48.114331],[38.024658,48.114346],[38.024679,48.114355],[38.024932,48.114453],[38.024985,48.114478],[38.025052,48.114504],[38.025341,48.114609],[38.025493,48.114427],[38.025555,48.11436],[38.025591,48.114318],[38.02561,48.114327],[38.025771,48.114157],[38.025754,48.114151],[38.025704,48.114129],[38.025121,48.113902],[38.025098,48.113893],[38.024999,48.113853],[38.02481,48.114082],[38.024689,48.114217],[38.024616,48.114313]],[[38.025412,48.114307],[38.025412,48.114306],[38.025398,48.114291],[38.025421,48.114282],[38.025434,48.114297],[38.025434,48.114298],[38.025412,48.114307]],[[38.025071,48.114435],[38.025058,48.11442],[38.025079,48.114411],[38.025092,48.114426],[38.025092,48.114427],[38.025071,48.114435]]]}},{"type":"Feature","properties":{"cadnum":"1413567800:02:000:0010"},"geometry":{"type":"Polygon","coordinates":[[[38.023817,48.113137],[38.023979,48.113197],[38.024064,48.113098],[38.024051,48.113092],[38.02423,48.112879],[38.024092,48.112822],[38.024056,48.112864],[38.023817,48.113137]]]}},{"type":"Feature","properties":{"cadnum":"1413567800:02:000:0014"},"geometry":{"type":"Polygon","coordinates":[[[38.02331,48.112357],[38.02349,48.112423],[38.023596,48.112297],[38.023763,48.112097],[38.023588,48.112033],[38.023526,48.112108],[38.02353,48.112108],[38.023431,48.112222],[38.023377,48.112282],[38.02331,48.112357]]]}},{"type":"Feature","properties":{"cadnum":"1413567800:02:000:0008"},"geometry":{"type":"Polygon","coordinates":[[[38.024127,48.112226],[38.024329,48.112295],[38.024366,48.112246],[38.024429,48.112157],[38.024568,48.111986],[38.024356,48.111904],[38.024127,48.112226]]]}},{"type":"Feature","properties":{"cadnum":"1413567800:02:000:0013"},"geometry":{"type":"Polygon","coordinates":[[[38.023939,48.112159],[38.024016,48.112184],[38.024127,48.112226],[38.024356,48.111904],[38.02419,48.111841],[38.024109,48.111946],[38.023939,48.112159]]]}},{"type":"Feature","properties":{"cadnum":"1413567800:01:000:0032"},"geometry":{"type":"Polygon","coordinates":[[[38.043019,48.118148],[38.043657,48.118301],[38.043747,48.118124],[38.04314,48.118013],[38.043019,48.118148]]]}},{"type":"Feature","properties":{"cadnum":"1413567800:01:000:0034"},"geometry":{"type":"Polygon","coordinates":[[[38.011681,48.133747],[38.011708,48.133864],[38.012611,48.133768],[38.012588,48.13366],[38.011681,48.133747]]]}},{"type":"Feature","properties":{"cadnum":"1413567800:01:000:0022"},"geometry":{"type":"Polygon","coordinates":[[[38.039767,48.135591],[38.040075,48.135594],[38.040234,48.135596],[38.040247,48.135587],[38.040297,48.135551],[38.040297,48.135458],[38.040075,48.135369],[38.039861,48.135282],[38.039794,48.135282],[38.039767,48.135591]]]}},{"type":"Feature","properties":{"cadnum":"1413567800:01:000:0082"},"geometry":{"type":"Polygon","coordinates":[[[38.026104,48.130887],[38.02613,48.131091],[38.02614,48.131247],[38.026176,48.131436],[38.026207,48.131501],[38.026446,48.131445],[38.026337,48.13122],[38.026364,48.131214],[38.02636,48.131157],[38.026328,48.130983],[38.02631,48.130869],[38.026104,48.130887]]]}},{"type":"Feature","properties":{"cadnum":"1413567800:01:000:0098"},"geometry":{"type":"Polygon","coordinates":[[[38.028933,48.129835],[38.028964,48.130072],[38.029033,48.130069],[38.029037,48.130092],[38.029153,48.130081],[38.029117,48.129823],[38.028933,48.129835]]]}},{"type":"Feature","properties":{"cadnum":"1413567800:01:000:0013"},"geometry":{"type":"Polygon","coordinates":[[[38.021922,48.129145],[38.02197,48.129422],[38.021969,48.129422],[38.022003,48.129614],[38.022075,48.129972],[38.022165,48.129964],[38.022178,48.130036],[38.022106,48.130048],[38.022111,48.130063],[38.02207,48.130069],[38.022102,48.130225],[38.022628,48.130183],[38.022691,48.130201],[38.023596,48.130113],[38.023596,48.130114],[38.024024,48.130072],[38.02402,48.13005],[38.024343,48.130018],[38.024333,48.129976],[38.024334,48.129976],[38.024765,48.12994],[38.024775,48.129955],[38.024842,48.129955],[38.024846,48.129967],[38.027132,48.129799],[38.027056,48.129537],[38.02688,48.128932],[38.02649,48.128948],[38.026144,48.128963],[38.026108,48.128732],[38.026081,48.128732],[38.026,48.128315],[38.025784,48.12833],[38.025807,48.128452],[38.025807,48.128453],[38.025534,48.12848],[38.025538,48.128495],[38.025475,48.128501],[38.024765,48.128558],[38.024748,48.128399],[38.024352,48.128426],[38.024293,48.12842],[38.024037,48.128432],[38.024046,48.128456],[38.023768,48.128475],[38.023767,48.128475],[38.022878,48.128534],[38.022272,48.128561],[38.022169,48.128558],[38.022066,48.128567],[38.022173,48.129079],[38.022119,48.129119],[38.021966,48.129125],[38.021966,48.129143],[38.021922,48.129145]]]}},{"type":"Feature","properties":{"cadnum":"1413567800:03:000:0002"},"geometry":{"type":"Polygon","coordinates":[[[37.941087,48.187437],[37.941177,48.187601],[37.941198,48.187665],[37.941198,48.187666],[37.941231,48.187761],[37.94137,48.187753],[37.941752,48.187734],[37.941514,48.187335],[37.941306,48.187385],[37.941087,48.187437]]]}},{"type":"Feature","properties":{"cadnum":"1413567800:01:000:0122"},"geometry":{"type":"Polygon","coordinates":[[[38.038774,48.131178],[38.039143,48.131367],[38.039287,48.131247],[38.038923,48.131064],[38.038891,48.131049],[38.03886,48.131079],[38.038882,48.131094],[38.038774,48.131178]]]}},{"type":"Feature","properties":{"cadnum":"1413567800:01:000:0077"},"geometry":{"type":"Polygon","coordinates":[[[38.03748,48.132233],[38.037836,48.132431],[38.037979,48.132314],[38.03762,48.132116],[38.03748,48.132233]]]}},{"type":"Feature","properties":{"cadnum":"1413567800:01:000:0124"},"geometry":{"type":"Polygon","coordinates":[[[38.038958,48.129871],[38.039453,48.130083],[38.039556,48.129979],[38.039075,48.129769],[38.038958,48.129871]]]}},{"type":"Feature","properties":{"cadnum":"1413567800:01:000:0007"},"geometry":{"type":"Polygon","coordinates":[[[38.034813,48.131921],[38.034893,48.131969],[38.034948,48.13193],[38.034872,48.131883],[38.034813,48.131921]]]}},{"type":"Feature","properties":{"cadnum":"1413567800:01:000:0159"},"geometry":{"type":"Polygon","coordinates":[[[38.036983,48.130617],[38.037598,48.130899],[38.037692,48.130816],[38.037073,48.13053],[38.036983,48.130617]]]}},{"type":"Feature","properties":{"cadnum":"1413567800:01:000:0149"},"geometry":{"type":"Polygon","coordinates":[[[38.036111,48.131448],[38.036686,48.1317],[38.036811,48.131585],[38.036245,48.131331],[38.036228,48.131346],[38.036111,48.131448]]]}},{"type":"Feature","properties":{"cadnum":"1413567800:01:000:0045"},"geometry":{"type":"Polygon","coordinates":[[[38.037593,48.131121],[38.038065,48.131352],[38.038182,48.131244],[38.037706,48.131013],[38.037593,48.131121]]]}},{"type":"Feature","properties":{"cadnum":"1413567800:01:000:0166"},"geometry":{"type":"Polygon","coordinates":[[[38.039075,48.129769],[38.039556,48.129979],[38.039677,48.129868],[38.039183,48.129664],[38.039075,48.129769]]]}},{"type":"Feature","properties":{"cadnum":"1413567800:01:000:0143"},"geometry":{"type":"Polygon","coordinates":[[[38.037763,48.131996],[38.038123,48.132191],[38.038276,48.13208],[38.037908,48.131879],[38.037763,48.131996]]]}},{"type":"Feature","properties":{"cadnum":"1413567800:01:000:0051"},"geometry":{"type":"Polygon","coordinates":[[[38.036488,48.129281],[38.037075,48.129537],[38.037076,48.129537],[38.037077,48.129537],[38.037081,48.129538],[38.037128,48.129495],[38.037243,48.129392],[38.036641,48.129136],[38.036488,48.129281]]]}},{"type":"Feature","properties":{"cadnum":"1413567800:01:000:0076"},"geometry":{"type":"Polygon","coordinates":[[[38.035235,48.129628],[38.035805,48.129921],[38.035972,48.129766],[38.035392,48.129481],[38.035235,48.129628]]]}},{"type":"Feature","properties":{"cadnum":"1413567800:01:000:0086"},"geometry":{"type":"Polygon","coordinates":[[[38.038298,48.133231],[38.038415,48.133318],[38.038518,48.133381],[38.03855,48.133369],[38.038585,48.133354],[38.038744,48.133291],[38.038757,48.133285],[38.038528,48.133136],[38.038504,48.133146],[38.038478,48.133156],[38.038388,48.133196],[38.038365,48.133203],[38.038352,48.133207],[38.038298,48.133231]]]}},{"type":"Feature","properties":{"cadnum":"1413567800:01:000:0061"},"geometry":{"type":"Polygon","coordinates":[[[38.033977,48.130785],[38.03453,48.131058],[38.034582,48.13101],[38.034652,48.130944],[38.034754,48.13085],[38.034754,48.130849],[38.034755,48.130848],[38.034582,48.130757],[38.034216,48.130563],[38.033977,48.130785]]]}},{"type":"Feature","properties":{"cadnum":"1413567800:03:000:0001"},"geometry":{"type":"Polygon","coordinates":[[[37.948727,48.186407],[37.948987,48.186712],[37.949469,48.186518],[37.949127,48.186245],[37.948727,48.186407]]]}},{"type":"Feature","properties":{"cadnum":"1413567800:01:000:0101"},"geometry":{"type":"Polygon","coordinates":[[[38.040203,48.126148],[38.041317,48.126621],[38.041407,48.126495],[38.040306,48.126034],[38.040203,48.126148]]]}},{"type":"Feature","properties":{"cadnum":"1413567800:01:000:0135"},"geometry":{"type":"Polygon","coordinates":[[[38.041793,48.126315],[38.042413,48.126412],[38.042462,48.126195],[38.041828,48.126085],[38.041793,48.126315]]]}},{"type":"Feature","properties":{"cadnum":"1413567800:01:000:0066"},"geometry":{"type":"Polygon","coordinates":[[[38.024168,48.123841],[38.024195,48.123848],[38.024195,48.123914],[38.024612,48.123905],[38.024626,48.123755],[38.024213,48.123722],[38.024168,48.123841]]]}},{"type":"Feature","properties":{"cadnum":"1413567800:01:000:0078"},"geometry":{"type":"Polygon","coordinates":[[[38.031876,48.128696],[38.03206,48.128996],[38.032333,48.129401],[38.032383,48.129365],[38.032423,48.129319],[38.032289,48.129103],[38.03214,48.128872],[38.032015,48.12869],[38.031876,48.128696]]]}},{"type":"Feature","properties":{"cadnum":"1413567800:01:000:0092"},"geometry":{"type":"Polygon","coordinates":[[[38.032975,48.128752],[38.033174,48.128825],[38.033281,48.12887],[38.033685,48.129052],[38.033717,48.129025],[38.033727,48.129032],[38.033748,48.129014],[38.033735,48.129008],[38.033735,48.129007],[38.033767,48.128981],[38.033304,48.128774],[38.033071,48.128669],[38.032975,48.128752]]]}},{"type":"Feature","properties":{"cadnum":"1413567800:01:000:0141"},"geometry":{"type":"Polygon","coordinates":[[[38.030765,48.128963],[38.030865,48.129139],[38.031197,48.129116],[38.031759,48.129052],[38.031614,48.128897],[38.030765,48.128963]]]}},{"type":"Feature","properties":{"cadnum":"1413567800:01:000:0156"},"geometry":{"type":"Polygon","coordinates":[[[38.029226,48.128555],[38.029293,48.12881],[38.029566,48.128783],[38.029499,48.128528],[38.029226,48.128555]]]}},{"type":"Feature","properties":{"cadnum":"1413567800:01:000:0140"},"geometry":{"type":"Polygon","coordinates":[[[38.031836,48.127895],[38.031939,48.128423],[38.031996,48.128639],[38.032226,48.128618],[38.032176,48.128399],[38.032113,48.128084],[38.032055,48.127881],[38.031836,48.127895]]]}},{"type":"Feature","properties":{"cadnum":"1413567800:01:000:0097"},"geometry":{"type":"Polygon","coordinates":[[[38.030366,48.127583],[38.030398,48.127904],[38.030824,48.127877],[38.030798,48.127752],[38.030802,48.127574],[38.030366,48.127583]]]}},{"type":"Feature","properties":{"cadnum":"1413567800:01:000:0138"},"geometry":{"type":"Polygon","coordinates":[[[38.032243,48.12869],[38.032293,48.128837],[38.032495,48.12919],[38.032912,48.128636],[38.032442,48.128672],[38.032243,48.12869]]]}},{"type":"Feature","properties":{"cadnum":"1413567800:01:000:0127"},"geometry":{"type":"Polygon","coordinates":[[[38.032046,48.127854],[38.032055,48.127881],[38.032113,48.128084],[38.032176,48.128399],[38.032526,48.128372],[38.032392,48.127958],[38.032352,48.12783],[38.032342,48.127812],[38.032046,48.127854]]]}},{"type":"Feature","properties":{"cadnum":"1413567800:01:000:0165"},"geometry":{"type":"Polygon","coordinates":[[[38.030061,48.128519],[38.030155,48.128761],[38.030448,48.128732],[38.030352,48.128483],[38.030061,48.128519]]]}},{"type":"Feature","properties":{"cadnum":"1413567800:01:000:0117"},"geometry":{"type":"Polygon","coordinates":[[[38.029544,48.127907],[38.029566,48.127923],[38.029827,48.127919],[38.029827,48.12791],[38.029855,48.12791],[38.029855,48.127919],[38.029935,48.127919],[38.02993,48.127614],[38.029549,48.127616],[38.029536,48.12785],[38.029544,48.127907]]]}},{"type":"Feature","properties":{"cadnum":"1413567800:01:000:0008"},"geometry":{"type":"Polygon","coordinates":[[[38.032176,48.128399],[38.032226,48.128618],[38.032599,48.128609],[38.032526,48.128372],[38.032176,48.128399]]]}},{"type":"Feature","properties":{"cadnum":"1413567800:01:000:0054"},"geometry":{"type":"Polygon","coordinates":[[[38.034264,48.122814],[38.034582,48.122932],[38.034694,48.122973],[38.034754,48.122996],[38.034754,48.122995],[38.034943,48.123065],[38.035082,48.122915],[38.034682,48.122765],[38.034396,48.122657],[38.034264,48.122814]]]}},{"type":"Feature","properties":{"cadnum":"1413567800:01:000:0049"},"geometry":{"type":"Polygon","coordinates":[[[38.038968,48.12332],[38.039529,48.123542],[38.039744,48.123312],[38.039178,48.123077],[38.038968,48.12332]]]}},{"type":"Feature","properties":{"cadnum":"1413567800:01:000:0071"},"geometry":{"type":"Polygon","coordinates":[[[38.036134,48.125719],[38.036222,48.125755],[38.036221,48.125755],[38.03642,48.125838],[38.036497,48.12587],[38.036498,48.12587],[38.036928,48.126048],[38.037117,48.12613],[38.037229,48.126016],[38.037107,48.12597],[38.036874,48.12587],[38.036237,48.125596],[38.036134,48.125719]]]}},{"type":"Feature","properties":{"cadnum":"1413567800:01:000:0116"},"geometry":{"type":"Polygon","coordinates":[[[38.034679,48.122556],[38.035235,48.122748],[38.035365,48.122607],[38.034813,48.122397],[38.034679,48.122556]]]}},{"type":"Feature","properties":{"cadnum":"1413567800:01:000:0107"},"geometry":{"type":"Polygon","coordinates":[[[38.037293,48.124441],[38.037696,48.124615],[38.038302,48.124873],[38.038424,48.12475],[38.038267,48.124684],[38.037926,48.124541],[38.0374,48.12433],[38.037293,48.124441]]]}},{"type":"Feature","properties":{"cadnum":"1413567800:01:000:0134"},"geometry":{"type":"Polygon","coordinates":[[[38.03718,48.124559],[38.038132,48.124961],[38.038191,48.124987],[38.038213,48.124996],[38.038245,48.124961],[38.038231,48.124954],[38.038302,48.124873],[38.037696,48.124615],[38.037293,48.124441],[38.03718,48.124559]]]}},{"type":"Feature","properties":{"cadnum":"1413567800:01:000:0129"},"geometry":{"type":"Polygon","coordinates":[[[38.038361,48.123979],[38.038931,48.124208],[38.039151,48.123983],[38.038581,48.123749],[38.038361,48.123979]]]}},{"type":"Feature","properties":{"cadnum":"1413567800:01:000:0115"},"geometry":{"type":"Polygon","coordinates":[[[38.038841,48.124619],[38.039197,48.124777],[38.039233,48.12473],[38.03979,48.124975],[38.039843,48.124921],[38.039268,48.12467],[38.038918,48.124534],[38.038841,48.124619]]]}},{"type":"Feature","properties":{"cadnum":"1413567800:04:000:0004"},"geometry":{"type":"Polygon","coordinates":[[[37.970929,48.180651],[37.971027,48.180726],[37.971026,48.180726],[37.971175,48.18084],[37.971176,48.180841],[37.971195,48.180855],[37.971818,48.180729],[37.971455,48.180471],[37.970929,48.180651]]]}},{"type":"Feature","properties":{"cadnum":"1413567800:04:000:0003"},"geometry":{"type":"Polygon","coordinates":[[[37.971864,48.180301],[37.972205,48.180645],[37.972573,48.180558],[37.972308,48.180172],[37.971864,48.180301]]]}},{"type":"Feature","properties":{"cadnum":"1413567800:01:000:0131"},"geometry":{"type":"Polygon","coordinates":[[[38.015005,48.129994],[38.015211,48.130087],[38.0154,48.129841],[38.015584,48.129595],[38.015391,48.129505],[38.015005,48.129994]]]}},{"type":"Feature","properties":{"cadnum":"1413567800:01:000:0039"},"geometry":{"type":"Polygon","coordinates":[[[38.016855,48.131441],[38.017031,48.131463],[38.017071,48.131346],[38.016888,48.131331],[38.016855,48.131441]]]}},{"type":"Feature","properties":{"cadnum":"1413567800:01:000:0094"},"geometry":{"type":"Polygon","coordinates":[[[38.014345,48.130459],[38.014521,48.130543],[38.01474,48.130321],[38.014718,48.130312],[38.014565,48.130243],[38.014345,48.130459]]]}},{"type":"Feature","properties":{"cadnum":"1413567800:01:000:0059"},"geometry":{"type":"Polygon","coordinates":[[[38.016568,48.129844],[38.016819,48.129958],[38.016811,48.12997],[38.017012,48.130063],[38.017242,48.129778],[38.016775,48.12961],[38.016766,48.129604],[38.016576,48.129835],[38.016568,48.129844]]]}},{"type":"Feature","properties":{"cadnum":"1413567800:01:000:0158"},"geometry":{"type":"Polygon","coordinates":[[[38.015638,48.132488],[38.016119,48.132569],[38.016289,48.132156],[38.016267,48.132152],[38.015804,48.132063],[38.015777,48.13214],[38.015638,48.132488]]]}},{"type":"Feature","properties":{"cadnum":"1413567800:01:000:0055"},"geometry":{"type":"Polygon","coordinates":[[[38.017205,48.130341],[38.018274,48.130642],[38.0184,48.130677],[38.018467,48.130576],[38.018517,48.130501],[38.018585,48.130401],[38.018859,48.130006],[38.019159,48.130105],[38.019281,48.129979],[38.019326,48.129928],[38.01924,48.129898],[38.019276,48.129859],[38.018966,48.129739],[38.019029,48.129652],[38.019201,48.129422],[38.01942,48.12913],[38.019717,48.128576],[38.019358,48.12847],[38.018962,48.128354],[38.018683,48.128273],[38.018156,48.129422],[38.018155,48.129422],[38.01815,48.129436],[38.01804,48.129537],[38.018041,48.129537],[38.017538,48.13],[38.017502,48.130041],[38.017381,48.130165],[38.017309,48.130237],[38.017205,48.130341]]]}},{"type":"Feature","properties":{"cadnum":"1413567800:01:000:0111"},"geometry":{"type":"Polygon","coordinates":[[[38.016293,48.130581],[38.016442,48.130663],[38.016784,48.130159],[38.016582,48.130063],[38.016293,48.130581]]]}},{"type":"Feature","properties":{"cadnum":"1413567800:01:000:0056"},"geometry":{"type":"Polygon","coordinates":[[[38.015203,48.133309],[38.015251,48.133316],[38.015548,48.133372],[38.015553,48.133367],[38.015656,48.133385],[38.015787,48.133409],[38.015854,48.133243],[38.015262,48.133141],[38.015261,48.133141],[38.015239,48.133203],[38.01524,48.133203],[38.015203,48.133309]]]}},{"type":"Feature","properties":{"cadnum":"1413567800:01:000:0024"},"geometry":{"type":"Polygon","coordinates":[[[38.015773,48.129532],[38.015783,48.129537],[38.016429,48.12982],[38.016572,48.129601],[38.016324,48.129504],[38.01584,48.129316],[38.015807,48.129422],[38.015773,48.129532]]]}},{"type":"Feature","properties":{"cadnum":"1413567800:01:000:0050"},"geometry":{"type":"Polygon","coordinates":[[[38.014385,48.133129],[38.014385,48.13313],[38.014423,48.133203],[38.014458,48.13327],[38.014853,48.133173],[38.014857,48.133172],[38.014857,48.133018],[38.014817,48.133027],[38.014559,48.133088],[38.014558,48.133088],[38.014386,48.133129],[38.014385,48.133129]]]}},{"type":"Feature","properties":{"cadnum":"1413567800:01:000:0079"},"geometry":{"type":"Polygon","coordinates":[[[38.014718,48.130312],[38.014928,48.130407],[38.015001,48.130441],[38.015207,48.130225],[38.01492,48.130092],[38.014718,48.130312]]]}},{"type":"Feature","properties":{"cadnum":"1413567800:01:000:0067"},"geometry":{"type":"Polygon","coordinates":[[[38.018347,48.135407],[38.018886,48.135618],[38.019047,48.13554],[38.0192,48.135447],[38.018882,48.135195],[38.018347,48.135407]]]}},{"type":"Feature","properties":{"cadnum":"1413567800:01:000:0123"},"geometry":{"type":"Polygon","coordinates":[[[38.022834,48.135704],[38.02314,48.135977],[38.02323,48.135935],[38.023494,48.135782],[38.023148,48.135522],[38.022834,48.135704]]]}},{"type":"Feature","properties":{"cadnum":"1413567800:01:000:0163"},"geometry":{"type":"Polygon","coordinates":[[[38.010855,48.127685],[38.011398,48.127752],[38.011421,48.127592],[38.011443,48.127461],[38.010909,48.127434],[38.010855,48.127685]]]}},{"type":"Feature","properties":{"cadnum":"1413567800:01:000:0161"},"geometry":{"type":"Polygon","coordinates":[[[38.012498,48.128138],[38.012609,48.128156],[38.012684,48.128168],[38.012781,48.128183],[38.013033,48.128222],[38.013146,48.127874],[38.01265,48.127844],[38.012597,48.127841],[38.012593,48.12785],[38.01254,48.128018],[38.012512,48.128103],[38.012498,48.128138]]]}},{"type":"Feature","properties":{"cadnum":"1413567800:01:000:0130"},"geometry":{"type":"Polygon","coordinates":[[[38.012108,48.127616],[38.012609,48.127666],[38.012609,48.127667],[38.012651,48.12767],[38.012705,48.127497],[38.012347,48.127463],[38.012162,48.127448],[38.012108,48.127616]]]}},{"type":"Feature","properties":{"cadnum":"1413567800:01:000:0080"},"geometry":{"type":"Polygon","coordinates":[[[38.01094,48.127206],[38.011443,48.12723],[38.011506,48.126894],[38.011003,48.126861],[38.01094,48.127206]]]}},{"type":"Feature","properties":{"cadnum":"1413567800:01:000:0090"},"geometry":{"type":"Polygon","coordinates":[[[38.02402,48.135476],[38.024396,48.135773],[38.024423,48.135791],[38.024473,48.135764],[38.024473,48.135762],[38.024846,48.135534],[38.024846,48.135533],[38.024455,48.135218],[38.024415,48.135249],[38.02402,48.135476]]]}},{"type":"Feature","properties":{"cadnum":"1413567800:01:000:0038"},"geometry":{"type":"Polygon","coordinates":[[[38.024073,48.136184],[38.024154,48.136259],[38.02428,48.136196],[38.024203,48.136127],[38.024073,48.136184]]]}},{"type":"Feature","properties":{"cadnum":"1413567800:01:000:0148"},"geometry":{"type":"Polygon","coordinates":[[[38.020121,48.128174],[38.020678,48.128165],[38.020674,48.127946],[38.020134,48.127943],[38.020121,48.128174]]]}},{"type":"Feature","properties":{"cadnum":"1413567800:01:000:0018"},"geometry":{"type":"Polygon","coordinates":[[[38.020421,48.128333],[38.020448,48.128561],[38.02067,48.128537],[38.020664,48.12833],[38.020421,48.128333]]]}},{"type":"Feature","properties":{"cadnum":"1413567800:01:000:0150"},"geometry":{"type":"Polygon","coordinates":[[[38.021594,48.128606],[38.021639,48.128828],[38.021756,48.129436],[38.021966,48.129401],[38.021922,48.129145],[38.02189,48.128974],[38.021882,48.128974],[38.021855,48.128867],[38.021819,48.128588],[38.021819,48.128579],[38.021608,48.128599],[38.021594,48.128606]]]}},{"type":"Feature","properties":{"cadnum":"1413567800:01:000:0109"},"geometry":{"type":"Polygon","coordinates":[[[38.020049,48.129425],[38.020073,48.129537],[38.020148,48.12988],[38.020242,48.129928],[38.02035,48.129895],[38.020318,48.129853],[38.020377,48.12985],[38.020314,48.129497],[38.020282,48.129307],[38.020054,48.129422],[38.020053,48.129422],[38.020049,48.129425]]]}},{"type":"Feature","properties":{"cadnum":"1413567800:01:000:0009"},"geometry":{"type":"Polygon","coordinates":[[[38.019798,48.128719],[38.020094,48.128729],[38.020067,48.128854],[38.020413,48.12881],[38.020458,48.12881],[38.020674,48.128777],[38.02067,48.128537],[38.020165,48.12859],[38.019798,48.128612],[38.019798,48.128719]]]}},{"type":"Feature","properties":{"cadnum":"1413567800:01:000:0132"},"geometry":{"type":"Polygon","coordinates":[[[38.021787,48.128333],[38.021792,48.128348],[38.021805,48.128399],[38.022129,48.128381],[38.022111,48.128213],[38.022088,48.128225],[38.022062,48.128195],[38.021976,48.128189],[38.021913,48.12818],[38.021869,48.128174],[38.021868,48.128174],[38.021872,48.12815],[38.021859,48.128147],[38.021828,48.128228],[38.021805,48.128225],[38.021792,48.128291],[38.021787,48.128333]]]}},{"type":"Feature","properties":{"cadnum":"1413567800:01:000:0065"},"geometry":{"type":"Polygon","coordinates":[[[38.017951,48.12812],[38.01805,48.128552],[38.018103,48.128547],[38.018207,48.128537],[38.018274,48.12853],[38.018324,48.128525],[38.018226,48.128093],[38.017951,48.12812]]]}},{"type":"Feature","properties":{"cadnum":"1413567800:01:000:0042"},"geometry":{"type":"Polygon","coordinates":[[[38.038074,48.133336],[38.038101,48.133378],[38.038178,48.13336],[38.038149,48.133318],[38.038074,48.133336]]]}},{"type":"Feature","properties":{"cadnum":"1413567800:01:000:0069"},"geometry":{"type":"Polygon","coordinates":[[[38.03656,48.133445],[38.036887,48.133654],[38.037014,48.133549],[38.037036,48.133519],[38.037073,48.133363],[38.036853,48.133216],[38.036631,48.13339],[38.03656,48.133445]]]}},{"type":"Feature","properties":{"cadnum":"1413567800:01:000:0028"},"geometry":{"type":"Polygon","coordinates":[[[38.025488,48.128339],[38.025511,48.128483],[38.025534,48.12848],[38.025807,48.128453],[38.025784,48.12833],[38.025776,48.128294],[38.025672,48.1283],[38.025488,48.128339]]]}},{"type":"Feature","properties":{"cadnum":"1413567800:01:000:0004"},"geometry":{"type":"Polygon","coordinates":[[[38.025565,48.127098],[38.025565,48.127176],[38.025641,48.127176],[38.025641,48.127185],[38.025691,48.127185],[38.025691,48.127176],[38.025762,48.127172],[38.025762,48.127128],[38.025825,48.12713],[38.025838,48.127029],[38.025637,48.127032],[38.025601,48.127083],[38.025574,48.127083],[38.025574,48.127098],[38.025565,48.127098]]]}},{"type":"Feature","properties":{"cadnum":"1413567800:01:000:0047"},"geometry":{"type":"Polygon","coordinates":[[[38.025776,48.127803],[38.02578,48.127803],[38.025866,48.127808],[38.025874,48.127779],[38.02578,48.12777],[38.025776,48.127803]]]}},{"type":"Feature","properties":{"cadnum":"1413567800:01:000:0003"},"geometry":{"type":"Polygon","coordinates":[[[38.025434,48.126948],[38.025511,48.126948],[38.025515,48.126858],[38.025438,48.126858],[38.025434,48.126948]]]}},{"type":"Feature","properties":{"cadnum":"1413567800:01:000:0106"},"geometry":{"type":"Polygon","coordinates":[[[38.028035,48.128174],[38.028094,48.12857],[38.028322,48.128552],[38.028264,48.128156],[38.028035,48.128174]]]}},{"type":"Feature","properties":{"cadnum":"1413567800:01:000:0040"},"geometry":{"type":"Polygon","coordinates":[[[38.028138,48.129232],[38.028148,48.129298],[38.028255,48.12929],[38.028241,48.129223],[38.028138,48.129232]]]}},{"type":"Feature","properties":{"cadnum":"1413567800:01:000:0136"},"geometry":{"type":"Polygon","coordinates":[[[38.02887,48.127608],[38.028903,48.128],[38.028903,48.128001],[38.029054,48.128009],[38.029054,48.127608],[38.02887,48.127608]]]}},{"type":"Feature","properties":{"cadnum":"1413567800:01:000:0041"},"geometry":{"type":"Polygon","coordinates":[[[38.033744,48.132503],[38.033847,48.132563],[38.033937,48.132497],[38.033834,48.132434],[38.033744,48.132503]]]}},{"type":"Feature","properties":{"cadnum":"1413567800:01:000:0105"},"geometry":{"type":"Polygon","coordinates":[[[38.033304,48.13039],[38.033891,48.130612],[38.033937,48.130579],[38.033941,48.130585],[38.034058,48.130476],[38.033861,48.130363],[38.033511,48.130194],[38.033304,48.13039]]]}},{"type":"Feature","properties":{"cadnum":"1413567800:01:000:0017"},"geometry":{"type":"Polygon","coordinates":[[[38.041038,48.120643],[38.041195,48.120708],[38.041766,48.120985],[38.042017,48.121083],[38.04213,48.120976],[38.041532,48.120679],[38.041209,48.120505],[38.041038,48.120643]]]}},{"type":"Feature","properties":{"cadnum":"1413567800:01:000:0099"},"geometry":{"type":"Polygon","coordinates":[[[38.042359,48.11888],[38.042642,48.118994],[38.042906,48.119114],[38.043176,48.119218],[38.043235,48.119116],[38.042812,48.118952],[38.04244,48.118792],[38.042359,48.11888]]]}},{"type":"Feature","properties":{"cadnum":"1413567800:01:000:0133"},"geometry":{"type":"Polygon","coordinates":[[[38.042044,48.121206],[38.042394,48.121335],[38.042449,48.121047],[38.042346,48.121023],[38.042363,48.120985],[38.04231,48.120978],[38.042283,48.120978],[38.042251,48.120996],[38.042044,48.121206]]]}},{"type":"Feature","properties":{"cadnum":"1413567800:02:000:0001"},"geometry":{"type":"Polygon","coordinates":[[[38.022524,48.113887],[38.022658,48.113938],[38.022851,48.114013],[38.022947,48.114051],[38.022955,48.114037],[38.022852,48.113827],[38.022851,48.113827],[38.022847,48.113682],[38.022807,48.11368],[38.022798,48.113635],[38.022754,48.11362],[38.022524,48.113887]]]}},{"type":"Feature","properties":{"cadnum":"1413567800:02:000:0009"},"geometry":{"type":"Polygon","coordinates":[[[38.022995,48.113416],[38.023193,48.113491],[38.023454,48.113191],[38.023251,48.113113],[38.022995,48.113416]]]}},{"type":"Feature","properties":{"cadnum":"1413567800:01:000:0113"},"geometry":{"type":"Polygon","coordinates":[[[38.021842,48.112375],[38.022021,48.112444],[38.022052,48.112402],[38.022299,48.112124],[38.022232,48.112106],[38.022119,48.112061],[38.022025,48.112184],[38.021842,48.112375]]]}},{"type":"Feature","properties":{"cadnum":"1413567800:01:000:0147"},"geometry":{"type":"Polygon","coordinates":[[[38.022331,48.113811],[38.022524,48.113887],[38.022754,48.113622],[38.022555,48.113542],[38.022331,48.113811]]]}},{"type":"Feature","properties":{"cadnum":"1413567800:02:000:0004"},"geometry":{"type":"Polygon","coordinates":[[[38.021936,48.113659],[38.021958,48.113668],[38.021962,48.113665],[38.021976,48.113671],[38.021972,48.113673],[38.022106,48.113725],[38.022326,48.113467],[38.022291,48.113446],[38.022133,48.113386],[38.021958,48.113578],[38.021989,48.11359],[38.021966,48.113613],[38.021936,48.113659]]]}},{"type":"Feature","properties":{"cadnum":"1413567800:02:000:0005"},"geometry":{"type":"Polygon","coordinates":[[[38.0208,48.113629],[38.020952,48.113691],[38.020987,48.113662],[38.021046,48.113593],[38.021244,48.11338],[38.021186,48.113356],[38.02106,48.113308],[38.020876,48.11353],[38.0208,48.113629]]]}},{"type":"Feature","properties":{"cadnum":"1413567800:02:000:0015"},"geometry":{"type":"Polygon","coordinates":[[[38.023193,48.113491],[38.023381,48.113562],[38.023647,48.113266],[38.023454,48.113191],[38.023193,48.113491]]]}},{"type":"Feature","properties":{"cadnum":"1413567800:02:000:0007"},"geometry":{"type":"Polygon","coordinates":[[[38.018724,48.11374],[38.018819,48.113779],[38.018872,48.113722],[38.018773,48.113682],[38.018724,48.11374]]]}},{"type":"Feature","properties":{"cadnum":"1413567800:02:000:0003"},"geometry":{"type":"Polygon","coordinates":[[[38.021769,48.111931],[38.021945,48.111995],[38.022119,48.112061],[38.022232,48.112106],[38.022331,48.111988],[38.021868,48.111812],[38.021769,48.111931]]]}},{"type":"Feature","properties":{"cadnum":"1413567800:01:000:0137"},"geometry":{"type":"Polygon","coordinates":[[[38.022636,48.111635],[38.022861,48.11215],[38.022919,48.112144],[38.023175,48.111844],[38.02309,48.111815],[38.022978,48.111773],[38.022974,48.111775],[38.022973,48.111775],[38.02287,48.11173],[38.022636,48.111635]]]}},{"type":"Feature","properties":{"cadnum":"1413567800:02:000:0012"},"geometry":{"type":"Polygon","coordinates":[[[38.022021,48.112444],[38.022218,48.112519],[38.022263,48.112462],[38.022492,48.112204],[38.022362,48.112148],[38.022299,48.112124],[38.022052,48.112402],[38.022021,48.112444]]]}},{"type":"Feature","properties":{"cadnum":"1413567800:02:000:0016"},"geometry":{"type":"Polygon","coordinates":[[[38.021725,48.113575],[38.021756,48.113587],[38.021936,48.113659],[38.021966,48.113613],[38.021989,48.11359],[38.021958,48.113578],[38.022133,48.113386],[38.021945,48.113314],[38.021725,48.113575]]]}},{"type":"Feature","properties":{"cadnum":"1413567800:01:000:0114"},"geometry":{"type":"Polygon","coordinates":[[[38.022214,48.112526],[38.022479,48.112618],[38.022614,48.112453],[38.022748,48.112297],[38.022492,48.112204],[38.022263,48.112462],[38.022218,48.112519],[38.022214,48.112526]]]}},{"type":"Feature","properties":{"cadnum":"1413567800:02:000:0002"},"geometry":{"type":"Polygon","coordinates":[[[38.02309,48.111815],[38.023175,48.111844],[38.023251,48.111872],[38.023513,48.111566],[38.023354,48.111506],[38.02309,48.111815]]]}},{"type":"Feature","properties":{"cadnum":"1413567800:04:000:0002"},"geometry":{"type":"Polygon","coordinates":[[[37.969205,48.181433],[37.969622,48.181753],[37.970063,48.181619],[37.969658,48.181337],[37.969205,48.181433]]]}},{"type":"Feature","properties":{"cadnum":"1413567800:01:000:0096"},"geometry":{"type":"Polygon","coordinates":[[[38.019762,48.13869],[38.019869,48.138765],[38.019874,48.138765],[38.019986,48.138837],[38.020305,48.1386],[38.020058,48.138453],[38.019882,48.1386],[38.019762,48.13869]]]}},{"type":"Feature","properties":{"cadnum":"1413567800:01:000:0068"},"geometry":{"type":"Polygon","coordinates":[[[38.020207,48.137155],[38.020305,48.137221],[38.020431,48.137305],[38.020606,48.137182],[38.020381,48.137035],[38.020251,48.137126],[38.020207,48.137155]]]}},{"type":"Feature","properties":{"cadnum":"1413567800:01:000:0062"},"geometry":{"type":"Polygon","coordinates":[[[38.021567,48.137515],[38.022016,48.137779],[38.022255,48.137641],[38.021863,48.137356],[38.021567,48.137515]]]}},{"type":"Feature","properties":{"cadnum":"1413567800:01:000:0037"},"geometry":{"type":"Polygon","coordinates":[[[38.013761,48.128222],[38.014448,48.128483],[38.014502,48.128324],[38.013815,48.128066],[38.013792,48.128138],[38.013761,48.128222]]]}},{"type":"Feature","properties":{"cadnum":"1413567800:01:000:0112"},"geometry":{"type":"Polygon","coordinates":[[[38.015113,48.127454],[38.015674,48.127526],[38.01571,48.127268],[38.015203,48.127227],[38.015113,48.127454]]]}},{"type":"Feature","properties":{"cadnum":"1413567800:01:000:0060"},"geometry":{"type":"Polygon","coordinates":[[[38.014664,48.128579],[38.01474,48.128597],[38.014893,48.128606],[38.015247,48.128729],[38.015288,48.128603],[38.01519,48.128561],[38.014727,48.128408],[38.014686,48.128543],[38.014664,48.128579]]]}},{"type":"Feature","properties":{"cadnum":"1413567800:01:000:0104"},"geometry":{"type":"Polygon","coordinates":[[[38.015997,48.129161],[38.016169,48.129208],[38.016276,48.129245],[38.016285,48.129236],[38.016286,48.129236],[38.016888,48.129457],[38.016922,48.129401],[38.016536,48.129254],[38.01602,48.129068],[38.015997,48.129161]]]}},{"type":"Feature","properties":{"cadnum":"1413567800:01:000:0139"},"geometry":{"type":"Polygon","coordinates":[[[38.014026,48.12779],[38.01461,48.128018],[38.014672,48.127859],[38.014085,48.127637],[38.014026,48.12779]]]}},{"type":"Feature","properties":{"cadnum":"1413567800:01:000:0063"},"geometry":{"type":"Polygon","coordinates":[[[38.016249,48.12833],[38.017165,48.128567],[38.017238,48.128387],[38.017156,48.128366],[38.016307,48.12815],[38.016249,48.12833]]]}},{"type":"Feature","properties":{"cadnum":"1413567800:01:000:0091"},"geometry":{"type":"Polygon","coordinates":[[[38.013492,48.127356],[38.014022,48.127437],[38.014093,48.127212],[38.013568,48.127137],[38.013492,48.127356]]]}},{"type":"Feature","properties":{"cadnum":"1413567800:01:000:0095"},"geometry":{"type":"Polygon","coordinates":[[[38.013263,48.128052],[38.013792,48.128138],[38.013815,48.128066],[38.013855,48.127961],[38.013326,48.127881],[38.01332,48.127889],[38.013307,48.127886],[38.013293,48.127923],[38.013307,48.127925],[38.013263,48.128052]]]}},{"type":"Feature","properties":{"cadnum":"1413567800:01:000:0160"},"geometry":{"type":"Polygon","coordinates":[[[38.014601,48.128765],[38.014928,48.128903],[38.01514,48.128977],[38.015198,48.128858],[38.014651,48.128648],[38.014624,48.12869],[38.014601,48.128765]]]}},{"type":"Feature","properties":{"cadnum":"1413567800:01:000:0157"},"geometry":{"type":"Polygon","coordinates":[[[38.01337,48.127703],[38.01341,48.12771],[38.0139,48.127787],[38.013913,48.127748],[38.013959,48.12761],[38.013469,48.127532],[38.013424,48.127526],[38.01337,48.127703]]]}},{"type":"Feature","properties":{"cadnum":"1413567800:01:000:0121"},"geometry":{"type":"Polygon","coordinates":[[[38.013437,48.12753],[38.013959,48.12761],[38.013968,48.12759],[38.014022,48.127437],[38.013492,48.127356],[38.013437,48.12753]]]}},{"type":"Feature","properties":{"cadnum":"1413567800:01:000:0035"},"geometry":{"type":"Polygon","coordinates":[[[38.015769,48.127374],[38.016299,48.127386],[38.01637,48.127053],[38.015813,48.127047],[38.015809,48.127047],[38.015769,48.127374]]]}},{"type":"Feature","properties":{"cadnum":"1413567800:01:000:0087"},"geometry":{"type":"Polygon","coordinates":[[[38.016307,48.12815],[38.017156,48.128366],[38.017211,48.128234],[38.016666,48.128117],[38.01633,48.128057],[38.016307,48.12815]]]}},{"type":"Feature","properties":{"cadnum":"1413567800:01:000:0019"},"geometry":{"type":"Polygon","coordinates":[[[38.016788,48.127337],[38.017098,48.127343],[38.017134,48.127002],[38.017175,48.127002],[38.017175,48.126975],[38.017031,48.126981],[38.017031,48.126972],[38.016977,48.126975],[38.016977,48.126984],[38.016802,48.126987],[38.016788,48.127337]]]}},{"type":"Feature","properties":{"cadnum":"1413567800:01:000:0036"},"geometry":{"type":"Polygon","coordinates":[[[38.015813,48.127047],[38.01637,48.127053],[38.016375,48.127041],[38.016357,48.127008],[38.016307,48.126959],[38.015823,48.12699],[38.015813,48.127047]]]}},{"type":"Feature","properties":{"cadnum":"1413567800:01:000:0102"},"geometry":{"type":"Polygon","coordinates":[[[38.015445,48.128174],[38.015769,48.128255],[38.016114,48.128327],[38.01615,48.128222],[38.01549,48.128069],[38.015445,48.128174]]]}},{"type":"Feature","properties":{"cadnum":"1413567800:01:000:0011"},"geometry":{"type":"Polygon","coordinates":[[[38.016383,48.127568],[38.017049,48.127614],[38.017098,48.127343],[38.016433,48.127328],[38.016383,48.127568]]]}},{"type":"Feature","properties":{"cadnum":"1413567800:01:000:0064"},"geometry":{"type":"Polygon","coordinates":[[[38.015391,48.128327],[38.016056,48.128525],[38.016114,48.128327],[38.015769,48.128255],[38.015445,48.128174],[38.015391,48.128327]]]}},{"type":"Feature","properties":{"cadnum":"1413567800:01:000:0048"},"geometry":{"type":"Polygon","coordinates":[[[38.013918,48.129065],[38.013926,48.12907],[38.014075,48.129125],[38.014093,48.129103],[38.014175,48.129005],[38.014075,48.128965],[38.013989,48.128974],[38.013918,48.129065]]]}},{"type":"Feature","properties":{"cadnum":"1413567800:01:000:0016"},"geometry":{"type":"Polygon","coordinates":[[[38.019362,48.132938],[38.019398,48.132971],[38.019452,48.132943],[38.019416,48.132911],[38.019362,48.132938]]]}},{"type":"Feature","properties":{"cadnum":"1413567800:01:000:0057"},"geometry":{"type":"Polygon","coordinates":[[[38.021033,48.129682],[38.021194,48.129976],[38.021199,48.129981],[38.02131,48.129949],[38.021311,48.129949],[38.021325,48.129981],[38.021455,48.129955],[38.021473,48.129961],[38.021693,48.129916],[38.021653,48.129628],[38.021477,48.129637],[38.021473,48.129604],[38.021207,48.129652],[38.021033,48.129682]]]}},{"type":"Feature","properties":{"cadnum":"1413567800:01:000:0012"},"geometry":{"type":"Polygon","coordinates":[[[38.021697,48.129631],[38.021738,48.129919],[38.021746,48.129919],[38.02189,48.130354],[38.021945,48.130348],[38.022115,48.130321],[38.022102,48.130225],[38.02207,48.130069],[38.022111,48.130063],[38.022106,48.130048],[38.022178,48.130036],[38.022165,48.129964],[38.022075,48.129972],[38.022003,48.129614],[38.021697,48.129631]]]}},{"type":"Feature","properties":{"cadnum":"1413567800:01:000:0126"},"geometry":{"type":"Polygon","coordinates":[[[38.038272,48.126624],[38.038536,48.126672],[38.038748,48.126339],[38.038568,48.126279],[38.038272,48.126624]]]}},{"type":"Feature","properties":{"cadnum":"1413567800:01:000:0152"},"geometry":{"type":"Polygon","coordinates":[[[38.03612,48.12613],[38.036893,48.126372],[38.037032,48.126225],[38.036295,48.125908],[38.03612,48.12613]]]}},{"type":"Feature","properties":{"cadnum":"1413567800:01:000:0110"},"geometry":{"type":"Polygon","coordinates":[[[38.034899,48.128117],[38.035478,48.128426],[38.035532,48.128378],[38.035589,48.128327],[38.034975,48.128043],[38.034899,48.128117]]]}},{"type":"Feature","properties":{"cadnum":"1413567800:01:000:0153"},"geometry":{"type":"Polygon","coordinates":[[[38.036721,48.128285],[38.037346,48.128489],[38.037436,48.128408],[38.037535,48.128321],[38.036897,48.128087],[38.036721,48.128285]]]}}]}