{"type":"FeatureCollection","features":[{"type":"Feature","properties":{"cadnum":"1413591500:05:000:0003"},"geometry":{"type":"Polygon","coordinates":[[[38.103835,48.147924],[38.103849,48.147927],[38.103893,48.147939],[38.103933,48.147948],[38.104113,48.147981],[38.104209,48.147814],[38.104266,48.147714],[38.104472,48.147316],[38.104203,48.147256],[38.103868,48.147865],[38.103868,48.147866],[38.103835,48.147924]]]}},{"type":"Feature","properties":{"cadnum":"1413591500:01:000:0010"},"geometry":{"type":"Polygon","coordinates":[[[38.142135,48.163274],[38.143653,48.163715],[38.143729,48.163595],[38.143374,48.16349],[38.14319,48.163454],[38.142858,48.16337],[38.142179,48.1632],[38.142135,48.163274]]]}},{"type":"Feature","properties":{"cadnum":"1413591500:01:000:0020"},"geometry":{"type":"Polygon","coordinates":[[[38.141834,48.163724],[38.14336,48.164251],[38.143446,48.164137],[38.141919,48.163604],[38.141834,48.163724]]]}},{"type":"Feature","properties":{"cadnum":"1413591500:01:000:0015"},"geometry":{"type":"Polygon","coordinates":[[[38.143989,48.16601],[38.144445,48.166089],[38.144519,48.166102],[38.144617,48.166119],[38.144617,48.166118],[38.144688,48.16613],[38.144699,48.166132],[38.144798,48.165905],[38.144445,48.165833],[38.144089,48.165761],[38.143989,48.16601]]]}},{"type":"Feature","properties":{"cadnum":"1413591500:01:000:0019"},"geometry":{"type":"Polygon","coordinates":[[[38.144429,48.164679],[38.144445,48.164684],[38.144445,48.164685],[38.144599,48.164729],[38.144617,48.164735],[38.144838,48.164799],[38.145314,48.164934],[38.145395,48.164719],[38.144982,48.164604],[38.144569,48.164473],[38.144429,48.164679]]]}},{"type":"Feature","properties":{"cadnum":"1413591500:01:000:0001"},"geometry":{"type":"Polygon","coordinates":[[[38.143517,48.164512],[38.14354,48.164515],[38.143594,48.164526],[38.143626,48.164461],[38.14358,48.164452],[38.14355,48.164446],[38.143517,48.164512]]]}},{"type":"Feature","properties":{"cadnum":"1413591500:01:000:0016"},"geometry":{"type":"Polygon","coordinates":[[[38.141523,48.165776],[38.142462,48.165952],[38.142575,48.16574],[38.142498,48.165716],[38.142202,48.165641],[38.141618,48.165539],[38.141523,48.165776]]]}},{"type":"Feature","properties":{"cadnum":"1413591500:02:000:0005"},"geometry":{"type":"Polygon","coordinates":[[[38.1382,48.163152],[38.138952,48.163329],[38.138952,48.16333],[38.139013,48.163343],[38.139124,48.163367],[38.139794,48.163509],[38.139871,48.163338],[38.139116,48.163172],[38.138609,48.163068],[38.138276,48.162981],[38.1382,48.163152]]]}},{"type":"Feature","properties":{"cadnum":"1413591500:04:000:0001"},"geometry":{"type":"Polygon","coordinates":[[[38.112854,48.149893],[38.112908,48.150606],[38.113015,48.150603],[38.113164,48.150597],[38.113159,48.14989],[38.112854,48.149893]]]}},{"type":"Feature","properties":{"cadnum":"1413591500:01:000:0024"},"geometry":{"type":"Polygon","coordinates":[[[38.150125,48.15897],[38.150318,48.159095],[38.150844,48.159416],[38.151123,48.159623],[38.151333,48.159481],[38.150867,48.159185],[38.150924,48.159149],[38.150633,48.158963],[38.150355,48.15879],[38.150354,48.15879],[38.150264,48.158859],[38.150265,48.158859],[38.150265,48.15886],[38.150125,48.15897]]]}},{"type":"Feature","properties":{"cadnum":"1413591500:01:000:0028"},"geometry":{"type":"Polygon","coordinates":[[[38.154311,48.158972],[38.154513,48.159116],[38.154981,48.159463],[38.155214,48.159281],[38.154772,48.15886],[38.154772,48.158859],[38.154639,48.158732],[38.154622,48.158745],[38.154514,48.158823],[38.154465,48.158859],[38.154465,48.15886],[38.154311,48.158972]]]}},{"type":"Feature","properties":{"cadnum":"1413591500:03:000:0002"},"geometry":{"type":"Polygon","coordinates":[[[38.142494,48.150324],[38.142821,48.150379],[38.143234,48.149584],[38.142862,48.149518],[38.142494,48.150324]]]}},{"type":"Feature","properties":{"cadnum":"1413591500:01:000:0006"},"geometry":{"type":"Polygon","coordinates":[[[38.143823,48.167984],[38.144445,48.168141],[38.144445,48.168142],[38.144617,48.168185],[38.144735,48.168214],[38.144871,48.167968],[38.144554,48.167898],[38.14394,48.167759],[38.143823,48.167984]]]}},{"type":"Feature","properties":{"cadnum":"1413591500:01:000:0021"},"geometry":{"type":"Polygon","coordinates":[[[38.14332,48.166929],[38.143886,48.167067],[38.144111,48.16713],[38.144215,48.167166],[38.144335,48.166911],[38.143959,48.166827],[38.143424,48.166711],[38.143423,48.166711],[38.14332,48.166929]]]}},{"type":"Feature","properties":{"cadnum":"1413591500:01:000:0027"},"geometry":{"type":"Polygon","coordinates":[[[38.139615,48.168834],[38.139772,48.169104],[38.140055,48.169611],[38.140212,48.16958],[38.140118,48.169401],[38.140118,48.1694],[38.140284,48.169347],[38.140334,48.169332],[38.140316,48.169299],[38.140316,48.169298],[38.14037,48.169281],[38.140338,48.16923],[38.140356,48.169224],[38.140217,48.168987],[38.140114,48.169011],[38.139957,48.168751],[38.139615,48.168834]]]}},{"type":"Feature","properties":{"cadnum":"1413591500:01:000:0026"},"geometry":{"type":"Polygon","coordinates":[[[38.141523,48.168667],[38.141735,48.168679],[38.141852,48.168412],[38.142072,48.168059],[38.141892,48.168014],[38.141681,48.168365],[38.141523,48.168667]]]}},{"type":"Feature","properties":{"cadnum":"1413591500:04:000:0003"},"geometry":{"type":"Polygon","coordinates":[[[38.118266,48.150429],[38.118284,48.150903],[38.118549,48.150897],[38.118527,48.150423],[38.118405,48.150426],[38.118266,48.150429]]]}},{"type":"Feature","properties":{"cadnum":"1413591500:01:000:0004"},"geometry":{"type":"Polygon","coordinates":[[[38.140796,48.161042],[38.141129,48.161111],[38.141213,48.160913],[38.140882,48.160847],[38.140796,48.161042]]]}},{"type":"Feature","properties":{"cadnum":"1413591500:01:000:0003"},"geometry":{"type":"Polygon","coordinates":[[[38.139292,48.16074],[38.140796,48.161042],[38.140882,48.160847],[38.139391,48.160569],[38.139349,48.160653],[38.139336,48.16065],[38.139292,48.16074]]]}},{"type":"Feature","properties":{"cadnum":"1413591500:01:000:0023"},"geometry":{"type":"Polygon","coordinates":[[[38.147079,48.163574],[38.147125,48.163592],[38.147169,48.163535],[38.147125,48.163517],[38.147079,48.163574]]]}},{"type":"Feature","properties":{"cadnum":"1413591500:01:000:0018"},"geometry":{"type":"Polygon","coordinates":[[[38.146069,48.163924],[38.146312,48.163993],[38.147049,48.164212],[38.147169,48.163964],[38.146617,48.163789],[38.146263,48.163664],[38.14615,48.163796],[38.146146,48.163793],[38.146123,48.163822],[38.146136,48.163829],[38.146069,48.163924]]]}},{"type":"Feature","properties":{"cadnum":"1413591500:01:000:0025"},"geometry":{"type":"Polygon","coordinates":[[[38.144879,48.166282],[38.145158,48.166333],[38.145791,48.166267],[38.146154,48.16621],[38.146159,48.166096],[38.1454,48.166105],[38.145158,48.166076],[38.144982,48.166043],[38.144969,48.166073],[38.144968,48.166073],[38.144955,48.166105],[38.144919,48.166188],[38.144879,48.166282]]]}},{"type":"Feature","properties":{"cadnum":"1413591500:01:000:0029"},"geometry":{"type":"Polygon","coordinates":[[[38.151639,48.159526],[38.151729,48.159589],[38.152362,48.160132],[38.152505,48.160042],[38.152456,48.159934],[38.151805,48.159419],[38.151639,48.159526]]]}},{"type":"Feature","properties":{"cadnum":"1413591500:01:000:0017"},"geometry":{"type":"Polygon","coordinates":[[[38.177596,48.199911],[38.17783,48.199998],[38.178413,48.199243],[38.178426,48.199246],[38.178453,48.199201],[38.178449,48.199198],[38.178523,48.199087],[38.178583,48.199],[38.178539,48.198988],[38.178556,48.198959],[38.178373,48.198917],[38.178272,48.199037],[38.178237,48.199079],[38.178233,48.199079],[38.178177,48.199151],[38.178178,48.199151],[38.177596,48.199911]]]}},{"type":"Feature","properties":{"cadnum":"1413591500:02:000:0002"},"geometry":{"type":"Polygon","coordinates":[[[38.128579,48.169329],[38.128705,48.169578],[38.128722,48.169616],[38.128777,48.169602],[38.128852,48.169547],[38.128611,48.16932],[38.128579,48.169329]]]}},{"type":"Feature","properties":{"cadnum":"1413591500:02:000:0006"},"geometry":{"type":"Polygon","coordinates":[[[38.131993,48.167807],[38.132074,48.167936],[38.132181,48.167999],[38.132325,48.168119],[38.132846,48.168802],[38.13308,48.168721],[38.132634,48.168154],[38.132433,48.167915],[38.132294,48.167735],[38.131993,48.167807]]]}},{"type":"Feature","properties":{"cadnum":"1413591500:03:000:0005"},"geometry":{"type":"Polygon","coordinates":[[[38.145301,48.150457],[38.145917,48.150567],[38.146154,48.150328],[38.14554,48.150073],[38.145382,48.150306],[38.145301,48.150457]]]}},{"type":"Feature","properties":{"cadnum":"1413591500:03:000:0006"},"geometry":{"type":"Polygon","coordinates":[[[38.146002,48.149435],[38.146236,48.149504],[38.147008,48.149734],[38.147169,48.149497],[38.147058,48.149453],[38.14645,48.149267],[38.146343,48.149225],[38.146182,48.149174],[38.146002,48.149435]]]}},{"type":"Feature","properties":{"cadnum":"1413591500:05:000:0004"},"geometry":{"type":"Polygon","coordinates":[[[38.101675,48.14629],[38.102096,48.146377],[38.102164,48.146102],[38.102172,48.145823],[38.102119,48.145646],[38.102002,48.145608],[38.101998,48.145479],[38.101805,48.145475],[38.101782,48.146024],[38.101805,48.146039],[38.101796,48.146168],[38.101696,48.146156],[38.101675,48.14629]]]}},{"type":"Feature","properties":{"cadnum":"1413591500:01:000:0022"},"geometry":{"type":"Polygon","coordinates":[[[38.141605,48.172429],[38.141752,48.172466],[38.141924,48.172516],[38.142934,48.172759],[38.14319,48.172633],[38.141716,48.172273],[38.141605,48.172429]]]}},{"type":"Feature","properties":{"cadnum":"1413591500:01:000:0008"},"geometry":{"type":"Polygon","coordinates":[[[38.175912,48.198746],[38.176428,48.198944],[38.176765,48.198482],[38.176258,48.198288],[38.175912,48.198746]]]}},{"type":"Feature","properties":{"cadnum":"1413591500:01:000:0007"},"geometry":{"type":"Polygon","coordinates":[[[38.174981,48.198507],[38.175444,48.198629],[38.17552,48.198498],[38.175566,48.198509],[38.175583,48.198474],[38.17578,48.198096],[38.175296,48.197968],[38.174981,48.198507]]]}}]}