{"type":"FeatureCollection","features":[{"type":"Feature","properties":{"cadnum":"1413536300:00:016:0047"},"geometry":{"type":"Polygon","coordinates":[[[37.939906,48.060852],[37.939928,48.060865],[37.939969,48.060891],[37.940337,48.060978],[37.940351,48.060981],[37.940485,48.061036],[37.940553,48.061003],[37.940584,48.060949],[37.940691,48.060702],[37.940634,48.0607],[37.940431,48.060693],[37.940391,48.060691],[37.940378,48.060691],[37.940292,48.060675],[37.940238,48.060669],[37.940085,48.060651],[37.940032,48.060645],[37.939973,48.060711],[37.939906,48.060852]]]}},{"type":"Feature","properties":{"cadnum":"1413536300:00:003:0019"},"geometry":{"type":"Polygon","coordinates":[[[37.905491,48.100097],[37.906319,48.10014],[37.906354,48.100141],[37.906363,48.100051],[37.906413,48.100055],[37.906408,48.100082],[37.906407,48.100082],[37.906398,48.100144],[37.906578,48.100153],[37.906587,48.100064],[37.906587,48.100063],[37.906646,48.100066],[37.906643,48.100082],[37.906642,48.100082],[37.906627,48.100157],[37.906937,48.100166],[37.906992,48.099664],[37.906933,48.099655],[37.906134,48.09961],[37.905541,48.099581],[37.905493,48.100082],[37.905491,48.100097]]]}},{"type":"Feature","properties":{"cadnum":"1413536300:00:016:0031"},"geometry":{"type":"Polygon","coordinates":[[[37.942623,48.059619],[37.942637,48.059621],[37.942637,48.059622],[37.942628,48.059648],[37.942708,48.059661],[37.942718,48.059648],[37.942735,48.059652],[37.942741,48.059637],[37.942749,48.059639],[37.942767,48.059583],[37.942771,48.059574],[37.942645,48.059552],[37.942623,48.059619]]]}},{"type":"Feature","properties":{"cadnum":"1413536300:00:004:0071"},"geometry":{"type":"Polygon","coordinates":[[[37.942349,48.097169],[37.943307,48.097198],[37.943307,48.097136],[37.943301,48.096962],[37.943301,48.096638],[37.943297,48.096467],[37.943297,48.096466],[37.943112,48.096471],[37.942408,48.096488],[37.942404,48.096528],[37.942405,48.096528],[37.942349,48.097169]]]}},{"type":"Feature","properties":{"cadnum":"1413536300:00:004:0040"},"geometry":{"type":"Polygon","coordinates":[[[37.951381,48.09991],[37.951395,48.09997],[37.951557,48.100061],[37.95162,48.100021],[37.951588,48.099848],[37.951418,48.099853],[37.951422,48.099883],[37.951381,48.09991]]]}}]}