{"type":"FeatureCollection","features":[{"type":"Feature","properties":{"cadnum":"1414445300:01:000:0107"},"geometry":{"type":"Polygon","coordinates":[[[38.753249,48.104128],[38.753515,48.104319],[38.753622,48.104388],[38.753752,48.10447],[38.753964,48.104572],[38.754048,48.104614],[38.754049,48.104614],[38.754165,48.10471],[38.754186,48.104701],[38.754187,48.104701],[38.754305,48.10465],[38.754247,48.104586],[38.754161,48.104539],[38.754081,48.104472],[38.753792,48.104275],[38.753725,48.104227],[38.753635,48.104188],[38.753402,48.104028],[38.753249,48.104128]]]}},{"type":"Feature","properties":{"cadnum":"1414445300:01:000:0025"},"geometry":{"type":"Polygon","coordinates":[[[38.753735,48.106015],[38.75413,48.105981],[38.754134,48.105891],[38.754134,48.105861],[38.754148,48.105819],[38.754157,48.105771],[38.754187,48.105731],[38.75431,48.105561],[38.753874,48.105528],[38.753861,48.105624],[38.753838,48.105684],[38.753834,48.105693],[38.753762,48.105864],[38.753761,48.105864],[38.753739,48.105915],[38.753735,48.106015]]]}},{"type":"Feature","properties":{"cadnum":"1414445300:01:000:0066"},"geometry":{"type":"Polygon","coordinates":[[[38.742888,48.105042],[38.743041,48.105475],[38.743372,48.105421],[38.743431,48.105411],[38.743391,48.105279],[38.743305,48.104986],[38.742888,48.105042]]]}},{"type":"Feature","properties":{"cadnum":"1414445300:01:000:0012"},"geometry":{"type":"Polygon","coordinates":[[[38.695622,48.11887],[38.695681,48.119005],[38.69583,48.119338],[38.696126,48.119269],[38.695968,48.118934],[38.695905,48.118798],[38.695622,48.11887]]]}},{"type":"Feature","properties":{"cadnum":"1414445300:01:000:0131"},"geometry":{"type":"Polygon","coordinates":[[[38.696606,48.118601],[38.696746,48.118823],[38.696754,48.118834],[38.697002,48.118765],[38.697239,48.118703],[38.697465,48.11864],[38.697356,48.118439],[38.696905,48.118536],[38.696906,48.118536],[38.696857,48.118547],[38.696606,48.118601]]]}},{"type":"Feature","properties":{"cadnum":"1414445300:01:000:0077"},"geometry":{"type":"Polygon","coordinates":[[[38.754983,48.099604],[38.755146,48.099706],[38.755446,48.099568],[38.755715,48.099503],[38.755589,48.099305],[38.755496,48.099334],[38.755504,48.099346],[38.755503,48.099346],[38.754983,48.099604]]]}},{"type":"Feature","properties":{"cadnum":"1414445300:01:000:0078"},"geometry":{"type":"Polygon","coordinates":[[[38.753694,48.096995],[38.753766,48.097258],[38.754187,48.097171],[38.754444,48.097118],[38.754454,48.096889],[38.754351,48.096904],[38.753694,48.096995]]]}},{"type":"Feature","properties":{"cadnum":"1414445300:01:000:0059"},"geometry":{"type":"Polygon","coordinates":[[[38.755104,48.100648],[38.755226,48.100826],[38.755463,48.100646],[38.755966,48.100273],[38.756016,48.100237],[38.756228,48.100135],[38.756151,48.100061],[38.756105,48.100082],[38.756104,48.100082],[38.755918,48.100168],[38.755872,48.100199],[38.755325,48.100519],[38.755104,48.100648]]]}},{"type":"Feature","properties":{"cadnum":"1414445300:01:000:0079"},"geometry":{"type":"Polygon","coordinates":[[[38.754687,48.09907],[38.754871,48.099361],[38.755132,48.099274],[38.7551,48.099226],[38.755433,48.099116],[38.755302,48.098899],[38.755186,48.098923],[38.755069,48.098963],[38.754983,48.09899],[38.754687,48.09907]]]}},{"type":"Feature","properties":{"cadnum":"1414445300:01:000:0100"},"geometry":{"type":"Polygon","coordinates":[[[38.755733,48.099314],[38.755876,48.099514],[38.755918,48.099572],[38.755953,48.099563],[38.756021,48.099652],[38.755985,48.099664],[38.756039,48.099743],[38.756201,48.099679],[38.756389,48.099641],[38.756218,48.099263],[38.755733,48.099314]]]}},{"type":"Feature","properties":{"cadnum":"1414445300:01:000:0115"},"geometry":{"type":"Polygon","coordinates":[[[38.69441,48.114795],[38.69441,48.114796],[38.694478,48.114869],[38.694479,48.114869],[38.694585,48.114982],[38.695139,48.114754],[38.695281,48.114696],[38.695106,48.114507],[38.694509,48.114754],[38.694411,48.114795],[38.69441,48.114795]]]}},{"type":"Feature","properties":{"cadnum":"1414445300:01:000:0109"},"geometry":{"type":"Polygon","coordinates":[[[38.721288,48.113392],[38.721399,48.11353],[38.721642,48.11383],[38.721777,48.113991],[38.721778,48.113991],[38.722001,48.113913],[38.721871,48.113746],[38.721562,48.113332],[38.721288,48.113392]]]}},{"type":"Feature","properties":{"cadnum":"1414445300:01:000:0045"},"geometry":{"type":"Polygon","coordinates":[[[38.749037,48.105831],[38.749333,48.106389],[38.749603,48.106437],[38.749849,48.106455],[38.749584,48.106077],[38.749589,48.105964],[38.749207,48.105822],[38.749037,48.105831]]]}},{"type":"Feature","properties":{"cadnum":"1414445300:01:000:0125"},"geometry":{"type":"Polygon","coordinates":[[[38.749854,48.105375],[38.75002,48.105657],[38.75019,48.105621],[38.750536,48.105546],[38.750465,48.105351],[38.750442,48.105348],[38.750429,48.105322],[38.750429,48.105321],[38.750446,48.10531],[38.750419,48.105226],[38.75006,48.105321],[38.749854,48.105375]]]}},{"type":"Feature","properties":{"cadnum":"1414445300:01:000:0013"},"geometry":{"type":"Polygon","coordinates":[[[38.748624,48.105004],[38.748693,48.105158],[38.748771,48.10533],[38.748865,48.105532],[38.749005,48.105831],[38.749211,48.10578],[38.748968,48.105286],[38.748811,48.104964],[38.748624,48.105004]]]}},{"type":"Feature","properties":{"cadnum":"1414445300:01:000:0039"},"geometry":{"type":"Polygon","coordinates":[[[38.748551,48.105877],[38.748865,48.106387],[38.74892,48.106476],[38.749023,48.106446],[38.749113,48.10632],[38.748807,48.105822],[38.748664,48.10584],[38.748551,48.105877]]]}},{"type":"Feature","properties":{"cadnum":"1414445300:01:000:0124"},"geometry":{"type":"Polygon","coordinates":[[[38.752998,48.104359],[38.753133,48.104448],[38.753303,48.10455],[38.753438,48.104641],[38.753645,48.104815],[38.753689,48.10485],[38.753685,48.104853],[38.753645,48.104875],[38.753702,48.104919],[38.753802,48.104997],[38.753825,48.104986],[38.753892,48.104952],[38.753914,48.104941],[38.754027,48.104886],[38.753815,48.104728],[38.753572,48.104541],[38.753299,48.104326],[38.752998,48.104359]]]}},{"type":"Feature","properties":{"cadnum":"1414445300:01:000:0126"},"geometry":{"type":"Polygon","coordinates":[[[38.748924,48.10377],[38.748924,48.103771],[38.748976,48.103865],[38.748977,48.103865],[38.74901,48.103924],[38.749369,48.104559],[38.749567,48.104506],[38.749216,48.103872],[38.749162,48.103777],[38.749127,48.103714],[38.749068,48.103732],[38.749077,48.103751],[38.749086,48.103768],[38.749037,48.103783],[38.749014,48.103744],[38.74899,48.103751],[38.748928,48.103769],[38.748924,48.10377]]]}},{"type":"Feature","properties":{"cadnum":"1414445300:01:000:0113"},"geometry":{"type":"Polygon","coordinates":[[[38.750136,48.105906],[38.750163,48.106059],[38.750769,48.106191],[38.750905,48.1062],[38.750698,48.105906],[38.750631,48.10581],[38.750609,48.10578],[38.750398,48.105837],[38.750136,48.105906]]]}},{"type":"Feature","properties":{"cadnum":"1414445300:01:000:0040"},"geometry":{"type":"Polygon","coordinates":[[[38.748807,48.105822],[38.749113,48.10632],[38.749333,48.106389],[38.749037,48.105831],[38.748807,48.105822]]]}},{"type":"Feature","properties":{"cadnum":"1414445300:01:000:0092"},"geometry":{"type":"Polygon","coordinates":[[[38.748412,48.105042],[38.748693,48.105731],[38.748693,48.105732],[38.748714,48.10578],[38.748865,48.105751],[38.74896,48.105732],[38.748771,48.10533],[38.748624,48.105004],[38.748412,48.105042]]]}},{"type":"Feature","properties":{"cadnum":"1414445300:01:000:0047"},"geometry":{"type":"Polygon","coordinates":[[[38.748471,48.106794],[38.748624,48.107064],[38.748693,48.10705],[38.748693,48.107051],[38.748857,48.107018],[38.748865,48.107017],[38.74905,48.10698],[38.748974,48.106776],[38.748714,48.106731],[38.748471,48.106794]]]}},{"type":"Feature","properties":{"cadnum":"1414445300:01:000:0027"},"geometry":{"type":"Polygon","coordinates":[[[38.753811,48.100837],[38.753834,48.100844],[38.753829,48.100853],[38.753869,48.100858],[38.753869,48.100946],[38.753985,48.100951],[38.754138,48.100789],[38.754161,48.100762],[38.754186,48.100738],[38.754187,48.100738],[38.754301,48.100628],[38.754358,48.100542],[38.754358,48.100541],[38.75439,48.100492],[38.754381,48.100462],[38.754327,48.100435],[38.754171,48.100364],[38.753924,48.100693],[38.753811,48.100837]]]}},{"type":"Feature","properties":{"cadnum":"1414445300:01:000:0026"},"geometry":{"type":"Polygon","coordinates":[[[38.756272,48.102856],[38.756807,48.102925],[38.756838,48.102418],[38.756788,48.102406],[38.756731,48.102415],[38.756402,48.102571],[38.756344,48.102586],[38.756299,48.102628],[38.756272,48.102856]]]}},{"type":"Feature","properties":{"cadnum":"1414445300:01:000:0064"},"geometry":{"type":"Polygon","coordinates":[[[38.758132,48.102292],[38.758469,48.102478],[38.758693,48.10234],[38.758761,48.102301],[38.758895,48.10222],[38.758734,48.102091],[38.758423,48.101839],[38.75837,48.101866],[38.758563,48.102124],[38.758132,48.102292]]]}},{"type":"Feature","properties":{"cadnum":"1414445300:01:000:0021"},"geometry":{"type":"Polygon","coordinates":[[[38.754373,48.103183],[38.754561,48.103411],[38.754911,48.103306],[38.75492,48.103306],[38.755082,48.10327],[38.755284,48.103174],[38.755096,48.103006],[38.754966,48.103074],[38.754853,48.10309],[38.754754,48.103105],[38.754543,48.103138],[38.754373,48.103183]]]}},{"type":"Feature","properties":{"cadnum":"1414445300:01:000:0102"},"geometry":{"type":"Polygon","coordinates":[[[38.75678,48.101434],[38.75691,48.101497],[38.757391,48.101116],[38.757561,48.100981],[38.75749,48.100933],[38.757467,48.100948],[38.757417,48.100915],[38.757247,48.101029],[38.75678,48.101434]]]}},{"type":"Feature","properties":{"cadnum":"1414445300:01:000:0033"},"geometry":{"type":"Polygon","coordinates":[[[38.758132,48.102619],[38.758419,48.102718],[38.758693,48.102598],[38.758788,48.10252],[38.758855,48.102463],[38.758941,48.102514],[38.759111,48.102397],[38.758895,48.10222],[38.758761,48.102301],[38.758375,48.102532],[38.758312,48.102508],[38.758132,48.102619]]]}},{"type":"Feature","properties":{"cadnum":"1414445300:01:000:0104"},"geometry":{"type":"Polygon","coordinates":[[[38.756838,48.101554],[38.757314,48.101608],[38.757287,48.101453],[38.75758,48.101206],[38.757616,48.101176],[38.757727,48.10108],[38.757561,48.100981],[38.757404,48.101104],[38.757391,48.101116],[38.75691,48.101497],[38.756838,48.101554]]]}},{"type":"Feature","properties":{"cadnum":"1414445300:01:000:0128"},"geometry":{"type":"Polygon","coordinates":[[[38.710971,48.115488],[38.711244,48.116055],[38.711365,48.116307],[38.711568,48.116267],[38.711442,48.11601],[38.711172,48.115452],[38.710971,48.115488]]]}},{"type":"Feature","properties":{"cadnum":"1414445300:01:000:0112"},"geometry":{"type":"Polygon","coordinates":[[[38.758213,48.095755],[38.758258,48.095924],[38.758289,48.096046],[38.758375,48.096073],[38.758859,48.095963],[38.758788,48.09581],[38.758716,48.095657],[38.758213,48.095755]]]}},{"type":"Feature","properties":{"cadnum":"1414445300:01:000:0056"},"geometry":{"type":"Polygon","coordinates":[[[38.744523,48.104194],[38.744607,48.10435],[38.744635,48.104397],[38.744769,48.104632],[38.745039,48.104581],[38.745142,48.104559],[38.744976,48.104277],[38.744886,48.104119],[38.744523,48.104194]]]}},{"type":"Feature","properties":{"cadnum":"1414445300:01:000:0062"},"geometry":{"type":"Polygon","coordinates":[[[38.747106,48.104167],[38.747383,48.104641],[38.747725,48.104568],[38.747442,48.104095],[38.747106,48.104167]]]}},{"type":"Feature","properties":{"cadnum":"1414445300:01:000:0088"},"geometry":{"type":"Polygon","coordinates":[[[38.746804,48.104245],[38.746903,48.10441],[38.747096,48.104737],[38.74711,48.104761],[38.747406,48.104677],[38.747106,48.104167],[38.746804,48.104245]]]}},{"type":"Feature","properties":{"cadnum":"1414445300:01:000:0042"},"geometry":{"type":"Polygon","coordinates":[[[38.747752,48.106176],[38.748152,48.106815],[38.748259,48.10674],[38.747837,48.10605],[38.747836,48.10605],[38.747752,48.106176]]]}},{"type":"Feature","properties":{"cadnum":"1414445300:01:000:0041"},"geometry":{"type":"Polygon","coordinates":[[[38.747959,48.106029],[38.748385,48.10671],[38.748471,48.106686],[38.748066,48.105993],[38.747959,48.106029]]]}},{"type":"Feature","properties":{"cadnum":"1414445300:01:000:0036"},"geometry":{"type":"Polygon","coordinates":[[[38.744972,48.107181],[38.745105,48.107419],[38.745131,48.107465],[38.745169,48.107533],[38.74517,48.107533],[38.745196,48.10758],[38.745313,48.107562],[38.745298,48.107498],[38.745228,48.107175],[38.744972,48.107181]]]}},{"type":"Feature","properties":{"cadnum":"1414445300:01:000:0037"},"geometry":{"type":"Polygon","coordinates":[[[38.747469,48.106395],[38.747712,48.106875],[38.747941,48.106893],[38.747554,48.106264],[38.747469,48.106395]]]}},{"type":"Feature","properties":{"cadnum":"1414445300:01:000:0075"},"geometry":{"type":"Polygon","coordinates":[[[38.745762,48.105615],[38.745852,48.105804],[38.746027,48.106144],[38.746035,48.106158],[38.746283,48.106098],[38.746284,48.106098],[38.746274,48.10608],[38.746288,48.106066],[38.746098,48.105546],[38.745762,48.105615]]]}},{"type":"Feature","properties":{"cadnum":"1414445300:01:000:0070"},"geometry":{"type":"Polygon","coordinates":[[[38.743305,48.104986],[38.743391,48.105279],[38.743471,48.105535],[38.743804,48.105484],[38.743607,48.104944],[38.743305,48.104986]]]}},{"type":"Feature","properties":{"cadnum":"1414445300:01:000:0091"},"geometry":{"type":"Polygon","coordinates":[[[38.747379,48.105277],[38.747666,48.105912],[38.747918,48.10587],[38.747639,48.105228],[38.747379,48.105277]]]}},{"type":"Feature","properties":{"cadnum":"1414445300:01:000:0083"},"geometry":{"type":"Polygon","coordinates":[[[38.747672,48.104641],[38.747886,48.105088],[38.748142,48.105028],[38.747922,48.104575],[38.747672,48.104641]]]}},{"type":"Feature","properties":{"cadnum":"1414445300:01:000:0035"},"geometry":{"type":"Polygon","coordinates":[[[38.747056,48.106836],[38.747114,48.106926],[38.747643,48.10689],[38.747712,48.106875],[38.747469,48.106395],[38.747366,48.106458],[38.747056,48.106836]]]}},{"type":"Feature","properties":{"cadnum":"1414445300:01:000:0133"},"geometry":{"type":"Polygon","coordinates":[[[38.745498,48.105681],[38.745811,48.106293],[38.746077,48.106239],[38.746035,48.106158],[38.746027,48.106144],[38.745852,48.105804],[38.745762,48.105615],[38.745498,48.105681]]]}},{"type":"Feature","properties":{"cadnum":"1414445300:01:000:0130"},"geometry":{"type":"Polygon","coordinates":[[[38.748224,48.104488],[38.748417,48.104941],[38.74861,48.104892],[38.748645,48.104884],[38.748735,48.104863],[38.748515,48.104425],[38.748224,48.104488]]]}},{"type":"Feature","properties":{"cadnum":"1414445300:01:000:0044"},"geometry":{"type":"Polygon","coordinates":[[[38.745685,48.105108],[38.745861,48.105393],[38.745937,48.105522],[38.746188,48.10545],[38.746117,48.105321],[38.745951,48.105033],[38.745685,48.105108]]]}},{"type":"Feature","properties":{"cadnum":"1414445300:01:000:0099"},"geometry":{"type":"Polygon","coordinates":[[[38.746422,48.104928],[38.746611,48.105355],[38.746853,48.105297],[38.746687,48.104866],[38.746422,48.104928]]]}},{"type":"Feature","properties":{"cadnum":"1414445300:01:000:0096"},"geometry":{"type":"Polygon","coordinates":[[[38.746687,48.104866],[38.746853,48.105297],[38.747236,48.10521],[38.747064,48.10477],[38.746687,48.104866]]]}},{"type":"Feature","properties":{"cadnum":"1414445300:01:000:0068"},"geometry":{"type":"Polygon","coordinates":[[[38.747905,48.103992],[38.748148,48.104434],[38.748524,48.104337],[38.748255,48.103908],[38.747905,48.103992]]]}},{"type":"Feature","properties":{"cadnum":"1414445300:01:000:0038"},"geometry":{"type":"Polygon","coordinates":[[[38.748066,48.105993],[38.748471,48.106686],[38.748578,48.10662],[38.748188,48.105973],[38.748188,48.105972],[38.748066,48.105993]]]}},{"type":"Feature","properties":{"cadnum":"1414445300:01:000:0046"},"geometry":{"type":"Polygon","coordinates":[[[38.747837,48.10605],[38.748259,48.10674],[38.748385,48.10671],[38.747959,48.106029],[38.747837,48.10605]]]}},{"type":"Feature","properties":{"cadnum":"1414445300:02:000:0053"},"geometry":{"type":"Polygon","coordinates":[[[38.74649,48.104319],[38.74658,48.104481],[38.746773,48.104821],[38.747096,48.104737],[38.746903,48.10441],[38.746804,48.104245],[38.74649,48.104319]]]}},{"type":"Feature","properties":{"cadnum":"1414445300:01:000:0086"},"geometry":{"type":"Polygon","coordinates":[[[38.746167,48.104986],[38.746351,48.105415],[38.746611,48.105355],[38.746422,48.104928],[38.746167,48.104986]]]}},{"type":"Feature","properties":{"cadnum":"1414445300:01:000:0120"},"geometry":{"type":"Polygon","coordinates":[[[38.747922,48.104575],[38.748066,48.104872],[38.748142,48.105028],[38.748394,48.104961],[38.748318,48.104808],[38.748174,48.104517],[38.747922,48.104575]]]}},{"type":"Feature","properties":{"cadnum":"1414445300:01:000:0090"},"geometry":{"type":"Polygon","coordinates":[[[38.749687,48.102946],[38.749823,48.10321],[38.749796,48.103216],[38.749886,48.103387],[38.75028,48.103294],[38.750052,48.102865],[38.749687,48.102946]]]}},{"type":"Feature","properties":{"cadnum":"1414445300:01:000:0069"},"geometry":{"type":"Polygon","coordinates":[[[38.748538,48.103198],[38.748693,48.103484],[38.748693,48.103485],[38.748794,48.103669],[38.748865,48.103655],[38.748865,48.103654],[38.749135,48.103597],[38.748879,48.10312],[38.748774,48.103144],[38.748538,48.103198]]]}},{"type":"Feature","properties":{"cadnum":"1414445300:01:000:0055"},"geometry":{"type":"Polygon","coordinates":[[[38.752886,48.102733],[38.753016,48.102925],[38.753263,48.102763],[38.753213,48.102688],[38.753065,48.102679],[38.752886,48.102733]]]}},{"type":"Feature","properties":{"cadnum":"1414445300:01:000:0067"},"geometry":{"type":"Polygon","coordinates":[[[38.751394,48.101224],[38.751758,48.101578],[38.752001,48.101464],[38.752037,48.101338],[38.751758,48.101056],[38.751394,48.101224]]]}},{"type":"Feature","properties":{"cadnum":"1414445300:01:000:0101"},"geometry":{"type":"Polygon","coordinates":[[[38.706717,48.117779],[38.70683,48.11804],[38.707476,48.117917],[38.707363,48.117656],[38.706717,48.117779]]]}},{"type":"Feature","properties":{"cadnum":"1414445300:01:000:0082"},"geometry":{"type":"Polygon","coordinates":[[[38.764442,48.096511],[38.764449,48.096528],[38.76445,48.096528],[38.764514,48.096671],[38.765345,48.097172],[38.76535,48.097175],[38.765426,48.097124],[38.765173,48.09695],[38.764721,48.09664],[38.764645,48.09647],[38.76464,48.096471],[38.764442,48.096511]]]}},{"type":"Feature","properties":{"cadnum":"1414445300:01:000:0073"},"geometry":{"type":"Polygon","coordinates":[[[38.76486,48.096428],[38.764861,48.096428],[38.76491,48.096528],[38.764911,48.096528],[38.764954,48.096613],[38.765173,48.096769],[38.765296,48.096857],[38.765345,48.096841],[38.765345,48.09684],[38.765524,48.096779],[38.765408,48.096631],[38.765345,48.096495],[38.765345,48.096494],[38.76527,48.096332],[38.765152,48.096359],[38.765157,48.096371],[38.764935,48.096414],[38.764934,48.096414],[38.764864,48.096427],[38.76486,48.096428]]]}},{"type":"Feature","properties":{"cadnum":"1414445300:01:000:0023"},"geometry":{"type":"Polygon","coordinates":[[[38.766545,48.097963],[38.766603,48.09812],[38.766742,48.098458],[38.766765,48.09881],[38.766769,48.098827],[38.766849,48.09907],[38.766998,48.09905],[38.766912,48.098807],[38.766904,48.098788],[38.766872,48.098438],[38.766796,48.098089],[38.766782,48.097927],[38.766545,48.097963]]]}},{"type":"Feature","properties":{"cadnum":"1414445300:01:000:0018"},"geometry":{"type":"Polygon","coordinates":[[[38.730387,48.109994],[38.730491,48.110087],[38.730576,48.110135],[38.730644,48.110171],[38.730648,48.110174],[38.730837,48.110282],[38.731223,48.110267],[38.731026,48.110172],[38.731026,48.110171],[38.731093,48.10994],[38.730873,48.109923],[38.730737,48.109914],[38.730617,48.109931],[38.730611,48.109916],[38.730527,48.109964],[38.7305,48.109934],[38.730387,48.109994]]]}},{"type":"Feature","properties":{"cadnum":"1414445300:01:000:0019"},"geometry":{"type":"Polygon","coordinates":[[[38.730837,48.110282],[38.731169,48.110471],[38.73147,48.11051],[38.731605,48.11045],[38.731936,48.110222],[38.731613,48.109877],[38.731093,48.10994],[38.731026,48.110171],[38.731223,48.110267],[38.731222,48.110267],[38.730837,48.110282]]]}},{"type":"Feature","properties":{"cadnum":"1414445300:01:000:0060"},"geometry":{"type":"Polygon","coordinates":[[[38.728596,48.109886],[38.728779,48.110183],[38.72886,48.110309],[38.729206,48.110219],[38.729125,48.110093],[38.728928,48.109778],[38.728596,48.109886]]]}},{"type":"Feature","properties":{"cadnum":"1414445300:02:000:0003"},"geometry":{"type":"Polygon","coordinates":[[[38.72321,48.123401],[38.723286,48.123698],[38.72329,48.12371],[38.723529,48.12368],[38.723466,48.123488],[38.72343,48.123374],[38.72321,48.123401]]]}},{"type":"Feature","properties":{"cadnum":"1414445300:01:000:0132"},"geometry":{"type":"Polygon","coordinates":[[[38.746125,48.101644],[38.746211,48.101827],[38.746288,48.10198],[38.746544,48.102505],[38.746737,48.102466],[38.746507,48.101995],[38.746355,48.101674],[38.74631,48.101686],[38.746297,48.101659],[38.746288,48.101638],[38.746261,48.101644],[38.746247,48.10162],[38.746125,48.101644]]]}},{"type":"Feature","properties":{"cadnum":"1414445300:01:000:0105"},"geometry":{"type":"Polygon","coordinates":[[[38.766684,48.100664],[38.766765,48.100813],[38.766994,48.100757],[38.767797,48.100558],[38.767717,48.100435],[38.766908,48.100615],[38.766684,48.100664]]]}},{"type":"Feature","properties":{"cadnum":"1414445300:01:000:0106"},"geometry":{"type":"Polygon","coordinates":[[[38.767788,48.100432],[38.767843,48.100531],[38.76804,48.100426],[38.767964,48.100351],[38.767928,48.100379],[38.767788,48.100432]]]}},{"type":"Feature","properties":{"cadnum":"1414445300:01:000:0072"},"geometry":{"type":"Polygon","coordinates":[[[38.761258,48.09752],[38.761488,48.097622],[38.761855,48.097738],[38.76217,48.097616],[38.761522,48.097318],[38.761258,48.09752]]]}},{"type":"Feature","properties":{"cadnum":"1414445300:01:000:0043"},"geometry":{"type":"Polygon","coordinates":[[[38.759901,48.098645],[38.759956,48.098705],[38.7601,48.098845],[38.760274,48.098981],[38.760553,48.099223],[38.76079,48.099176],[38.760207,48.098678],[38.760171,48.098585],[38.759901,48.098645]]]}},{"type":"Feature","properties":{"cadnum":"1414445300:01:000:0084"},"geometry":{"type":"Polygon","coordinates":[[[38.761398,48.097258],[38.761522,48.097318],[38.76217,48.097616],[38.76235,48.097484],[38.761649,48.09716],[38.761725,48.097082],[38.761622,48.09704],[38.761398,48.097258]]]}},{"type":"Feature","properties":{"cadnum":"1414445300:01:000:0074"},"geometry":{"type":"Polygon","coordinates":[[[38.761549,48.099982],[38.761569,48.100082],[38.761568,48.100082],[38.761589,48.100187],[38.761591,48.100197],[38.761639,48.100439],[38.761649,48.100475],[38.761675,48.100537],[38.761689,48.100579],[38.761977,48.100498],[38.76186,48.1003],[38.761857,48.100117],[38.761855,48.09989],[38.761564,48.099917],[38.761549,48.099982]]]}},{"type":"Feature","properties":{"cadnum":"1414445300:01:000:0071"},"geometry":{"type":"Polygon","coordinates":[[[38.761936,48.097793],[38.762088,48.097934],[38.762318,48.098027],[38.762475,48.097952],[38.762434,48.097789],[38.76274,48.097625],[38.762709,48.09754],[38.762453,48.097576],[38.762385,48.097591],[38.761936,48.097793]]]}},{"type":"Feature","properties":{"cadnum":"1414445300:01:000:0122"},"geometry":{"type":"Polygon","coordinates":[[[38.762354,48.09641],[38.762357,48.096414],[38.762432,48.096512],[38.762434,48.096515],[38.762445,48.096528],[38.76252,48.09662],[38.762619,48.096751],[38.762857,48.096716],[38.763113,48.097022],[38.76318,48.096991],[38.763117,48.096913],[38.762884,48.09659],[38.762766,48.096425],[38.762744,48.096395],[38.762654,48.096272],[38.762354,48.09641]]]}},{"type":"Feature","properties":{"cadnum":"1414445300:01:000:0034"},"geometry":{"type":"Polygon","coordinates":[[[38.76071,48.099406],[38.760746,48.099472],[38.761375,48.099337],[38.761312,48.099232],[38.76071,48.099406]]]}},{"type":"Feature","properties":{"cadnum":"1414445300:01:000:0020"},"geometry":{"type":"Polygon","coordinates":[[[38.766589,48.09551],[38.766599,48.095597],[38.766666,48.095612],[38.766692,48.095633],[38.766742,48.095699],[38.766855,48.095717],[38.767132,48.095759],[38.767105,48.095786],[38.767474,48.095882],[38.767591,48.095668],[38.766926,48.095537],[38.766832,48.095519],[38.766589,48.09551]]]}},{"type":"Feature","properties":{"cadnum":"1414445300:01:000:0119"},"geometry":{"type":"Polygon","coordinates":[[[38.722648,48.110066],[38.722931,48.110201],[38.72321,48.109967],[38.723336,48.10988],[38.72351,48.109763],[38.723529,48.109757],[38.723462,48.109697],[38.723449,48.109706],[38.723448,48.109706],[38.72338,48.109649],[38.72316,48.109754],[38.723057,48.109805],[38.722814,48.109928],[38.722648,48.110066]]]}},{"type":"Feature","properties":{"cadnum":"1414445300:01:000:0114"},"geometry":{"type":"Polygon","coordinates":[[[38.701564,48.116852],[38.701583,48.11696],[38.701637,48.117447],[38.701677,48.117803],[38.701876,48.117785],[38.70183,48.117431],[38.701771,48.116969],[38.701753,48.116862],[38.701564,48.116852]]]}},{"type":"Feature","properties":{"cadnum":"1414445300:01:000:0123"},"geometry":{"type":"Polygon","coordinates":[[[38.699885,48.118211],[38.699926,48.11843],[38.700163,48.118391],[38.700239,48.118379],[38.700348,48.118363],[38.700707,48.118301],[38.700622,48.118073],[38.700258,48.118136],[38.699885,48.118211]]]}},{"type":"Feature","properties":{"cadnum":"1414445300:01:000:0050"},"geometry":{"type":"Polygon","coordinates":[[[38.69975,48.117665],[38.699786,48.117791],[38.699826,48.117929],[38.700226,48.117875],[38.700186,48.117743],[38.700155,48.117638],[38.700141,48.117512],[38.700145,48.117431],[38.699755,48.117479],[38.69975,48.117665]]]}},{"type":"Feature","properties":{"cadnum":"1414445300:01:000:0121"},"geometry":{"type":"Polygon","coordinates":[[[38.698996,48.117396],[38.699046,48.117584],[38.699094,48.117719],[38.699063,48.117728],[38.699067,48.117737],[38.69909,48.117737],[38.699189,48.117995],[38.699255,48.117999],[38.699255,48.118],[38.699287,48.118001],[38.699323,48.117995],[38.699427,48.117981],[38.699459,48.117977],[38.699436,48.117914],[38.699382,48.117746],[38.699369,48.11771],[38.699333,48.117503],[38.699279,48.117353],[38.698996,48.117396]]]}},{"type":"Feature","properties":{"cadnum":"1414445300:01:000:0118"},"geometry":{"type":"Polygon","coordinates":[[[38.699333,48.117503],[38.699369,48.11771],[38.699382,48.117746],[38.699427,48.117885],[38.699436,48.117914],[38.699459,48.117977],[38.699589,48.117959],[38.699633,48.117953],[38.699333,48.117503]]]}},{"type":"Feature","properties":{"cadnum":"1414445300:01:000:0052"},"geometry":{"type":"Polygon","coordinates":[[[38.70015,48.117207],[38.700145,48.117431],[38.700141,48.117512],[38.700155,48.117638],[38.700172,48.117695],[38.700186,48.117743],[38.700226,48.117875],[38.700415,48.117851],[38.700419,48.117863],[38.700446,48.11786],[38.700442,48.117848],[38.700501,48.117839],[38.700465,48.117662],[38.700446,48.117567],[38.700451,48.117305],[38.70015,48.117207]]]}},{"type":"Feature","properties":{"cadnum":"1414445300:01:000:0049"},"geometry":{"type":"Polygon","coordinates":[[[38.702059,48.117854],[38.702063,48.118058],[38.702103,48.118058],[38.702302,48.118019],[38.702302,48.117854],[38.702059,48.117854]]]}},{"type":"Feature","properties":{"cadnum":"1414445300:01:000:0127"},"geometry":{"type":"Polygon","coordinates":[[[38.69874,48.116643],[38.699086,48.116691],[38.699126,48.116771],[38.699283,48.116771],[38.699427,48.116749],[38.699549,48.116729],[38.699522,48.116484],[38.699297,48.116507],[38.699144,48.116489],[38.698803,48.116445],[38.698794,48.116489],[38.698794,48.116529],[38.698784,48.116529],[38.69874,48.116643]]]}},{"type":"Feature","properties":{"cadnum":"1414445300:01:000:0129"},"geometry":{"type":"Polygon","coordinates":[[[38.70377,48.11777],[38.704111,48.11777],[38.704116,48.117467],[38.704116,48.117227],[38.703797,48.117224],[38.703797,48.117225],[38.70377,48.11777]]]}},{"type":"Feature","properties":{"cadnum":"1414445300:01:000:0117"},"geometry":{"type":"Polygon","coordinates":[[[38.761065,48.100906],[38.761136,48.101044],[38.761415,48.100978],[38.761348,48.100844],[38.761065,48.100906]]]}},{"type":"Feature","properties":{"cadnum":"1414445300:01:000:0081"},"geometry":{"type":"Polygon","coordinates":[[[38.760409,48.103],[38.760459,48.10303],[38.760513,48.102991],[38.760549,48.103063],[38.761281,48.102997],[38.761069,48.102682],[38.760796,48.102781],[38.760476,48.102916],[38.76049,48.102945],[38.76049,48.102946],[38.760409,48.103]]]}},{"type":"Feature","properties":{"cadnum":"1414445300:01:000:0103"},"geometry":{"type":"Polygon","coordinates":[[[38.761329,48.10048],[38.761335,48.100492],[38.761366,48.100568],[38.761388,48.100618],[38.761451,48.100606],[38.761438,48.10057],[38.761411,48.100504],[38.761392,48.100468],[38.761329,48.10048]]]}},{"type":"Feature","properties":{"cadnum":"1414445300:01:000:0054"},"geometry":{"type":"Polygon","coordinates":[[[38.761281,48.100435],[38.761294,48.100459],[38.761308,48.100495],[38.761335,48.100492],[38.761329,48.10048],[38.761392,48.100468],[38.761411,48.100504],[38.761425,48.100501],[38.761411,48.100466],[38.761425,48.100462],[38.761402,48.100411],[38.761388,48.100415],[38.761312,48.100429],[38.761281,48.100435]]]}},{"type":"Feature","properties":{"cadnum":"1414445300:01:000:0110"},"geometry":{"type":"Polygon","coordinates":[[[38.762214,48.100741],[38.76235,48.100918],[38.762673,48.100807],[38.762543,48.10063],[38.762214,48.100741]]]}},{"type":"Feature","properties":{"cadnum":"1414445300:01:000:0024"},"geometry":{"type":"Polygon","coordinates":[[[38.761514,48.100544],[38.761541,48.100612],[38.761645,48.100595],[38.761618,48.100526],[38.761514,48.100544]]]}},{"type":"Feature","properties":{"cadnum":"1414445300:01:000:0087"},"geometry":{"type":"Polygon","coordinates":[[[38.761729,48.10084],[38.761991,48.101065],[38.762255,48.101335],[38.762484,48.101251],[38.762381,48.101135],[38.762044,48.100724],[38.761729,48.10084]]]}},{"type":"Feature","properties":{"cadnum":"1414445300:01:000:0116"},"geometry":{"type":"Polygon","coordinates":[[[38.721647,48.112342],[38.721795,48.112624],[38.721804,48.112633],[38.721979,48.112915],[38.722213,48.112891],[38.722024,48.112573],[38.721948,48.112441],[38.721858,48.112291],[38.721755,48.112315],[38.721777,48.112354],[38.721777,48.112355],[38.721719,48.112369],[38.721718,48.112369],[38.721701,48.11233],[38.721647,48.112342]]]}},{"type":"Feature","properties":{"cadnum":"1414445300:01:000:0048"},"geometry":{"type":"Polygon","coordinates":[[[38.723076,48.111695],[38.72317,48.111839],[38.723372,48.111781],[38.723282,48.111637],[38.723076,48.111695]]]}},{"type":"Feature","properties":{"cadnum":"1414445300:01:000:0058"},"geometry":{"type":"Polygon","coordinates":[[[38.722904,48.113068],[38.723223,48.113515],[38.723322,48.113647],[38.723457,48.113608],[38.723493,48.113599],[38.72347,48.113554],[38.72347,48.113553],[38.723412,48.113458],[38.72316,48.113026],[38.722904,48.113068]]]}},{"type":"Feature","properties":{"cadnum":"1414445300:01:000:0014"},"geometry":{"type":"Polygon","coordinates":[[[38.697245,48.117311],[38.697442,48.117482],[38.697675,48.117404],[38.698224,48.117221],[38.698191,48.11714],[38.698147,48.117018],[38.697927,48.11712],[38.697706,48.117182],[38.697486,48.117242],[38.697245,48.117311]]]}},{"type":"Feature","properties":{"cadnum":"1414445300:01:000:0111"},"geometry":{"type":"Polygon","coordinates":[[[38.717896,48.114924],[38.718004,48.115111],[38.718305,48.115029],[38.718197,48.114846],[38.717896,48.114924]]]}},{"type":"Feature","properties":{"cadnum":"1414445300:01:000:0089"},"geometry":{"type":"Polygon","coordinates":[[[38.760715,48.104107],[38.761218,48.104052],[38.761811,48.10399],[38.761775,48.10381],[38.761595,48.103837],[38.760962,48.103924],[38.76075,48.103915],[38.760715,48.104107]]]}},{"type":"Feature","properties":{"cadnum":"1414445300:01:000:0001"},"geometry":{"type":"Polygon","coordinates":[[[38.761716,48.104872],[38.761932,48.105148],[38.762444,48.104977],[38.76235,48.104857],[38.762233,48.104701],[38.76195,48.104781],[38.761716,48.104872]]]}},{"type":"Feature","properties":{"cadnum":"1414445300:01:000:0002"},"geometry":{"type":"Polygon","coordinates":[[[38.761932,48.105148],[38.762314,48.105624],[38.76244,48.105786],[38.762916,48.105604],[38.76279,48.105435],[38.762444,48.104977],[38.761932,48.105148]]]}},{"type":"Feature","properties":{"cadnum":"1414445300:01:000:0076"},"geometry":{"type":"Polygon","coordinates":[[[38.760625,48.104443],[38.761262,48.104352],[38.761218,48.104052],[38.760715,48.104107],[38.760625,48.104443]]]}}]}