{"type":"FeatureCollection","features":[{"type":"Feature","properties":{"cadnum":"1414446200:01:000:0047"},"geometry":{"type":"Polygon","coordinates":[[[38.814295,48.038726],[38.814611,48.038854],[38.814611,48.038855],[38.814762,48.038915],[38.814783,48.038892],[38.814995,48.038661],[38.814722,48.038553],[38.814532,48.038477],[38.814434,48.038574],[38.814295,48.038726]]]}},{"type":"Feature","properties":{"cadnum":"1414446200:01:000:0005"},"geometry":{"type":"Polygon","coordinates":[[[38.814551,48.037597],[38.814611,48.037617],[38.814611,48.037618],[38.814708,48.037649],[38.814783,48.037674],[38.8148,48.03768],[38.814801,48.03768],[38.814842,48.037693],[38.814982,48.037737],[38.815062,48.037762],[38.815171,48.0376],[38.814959,48.037531],[38.814662,48.037435],[38.814632,48.037486],[38.814551,48.037597]]]}},{"type":"Feature","properties":{"cadnum":"1414446200:01:000:0119"},"geometry":{"type":"Polygon","coordinates":[[[38.809336,48.035168],[38.809555,48.035237],[38.809655,48.035111],[38.809672,48.035086],[38.809691,48.035062],[38.809893,48.034801],[38.809672,48.034726],[38.809475,48.034984],[38.809336,48.035168]]]}},{"type":"Feature","properties":{"cadnum":"1414446200:01:000:0123"},"geometry":{"type":"Polygon","coordinates":[[[38.809458,48.034654],[38.809672,48.034726],[38.809834,48.034477],[38.80996,48.034285],[38.809974,48.03426],[38.809947,48.034251],[38.809808,48.034207],[38.809758,48.034191],[38.809727,48.034236],[38.809682,48.034303],[38.809659,48.034338],[38.809614,48.034411],[38.809458,48.034654]]]}},{"type":"Feature","properties":{"cadnum":"1414446200:01:000:0043"},"geometry":{"type":"Polygon","coordinates":[[[38.810926,48.034462],[38.811133,48.034531],[38.811267,48.034347],[38.811515,48.034008],[38.811312,48.033942],[38.811178,48.034121],[38.811179,48.034121],[38.811179,48.034122],[38.81106,48.034282],[38.810926,48.034462]]]}},{"type":"Feature","properties":{"cadnum":"1414446200:01:000:0044"},"geometry":{"type":"Polygon","coordinates":[[[38.809672,48.034726],[38.809893,48.034801],[38.810032,48.034618],[38.8101,48.034531],[38.810234,48.034351],[38.809974,48.03426],[38.809857,48.034447],[38.809798,48.034537],[38.809672,48.034726]]]}},{"type":"Feature","properties":{"cadnum":"1414446200:01:000:0037"},"geometry":{"type":"Polygon","coordinates":[[[38.808496,48.035567],[38.809079,48.035732],[38.809106,48.035741],[38.809118,48.035725],[38.809215,48.035591],[38.80929,48.035615],[38.809299,48.035618],[38.809488,48.035345],[38.809345,48.0353],[38.809185,48.035249],[38.808788,48.035122],[38.808496,48.035567]]]}},{"type":"Feature","properties":{"cadnum":"1414446200:01:000:0022"},"geometry":{"type":"Polygon","coordinates":[[[38.813239,48.03645],[38.81359,48.036562],[38.813683,48.036594],[38.813926,48.036264],[38.813481,48.036123],[38.813423,48.036201],[38.813239,48.03645]]]}},{"type":"Feature","properties":{"cadnum":"1414446200:01:000:0076"},"geometry":{"type":"Polygon","coordinates":[[[38.810058,48.031317],[38.810081,48.031377],[38.810087,48.031624],[38.810194,48.031624],[38.810184,48.031969],[38.810113,48.032729],[38.8101,48.033305],[38.810238,48.033543],[38.810827,48.033747],[38.810628,48.034007],[38.810627,48.034007],[38.81037,48.034345],[38.81062,48.034429],[38.810607,48.034447],[38.811829,48.034841],[38.811851,48.034807],[38.810683,48.034434],[38.810697,48.03442],[38.810445,48.034336],[38.810605,48.034122],[38.810605,48.034121],[38.810606,48.034121],[38.810899,48.033732],[38.810288,48.033516],[38.810148,48.033296],[38.810175,48.032731],[38.810257,48.031969],[38.810247,48.031584],[38.810135,48.031587],[38.810135,48.031371],[38.810113,48.031311],[38.810113,48.031218],[38.810135,48.031173],[38.81014,48.031053],[38.810557,48.031047],[38.811362,48.031041],[38.811362,48.03114],[38.81314,48.03111],[38.813143,48.030333],[38.813142,48.030333],[38.813144,48.030044],[38.813104,48.029098],[38.813104,48.029097],[38.814209,48.029095],[38.814586,48.0291],[38.814599,48.02898],[38.814546,48.028957],[38.814546,48.028527],[38.814542,48.028374],[38.814555,48.027793],[38.814551,48.027418],[38.814538,48.026668],[38.814538,48.026655],[38.814538,48.026436],[38.814559,48.02615],[38.814599,48.02615],[38.814599,48.026036],[38.814519,48.026036],[38.814519,48.026183],[38.814515,48.026385],[38.814501,48.026655],[38.814501,48.028445],[38.814492,48.028959],[38.814546,48.02898],[38.814538,48.029064],[38.814209,48.029058],[38.81305,48.029062],[38.813091,48.030044],[38.813087,48.030448],[38.813081,48.031077],[38.811416,48.031104],[38.811416,48.031005],[38.811838,48.030999],[38.811833,48.030915],[38.811833,48.030914],[38.812004,48.030912],[38.811999,48.030761],[38.811986,48.030452],[38.811983,48.030334],[38.811982,48.030218],[38.811949,48.029497],[38.811928,48.029062],[38.811909,48.02849],[38.811869,48.028031],[38.811869,48.027704],[38.811888,48.026727],[38.811914,48.026385],[38.811941,48.026141],[38.811892,48.026141],[38.811865,48.026394],[38.811854,48.02666],[38.811851,48.026733],[38.811849,48.026775],[38.81185,48.026775],[38.811842,48.026953],[38.811825,48.027686],[38.811825,48.028062],[38.811838,48.028271],[38.811851,48.02847],[38.811873,48.029389],[38.811896,48.029725],[38.811918,48.030215],[38.811923,48.030333],[38.811923,48.030351],[38.811927,48.030448],[38.811932,48.030581],[38.811949,48.030876],[38.811783,48.030879],[38.811783,48.030963],[38.811349,48.030966],[38.811349,48.031005],[38.811348,48.031005],[38.810563,48.03101],[38.810087,48.031019],[38.810081,48.03117],[38.810058,48.031215],[38.810058,48.031317]]]}},{"type":"Feature","properties":{"cadnum":"1414446200:01:000:0006"},"geometry":{"type":"Polygon","coordinates":[[[38.811349,48.037889],[38.811609,48.037973],[38.811869,48.038054],[38.812018,48.037862],[38.811752,48.03778],[38.811618,48.037737],[38.811501,48.0377],[38.811471,48.037737],[38.811429,48.037789],[38.811424,48.037795],[38.811425,48.037795],[38.811349,48.037889]]]}},{"type":"Feature","properties":{"cadnum":"1414446200:01:000:0078"},"geometry":{"type":"Polygon","coordinates":[[[38.813756,48.037561],[38.813972,48.037637],[38.81424,48.037729],[38.814412,48.037483],[38.81393,48.037312],[38.813756,48.037561]]]}},{"type":"Feature","properties":{"cadnum":"1414446200:01:000:0070"},"geometry":{"type":"Polygon","coordinates":[[[38.812215,48.034855],[38.812435,48.034921],[38.81257,48.034741],[38.81284,48.03439],[38.812628,48.034324],[38.812354,48.034675],[38.812215,48.034855]]]}},{"type":"Feature","properties":{"cadnum":"1414446200:01:000:0034"},"geometry":{"type":"Polygon","coordinates":[[[38.802957,48.018529],[38.802963,48.018703],[38.803625,48.018916],[38.803625,48.018917],[38.804855,48.019312],[38.809118,48.020681],[38.811379,48.021407],[38.812125,48.021705],[38.812991,48.022113],[38.813993,48.022846],[38.814247,48.023101],[38.814379,48.023233],[38.814611,48.023518],[38.814611,48.023519],[38.814685,48.023609],[38.814783,48.023729],[38.817172,48.02666],[38.817203,48.026698],[38.817265,48.026775],[38.817266,48.026775],[38.817282,48.026793],[38.817471,48.027067],[38.81915,48.029127],[38.819513,48.029587],[38.819379,48.029635],[38.819002,48.02977],[38.819433,48.030333],[38.820276,48.031434],[38.821314,48.032789],[38.82211,48.0332],[38.823771,48.033633],[38.825598,48.033606],[38.825598,48.033607],[38.826081,48.0336],[38.827063,48.033555],[38.827064,48.033555],[38.827064,48.033617],[38.829031,48.033615],[38.831091,48.033626],[38.831263,48.033626],[38.834516,48.033642],[38.834749,48.03372],[38.834843,48.033573],[38.834503,48.033459],[38.831906,48.033383],[38.831091,48.03338],[38.828065,48.033365],[38.82767,48.033423],[38.825878,48.033396],[38.825598,48.033406],[38.824473,48.033443],[38.82344,48.033189],[38.823601,48.032858],[38.822743,48.032341],[38.822266,48.031914],[38.821022,48.030333],[38.820105,48.029166],[38.820105,48.029167],[38.820104,48.029167],[38.819006,48.02777],[38.818058,48.027424],[38.817691,48.027027],[38.817471,48.026724],[38.814682,48.023307],[38.814559,48.023155],[38.814423,48.02301],[38.814169,48.022738],[38.813123,48.021999],[38.811469,48.021278],[38.809118,48.020519],[38.805379,48.019312],[38.803625,48.018746],[38.802957,48.018529]]]}},{"type":"Feature","properties":{"cadnum":"1414446200:01:000:0069"},"geometry":{"type":"Polygon","coordinates":[[[38.810293,48.033513],[38.8142,48.033654],[38.814205,48.033597],[38.814322,48.0336],[38.814412,48.033603],[38.814496,48.033606],[38.814515,48.033438],[38.814703,48.033438],[38.814721,48.033321],[38.814762,48.033134],[38.814618,48.033107],[38.814783,48.03263],[38.814842,48.032459],[38.815184,48.032501],[38.815377,48.032065],[38.814611,48.03191],[38.812682,48.031518],[38.812318,48.03168],[38.812295,48.031666],[38.812219,48.031714],[38.812242,48.031729],[38.811496,48.032695],[38.811496,48.032696],[38.810306,48.032657],[38.810293,48.033513]]]}},{"type":"Feature","properties":{"cadnum":"1414446200:01:000:0092"},"geometry":{"type":"Polygon","coordinates":[[[38.811083,48.029599],[38.811272,48.029596],[38.811272,48.029578],[38.811083,48.029581],[38.811083,48.029599]]]}},{"type":"Feature","properties":{"cadnum":"1414446200:01:000:0089"},"geometry":{"type":"Polygon","coordinates":[[[38.809354,48.030073],[38.809358,48.030092],[38.809521,48.030088],[38.809521,48.030071],[38.809354,48.030073]]]}},{"type":"Feature","properties":{"cadnum":"1414446200:01:000:0096"},"geometry":{"type":"Polygon","coordinates":[[[38.811465,48.028617],[38.811469,48.028938],[38.811609,48.028938],[38.811613,48.028992],[38.81164,48.028992],[38.811636,48.02892],[38.811496,48.02892],[38.811492,48.028617],[38.811465,48.028617]]]}},{"type":"Feature","properties":{"cadnum":"1414446200:01:000:0088"},"geometry":{"type":"Polygon","coordinates":[[[38.809718,48.030142],[38.809718,48.030359],[38.809745,48.030359],[38.809745,48.030142],[38.809718,48.030142]]]}},{"type":"Feature","properties":{"cadnum":"1414446200:01:000:0101"},"geometry":{"type":"Polygon","coordinates":[[[38.810238,48.028062],[38.810238,48.028079],[38.81037,48.028079],[38.81037,48.028062],[38.810238,48.028062]]]}},{"type":"Feature","properties":{"cadnum":"1414446200:01:000:0067"},"geometry":{"type":"Polygon","coordinates":[[[38.811905,48.026914],[38.812349,48.026911],[38.812349,48.026757],[38.811905,48.026751],[38.811905,48.026914]]]}},{"type":"Feature","properties":{"cadnum":"1414446200:01:000:0060"},"geometry":{"type":"Polygon","coordinates":[[[38.811918,48.027862],[38.811928,48.028016],[38.812377,48.028007],[38.812364,48.027851],[38.811918,48.027862]]]}},{"type":"Feature","properties":{"cadnum":"1414446200:01:000:0105"},"geometry":{"type":"Polygon","coordinates":[[[38.809987,48.026944],[38.809991,48.027052],[38.810018,48.027052],[38.810014,48.026944],[38.809987,48.026944]]]}},{"type":"Feature","properties":{"cadnum":"1414446200:01:000:0079"},"geometry":{"type":"Polygon","coordinates":[[[38.814573,48.027424],[38.814978,48.027424],[38.814982,48.027283],[38.814662,48.027285],[38.814578,48.027286],[38.814573,48.027424]]]}},{"type":"Feature","properties":{"cadnum":"1414446200:01:000:0087"},"geometry":{"type":"Polygon","coordinates":[[[38.810333,48.030338],[38.810333,48.030356],[38.810463,48.030356],[38.810463,48.030338],[38.810333,48.030338]]]}},{"type":"Feature","properties":{"cadnum":"1414446200:01:000:0098"},"geometry":{"type":"Polygon","coordinates":[[[38.811033,48.028626],[38.811209,48.028623],[38.811209,48.028605],[38.811033,48.028608],[38.811033,48.028626]]]}},{"type":"Feature","properties":{"cadnum":"1414446200:01:000:0113"},"geometry":{"type":"Polygon","coordinates":[[[38.812431,48.026571],[38.812431,48.026733],[38.812907,48.026722],[38.812902,48.026566],[38.812431,48.026571]]]}},{"type":"Feature","properties":{"cadnum":"1414446200:01:000:0085"},"geometry":{"type":"Polygon","coordinates":[[[38.80868,48.027853],[38.80868,48.027872],[38.809111,48.027872],[38.809112,48.027872],[38.809116,48.027959],[38.809115,48.027959],[38.809026,48.027962],[38.80903,48.028079],[38.809058,48.028079],[38.809053,48.02798],[38.809118,48.027979],[38.809118,48.02798],[38.809744,48.027971],[38.809745,48.027971],[38.809758,48.028385],[38.809762,48.02865],[38.809767,48.028791],[38.809686,48.028791],[38.809686,48.028809],[38.809767,48.028809],[38.809767,48.028902],[38.809741,48.028902],[38.809758,48.029298],[38.809695,48.029298],[38.809708,48.029599],[38.809695,48.029599],[38.809704,48.029812],[38.809731,48.029812],[38.809727,48.029776],[38.809781,48.029776],[38.809798,48.030095],[38.809731,48.030092],[38.809731,48.03011],[38.810037,48.030113],[38.810044,48.030333],[38.810047,48.030426],[38.810048,48.030448],[38.810068,48.031008],[38.810104,48.031008],[38.810104,48.031019],[38.810131,48.031019],[38.810131,48.03099],[38.810091,48.03099],[38.810074,48.030351],[38.810072,48.030272],[38.810072,48.030271],[38.810108,48.030271],[38.810108,48.030272],[38.810108,48.030275],[38.810198,48.030275],[38.810202,48.030333],[38.810203,48.030347],[38.81023,48.030347],[38.810221,48.030106],[38.810194,48.030106],[38.810198,48.030226],[38.810198,48.030227],[38.810108,48.030227],[38.810108,48.030253],[38.810108,48.030254],[38.810068,48.030254],[38.810068,48.030253],[38.810064,48.030113],[38.810104,48.030113],[38.810104,48.030095],[38.809825,48.030092],[38.809808,48.029758],[38.809727,48.029758],[38.809722,48.029599],[38.809735,48.029599],[38.809727,48.029316],[38.809785,48.029316],[38.809767,48.02892],[38.809794,48.02892],[38.809771,48.027953],[38.809143,48.027959],[38.809142,48.027959],[38.809133,48.027851],[38.80868,48.027853]]]}},{"type":"Feature","properties":{"cadnum":"1414446200:01:000:0102"},"geometry":{"type":"Polygon","coordinates":[[[38.811473,48.027926],[38.811479,48.028025],[38.811505,48.028025],[38.811501,48.027926],[38.811473,48.027926]]]}},{"type":"Feature","properties":{"cadnum":"1414446200:01:000:0103"},"geometry":{"type":"Polygon","coordinates":[[[38.81001,48.027686],[38.810014,48.027775],[38.810041,48.027775],[38.810037,48.027686],[38.81001,48.027686]]]}},{"type":"Feature","properties":{"cadnum":"1414446200:01:000:0035"},"geometry":{"type":"Polygon","coordinates":[[[38.812408,48.028734],[38.812488,48.028737],[38.812488,48.028707],[38.812489,48.028707],[38.812565,48.02871],[38.812565,48.02874],[38.812861,48.028746],[38.812871,48.028592],[38.812417,48.028581],[38.812408,48.028734]]]}},{"type":"Feature","properties":{"cadnum":"1414446200:01:000:0090"},"geometry":{"type":"Polygon","coordinates":[[[38.810288,48.029785],[38.810297,48.029899],[38.810324,48.029899],[38.810311,48.029785],[38.810288,48.029785]]]}},{"type":"Feature","properties":{"cadnum":"1414446200:01:000:0111"},"geometry":{"type":"Polygon","coordinates":[[[38.810467,48.027199],[38.81062,48.027196],[38.81062,48.027178],[38.810467,48.027181],[38.810467,48.027199]]]}},{"type":"Feature","properties":{"cadnum":"1414446200:01:000:0064"},"geometry":{"type":"Polygon","coordinates":[[[38.811999,48.03023],[38.812004,48.030347],[38.812494,48.030341],[38.813005,48.030335],[38.813005,48.030218],[38.812488,48.030224],[38.811999,48.03023]]]}},{"type":"Feature","properties":{"cadnum":"1414446200:01:000:0074"},"geometry":{"type":"Polygon","coordinates":[[[38.811909,48.027724],[38.811918,48.027862],[38.812364,48.027851],[38.812364,48.027697],[38.812358,48.027697],[38.811909,48.027724]]]}},{"type":"Feature","properties":{"cadnum":"1414446200:01:000:0073"},"geometry":{"type":"Polygon","coordinates":[[[38.80793,48.027157],[38.807957,48.02786],[38.80929,48.027849],[38.80929,48.027848],[38.809727,48.027844],[38.809745,48.027833],[38.809741,48.027664],[38.809741,48.027628],[38.809727,48.027439],[38.809731,48.027397],[38.809718,48.027139],[38.809686,48.02713],[38.809153,48.027151],[38.80899,48.027157],[38.80899,48.027156],[38.80899,48.027136],[38.808699,48.027142],[38.808366,48.027148],[38.80793,48.027157]]]}},{"type":"Feature","properties":{"cadnum":"1414446200:01:000:0104"},"geometry":{"type":"Polygon","coordinates":[[[38.809997,48.027202],[38.81001,48.027532],[38.810032,48.027532],[38.810024,48.027202],[38.809997,48.027202]]]}},{"type":"Feature","properties":{"cadnum":"1414446200:01:000:0039"},"geometry":{"type":"Polygon","coordinates":[[[38.814559,48.028383],[38.814559,48.028518],[38.814611,48.028517],[38.814611,48.028518],[38.814712,48.028516],[38.814783,48.028515],[38.814955,48.028512],[38.814951,48.028365],[38.814756,48.028374],[38.814559,48.028383]]]}},{"type":"Feature","properties":{"cadnum":"1414446200:01:000:0068"},"geometry":{"type":"Polygon","coordinates":[[[38.814555,48.028827],[38.814555,48.028959],[38.814611,48.028959],[38.814667,48.028959],[38.814783,48.028958],[38.814951,48.028957],[38.814951,48.028824],[38.814775,48.028826],[38.814555,48.028827]]]}},{"type":"Feature","properties":{"cadnum":"1414446200:01:000:0091"},"geometry":{"type":"Polygon","coordinates":[[[38.810589,48.029587],[38.810589,48.029605],[38.810777,48.029605],[38.810777,48.029587],[38.810589,48.029587]]]}},{"type":"Feature","properties":{"cadnum":"1414446200:01:000:0118"},"geometry":{"type":"Polygon","coordinates":[[[38.812404,48.02765],[38.812404,48.027733],[38.812408,48.02777],[38.812408,48.0278],[38.812507,48.027797],[38.812687,48.027793],[38.81279,48.027788],[38.812875,48.027788],[38.812875,48.027637],[38.812494,48.027646],[38.812484,48.027646],[38.812404,48.02765]]]}},{"type":"Feature","properties":{"cadnum":"1414446200:01:000:0100"},"geometry":{"type":"Polygon","coordinates":[[[38.810024,48.028094],[38.810028,48.028305],[38.810054,48.028305],[38.81005,48.028094],[38.810024,48.028094]]]}},{"type":"Feature","properties":{"cadnum":"1414446200:01:000:0095"},"geometry":{"type":"Polygon","coordinates":[[[38.811146,48.029202],[38.811146,48.02922],[38.811613,48.02922],[38.811618,48.029443],[38.811645,48.029443],[38.81164,48.029218],[38.811869,48.029218],[38.811869,48.0292],[38.81164,48.0292],[38.811636,48.029049],[38.811609,48.029049],[38.811613,48.0292],[38.811146,48.029202]]]}},{"type":"Feature","properties":{"cadnum":"1414446200:01:000:0097"},"geometry":{"type":"Polygon","coordinates":[[[38.810548,48.02861],[38.810548,48.028629],[38.810733,48.028629],[38.810733,48.02861],[38.810548,48.02861]]]}},{"type":"Feature","properties":{"cadnum":"1414446200:01:000:0071"},"geometry":{"type":"Polygon","coordinates":[[[38.810198,48.028767],[38.810207,48.028959],[38.810217,48.029133],[38.81023,48.029329],[38.810234,48.029344],[38.810257,48.029356],[38.810284,48.029358],[38.810481,48.029358],[38.810571,48.029356],[38.811043,48.029347],[38.811079,48.029347],[38.811204,48.029344],[38.811177,48.029338],[38.811159,48.029326],[38.81115,48.029305],[38.811142,48.029053],[38.811748,48.029046],[38.811748,48.028989],[38.811137,48.029001],[38.811133,48.028788],[38.81115,48.028755],[38.811186,48.028731],[38.811236,48.028719],[38.810976,48.028725],[38.810526,48.028731],[38.81045,48.028731],[38.810238,48.028737],[38.810211,48.028743],[38.810203,48.028755],[38.810198,48.028767]]]}},{"type":"Feature","properties":{"cadnum":"1414446200:01:000:0031"},"geometry":{"type":"Polygon","coordinates":[[[38.809385,48.028647],[38.809762,48.02865],[38.809758,48.028385],[38.809686,48.028385],[38.809529,48.028383],[38.809399,48.028383],[38.809399,48.028403],[38.809511,48.028407],[38.809511,48.028467],[38.809498,48.028467],[38.809395,48.028463],[38.809385,48.028638],[38.809385,48.028647]]]}},{"type":"Feature","properties":{"cadnum":"1414446200:01:000:0072"},"geometry":{"type":"Polygon","coordinates":[[[38.811945,48.029079],[38.811955,48.029296],[38.811959,48.029335],[38.811968,48.029482],[38.812031,48.029482],[38.812031,48.029494],[38.812282,48.029494],[38.812278,48.029482],[38.812529,48.029476],[38.812551,48.029476],[38.812551,48.029512],[38.812552,48.029512],[38.812682,48.029503],[38.812848,48.0295],[38.81293,48.0295],[38.812907,48.029067],[38.812435,48.029073],[38.812364,48.029073],[38.812134,48.029077],[38.812075,48.029077],[38.811945,48.029079]]]}},{"type":"Feature","properties":{"cadnum":"1414446200:01:000:0099"},"geometry":{"type":"Polygon","coordinates":[[[38.811689,48.02834],[38.811695,48.02844],[38.811721,48.02844],[38.811716,48.02834],[38.811689,48.02834]]]}},{"type":"Feature","properties":{"cadnum":"1414446200:01:000:0122"},"geometry":{"type":"Polygon","coordinates":[[[38.814978,48.026307],[38.814978,48.026325],[38.814982,48.026454],[38.815387,48.026454],[38.815387,48.026307],[38.814978,48.026307]]]}},{"type":"Feature","properties":{"cadnum":"1414446200:01:000:0040"},"geometry":{"type":"Polygon","coordinates":[[[38.814551,48.026454],[38.814551,48.026595],[38.814959,48.026595],[38.814955,48.026454],[38.814551,48.026454]]]}},{"type":"Feature","properties":{"cadnum":"1414446200:01:000:0075"},"geometry":{"type":"Polygon","coordinates":[[[38.803016,48.01977],[38.803797,48.020111],[38.803797,48.02011],[38.804229,48.020298],[38.804475,48.020653],[38.804961,48.020906],[38.806053,48.021458],[38.807121,48.022005],[38.807481,48.022153],[38.808276,48.022495],[38.809118,48.022867],[38.809262,48.02293],[38.80929,48.022943],[38.809388,48.022986],[38.809399,48.02299],[38.809404,48.022993],[38.809636,48.023101],[38.810104,48.023318],[38.810154,48.023363],[38.810306,48.023435],[38.810387,48.023441],[38.811599,48.023999],[38.812695,48.024507],[38.813823,48.025009],[38.814358,48.025243],[38.814358,48.025244],[38.814182,48.025415],[38.8142,48.02573],[38.814465,48.026043],[38.814465,48.026183],[38.814519,48.026183],[38.814519,48.026036],[38.814255,48.025724],[38.814236,48.025426],[38.814434,48.025234],[38.81385,48.024979],[38.812727,48.024477],[38.811632,48.02397],[38.810418,48.023411],[38.810324,48.023399],[38.810198,48.023342],[38.81014,48.023291],[38.809652,48.023064],[38.809431,48.022961],[38.80929,48.022899],[38.808307,48.022465],[38.807512,48.022122],[38.807148,48.021975],[38.806083,48.021429],[38.804997,48.020879],[38.804521,48.020635],[38.804265,48.020271],[38.803625,48.019992],[38.803016,48.019725],[38.803016,48.01977]]]}},{"type":"Feature","properties":{"cadnum":"1414446200:01:000:0063"},"geometry":{"type":"Polygon","coordinates":[[[38.81164,48.040736],[38.811901,48.040825],[38.812058,48.04058],[38.812134,48.040457],[38.811869,48.040366],[38.811792,48.040489],[38.81164,48.040736]]]}},{"type":"Feature","properties":{"cadnum":"1414446200:01:000:0045"},"geometry":{"type":"Polygon","coordinates":[[[38.809614,48.041402],[38.809616,48.041467],[38.809619,48.041562],[38.80996,48.041591],[38.81037,48.041628],[38.810355,48.041477],[38.809955,48.041439],[38.809689,48.04141],[38.809614,48.041402]]]}},{"type":"Feature","properties":{"cadnum":"1414446200:01:000:0083"},"geometry":{"type":"Polygon","coordinates":[[[38.809075,48.030861],[38.809075,48.030879],[38.809118,48.030878],[38.809118,48.030879],[38.809268,48.030876],[38.809268,48.030858],[38.809075,48.030861]]]}},{"type":"Feature","properties":{"cadnum":"1414446200:01:000:0084"},"geometry":{"type":"Polygon","coordinates":[[[38.809731,48.030689],[38.809735,48.030854],[38.809762,48.030854],[38.809758,48.030687],[38.809731,48.030689]]]}},{"type":"Feature","properties":{"cadnum":"1414446200:01:000:0086"},"geometry":{"type":"Polygon","coordinates":[[[38.810306,48.030551],[38.810311,48.030665],[38.810337,48.030665],[38.810333,48.030551],[38.810306,48.030551]]]}},{"type":"Feature","properties":{"cadnum":"1414446200:01:000:0023"},"geometry":{"type":"Polygon","coordinates":[[[38.81226,48.030705],[38.812269,48.031038],[38.812404,48.031035],[38.812404,48.031032],[38.812467,48.031032],[38.812467,48.030932],[38.812458,48.030854],[38.812498,48.03083],[38.81248,48.030701],[38.81226,48.030705]]]}},{"type":"Feature","properties":{"cadnum":"1414446200:01:000:0003"},"geometry":{"type":"Polygon","coordinates":[[[38.810813,48.030554],[38.810813,48.030587],[38.810836,48.030587],[38.810836,48.030605],[38.810943,48.030605],[38.810944,48.030605],[38.810949,48.030614],[38.810953,48.030725],[38.811007,48.030758],[38.811011,48.030812],[38.811011,48.030836],[38.811016,48.030945],[38.811752,48.030945],[38.811748,48.030819],[38.811748,48.030714],[38.811743,48.030422],[38.811708,48.030422],[38.810867,48.030416],[38.810867,48.030428],[38.810872,48.030536],[38.810872,48.030554],[38.810813,48.030554]]]}},{"type":"Feature","properties":{"cadnum":"1414446200:01:000:0115"},"geometry":{"type":"Polygon","coordinates":[[[38.829732,48.032702],[38.829872,48.033374],[38.831263,48.033381],[38.831906,48.033383],[38.833178,48.033419],[38.833249,48.033423],[38.834503,48.033459],[38.83452,48.033432],[38.832885,48.032931],[38.831151,48.032553],[38.831039,48.032528],[38.830909,48.032795],[38.830908,48.032795],[38.829926,48.032579],[38.829732,48.032702]]]}},{"type":"Feature","properties":{"cadnum":"1414446200:01:000:0007"},"geometry":{"type":"Polygon","coordinates":[[[38.825932,48.028966],[38.826103,48.029191],[38.827463,48.028782],[38.829207,48.028184],[38.829602,48.02832],[38.829566,48.028545],[38.829706,48.028514],[38.82983,48.028227],[38.830046,48.027866],[38.830343,48.027743],[38.830509,48.027926],[38.831263,48.027791],[38.831263,48.02779],[38.831308,48.027782],[38.83187,48.027782],[38.832719,48.027617],[38.833289,48.027259],[38.833033,48.02666],[38.833032,48.02666],[38.832799,48.026112],[38.832149,48.02552],[38.831803,48.025357],[38.831308,48.025364],[38.831161,48.025218],[38.830918,48.024976],[38.830662,48.024468],[38.830348,48.022986],[38.830272,48.022624],[38.830465,48.022342],[38.82952,48.022335],[38.82952,48.022336],[38.829476,48.022545],[38.829255,48.022986],[38.829254,48.022988],[38.829197,48.023101],[38.829198,48.023101],[38.829144,48.02321],[38.829777,48.023264],[38.829876,48.024147],[38.829844,48.024576],[38.829665,48.024922],[38.829769,48.025297],[38.829732,48.025604],[38.829597,48.025853],[38.829319,48.025961],[38.829436,48.026114],[38.829274,48.026451],[38.829037,48.02666],[38.829036,48.02666],[38.828035,48.027548],[38.827096,48.028262],[38.825932,48.028966]]]}},{"type":"Feature","properties":{"cadnum":"1414446200:01:000:0057"},"geometry":{"type":"Polygon","coordinates":[[[38.812121,48.026232],[38.812121,48.026352],[38.812134,48.026352],[38.812142,48.026526],[38.812354,48.026526],[38.812354,48.026232],[38.812121,48.026232]]]}},{"type":"Feature","properties":{"cadnum":"1414446200:01:000:0032"},"geometry":{"type":"Polygon","coordinates":[[[38.809714,48.024198],[38.810028,48.024397],[38.810037,48.02439],[38.810032,48.024387],[38.810387,48.024138],[38.810091,48.023955],[38.809714,48.024198]]]}},{"type":"Feature","properties":{"cadnum":"1414446200:01:000:0107"},"geometry":{"type":"Polygon","coordinates":[[[38.811142,48.026286],[38.811146,48.026304],[38.811316,48.026301],[38.811312,48.026283],[38.811142,48.026286]]]}},{"type":"Feature","properties":{"cadnum":"1414446200:01:000:0106"},"geometry":{"type":"Polygon","coordinates":[[[38.809974,48.026502],[38.809978,48.026628],[38.810005,48.026628],[38.810001,48.026502],[38.809974,48.026502]]]}},{"type":"Feature","properties":{"cadnum":"1414446200:01:000:0061"},"geometry":{"type":"Polygon","coordinates":[[[38.810081,48.024913],[38.810252,48.025027],[38.81037,48.024946],[38.810563,48.024814],[38.810603,48.024784],[38.810441,48.024673],[38.810081,48.024913]]]}},{"type":"Feature","properties":{"cadnum":"1414446200:01:000:0048"},"geometry":{"type":"Polygon","coordinates":[[[38.809538,48.025144],[38.809704,48.025252],[38.809767,48.025208],[38.809897,48.025114],[38.809997,48.025045],[38.809834,48.024943],[38.809682,48.025048],[38.809588,48.025112],[38.809538,48.025144]]]}},{"type":"Feature","properties":{"cadnum":"1414446200:01:000:0109"},"geometry":{"type":"Polygon","coordinates":[[[38.810054,48.026012],[38.810058,48.02619],[38.810087,48.02619],[38.810087,48.026063],[38.812148,48.026045],[38.812142,48.025967],[38.812026,48.025661],[38.812175,48.025565],[38.812152,48.025553],[38.811995,48.025658],[38.812116,48.02597],[38.812116,48.026027],[38.810081,48.026045],[38.810081,48.026012],[38.810054,48.026012]]]}},{"type":"Feature","properties":{"cadnum":"1414446200:01:000:0110"},"geometry":{"type":"Polygon","coordinates":[[[38.811888,48.025237],[38.812008,48.025324],[38.812026,48.025313],[38.812026,48.025312],[38.811905,48.025225],[38.811888,48.025237]]]}},{"type":"Feature","properties":{"cadnum":"1414446200:01:000:0112"},"geometry":{"type":"Polygon","coordinates":[[[38.809879,48.025357],[38.81001,48.025442],[38.8101,48.025499],[38.810387,48.025297],[38.810301,48.025241],[38.810171,48.025156],[38.810024,48.025261],[38.809879,48.025357]]]}},{"type":"Feature","properties":{"cadnum":"1414446200:01:000:0108"},"geometry":{"type":"Polygon","coordinates":[[[38.810198,48.026235],[38.81076,48.026232],[38.81076,48.026214],[38.810198,48.026217],[38.810198,48.026235]]]}},{"type":"Feature","properties":{"cadnum":"1414446200:01:000:0020"},"geometry":{"type":"Polygon","coordinates":[[[38.803569,48.023573],[38.803625,48.023719],[38.803625,48.02372],[38.80369,48.023888],[38.803797,48.024164],[38.803797,48.024163],[38.803838,48.02427],[38.80533,48.024008],[38.80506,48.023311],[38.804875,48.023345],[38.804875,48.023344],[38.805135,48.023012],[38.80545,48.022609],[38.806039,48.021828],[38.80598,48.02181],[38.805401,48.022591],[38.805089,48.022986],[38.805088,48.022986],[38.804795,48.02336],[38.803797,48.023534],[38.803569,48.023573]]]}},{"type":"Feature","properties":{"cadnum":"1414446200:01:000:0116"},"geometry":{"type":"Polygon","coordinates":[[[38.829926,48.032579],[38.830909,48.032795],[38.831039,48.032528],[38.830976,48.032515],[38.830882,48.032495],[38.830828,48.032482],[38.830536,48.032419],[38.830316,48.032374],[38.830272,48.032363],[38.830253,48.032359],[38.829926,48.032579]]]}},{"type":"Feature","properties":{"cadnum":"1414446200:01:000:0008"},"geometry":{"type":"Polygon","coordinates":[[[38.82383,48.032693],[38.824423,48.032915],[38.824473,48.033443],[38.825769,48.0334],[38.82577,48.0334],[38.825878,48.033396],[38.825878,48.033104],[38.825887,48.032432],[38.82591,48.031477],[38.826103,48.031467],[38.826174,48.031269],[38.825598,48.031014],[38.825096,48.030792],[38.82383,48.032693]],[[38.825303,48.032744],[38.825295,48.032141],[38.825295,48.03214],[38.825598,48.032135],[38.825598,48.032136],[38.825749,48.032133],[38.825769,48.032132],[38.82577,48.032132],[38.825807,48.032131],[38.825807,48.032132],[38.825802,48.032843],[38.825598,48.032844],[38.825598,48.032845],[38.824876,48.032849],[38.824876,48.032741],[38.825303,48.032744]],[[38.825061,48.033327],[38.825065,48.033183],[38.825598,48.033174],[38.825614,48.033174],[38.825614,48.033329],[38.825614,48.03333],[38.825061,48.033327]]]}},{"type":"Feature","properties":{"cadnum":"1414446200:01:000:0009"},"geometry":{"type":"Polygon","coordinates":[[[38.826081,48.0336],[38.826377,48.034007],[38.826376,48.034007],[38.826417,48.034062],[38.826621,48.034121],[38.827153,48.034276],[38.827819,48.034369],[38.828476,48.034121],[38.82904,48.033909],[38.829031,48.033615],[38.827064,48.033617],[38.827064,48.033555],[38.826081,48.0336]]]}},{"type":"Feature","properties":{"cadnum":"1414446200:01:000:0028"},"geometry":{"type":"Polygon","coordinates":[[[38.807966,48.040961],[38.807966,48.041156],[38.808267,48.041232],[38.808712,48.041343],[38.80872,48.041129],[38.807966,48.040961]]]}},{"type":"Feature","properties":{"cadnum":"1414446200:01:000:0046"},"geometry":{"type":"Polygon","coordinates":[[[38.8081,48.038366],[38.808707,48.038606],[38.808882,48.038385],[38.808609,48.038285],[38.808492,48.038246],[38.80824,48.038159],[38.808173,48.038258],[38.808163,48.03827],[38.808137,48.038312],[38.8081,48.038366]]]}},{"type":"Feature","properties":{"cadnum":"1414446200:01:000:0081"},"geometry":{"type":"Polygon","coordinates":[[[38.805069,48.034627],[38.805263,48.034759],[38.805607,48.034327],[38.805752,48.034149],[38.8055,48.034062],[38.8055,48.034065],[38.805456,48.034121],[38.805457,48.034121],[38.805457,48.034122],[38.805366,48.03424],[38.805069,48.034627]]]}},{"type":"Feature","properties":{"cadnum":"1414446200:01:000:0058"},"geometry":{"type":"Polygon","coordinates":[[[38.804364,48.0343],[38.80462,48.03439],[38.804758,48.034207],[38.804903,48.034024],[38.805001,48.033888],[38.80475,48.033798],[38.804647,48.03393],[38.804589,48.034007],[38.804588,48.034007],[38.804504,48.03412],[38.804501,48.034121],[38.804502,48.034121],[38.804502,48.034122],[38.804364,48.0343]]]}},{"type":"Feature","properties":{"cadnum":"1414446200:01:000:0082"},"geometry":{"type":"Polygon","coordinates":[[[38.808289,48.030747],[38.808293,48.030876],[38.808779,48.030876],[38.808779,48.030858],[38.808316,48.030858],[38.808316,48.030747],[38.808289,48.030747]]]}},{"type":"Feature","properties":{"cadnum":"1414446200:01:000:0024"},"geometry":{"type":"Polygon","coordinates":[[[38.807504,48.034002],[38.807517,48.034006],[38.807517,48.034007],[38.80774,48.034077],[38.807741,48.034078],[38.807844,48.033909],[38.808024,48.033608],[38.807808,48.033543],[38.807705,48.033699],[38.807504,48.034002]]]}},{"type":"Feature","properties":{"cadnum":"1414446200:01:000:0036"},"geometry":{"type":"Polygon","coordinates":[[[38.807257,48.033209],[38.807504,48.03329],[38.807647,48.033134],[38.808002,48.032756],[38.80775,48.032653],[38.807395,48.033053],[38.807257,48.033209]]]}},{"type":"Feature","properties":{"cadnum":"1414446200:01:000:0117"},"geometry":{"type":"Polygon","coordinates":[[[38.801422,48.024249],[38.801565,48.024618],[38.801862,48.024564],[38.801764,48.024318],[38.801804,48.024282],[38.80298,48.023678],[38.803569,48.023573],[38.803625,48.023564],[38.804795,48.02336],[38.804854,48.023285],[38.803625,48.0235],[38.80293,48.023621],[38.801691,48.024261],[38.801632,48.024213],[38.801422,48.024249]]]}},{"type":"Feature","properties":{"cadnum":"1414446200:01:000:0114"},"geometry":{"type":"Polygon","coordinates":[[[38.806946,48.025426],[38.806951,48.025487],[38.807032,48.025598],[38.807095,48.025595],[38.807144,48.025565],[38.807207,48.025504],[38.807225,48.025412],[38.806946,48.025426]]]}},{"type":"Feature","properties":{"cadnum":"1414446200:01:000:0033"},"geometry":{"type":"Polygon","coordinates":[[[38.8085,48.025598],[38.808563,48.025637],[38.808783,48.025793],[38.808878,48.02573],[38.809148,48.02555],[38.809049,48.025484],[38.808936,48.025406],[38.80885,48.025346],[38.8085,48.025598]]]}},{"type":"Feature","properties":{"cadnum":"1414446200:01:000:0062"},"geometry":{"type":"Polygon","coordinates":[[[38.807347,48.023681],[38.807445,48.023747],[38.807624,48.023868],[38.807817,48.023747],[38.807844,48.023732],[38.807966,48.023658],[38.807687,48.023474],[38.807347,48.023681]]]}},{"type":"Feature","properties":{"cadnum":"1414446200:01:000:0038"},"geometry":{"type":"Polygon","coordinates":[[[38.807624,48.023868],[38.807871,48.024033],[38.808204,48.02381],[38.808087,48.023736],[38.807966,48.023658],[38.807817,48.023747],[38.807624,48.023868]]]}},{"type":"Feature","properties":{"cadnum":"1414446200:01:000:0042"},"geometry":{"type":"Polygon","coordinates":[[[38.807705,48.023429],[38.80793,48.023573],[38.807988,48.023609],[38.808293,48.023402],[38.808146,48.023297],[38.80802,48.023206],[38.807705,48.023429]]]}},{"type":"Feature","properties":{"cadnum":"1414446200:01:000:0093"},"geometry":{"type":"Polygon","coordinates":[[[38.808963,48.029305],[38.809201,48.029298],[38.809196,48.02928],[38.808963,48.029287],[38.808963,48.029305]]]}},{"type":"Feature","properties":{"cadnum":"1414446200:01:000:0094"},"geometry":{"type":"Polygon","coordinates":[[[38.808249,48.029296],[38.808253,48.029314],[38.808469,48.029311],[38.808469,48.029293],[38.808249,48.029296]]]}},{"type":"Feature","properties":{"cadnum":"1414446200:01:000:0120"},"geometry":{"type":"Polygon","coordinates":[[[38.80788,48.028314],[38.808433,48.028296],[38.808442,48.028127],[38.808312,48.028131],[38.80824,48.028131],[38.808119,48.028133],[38.80798,48.028136],[38.80788,48.02814],[38.80788,48.028314]]]}},{"type":"Feature","properties":{"cadnum":"1414446200:01:000:0121"},"geometry":{"type":"Polygon","coordinates":[[[38.814955,48.027833],[38.814955,48.027974],[38.815377,48.027974],[38.815377,48.02783],[38.815341,48.02783],[38.815152,48.027833],[38.814955,48.027833]]]}},{"type":"Feature","properties":{"cadnum":"1414446200:01:000:0025"},"geometry":{"type":"Polygon","coordinates":[[[38.815718,48.02895],[38.815979,48.028948],[38.815979,48.028716],[38.815777,48.028719],[38.815777,48.02883],[38.815727,48.02883],[38.815718,48.02895]]]}},{"type":"Feature","properties":{"cadnum":"1414446200:01:000:0027"},"geometry":{"type":"Polygon","coordinates":[[[38.814978,48.027406],[38.815381,48.02741],[38.815381,48.027409],[38.815381,48.027265],[38.814982,48.027283],[38.814978,48.027406]]]}},{"type":"Feature","properties":{"cadnum":"1414446200:01:000:0077"},"geometry":{"type":"Polygon","coordinates":[[[38.815544,48.028557],[38.815987,48.028554],[38.815993,48.028421],[38.815548,48.028416],[38.815544,48.028557]]]}},{"type":"Feature","properties":{"cadnum":"1414446200:01:000:0080"},"geometry":{"type":"Polygon","coordinates":[[[38.814968,48.026896],[38.815372,48.026893],[38.815372,48.026751],[38.814968,48.026757],[38.814968,48.026896]]]}}]}