{"type":"FeatureCollection","features":[{"type":"Feature","properties":{"cadnum":"1414745700:02:045:0004"},"geometry":{"type":"Polygon","coordinates":[[[38.563014,48.126034],[38.563211,48.126154],[38.563624,48.12587],[38.563625,48.12587],[38.563943,48.125653],[38.563763,48.125545],[38.56344,48.125755],[38.563335,48.125824],[38.563264,48.12587],[38.563014,48.126034]]]}},{"type":"Feature","properties":{"cadnum":"1414745700:02:045:0003"},"geometry":{"type":"Polygon","coordinates":[[[38.563251,48.125119],[38.563444,48.125245],[38.564023,48.124841],[38.563822,48.124721],[38.563251,48.125119]]]}},{"type":"Feature","properties":{"cadnum":"1414745700:02:045:0005"},"geometry":{"type":"Polygon","coordinates":[[[38.56357,48.125425],[38.563763,48.125545],[38.564258,48.125185],[38.564329,48.125131],[38.564432,48.125056],[38.564239,48.124939],[38.56357,48.125425]]]}},{"type":"Feature","properties":{"cadnum":"1414745700:02:013:0006"},"geometry":{"type":"Polygon","coordinates":[[[38.556622,48.130839],[38.556819,48.130962],[38.557075,48.130785],[38.556887,48.130674],[38.556874,48.130665],[38.556622,48.130839]]]}},{"type":"Feature","properties":{"cadnum":"1414745700:02:013:0001"},"geometry":{"type":"Polygon","coordinates":[[[38.557184,48.130627],[38.557192,48.130668],[38.557241,48.130663],[38.557232,48.130621],[38.557184,48.130627]]]}},{"type":"Feature","properties":{"cadnum":"1414745700:02:009:0008"},"geometry":{"type":"Polygon","coordinates":[[[38.556266,48.131861],[38.556433,48.131961],[38.556554,48.132033],[38.556604,48.132063],[38.556605,48.132063],[38.556612,48.132068],[38.556815,48.131909],[38.556482,48.131705],[38.556266,48.131861]]]}},{"type":"Feature","properties":{"cadnum":"1414745700:02:016:0003"},"geometry":{"type":"Polygon","coordinates":[[[38.558136,48.130432],[38.558163,48.13045],[38.558163,48.130456],[38.558199,48.130485],[38.558257,48.130447],[38.558207,48.130416],[38.558199,48.130423],[38.558176,48.130408],[38.558136,48.130432]]]}},{"type":"Feature","properties":{"cadnum":"1414745700:01:010:0001"},"geometry":{"type":"Polygon","coordinates":[[[38.549234,48.128876],[38.550427,48.129537],[38.550428,48.129537],[38.55094,48.12982],[38.551102,48.12991],[38.551111,48.129915],[38.553006,48.130962],[38.555413,48.132233],[38.555548,48.132323],[38.556433,48.132822],[38.55656,48.132894],[38.556604,48.132919],[38.556905,48.133088],[38.559649,48.134634],[38.561625,48.134689],[38.559375,48.136642],[38.56083,48.13652],[38.562098,48.135363],[38.562981,48.134556],[38.564186,48.13363],[38.564735,48.133203],[38.564736,48.133203],[38.565407,48.132683],[38.566153,48.132216],[38.566763,48.131879],[38.567419,48.131509],[38.57091,48.129537],[38.573084,48.128309],[38.573353,48.128156],[38.573536,48.128055],[38.574772,48.127419],[38.577382,48.12595],[38.577788,48.125843],[38.578405,48.12568],[38.578554,48.125641],[38.578545,48.125437],[38.578577,48.125414],[38.579057,48.125074],[38.578577,48.125197],[38.576977,48.125605],[38.576571,48.125755],[38.575734,48.126066],[38.575491,48.126201],[38.575352,48.126279],[38.573084,48.127539],[38.572872,48.127656],[38.572536,48.127688],[38.572535,48.127688],[38.572585,48.127572],[38.572724,48.127563],[38.572423,48.12695],[38.571916,48.126192],[38.571597,48.125793],[38.571507,48.125679],[38.571048,48.125134],[38.571057,48.125065],[38.570524,48.124243],[38.570428,48.124268],[38.571481,48.12587],[38.571482,48.12587],[38.571566,48.125997],[38.571723,48.126261],[38.572086,48.127041],[38.572189,48.127608],[38.572319,48.127614],[38.572319,48.127725],[38.571817,48.128444],[38.571004,48.129176],[38.570555,48.129422],[38.568597,48.130498],[38.567591,48.13108],[38.566746,48.131568],[38.565272,48.132407],[38.564315,48.133088],[38.564314,48.133088],[38.563161,48.133909],[38.562704,48.13396],[38.562043,48.134457],[38.561918,48.134551],[38.561033,48.134553],[38.559824,48.134413],[38.559289,48.134274],[38.557911,48.133507],[38.558027,48.133405],[38.557459,48.133088],[38.557458,48.133088],[38.556563,48.132589],[38.555755,48.132138],[38.555683,48.132105],[38.553276,48.130743],[38.551111,48.129532],[38.551111,48.129531],[38.549538,48.12865],[38.549234,48.128876]]]}},{"type":"Feature","properties":{"cadnum":"1414745700:02:008:0002"},"geometry":{"type":"Polygon","coordinates":[[[38.556245,48.13101],[38.556433,48.131125],[38.556433,48.131126],[38.556469,48.131148],[38.556604,48.13105],[38.556689,48.130989],[38.556469,48.130854],[38.556245,48.13101]]]}},{"type":"Feature","properties":{"cadnum":"1414745700:02:009:0007"},"geometry":{"type":"Polygon","coordinates":[[[38.556962,48.132395],[38.556985,48.132539],[38.557731,48.132998],[38.557933,48.132976],[38.5581,48.13286],[38.558486,48.133054],[38.558599,48.133052],[38.558625,48.133027],[38.55875,48.133088],[38.558872,48.133147],[38.558875,48.133146],[38.558961,48.133088],[38.558985,48.133072],[38.559009,48.133088],[38.559039,48.133108],[38.559182,48.133203],[38.559183,48.133203],[38.559662,48.133519],[38.560035,48.133765],[38.560071,48.133738],[38.560931,48.133124],[38.561046,48.133043],[38.560777,48.132878],[38.560736,48.132854],[38.560291,48.132578],[38.560144,48.132488],[38.559954,48.132368],[38.559895,48.132332],[38.559344,48.132728],[38.559038,48.132536],[38.558943,48.132602],[38.558077,48.132071],[38.55787,48.131972],[38.557646,48.131958],[38.557377,48.132045],[38.557071,48.132227],[38.556962,48.132395]]]}},{"type":"Feature","properties":{"cadnum":"1414745700:02:017:0003"},"geometry":{"type":"Polygon","coordinates":[[[38.55902,48.130878],[38.559102,48.130926],[38.559146,48.130894],[38.559069,48.130845],[38.55902,48.130878]]]}},{"type":"Feature","properties":{"cadnum":"1414745700:02:024:0005"},"geometry":{"type":"Polygon","coordinates":[[[38.560826,48.130467],[38.56101,48.130596],[38.561127,48.130521],[38.561153,48.130507],[38.56131,48.130408],[38.56131,48.130407],[38.561123,48.130276],[38.560826,48.130467]]]}},{"type":"Feature","properties":{"cadnum":"1414745700:02:024:0006"},"geometry":{"type":"Polygon","coordinates":[[[38.56123,48.13012],[38.561257,48.130138],[38.56132,48.13017],[38.56141,48.130225],[38.561499,48.130276],[38.561625,48.130179],[38.561643,48.130168],[38.561559,48.130114],[38.561558,48.130114],[38.561562,48.130108],[38.561526,48.130083],[38.561522,48.13009],[38.561379,48.130003],[38.561352,48.130024],[38.561279,48.130081],[38.56123,48.13012]]]}},{"type":"Feature","properties":{"cadnum":"1414745700:02:025:0005"},"geometry":{"type":"Polygon","coordinates":[[[38.561845,48.130707],[38.561868,48.130723],[38.561926,48.130758],[38.562029,48.130821],[38.562098,48.130774],[38.562098,48.130773],[38.562344,48.130599],[38.562165,48.130483],[38.562012,48.13059],[38.561845,48.130707]]]}},{"type":"Feature","properties":{"cadnum":"1414745700:02:024:0004"},"geometry":{"type":"Polygon","coordinates":[[[38.560111,48.13009],[38.560314,48.130212],[38.56065,48.12997],[38.560471,48.129856],[38.560111,48.13009]]]}},{"type":"Feature","properties":{"cadnum":"1414745700:02:029:0004"},"geometry":{"type":"Polygon","coordinates":[[[38.561279,48.129425],[38.561366,48.129479],[38.56145,48.129532],[38.561773,48.129295],[38.561599,48.129185],[38.561283,48.129422],[38.561282,48.129422],[38.561279,48.129425]]]}},{"type":"Feature","properties":{"cadnum":"1414745700:02:013:0002"},"geometry":{"type":"Polygon","coordinates":[[[38.557178,48.130687],[38.557228,48.130783],[38.557327,48.130761],[38.557278,48.130663],[38.557178,48.130687]]]}},{"type":"Feature","properties":{"cadnum":"1414745700:02:029:0006"},"geometry":{"type":"Polygon","coordinates":[[[38.561635,48.129838],[38.56167,48.129865],[38.561786,48.12994],[38.561778,48.129946],[38.561859,48.129997],[38.561926,48.129949],[38.562008,48.129895],[38.56198,48.12988],[38.561935,48.12985],[38.561836,48.129784],[38.561765,48.129739],[38.56167,48.129811],[38.561652,48.129826],[38.561635,48.129838]]]}},{"type":"Feature","properties":{"cadnum":"1414745700:02:019:0018"},"geometry":{"type":"Polygon","coordinates":[[[38.561805,48.132716],[38.561926,48.132794],[38.562079,48.132892],[38.562098,48.132904],[38.562385,48.133088],[38.562505,48.133165],[38.562627,48.133087],[38.562704,48.133031],[38.562385,48.132833],[38.562128,48.132674],[38.562084,48.132644],[38.561994,48.132587],[38.561958,48.132608],[38.561945,48.13262],[38.561805,48.132716]]]}},{"type":"Feature","properties":{"cadnum":"1414745700:02:023:0004"},"geometry":{"type":"Polygon","coordinates":[[[38.558903,48.129346],[38.559021,48.129422],[38.55902,48.129422],[38.559181,48.129525],[38.559182,48.129526],[38.559402,48.129376],[38.559128,48.129194],[38.558903,48.129346]]]}},{"type":"Feature","properties":{"cadnum":"1414745700:02:008:0006"},"geometry":{"type":"Polygon","coordinates":[[[38.556469,48.131148],[38.556604,48.131238],[38.556694,48.131298],[38.556914,48.131139],[38.556689,48.130989],[38.556469,48.131148]]]}},{"type":"Feature","properties":{"cadnum":"1414745700:04:003:0006"},"geometry":{"type":"Polygon","coordinates":[[[38.573195,48.134134],[38.573614,48.134365],[38.57378,48.134227],[38.573371,48.133996],[38.573195,48.134134]]]}},{"type":"Feature","properties":{"cadnum":"1414745700:03:002:0002"},"geometry":{"type":"Polygon","coordinates":[[[38.574386,48.133147],[38.574483,48.133203],[38.57479,48.133378],[38.574965,48.133238],[38.574762,48.13312],[38.574562,48.133003],[38.574458,48.133088],[38.574457,48.133088],[38.574386,48.133147]]]}},{"type":"Feature","properties":{"cadnum":"1414745700:04:003:0004"},"geometry":{"type":"Polygon","coordinates":[[[38.573371,48.133996],[38.57378,48.134227],[38.57395,48.134083],[38.573537,48.133855],[38.573371,48.133996]]]}},{"type":"Feature","properties":{"cadnum":"1414745700:04:003:0002"},"geometry":{"type":"Polygon","coordinates":[[[38.573111,48.133624],[38.57338,48.133771],[38.573537,48.133855],[38.573707,48.133717],[38.573551,48.133633],[38.57329,48.133492],[38.573111,48.133624]]]}},{"type":"Feature","properties":{"cadnum":"1414745700:04:003:0005"},"geometry":{"type":"Polygon","coordinates":[[[38.572895,48.134385],[38.572912,48.134401],[38.572989,48.134471],[38.573084,48.134556],[38.573128,48.134596],[38.573254,48.134671],[38.573447,48.134509],[38.572998,48.134296],[38.572895,48.134385]]]}},{"type":"Feature","properties":{"cadnum":"1414745700:04:002:0003"},"geometry":{"type":"Polygon","coordinates":[[[38.573277,48.13485],[38.573784,48.135087],[38.573941,48.134946],[38.573443,48.134706],[38.573277,48.13485]]]}},{"type":"Feature","properties":{"cadnum":"1414745700:04:006:0001"},"geometry":{"type":"Polygon","coordinates":[[[38.571579,48.132805],[38.572027,48.133088],[38.572069,48.133114],[38.572069,48.133115],[38.572208,48.133203],[38.572209,48.133203],[38.572505,48.13339],[38.572572,48.133345],[38.572513,48.133309],[38.572472,48.13327],[38.572234,48.133118],[38.572153,48.133067],[38.571669,48.132754],[38.571579,48.132805]]]}},{"type":"Feature","properties":{"cadnum":"1414745700:04:007:0003"},"geometry":{"type":"Polygon","coordinates":[[[38.56848,48.132677],[38.569037,48.133088],[38.569036,48.133088],[38.569117,48.133147],[38.569323,48.133016],[38.56869,48.132545],[38.56848,48.132677]]]}},{"type":"Feature","properties":{"cadnum":"1414745700:04:006:0003"},"geometry":{"type":"Polygon","coordinates":[[[38.570927,48.133205],[38.571048,48.133291],[38.571233,48.133178],[38.571186,48.133146],[38.571111,48.133094],[38.571107,48.133096],[38.571025,48.133146],[38.570981,48.133172],[38.57098,48.133172],[38.57093,48.133203],[38.570927,48.133205]]]}},{"type":"Feature","properties":{"cadnum":"1414745700:04:007:0004"},"geometry":{"type":"Polygon","coordinates":[[[38.569117,48.133147],[38.569172,48.133183],[38.569323,48.133081],[38.569373,48.133052],[38.569323,48.133016],[38.56921,48.133088],[38.569209,48.133088],[38.569117,48.133147]]]}},{"type":"Feature","properties":{"cadnum":"1414745700:03:006:0001"},"geometry":{"type":"Polygon","coordinates":[[[38.571822,48.13268],[38.571902,48.132728],[38.572163,48.132881],[38.572338,48.132734],[38.572145,48.132623],[38.57201,48.132545],[38.571822,48.13268]]]}},{"type":"Feature","properties":{"cadnum":"1414745700:01:006:0009"},"geometry":{"type":"Polygon","coordinates":[[[38.568273,48.132389],[38.568403,48.132491],[38.568493,48.13244],[38.568358,48.132338],[38.568273,48.132389]]]}},{"type":"Feature","properties":{"cadnum":"1414745700:03:006:0005"},"geometry":{"type":"Polygon","coordinates":[[[38.572859,48.132056],[38.572912,48.132078],[38.572912,48.132079],[38.573023,48.132124],[38.573084,48.132148],[38.573168,48.132182],[38.573272,48.132227],[38.573304,48.132239],[38.573438,48.132119],[38.573304,48.132063],[38.572998,48.131936],[38.572859,48.132056]]]}},{"type":"Feature","properties":{"cadnum":"1414745700:03:007:0001"},"geometry":{"type":"Polygon","coordinates":[[[38.570883,48.13125],[38.570897,48.131262],[38.571134,48.131432],[38.57139,48.131271],[38.571327,48.131223],[38.571193,48.131121],[38.571143,48.131088],[38.570883,48.13125]]]}},{"type":"Feature","properties":{"cadnum":"1414745700:01:006:0012"},"geometry":{"type":"Polygon","coordinates":[[[38.570711,48.131028],[38.570824,48.131115],[38.571027,48.130995],[38.570918,48.130908],[38.570711,48.131028]]]}},{"type":"Feature","properties":{"cadnum":"1414745700:01:002:0006"},"geometry":{"type":"Polygon","coordinates":[[[38.56777,48.130083],[38.567918,48.130138],[38.5683,48.130314],[38.568597,48.130423],[38.568709,48.130345],[38.567931,48.129972],[38.567788,48.130072],[38.56777,48.130083]]]}},{"type":"Feature","properties":{"cadnum":"1414745700:01:006:0010"},"geometry":{"type":"Polygon","coordinates":[[[38.569006,48.131127],[38.569652,48.131465],[38.569859,48.131382],[38.570146,48.131262],[38.570581,48.131082],[38.570572,48.13107],[38.570685,48.131005],[38.570694,48.130998],[38.570891,48.130887],[38.571048,48.130797],[38.57112,48.130752],[38.571121,48.130752],[38.571147,48.130734],[38.571201,48.130705],[38.571224,48.130689],[38.571241,48.130681],[38.572535,48.129946],[38.572805,48.129802],[38.572912,48.12974],[38.573084,48.12964],[38.573084,48.129639],[38.573138,48.129607],[38.573182,48.12958],[38.573353,48.129475],[38.573061,48.129256],[38.572818,48.129068],[38.572283,48.129365],[38.572185,48.129422],[38.572184,48.129422],[38.571677,48.129718],[38.571457,48.129847],[38.571417,48.129814],[38.571377,48.129838],[38.57139,48.12985],[38.571403,48.129841],[38.571404,48.129841],[38.571434,48.129861],[38.571434,48.129862],[38.571206,48.129994],[38.571157,48.129961],[38.571084,48.129997],[38.571053,48.130015],[38.570878,48.130108],[38.570761,48.130174],[38.5706,48.130261],[38.570245,48.130474],[38.569912,48.130656],[38.569759,48.130743],[38.569738,48.130756],[38.569706,48.130776],[38.569167,48.131037],[38.569006,48.131127]]]}},{"type":"Feature","properties":{"cadnum":"1414745700:02:019:0011"},"geometry":{"type":"Polygon","coordinates":[[[38.567141,48.130399],[38.567419,48.13057],[38.567851,48.130836],[38.568075,48.130705],[38.567711,48.130492],[38.567481,48.130367],[38.567329,48.130285],[38.567141,48.130399]]]}},{"type":"Feature","properties":{"cadnum":"1414745700:03:007:0008"},"geometry":{"type":"Polygon","coordinates":[[[38.57073,48.132285],[38.570765,48.132311],[38.570883,48.132251],[38.570842,48.13223],[38.57073,48.132284],[38.57073,48.132285]]]}},{"type":"Feature","properties":{"cadnum":"1414745700:03:007:0009"},"geometry":{"type":"Polygon","coordinates":[[[38.572298,48.131421],[38.572912,48.131697],[38.572912,48.131698],[38.573057,48.131763],[38.573084,48.131745],[38.573084,48.131744],[38.573187,48.131672],[38.572912,48.131538],[38.572459,48.131316],[38.572298,48.131421]]]}},{"type":"Feature","properties":{"cadnum":"1414745700:04:007:0006"},"geometry":{"type":"Polygon","coordinates":[[[38.569459,48.132096],[38.569944,48.132482],[38.570132,48.13238],[38.56962,48.132005],[38.569459,48.132096]]]}},{"type":"Feature","properties":{"cadnum":"1414745700:04:007:0002"},"geometry":{"type":"Polygon","coordinates":[[[38.569998,48.131741],[38.570258,48.131949],[38.570285,48.131936],[38.570725,48.132287],[38.57073,48.132285],[38.57073,48.132284],[38.570842,48.13223],[38.570905,48.13217],[38.570497,48.131916],[38.570155,48.131652],[38.569998,48.131741]]]}},{"type":"Feature","properties":{"cadnum":"1414745700:04:007:0005"},"geometry":{"type":"Polygon","coordinates":[[[38.570155,48.131652],[38.570497,48.131916],[38.570721,48.131774],[38.570371,48.131529],[38.570155,48.131652]]]}},{"type":"Feature","properties":{"cadnum":"1414745700:03:007:0014"},"geometry":{"type":"Polygon","coordinates":[[[38.571642,48.130825],[38.572409,48.131286],[38.572625,48.131151],[38.572145,48.130905],[38.571843,48.130707],[38.57178,48.13074],[38.571759,48.130756],[38.571642,48.130825]]]}},{"type":"Feature","properties":{"cadnum":"1414745700:01:002:0001"},"geometry":{"type":"Polygon","coordinates":[[[38.567689,48.130281],[38.568358,48.13057],[38.568597,48.130423],[38.5683,48.130314],[38.567918,48.130138],[38.567689,48.130281]]]}},{"type":"Feature","properties":{"cadnum":"1414745700:03:007:0007"},"geometry":{"type":"Polygon","coordinates":[[[38.570537,48.132383],[38.57099,48.132719],[38.571021,48.132701],[38.571331,48.132515],[38.571233,48.132458],[38.570883,48.132251],[38.570765,48.132311],[38.57073,48.132285],[38.570572,48.132365],[38.570537,48.132383]]]}},{"type":"Feature","properties":{"cadnum":"1414745700:03:007:0011"},"geometry":{"type":"Polygon","coordinates":[[[38.571987,48.130629],[38.57227,48.130851],[38.572849,48.131115],[38.572939,48.131055],[38.572392,48.130794],[38.572055,48.130587],[38.571987,48.130629]]]}},{"type":"Feature","properties":{"cadnum":"1414745700:02:041:0005"},"geometry":{"type":"Polygon","coordinates":[[[38.560704,48.125739],[38.560728,48.125755],[38.56075,48.12577],[38.56081,48.125813],[38.560817,48.125817],[38.561113,48.125605],[38.561149,48.125578],[38.561086,48.125541],[38.561023,48.125509],[38.560781,48.125683],[38.560704,48.125739]]]}},{"type":"Feature","properties":{"cadnum":"1414745700:02:028:0007"},"geometry":{"type":"Polygon","coordinates":[[[38.557646,48.12573],[38.557685,48.125755],[38.557684,48.125755],[38.557951,48.125928],[38.558188,48.125755],[38.558342,48.125644],[38.558,48.125446],[38.557978,48.125434],[38.557664,48.125656],[38.557646,48.12573]]]}},{"type":"Feature","properties":{"cadnum":"1414745700:02:031:0002"},"geometry":{"type":"Polygon","coordinates":[[[38.555077,48.124987],[38.555513,48.125257],[38.555562,48.125287],[38.555603,48.125314],[38.556501,48.12587],[38.556502,48.12587],[38.556604,48.125934],[38.556604,48.125933],[38.556605,48.125933],[38.556865,48.126094],[38.55733,48.125755],[38.558337,48.125023],[38.558522,48.124888],[38.558643,48.124801],[38.55809,48.124454],[38.55857,48.124108],[38.557785,48.123623],[38.557309,48.123968],[38.557308,48.123968],[38.556865,48.123692],[38.556685,48.123824],[38.556433,48.124006],[38.556433,48.124007],[38.555077,48.124987]],[[38.558059,48.124672],[38.55806,48.124672],[38.558077,48.124687],[38.558077,48.124688],[38.55806,48.124699],[38.558059,48.124699],[38.558041,48.124684],[38.558059,48.124672]],[[38.557637,48.124372],[38.5577,48.124412],[38.557677,48.124423],[38.557618,48.124385],[38.557637,48.124372]],[[38.557241,48.124081],[38.55726,48.124094],[38.557237,48.124106],[38.557219,48.124094],[38.557241,48.124081]]]}},{"type":"Feature","properties":{"cadnum":"1414745700:02:045:0001"},"geometry":{"type":"Polygon","coordinates":[[[38.560431,48.124394],[38.560691,48.124561],[38.5607,48.124559],[38.561023,48.124348],[38.560773,48.124183],[38.560431,48.124394]]]}},{"type":"Feature","properties":{"cadnum":"1414745700:02:041:0002"},"geometry":{"type":"Polygon","coordinates":[[[38.560107,48.124918],[38.560193,48.124975],[38.560386,48.125098],[38.560471,48.125032],[38.560476,48.125021],[38.560476,48.12502],[38.560803,48.124765],[38.560516,48.124606],[38.560107,48.124918]]]}},{"type":"Feature","properties":{"cadnum":"1414745700:02:041:0006"},"geometry":{"type":"Polygon","coordinates":[[[38.559519,48.124546],[38.559635,48.124619],[38.559725,48.124679],[38.560148,48.124366],[38.560013,48.124268],[38.559954,48.124228],[38.559905,48.124265],[38.559891,48.124277],[38.559744,48.124385],[38.559519,48.124546]]]}},{"type":"Feature","properties":{"cadnum":"1414745700:03:007:0010"},"geometry":{"type":"Polygon","coordinates":[[[38.573897,48.129496],[38.573966,48.129537],[38.574786,48.130009],[38.574885,48.130066],[38.575038,48.129979],[38.57401,48.129431],[38.574009,48.12943],[38.573926,48.129479],[38.573897,48.129496]]]}},{"type":"Feature","properties":{"cadnum":"1414745700:03:007:0015"},"geometry":{"type":"Polygon","coordinates":[[[38.574009,48.12943],[38.57401,48.129431],[38.574208,48.129537],[38.574209,48.129537],[38.575038,48.129979],[38.575096,48.130012],[38.575235,48.129925],[38.574451,48.129496],[38.574161,48.129337],[38.574022,48.129422],[38.574021,48.129422],[38.574009,48.12943]]]}},{"type":"Feature","properties":{"cadnum":"1414745700:03:007:0003"},"geometry":{"type":"Polygon","coordinates":[[[38.574463,48.129163],[38.574719,48.129305],[38.57514,48.129537],[38.575141,48.129537],[38.575356,48.129655],[38.575541,48.129554],[38.575491,48.129529],[38.57549,48.129529],[38.574902,48.129203],[38.574642,48.129059],[38.574463,48.129163]]]}},{"type":"Feature","properties":{"cadnum":"1414745700:01:003:0002"},"geometry":{"type":"Polygon","coordinates":[[[38.571876,48.125416],[38.572425,48.125755],[38.572424,48.125755],[38.572535,48.125823],[38.572536,48.125824],[38.572912,48.125834],[38.573013,48.125837],[38.573084,48.125839],[38.573092,48.125839],[38.573407,48.125716],[38.57382,48.125665],[38.574063,48.125499],[38.574449,48.125008],[38.574332,48.124543],[38.573981,48.124261],[38.57364,48.124136],[38.573138,48.124115],[38.572984,48.124171],[38.572809,48.124234],[38.572441,48.124583],[38.572369,48.124903],[38.571876,48.125416]]]}},{"type":"Feature","properties":{"cadnum":"1414745700:01:010:0003"},"geometry":{"type":"Polygon","coordinates":[[[38.576358,48.125704],[38.576367,48.125755],[38.57638,48.125827],[38.576386,48.12587],[38.576387,48.12587],[38.576403,48.125977],[38.576708,48.126234],[38.57739,48.125803],[38.577153,48.125559],[38.576933,48.125326],[38.576484,48.125533],[38.576358,48.125704]]]}},{"type":"Feature","properties":{"cadnum":"1414745700:03:009:0007"},"geometry":{"type":"Polygon","coordinates":[[[38.578388,48.126912],[38.578405,48.126921],[38.578463,48.12695],[38.578577,48.127007],[38.578881,48.127158],[38.579116,48.127017],[38.578675,48.126786],[38.578476,48.126874],[38.578388,48.126912]]]}},{"type":"Feature","properties":{"cadnum":"1414745700:03:008:0005"},"geometry":{"type":"Polygon","coordinates":[[[38.576604,48.128654],[38.577094,48.129014],[38.577153,48.128968],[38.577212,48.128908],[38.57673,48.12857],[38.576604,48.128654]]]}},{"type":"Feature","properties":{"cadnum":"1414745700:03:008:0003"},"geometry":{"type":"Polygon","coordinates":[[[38.576474,48.128735],[38.576969,48.129103],[38.577017,48.129088],[38.577094,48.129014],[38.576604,48.128654],[38.576474,48.128735]]]}},{"type":"Feature","properties":{"cadnum":"1414745700:03:009:0006"},"geometry":{"type":"Polygon","coordinates":[[[38.577615,48.127263],[38.578181,48.127601],[38.578384,48.127476],[38.577826,48.127148],[38.577615,48.127263]]]}},{"type":"Feature","properties":{"cadnum":"1414745700:03:005:0004"},"geometry":{"type":"Polygon","coordinates":[[[38.577876,48.129667],[38.578262,48.129861],[38.578432,48.129718],[38.578455,48.1297],[38.578178,48.129523],[38.578177,48.129523],[38.578195,48.129508],[38.578132,48.129479],[38.578122,48.129475],[38.578116,48.129479],[38.578082,48.129505],[38.578074,48.129499],[38.578029,48.129537],[38.57803,48.129537],[38.577876,48.129667]]]}},{"type":"Feature","properties":{"cadnum":"1414745700:03:008:0007"},"geometry":{"type":"Polygon","coordinates":[[[38.577736,48.127958],[38.578038,48.128204],[38.578235,48.128072],[38.577925,48.127845],[38.577736,48.127958]]]}},{"type":"Feature","properties":{"cadnum":"1414745700:03:009:0003"},"geometry":{"type":"Polygon","coordinates":[[[38.57673,48.127785],[38.577027,48.127946],[38.577342,48.128117],[38.577526,48.128003],[38.577189,48.127826],[38.576906,48.127683],[38.57673,48.127785]]]}},{"type":"Feature","properties":{"cadnum":"1414745700:01:003:0001"},"geometry":{"type":"Polygon","coordinates":[[[38.568731,48.124303],[38.56901,48.125248],[38.569765,48.125104],[38.570065,48.125263],[38.570204,48.125353],[38.570205,48.125353],[38.570298,48.125748],[38.570304,48.125755],[38.570361,48.125821],[38.570399,48.12587],[38.5704,48.12587],[38.570402,48.125872],[38.570482,48.125881],[38.570633,48.125854],[38.570635,48.125854],[38.570648,48.12587],[38.570649,48.12587],[38.570834,48.126088],[38.571206,48.126372],[38.571367,48.126336],[38.571444,48.126324],[38.571723,48.126261],[38.571566,48.125997],[38.571406,48.125755],[38.570429,48.124268],[38.570524,48.124243],[38.571057,48.125065],[38.571048,48.125134],[38.571507,48.125679],[38.571444,48.125377],[38.57153,48.125338],[38.57126,48.124408],[38.570748,48.12383],[38.568731,48.124303]]]}},{"type":"Feature","properties":{"cadnum":"1414745700:01:003:0003"},"geometry":{"type":"Polygon","coordinates":[[[38.568973,48.125272],[38.569,48.125317],[38.56909,48.125476],[38.569095,48.12547],[38.569315,48.125401],[38.569723,48.125269],[38.569773,48.125338],[38.570056,48.125257],[38.569765,48.125104],[38.56901,48.125248],[38.569014,48.125263],[38.568987,48.125269],[38.568973,48.125272]]]}},{"type":"Feature","properties":{"cadnum":"1414745700:02:001:0009"},"geometry":{"type":"Polygon","coordinates":[[[38.550419,48.128225],[38.550643,48.128369],[38.550903,48.128201],[38.550675,48.128054],[38.550419,48.128225]]]}},{"type":"Feature","properties":{"cadnum":"1414745700:02:028:0001"},"geometry":{"type":"Polygon","coordinates":[[[38.559991,48.137509],[38.560264,48.137682],[38.56048,48.137536],[38.560193,48.137362],[38.559991,48.137509]]]}},{"type":"Feature","properties":{"cadnum":"1414745700:03:006:0012"},"geometry":{"type":"Polygon","coordinates":[[[38.57329,48.131727],[38.573717,48.131916],[38.573874,48.13181],[38.573443,48.131621],[38.57329,48.131727]]]}},{"type":"Feature","properties":{"cadnum":"1414745700:03:007:0013"},"geometry":{"type":"Polygon","coordinates":[[[38.573097,48.130965],[38.573771,48.131252],[38.573887,48.131166],[38.573241,48.130869],[38.573138,48.130935],[38.573097,48.130965]]]}},{"type":"Feature","properties":{"cadnum":"1414745700:03:006:0007"},"geometry":{"type":"Polygon","coordinates":[[[38.573443,48.131621],[38.573874,48.13181],[38.573986,48.131694],[38.573581,48.13152],[38.573443,48.131621]]]}},{"type":"Feature","properties":{"cadnum":"1414745700:03:002:0007"},"geometry":{"type":"Polygon","coordinates":[[[38.574872,48.13271],[38.575342,48.132941],[38.575468,48.132812],[38.575051,48.132581],[38.574872,48.13271]]]}},{"type":"Feature","properties":{"cadnum":"1414745700:03:006:0003"},"geometry":{"type":"Polygon","coordinates":[[[38.573147,48.131832],[38.573461,48.131967],[38.573591,48.13202],[38.573595,48.132023],[38.573717,48.131916],[38.573581,48.131856],[38.57329,48.131727],[38.573147,48.131832]]]}},{"type":"Feature","properties":{"cadnum":"1414745700:03:006:0006"},"geometry":{"type":"Polygon","coordinates":[[[38.575222,48.130692],[38.575438,48.1308],[38.575797,48.130974],[38.575918,48.130863],[38.575558,48.130689],[38.575419,48.130623],[38.575338,48.130585],[38.575222,48.130692]]]}},{"type":"Feature","properties":{"cadnum":"1414745700:03:007:0004"},"geometry":{"type":"Polygon","coordinates":[[[38.575356,48.129655],[38.575442,48.1297],[38.575541,48.129757],[38.575625,48.129685],[38.575688,48.129634],[38.575541,48.129554],[38.575356,48.129655]]]}},{"type":"Feature","properties":{"cadnum":"1414745700:03:007:0016"},"geometry":{"type":"Polygon","coordinates":[[[38.574449,48.13017],[38.574906,48.13045],[38.575051,48.130354],[38.574665,48.130114],[38.57457,48.130057],[38.574449,48.13017]]]}},{"type":"Feature","properties":{"cadnum":"1414745700:03:002:0005"},"geometry":{"type":"Polygon","coordinates":[[[38.575055,48.132581],[38.575472,48.132814],[38.575644,48.132674],[38.575231,48.132446],[38.575055,48.132581]]]}},{"type":"Feature","properties":{"cadnum":"1414745700:03:002:0008"},"geometry":{"type":"Polygon","coordinates":[[[38.57444,48.132464],[38.574872,48.132707],[38.575051,48.132581],[38.574629,48.132336],[38.57444,48.132464]]]}},{"type":"Feature","properties":{"cadnum":"1414745700:03:006:0008"},"geometry":{"type":"Polygon","coordinates":[[[38.573581,48.13152],[38.573986,48.131694],[38.57413,48.131585],[38.57374,48.131403],[38.573581,48.13152]]]}},{"type":"Feature","properties":{"cadnum":"1414745700:03:006:0013"},"geometry":{"type":"Polygon","coordinates":[[[38.575293,48.130299],[38.575558,48.130443],[38.575765,48.13029],[38.575527,48.130156],[38.575293,48.130299]]]}},{"type":"Feature","properties":{"cadnum":"1414745700:03:006:0014"},"geometry":{"type":"Polygon","coordinates":[[[38.574327,48.131496],[38.574885,48.131765],[38.575038,48.131661],[38.574507,48.1314],[38.57448,48.131388],[38.574327,48.131496]]]}},{"type":"Feature","properties":{"cadnum":"1414745700:03:001:0002"},"geometry":{"type":"Polygon","coordinates":[[[38.576128,48.132473],[38.57664,48.132737],[38.576811,48.132605],[38.576763,48.132575],[38.5763,48.132329],[38.576128,48.132473]]]}},{"type":"Feature","properties":{"cadnum":"1414745700:03:002:0004"},"geometry":{"type":"Polygon","coordinates":[[[38.575122,48.131925],[38.575558,48.132176],[38.575742,48.132023],[38.575293,48.131787],[38.575122,48.131925]]]}},{"type":"Feature","properties":{"cadnum":"1414745700:03:001:0004"},"geometry":{"type":"Polygon","coordinates":[[[38.575962,48.132614],[38.576484,48.132887],[38.57664,48.132737],[38.576191,48.132506],[38.576128,48.132473],[38.576101,48.132497],[38.575962,48.132614]]]}},{"type":"Feature","properties":{"cadnum":"1414745700:03:004:0006"},"geometry":{"type":"Polygon","coordinates":[[[38.575738,48.131421],[38.576155,48.131654],[38.576344,48.131505],[38.575922,48.131271],[38.575738,48.131421]]]}},{"type":"Feature","properties":{"cadnum":"1414745700:03:006:0011"},"geometry":{"type":"Polygon","coordinates":[[[38.575558,48.130443],[38.575604,48.13047],[38.576097,48.130714],[38.576281,48.130563],[38.575765,48.13029],[38.575558,48.130443]]]}},{"type":"Feature","properties":{"cadnum":"1414745700:03:004:0004"},"geometry":{"type":"Polygon","coordinates":[[[38.577602,48.129868],[38.578011,48.130105],[38.578195,48.129955],[38.577782,48.129727],[38.577602,48.129868]]]}},{"type":"Feature","properties":{"cadnum":"1414745700:03:002:0006"},"geometry":{"type":"Polygon","coordinates":[[[38.575887,48.131892],[38.576304,48.13211],[38.576474,48.131967],[38.576065,48.131738],[38.575887,48.131892]]]}},{"type":"Feature","properties":{"cadnum":"1414745700:03:004:0007"},"geometry":{"type":"Polygon","coordinates":[[[38.577692,48.130354],[38.578105,48.130587],[38.578281,48.13045],[38.577862,48.130219],[38.577692,48.130354]]]}},{"type":"Feature","properties":{"cadnum":"1414745700:03:004:0008"},"geometry":{"type":"Polygon","coordinates":[[[38.577094,48.130276],[38.577535,48.130483],[38.577692,48.130354],[38.577269,48.130126],[38.577094,48.130276]]]}},{"type":"Feature","properties":{"cadnum":"1414745700:03:003:0008"},"geometry":{"type":"Polygon","coordinates":[[[38.57708,48.131676],[38.577583,48.131918],[38.577759,48.131781],[38.577247,48.131532],[38.57708,48.131676]]]}},{"type":"Feature","properties":{"cadnum":"1414745700:03:004:0003"},"geometry":{"type":"Polygon","coordinates":[[[38.576344,48.131505],[38.576753,48.131745],[38.576919,48.131603],[38.57651,48.131363],[38.576344,48.131505]]]}},{"type":"Feature","properties":{"cadnum":"1414745700:03:003:0001"},"geometry":{"type":"Polygon","coordinates":[[[38.58022,48.129092],[38.580535,48.129263],[38.580724,48.129365],[38.580876,48.129226],[38.580701,48.129116],[38.580382,48.128914],[38.58022,48.129092]]]}},{"type":"Feature","properties":{"cadnum":"1414745700:03:003:0009"},"geometry":{"type":"Polygon","coordinates":[[[38.580912,48.128468],[38.581428,48.128738],[38.581586,48.128603],[38.581105,48.128342],[38.581078,48.12833],[38.581055,48.128348],[38.580912,48.128468]]]}},{"type":"Feature","properties":{"cadnum":"1414745700:03:005:0003"},"geometry":{"type":"Polygon","coordinates":[[[38.580005,48.128459],[38.580113,48.128513],[38.580441,48.128672],[38.580606,48.128528],[38.580283,48.12836],[38.580445,48.128231],[38.580342,48.128177],[38.580189,48.128312],[38.580013,48.12845],[38.580005,48.128459]]]}},{"type":"Feature","properties":{"cadnum":"1414745700:03:005:0006"},"geometry":{"type":"Polygon","coordinates":[[[38.580068,48.127812],[38.580082,48.127821],[38.580153,48.127856],[38.580239,48.127901],[38.580508,48.128036],[38.580669,48.127895],[38.580288,48.127692],[38.580239,48.127668],[38.580206,48.127692],[38.580068,48.127812]]]}},{"type":"Feature","properties":{"cadnum":"1414745700:03:003:0002"},"geometry":{"type":"Polygon","coordinates":[[[38.581078,48.12833],[38.581586,48.128603],[38.58177,48.128468],[38.581254,48.128195],[38.581078,48.12833]]]}},{"type":"Feature","properties":{"cadnum":"1414745700:03:008:0006"},"geometry":{"type":"Polygon","coordinates":[[[38.579722,48.126543],[38.579843,48.126825],[38.57987,48.126819],[38.57991,48.126843],[38.580206,48.127065],[38.580333,48.127008],[38.580365,48.126996],[38.580665,48.126843],[38.580683,48.126855],[38.580719,48.126831],[38.580742,48.126849],[38.581025,48.126666],[38.580962,48.126618],[38.580971,48.126612],[38.581172,48.126495],[38.581344,48.126417],[38.581128,48.126199],[38.580931,48.126283],[38.580472,48.12639],[38.57983,48.126481],[38.579753,48.126483],[38.579722,48.126543]]]}},{"type":"Feature","properties":{"cadnum":"1414745700:03:003:0004"},"geometry":{"type":"Polygon","coordinates":[[[38.581214,48.128222],[38.58169,48.12853],[38.581877,48.128396],[38.581388,48.128078],[38.581214,48.128222]]]}},{"type":"Feature","properties":{"cadnum":"1414745700:03:008:0004"},"geometry":{"type":"Polygon","coordinates":[[[38.578977,48.127212],[38.579291,48.127377],[38.5796,48.127541],[38.579772,48.127386],[38.579223,48.127079],[38.579143,48.127107],[38.578977,48.127212]]]}},{"type":"Feature","properties":{"cadnum":"1414745700:03:005:0005"},"geometry":{"type":"Polygon","coordinates":[[[38.578958,48.129334],[38.579124,48.129422],[38.57921,48.129467],[38.579343,48.129537],[38.579344,48.129537],[38.579376,48.129554],[38.579473,48.129475],[38.579596,48.129376],[38.579151,48.12917],[38.578958,48.129334]]]}},{"type":"Feature","properties":{"cadnum":"1414745700:04:009:0002"},"geometry":{"type":"Polygon","coordinates":[[[38.577961,48.145757],[38.577971,48.145788],[38.577965,48.145859],[38.578025,48.145913],[38.578122,48.145931],[38.578226,48.146039],[38.578239,48.146246],[38.578235,48.146357],[38.578577,48.146312],[38.578577,48.146311],[38.578841,48.146276],[38.578715,48.146162],[38.57868,48.146111],[38.578658,48.146042],[38.57855,48.145949],[38.578455,48.145973],[38.578415,48.145958],[38.578248,48.145788],[38.578096,48.145697],[38.577961,48.145757]]]}},{"type":"Feature","properties":{"cadnum":"1414745700:04:004:0001"},"geometry":{"type":"Polygon","coordinates":[[[38.566417,48.135587],[38.566643,48.135818],[38.566799,48.135977],[38.566912,48.135909],[38.566759,48.135749],[38.566535,48.135518],[38.566417,48.135587]]]}},{"type":"Feature","properties":{"cadnum":"1414745700:02:019:0003"},"geometry":{"type":"Polygon","coordinates":[[[38.562627,48.133087],[38.562629,48.133088],[38.562644,48.133098],[38.562806,48.133203],[38.563319,48.133534],[38.563516,48.133411],[38.563301,48.133274],[38.563291,48.133282],[38.563164,48.133203],[38.562784,48.132965],[38.562704,48.133031],[38.562627,48.133087]]]}},{"type":"Feature","properties":{"cadnum":"1414745700:02:019:0004"},"geometry":{"type":"Polygon","coordinates":[[[38.562784,48.132965],[38.562981,48.133088],[38.56298,48.133088],[38.563291,48.133283],[38.5633,48.133274],[38.563301,48.133274],[38.563516,48.133411],[38.563637,48.13333],[38.563423,48.133198],[38.563421,48.133197],[38.562883,48.132874],[38.562784,48.132965]]]}},{"type":"Feature","properties":{"cadnum":"1414745700:04:004:0003"},"geometry":{"type":"Polygon","coordinates":[[[38.567491,48.135555],[38.567591,48.135656],[38.567909,48.135977],[38.568035,48.135909],[38.567608,48.135482],[38.567491,48.135555]]]}},{"type":"Feature","properties":{"cadnum":"1414745700:01:007:0006"},"geometry":{"type":"Polygon","coordinates":[[[38.565507,48.133402],[38.56565,48.133498],[38.566176,48.133867],[38.566369,48.133756],[38.566126,48.133469],[38.565969,48.133427],[38.565933,48.133414],[38.565874,48.133402],[38.565794,48.133396],[38.565507,48.133402]]]}},{"type":"Feature","properties":{"cadnum":"1414745700:04:005:0007"},"geometry":{"type":"Polygon","coordinates":[[[38.567495,48.1342],[38.567591,48.13427],[38.567591,48.134269],[38.567954,48.134532],[38.56808,48.134451],[38.567626,48.134118],[38.567495,48.1342]]]}},{"type":"Feature","properties":{"cadnum":"1414745700:01:007:0007"},"geometry":{"type":"Polygon","coordinates":[[[38.565474,48.133612],[38.565605,48.133705],[38.565991,48.133975],[38.566176,48.133867],[38.56565,48.133498],[38.565474,48.133612]]]}},{"type":"Feature","properties":{"cadnum":"1414745700:01:007:0009"},"geometry":{"type":"Polygon","coordinates":[[[38.566342,48.133351],[38.566543,48.133496],[38.566652,48.133573],[38.566687,48.1336],[38.567405,48.133169],[38.567406,48.133169],[38.567377,48.133146],[38.567365,48.133136],[38.567272,48.133067],[38.567234,48.133088],[38.56706,48.133189],[38.567059,48.13319],[38.567007,48.133203],[38.567008,48.133203],[38.566899,48.133231],[38.566706,48.133349],[38.56658,48.133258],[38.566543,48.133231],[38.56648,48.133267],[38.566342,48.133351]]]}},{"type":"Feature","properties":{"cadnum":"1414745700:04:005:0001"},"geometry":{"type":"Polygon","coordinates":[[[38.566557,48.133834],[38.566773,48.134007],[38.567213,48.134362],[38.567406,48.134242],[38.56697,48.133888],[38.566755,48.133714],[38.566557,48.133834]]]}},{"type":"Feature","properties":{"cadnum":"1414745700:04:005:0005"},"geometry":{"type":"Polygon","coordinates":[[[38.56618,48.134961],[38.566625,48.135336],[38.566862,48.135189],[38.566449,48.134823],[38.566432,48.134811],[38.566306,48.134886],[38.56618,48.134961]]]}},{"type":"Feature","properties":{"cadnum":"1414745700:04:005:0008"},"geometry":{"type":"Polygon","coordinates":[[[38.565277,48.135507],[38.565291,48.135516],[38.565381,48.135609],[38.565425,48.135653],[38.56569,48.135893],[38.565847,48.1358],[38.565614,48.135573],[38.565564,48.135522],[38.565438,48.135429],[38.565277,48.135507]]]}},{"type":"Feature","properties":{"cadnum":"1414745700:01:007:0005"},"geometry":{"type":"Polygon","coordinates":[[[38.564576,48.134362],[38.564949,48.134574],[38.565098,48.134491],[38.564752,48.134227],[38.564576,48.134362]]]}},{"type":"Feature","properties":{"cadnum":"1414745700:01:007:0004"},"geometry":{"type":"Polygon","coordinates":[[[38.564891,48.134107],[38.564904,48.134116],[38.564895,48.134125],[38.565277,48.134389],[38.565488,48.134265],[38.565075,48.133975],[38.564891,48.134107]]]}},{"type":"Feature","properties":{"cadnum":"1414745700:01:007:0008"},"geometry":{"type":"Polygon","coordinates":[[[38.566301,48.133639],[38.566356,48.133681],[38.566409,48.13372],[38.566652,48.133573],[38.566543,48.133496],[38.566513,48.13351],[38.566512,48.13351],[38.566486,48.133492],[38.566356,48.13357],[38.566382,48.133591],[38.566301,48.133639]]]}},{"type":"Feature","properties":{"cadnum":"1414745700:02:038:0006"},"geometry":{"type":"Polygon","coordinates":[[[38.555643,48.126696],[38.555656,48.126711],[38.555687,48.126696],[38.55567,48.126681],[38.555643,48.126696]]]}},{"type":"Feature","properties":{"cadnum":"1414745700:02:006:0004"},"geometry":{"type":"Polygon","coordinates":[[[38.551794,48.128537],[38.551811,48.128549],[38.551852,48.128573],[38.552,48.128666],[38.552301,48.128447],[38.55222,48.128393],[38.55209,48.128315],[38.551794,48.128537]]]}},{"type":"Feature","properties":{"cadnum":"1414745700:02:028:0006"},"geometry":{"type":"Polygon","coordinates":[[[38.556469,48.126534],[38.556604,48.126609],[38.556604,48.126608],[38.556605,48.126608],[38.556798,48.126714],[38.556891,48.126645],[38.556981,48.126579],[38.556945,48.126555],[38.556914,48.126537],[38.556679,48.126384],[38.556653,48.126403],[38.556631,48.126417],[38.556469,48.126534]]]}},{"type":"Feature","properties":{"cadnum":"1414745700:02:011:0005"},"geometry":{"type":"Polygon","coordinates":[[[38.551978,48.127583],[38.55222,48.127739],[38.552427,48.12759],[38.552184,48.127434],[38.551978,48.127583]]]}},{"type":"Feature","properties":{"cadnum":"1414745700:02:014:0007"},"geometry":{"type":"Polygon","coordinates":[[[38.55336,48.127523],[38.553545,48.127646],[38.553886,48.12741],[38.553702,48.127296],[38.55336,48.127523]]]}},{"type":"Feature","properties":{"cadnum":"1414745700:02:014:0008"},"geometry":{"type":"Polygon","coordinates":[[[38.552297,48.127305],[38.552494,48.12743],[38.552822,48.12719],[38.552637,48.127059],[38.552511,48.127152],[38.552297,48.127305]]]}},{"type":"Feature","properties":{"cadnum":"1414745700:02:020:0008"},"geometry":{"type":"Polygon","coordinates":[[[38.554767,48.127227],[38.555031,48.127388],[38.555234,48.127236],[38.554964,48.12707],[38.554767,48.127227]]]}},{"type":"Feature","properties":{"cadnum":"1414745700:02:020:0009"},"geometry":{"type":"Polygon","coordinates":[[[38.554341,48.127523],[38.554605,48.127688],[38.554744,48.127586],[38.55478,48.127563],[38.554811,48.127539],[38.554555,48.127368],[38.554341,48.127523]]]}},{"type":"Feature","properties":{"cadnum":"1414745700:02:015:0002"},"geometry":{"type":"Polygon","coordinates":[[[38.555544,48.129305],[38.555674,48.129388],[38.555683,48.129383],[38.555759,48.129332],[38.55576,48.129332],[38.555817,48.129367],[38.555827,48.129374],[38.555894,48.129325],[38.555647,48.129166],[38.555637,48.129172],[38.555616,48.129187],[38.55558,48.129214],[38.55557,48.129221],[38.55562,48.129254],[38.555544,48.129305]]]}},{"type":"Feature","properties":{"cadnum":"1414745700:02:001:0001"},"geometry":{"type":"Polygon","coordinates":[[[38.551119,48.128974],[38.551394,48.129145],[38.551601,48.128992],[38.551349,48.128819],[38.551119,48.128974]]]}},{"type":"Feature","properties":{"cadnum":"1414745700:02:001:0008"},"geometry":{"type":"Polygon","coordinates":[[[38.551546,48.128954],[38.551601,48.128992],[38.551775,48.129116],[38.552045,48.128939],[38.551807,48.128783],[38.551546,48.128954]]]}},{"type":"Feature","properties":{"cadnum":"1414745700:02:011:0004"},"geometry":{"type":"Polygon","coordinates":[[[38.552987,48.128207],[38.553236,48.12836],[38.553429,48.12821],[38.553186,48.128057],[38.552987,48.128207]]]}},{"type":"Feature","properties":{"cadnum":"1414745700:02:014:0001"},"geometry":{"type":"Polygon","coordinates":[[[38.553572,48.128081],[38.55363,48.12812],[38.553775,48.128213],[38.55381,48.128234],[38.553842,48.128213],[38.554062,48.128078],[38.553873,48.127955],[38.553819,48.127916],[38.553572,48.128081]]]}},{"type":"Feature","properties":{"cadnum":"1414745700:02:028:0008"},"geometry":{"type":"Polygon","coordinates":[[[38.556253,48.12669],[38.556433,48.126796],[38.556433,48.126797],[38.556572,48.126879],[38.556576,48.126873],[38.556604,48.126853],[38.556604,48.126852],[38.556798,48.126714],[38.556469,48.126534],[38.556465,48.126537],[38.556438,48.126558],[38.556253,48.12669]]]}},{"type":"Feature","properties":{"cadnum":"1414745700:02:014:0005"},"geometry":{"type":"Polygon","coordinates":[[[38.553712,48.127757],[38.553882,48.127865],[38.554016,48.127779],[38.554232,48.127628],[38.554058,48.127521],[38.553712,48.127757]]]}},{"type":"Feature","properties":{"cadnum":"1414745700:02:021:0006"},"geometry":{"type":"Polygon","coordinates":[[[38.55474,48.126756],[38.554907,48.126855],[38.555234,48.126615],[38.555067,48.126513],[38.555037,48.126532],[38.55474,48.126756]]]}},{"type":"Feature","properties":{"cadnum":"1414745700:02:020:0007"},"geometry":{"type":"Polygon","coordinates":[[[38.554484,48.127208],[38.55465,48.127319],[38.554767,48.127227],[38.554964,48.12707],[38.554785,48.126959],[38.554484,48.127208]]]}},{"type":"Feature","properties":{"cadnum":"1414745700:02:014:0006"},"geometry":{"type":"Polygon","coordinates":[[[38.553222,48.127874],[38.553226,48.127877],[38.553249,48.12789],[38.553383,48.127979],[38.553712,48.127757],[38.553545,48.127646],[38.553222,48.127874]]]}},{"type":"Feature","properties":{"cadnum":"1414745700:02:021:0005"},"geometry":{"type":"Polygon","coordinates":[[[38.555067,48.126513],[38.555234,48.126615],[38.55557,48.126399],[38.555391,48.126292],[38.555067,48.126513]]]}},{"type":"Feature","properties":{"cadnum":"1414745700:02:021:0007"},"geometry":{"type":"Polygon","coordinates":[[[38.554893,48.12639],[38.555067,48.126513],[38.555391,48.126292],[38.555216,48.126172],[38.554893,48.12639]]]}},{"type":"Feature","properties":{"cadnum":"1414745700:02:006:0003"},"geometry":{"type":"Polygon","coordinates":[[[38.552144,48.128756],[38.552324,48.128867],[38.552633,48.128659],[38.552454,48.128549],[38.552144,48.128756]]]}},{"type":"Feature","properties":{"cadnum":"1414745700:02:020:0001"},"geometry":{"type":"Polygon","coordinates":[[[38.553765,48.126717],[38.55394,48.126831],[38.554245,48.126594],[38.554066,48.126483],[38.553765,48.126717]]]}},{"type":"Feature","properties":{"cadnum":"1414745700:03:003:0006"},"geometry":{"type":"Polygon","coordinates":[[[38.578594,48.130416],[38.579116,48.130696],[38.579286,48.130554],[38.578774,48.130263],[38.578594,48.130416]]]}},{"type":"Feature","properties":{"cadnum":"1414745700:03:003:0003"},"geometry":{"type":"Polygon","coordinates":[[[38.579386,48.129751],[38.57991,48.130041],[38.580068,48.129907],[38.579551,48.12961],[38.579386,48.129751]]]}},{"type":"Feature","properties":{"cadnum":"1414745700:02:010:0001"},"geometry":{"type":"Polygon","coordinates":[[[38.560453,48.134196],[38.560834,48.134436],[38.561096,48.134362],[38.56071,48.134116],[38.560633,48.134067],[38.560453,48.134196]]]}},{"type":"Feature","properties":{"cadnum":"1414745700:01:010:0004"},"geometry":{"type":"Polygon","coordinates":[[[38.558239,48.133636],[38.558279,48.13366],[38.558405,48.133732],[38.558419,48.133718],[38.558419,48.133717],[38.558446,48.133696],[38.558454,48.13369],[38.558477,48.133702],[38.558482,48.133705],[38.558499,48.133714],[38.55862,48.133621],[38.558549,48.133582],[38.558544,48.133579],[38.558522,48.133567],[38.55841,48.133501],[38.558364,48.133534],[38.558274,48.133607],[38.558239,48.133636]]]}},{"type":"Feature","properties":{"cadnum":"1414745700:02:010:0005"},"geometry":{"type":"Polygon","coordinates":[[[38.56022,48.133834],[38.560633,48.134067],[38.560655,48.134083],[38.560826,48.134002],[38.560377,48.133723],[38.56022,48.133834]]]}},{"type":"Feature","properties":{"cadnum":"1414745700:02:005:0003"},"geometry":{"type":"Polygon","coordinates":[[[38.560022,48.13518],[38.560094,48.135201],[38.560241,48.135096],[38.560457,48.134985],[38.560773,48.134763],[38.560524,48.134727],[38.560318,48.134916],[38.56017,48.135048],[38.560022,48.13518]]]}},{"type":"Feature","properties":{"cadnum":"1414745700:02:019:0001"},"geometry":{"type":"Polygon","coordinates":[[[38.56079,48.133438],[38.560916,48.133507],[38.561027,48.13357],[38.561117,48.133621],[38.56154,48.133861],[38.561652,48.133774],[38.561243,48.133525],[38.560966,48.133354],[38.560933,48.133336],[38.560897,48.13336],[38.56079,48.133438]]]}},{"type":"Feature","properties":{"cadnum":"1414745700:02:005:0001"},"geometry":{"type":"Polygon","coordinates":[[[38.558131,48.135605],[38.558477,48.135744],[38.558979,48.135942],[38.559142,48.135836],[38.558607,48.135618],[38.55832,48.135504],[38.558131,48.135605]]]}},{"type":"Feature","properties":{"cadnum":"1414745700:02:038:0001"},"geometry":{"type":"Polygon","coordinates":[[[38.562834,48.13717],[38.562928,48.137236],[38.563134,48.137377],[38.563188,48.137344],[38.563394,48.137206],[38.563526,48.137122],[38.563547,48.137111],[38.563243,48.1369],[38.563094,48.137],[38.562834,48.13717]]]}},{"type":"Feature","properties":{"cadnum":"1414745700:02:046:0004"},"geometry":{"type":"Polygon","coordinates":[[[38.563989,48.126627],[38.564069,48.126681],[38.564109,48.126705],[38.564216,48.126774],[38.564809,48.126381],[38.564568,48.126228],[38.563989,48.126627]]]}},{"type":"Feature","properties":{"cadnum":"1414745700:02:038:0004"},"geometry":{"type":"Polygon","coordinates":[[[38.562524,48.127814],[38.562857,48.128015],[38.563126,48.127814],[38.562987,48.12773],[38.56296,48.127745],[38.562771,48.127634],[38.562524,48.127814]]]}},{"type":"Feature","properties":{"cadnum":"1414745700:02:038:0008"},"geometry":{"type":"Polygon","coordinates":[[[38.56318,48.127923],[38.563243,48.127958],[38.563323,48.127892],[38.56326,48.127856],[38.56318,48.127923]]]}},{"type":"Feature","properties":{"cadnum":"1414745700:02:043:0008"},"geometry":{"type":"Polygon","coordinates":[[[38.563333,48.127548],[38.563602,48.127725],[38.56361,48.127719],[38.563633,48.127706],[38.563637,48.127701],[38.563557,48.12765],[38.56365,48.127583],[38.563651,48.127583],[38.563706,48.127616],[38.563732,48.127599],[38.563822,48.127656],[38.563934,48.127721],[38.564195,48.127541],[38.56374,48.127254],[38.563333,48.127548]]]}},{"type":"Feature","properties":{"cadnum":"1414745700:02:046:0002"},"geometry":{"type":"Polygon","coordinates":[[[38.565411,48.126564],[38.565601,48.126693],[38.566266,48.126223],[38.56605,48.126088],[38.565411,48.126564]]]}},{"type":"Feature","properties":{"cadnum":"1414745700:02:043:0007"},"geometry":{"type":"Polygon","coordinates":[[[38.563629,48.127743],[38.563727,48.127803],[38.563759,48.127779],[38.56366,48.127719],[38.563629,48.127743]]]}},{"type":"Feature","properties":{"cadnum":"1414745700:02:046:0005"},"geometry":{"type":"Polygon","coordinates":[[[38.564568,48.126228],[38.564809,48.126381],[38.564931,48.126297],[38.564828,48.126232],[38.564689,48.126145],[38.564568,48.126228]]]}},{"type":"Feature","properties":{"cadnum":"1414745700:02:046:0003"},"geometry":{"type":"Polygon","coordinates":[[[38.565375,48.126592],[38.56556,48.126723],[38.565601,48.126693],[38.565411,48.126564],[38.565375,48.126592]]]}},{"type":"Feature","properties":{"cadnum":"1414745700:02:038:0002"},"geometry":{"type":"Polygon","coordinates":[[[38.563067,48.127757],[38.563126,48.127796],[38.56317,48.127763],[38.563111,48.127727],[38.563067,48.127757]]]}},{"type":"Feature","properties":{"cadnum":"1414745700:02:039:0006"},"geometry":{"type":"Polygon","coordinates":[[[38.563624,48.129434],[38.563699,48.129479],[38.56379,48.129535],[38.564159,48.129265],[38.563997,48.129163],[38.563989,48.129172],[38.563988,48.129172],[38.56364,48.129422],[38.563624,48.129433],[38.563624,48.129434]]]}},{"type":"Feature","properties":{"cadnum":"1414745700:02:038:0007"},"geometry":{"type":"Polygon","coordinates":[[[38.563085,48.127847],[38.563134,48.127877],[38.56318,48.127845],[38.563224,48.127872],[38.563251,48.12785],[38.56326,48.127845],[38.563166,48.127787],[38.563157,48.127794],[38.56313,48.127814],[38.563085,48.127847]]]}},{"type":"Feature","properties":{"cadnum":"1414745700:02:043:0003"},"geometry":{"type":"Polygon","coordinates":[[[38.563557,48.12765],[38.563637,48.127701],[38.56366,48.127719],[38.563759,48.127779],[38.563853,48.127712],[38.563796,48.127677],[38.563795,48.127677],[38.563795,48.127676],[38.563796,48.127676],[38.563822,48.127656],[38.563732,48.127599],[38.563706,48.127616],[38.563705,48.127616],[38.563651,48.127583],[38.563557,48.12765]]]}},{"type":"Feature","properties":{"cadnum":"1414745700:02:038:0011"},"geometry":{"type":"Polygon","coordinates":[[[38.562663,48.128798],[38.562775,48.128867],[38.563157,48.129101],[38.563283,48.129014],[38.563431,48.128903],[38.562937,48.128599],[38.562663,48.128798]]]}},{"type":"Feature","properties":{"cadnum":"1414745700:02:039:0004"},"geometry":{"type":"Polygon","coordinates":[[[38.563264,48.129203],[38.563457,48.129328],[38.563817,48.12907],[38.563876,48.129028],[38.563677,48.128903],[38.563264,48.129203]]]}},{"type":"Feature","properties":{"cadnum":"1414745700:02:038:0003"},"geometry":{"type":"Polygon","coordinates":[[[38.562254,48.127596],[38.562385,48.127676],[38.562677,48.127476],[38.562545,48.127392],[38.562254,48.127596]]]}},{"type":"Feature","properties":{"cadnum":"1414745700:02:008:0001"},"geometry":{"type":"Polygon","coordinates":[[[38.555823,48.13074],[38.556042,48.130881],[38.556266,48.130728],[38.556056,48.130587],[38.555823,48.13074]]]}},{"type":"Feature","properties":{"cadnum":"1414745700:02:002:0009"},"geometry":{"type":"Polygon","coordinates":[[[38.553658,48.130216],[38.553968,48.13041],[38.554174,48.130254],[38.553865,48.130063],[38.553658,48.130216]]]}},{"type":"Feature","properties":{"cadnum":"1414745700:02:008:0008"},"geometry":{"type":"Polygon","coordinates":[[[38.555314,48.130794],[38.555526,48.130932],[38.555823,48.13074],[38.555603,48.130605],[38.555584,48.130617],[38.555314,48.130794]]]}},{"type":"Feature","properties":{"cadnum":"1414745700:02:008:0007"},"geometry":{"type":"Polygon","coordinates":[[[38.55514,48.130309],[38.555377,48.130459],[38.555611,48.130299],[38.55536,48.130152],[38.55514,48.130309]]]}},{"type":"Feature","properties":{"cadnum":"1414745700:02:002:0003"},"geometry":{"type":"Polygon","coordinates":[[[38.553968,48.13041],[38.554264,48.130603],[38.554471,48.130447],[38.554174,48.130254],[38.553968,48.13041]]]}},{"type":"Feature","properties":{"cadnum":"1414745700:02:002:0004"},"geometry":{"type":"Polygon","coordinates":[[[38.553742,48.130572],[38.554048,48.130765],[38.554264,48.130603],[38.553968,48.13041],[38.553742,48.130572]]]}},{"type":"Feature","properties":{"cadnum":"1414745700:02:013:0004"},"geometry":{"type":"Polygon","coordinates":[[[38.555251,48.129946],[38.555607,48.13017],[38.555823,48.130003],[38.555733,48.129949],[38.55545,48.129772],[38.555251,48.129946]]]}},{"type":"Feature","properties":{"cadnum":"1414745700:02:008:0005"},"geometry":{"type":"Polygon","coordinates":[[[38.555962,48.131205],[38.55619,48.13134],[38.556469,48.131148],[38.556245,48.13101],[38.555962,48.131205]]]}},{"type":"Feature","properties":{"cadnum":"1414745700:02:002:0002"},"geometry":{"type":"Polygon","coordinates":[[[38.554618,48.130345],[38.554713,48.130414],[38.554848,48.13051],[38.555126,48.130299],[38.555,48.130216],[38.554897,48.13015],[38.554618,48.130345]]]}},{"type":"Feature","properties":{"cadnum":"1414745700:02:002:0005"},"geometry":{"type":"Polygon","coordinates":[[[38.55557,48.131721],[38.555863,48.131907],[38.556079,48.131756],[38.555782,48.131576],[38.55557,48.131721]]]}},{"type":"Feature","properties":{"cadnum":"1414745700:02:002:0006"},"geometry":{"type":"Polygon","coordinates":[[[38.553459,48.130365],[38.553742,48.130572],[38.553968,48.13041],[38.553658,48.130216],[38.553459,48.130365]]]}},{"type":"Feature","properties":{"cadnum":"1414745700:02:008:0004"},"geometry":{"type":"Polygon","coordinates":[[[38.555086,48.130647],[38.555314,48.130794],[38.555584,48.130617],[38.555354,48.130474],[38.555086,48.130647]]]}},{"type":"Feature","properties":{"cadnum":"1414745700:02:013:0005"},"geometry":{"type":"Polygon","coordinates":[[[38.55545,48.129772],[38.555733,48.129949],[38.555916,48.129784],[38.555637,48.129614],[38.55545,48.129772]]]}},{"type":"Feature","properties":{"cadnum":"1414745700:02:002:0008"},"geometry":{"type":"Polygon","coordinates":[[[38.554574,48.130797],[38.554874,48.130986],[38.555077,48.130836],[38.554775,48.130645],[38.554574,48.130797]]]}},{"type":"Feature","properties":{"cadnum":"1414745700:04:006:0006"},"geometry":{"type":"Polygon","coordinates":[[[38.570855,48.133393],[38.571574,48.133912],[38.571772,48.133798],[38.571035,48.13328],[38.570855,48.133393]]]}},{"type":"Feature","properties":{"cadnum":"1414745700:04:006:0005"},"geometry":{"type":"Polygon","coordinates":[[[38.570752,48.133318],[38.570855,48.133393],[38.571035,48.13328],[38.570927,48.133205],[38.570752,48.133318]]]}},{"type":"Feature","properties":{"cadnum":"1414745700:04:006:0004"},"geometry":{"type":"Polygon","coordinates":[[[38.56914,48.133924],[38.56923,48.134025],[38.569283,48.134014],[38.569373,48.134092],[38.569459,48.134074],[38.569665,48.133954],[38.569742,48.133906],[38.569482,48.133708],[38.56914,48.133924]]]}},{"type":"Feature","properties":{"cadnum":"1414745700:04:005:0009"},"geometry":{"type":"Polygon","coordinates":[[[38.56777,48.134029],[38.568233,48.134358],[38.56834,48.134293],[38.568371,48.134274],[38.568336,48.134251],[38.568264,48.134196],[38.56821,48.134158],[38.567918,48.133945],[38.567874,48.133965],[38.56777,48.134029]]]}},{"type":"Feature","properties":{"cadnum":"1414745700:04:004:0002"},"geometry":{"type":"Polygon","coordinates":[[[38.568061,48.134587],[38.568448,48.134982],[38.568574,48.134907],[38.568188,48.134514],[38.568061,48.134587]]]}},{"type":"Feature","properties":{"cadnum":"1414745700:04:004:0005"},"geometry":{"type":"Polygon","coordinates":[[[38.568556,48.134302],[38.568929,48.134689],[38.569046,48.134616],[38.568673,48.134229],[38.568556,48.134302]]]}},{"type":"Feature","properties":{"cadnum":"1414745700:04:005:0002"},"geometry":{"type":"Polygon","coordinates":[[[38.56844,48.133669],[38.568866,48.13399],[38.568973,48.133924],[38.56856,48.133621],[38.568538,48.133612],[38.56844,48.133669]]]}},{"type":"Feature","properties":{"cadnum":"1414745700:04:006:0002"},"geometry":{"type":"Polygon","coordinates":[[[38.571048,48.133291],[38.571493,48.133603],[38.571772,48.133798],[38.571973,48.133684],[38.57169,48.133492],[38.571233,48.133178],[38.571048,48.133291]]]}},{"type":"Feature","properties":{"cadnum":"1414745700:04:006:0007"},"geometry":{"type":"Polygon","coordinates":[[[38.569482,48.133708],[38.569742,48.133906],[38.569832,48.133852],[38.569962,48.133771],[38.569702,48.133567],[38.569482,48.133708]]]}},{"type":"Feature","properties":{"cadnum":"1414745700:03:004:0002"},"geometry":{"type":"Polygon","coordinates":[[[38.57196,48.133891],[38.572378,48.134113],[38.572562,48.133972],[38.57214,48.133741],[38.57196,48.133891]]]}},{"type":"Feature","properties":{"cadnum":"1414745700:02:029:0005"},"geometry":{"type":"Polygon","coordinates":[[[38.560637,48.129016],[38.560637,48.129017],[38.56083,48.129136],[38.561153,48.128906],[38.561153,48.128905],[38.56096,48.128786],[38.560767,48.128918],[38.560637,48.129016]]]}},{"type":"Feature","properties":{"cadnum":"1414745700:02:029:0003"},"geometry":{"type":"Polygon","coordinates":[[[38.56096,48.129232],[38.561113,48.129323],[38.561432,48.129083],[38.561275,48.128992],[38.56096,48.129232]]]}},{"type":"Feature","properties":{"cadnum":"1414745700:02:027:0001"},"geometry":{"type":"Polygon","coordinates":[[[38.557947,48.127467],[38.558234,48.127656],[38.55845,48.127503],[38.558144,48.127319],[38.558068,48.127374],[38.557947,48.127467]]]}},{"type":"Feature","properties":{"cadnum":"1414745700:02:028:0005"},"geometry":{"type":"Polygon","coordinates":[[[38.557978,48.126394],[38.558033,48.126423],[38.558144,48.126495],[38.558356,48.126361],[38.558459,48.126292],[38.558396,48.126255],[38.558287,48.126192],[38.558243,48.126219],[38.558199,48.12625],[38.558149,48.126283],[38.558014,48.12637],[38.557978,48.126394]]]}},{"type":"Feature","properties":{"cadnum":"1414745700:02:028:0004"},"geometry":{"type":"Polygon","coordinates":[[[38.558419,48.127712],[38.558733,48.127898],[38.558805,48.127847],[38.558899,48.127779],[38.558585,48.127592],[38.558419,48.127712]]]}},{"type":"Feature","properties":{"cadnum":"1414745700:02:023:0003"},"geometry":{"type":"Polygon","coordinates":[[[38.558513,48.129092],[38.558706,48.129221],[38.559065,48.128992],[38.558853,48.128858],[38.558513,48.129092]]]}},{"type":"Feature","properties":{"cadnum":"1414745700:02:019:0010"},"geometry":{"type":"Polygon","coordinates":[[[38.563903,48.132191],[38.563993,48.132257],[38.564195,48.132131],[38.5641,48.132068],[38.564092,48.132074],[38.563903,48.132191]]]}},{"type":"Feature","properties":{"cadnum":"1414745700:02:019:0012"},"geometry":{"type":"Polygon","coordinates":[[[38.567078,48.130359],[38.567141,48.130399],[38.567329,48.130285],[38.567266,48.130252],[38.567092,48.13035],[38.567078,48.130359]]]}},{"type":"Feature","properties":{"cadnum":"1414745700:02:030:0005"},"geometry":{"type":"Polygon","coordinates":[[[38.563457,48.129841],[38.563647,48.129958],[38.563943,48.129742],[38.563759,48.129625],[38.563457,48.129841]]]}},{"type":"Feature","properties":{"cadnum":"1414745700:02:019:0013"},"geometry":{"type":"Polygon","coordinates":[[[38.564073,48.131073],[38.564815,48.131625],[38.564882,48.131583],[38.564302,48.131154],[38.564465,48.131025],[38.564289,48.130905],[38.564073,48.131073]]]}},{"type":"Feature","properties":{"cadnum":"1414745700:02:019:0019"},"geometry":{"type":"Polygon","coordinates":[[[38.564801,48.130539],[38.565641,48.131043],[38.565708,48.130995],[38.565748,48.130965],[38.565771,48.130947],[38.564909,48.130459],[38.564899,48.130465],[38.564886,48.130479],[38.564801,48.130539]]]}},{"type":"Feature","properties":{"cadnum":"1414745700:02:019:0016"},"geometry":{"type":"Polygon","coordinates":[[[38.565631,48.129928],[38.566647,48.130483],[38.566813,48.130387],[38.565761,48.129832],[38.565631,48.129928]]]}},{"type":"Feature","properties":{"cadnum":"1414745700:02:019:0017"},"geometry":{"type":"Polygon","coordinates":[[[38.566647,48.130483],[38.566692,48.13051],[38.566759,48.130474],[38.566795,48.130498],[38.566912,48.130438],[38.566813,48.130387],[38.566647,48.130483]]]}},{"type":"Feature","properties":{"cadnum":"1414745700:02:019:0009"},"geometry":{"type":"Polygon","coordinates":[[[38.563993,48.132257],[38.564402,48.132557],[38.564505,48.132632],[38.564612,48.132713],[38.564845,48.132575],[38.564195,48.132131],[38.563993,48.132257]]]}},{"type":"Feature","properties":{"cadnum":"1414745700:02:019:0007"},"geometry":{"type":"Polygon","coordinates":[[[38.566044,48.130734],[38.566956,48.131361],[38.567105,48.131265],[38.566337,48.130746],[38.56617,48.130636],[38.566044,48.130734]]]}},{"type":"Feature","properties":{"cadnum":"1414745700:02:039:0005"},"geometry":{"type":"Polygon","coordinates":[[[38.564222,48.129904],[38.564388,48.130006],[38.564769,48.129709],[38.564603,48.129607],[38.564222,48.129904]]]}},{"type":"Feature","properties":{"cadnum":"1414745700:02:019:0015"},"geometry":{"type":"Polygon","coordinates":[[[38.564276,48.131976],[38.564343,48.132023],[38.564549,48.131901],[38.564478,48.131849],[38.564465,48.131861],[38.564276,48.131976]]]}},{"type":"Feature","properties":{"cadnum":"1414745700:02:025:0003"},"geometry":{"type":"Polygon","coordinates":[[[38.562205,48.130962],[38.562402,48.131082],[38.562721,48.130843],[38.562532,48.130716],[38.562205,48.130962]]]}},{"type":"Feature","properties":{"cadnum":"1414745700:02:030:0001"},"geometry":{"type":"Polygon","coordinates":[[[38.563301,48.130681],[38.563499,48.130803],[38.563651,48.130696],[38.563813,48.130576],[38.563602,48.130441],[38.563301,48.130681]]]}},{"type":"Feature","properties":{"cadnum":"1414745700:02:019:0014"},"geometry":{"type":"Polygon","coordinates":[[[38.564343,48.132023],[38.565025,48.132491],[38.565241,48.132374],[38.564549,48.131901],[38.564343,48.132023]]]}},{"type":"Feature","properties":{"cadnum":"1414745700:02:030:0004"},"geometry":{"type":"Polygon","coordinates":[[[38.562245,48.130441],[38.562434,48.130561],[38.562748,48.130339],[38.56256,48.130221],[38.562245,48.130441]]]}},{"type":"Feature","properties":{"cadnum":"1414745700:01:001:0004"},"geometry":{"type":"Polygon","coordinates":[[[38.567945,48.12839],[38.568407,48.128783],[38.568583,48.128678],[38.56813,48.128291],[38.567945,48.12839]]]}},{"type":"Feature","properties":{"cadnum":"1414745700:01:002:0004"},"geometry":{"type":"Polygon","coordinates":[[[38.569342,48.128456],[38.569876,48.128825],[38.570011,48.128729],[38.569503,48.128363],[38.569342,48.128456]]]}},{"type":"Feature","properties":{"cadnum":"1414745700:01:006:0011"},"geometry":{"type":"Polygon","coordinates":[[[38.571929,48.12615],[38.572226,48.126652],[38.572539,48.126567],[38.572239,48.126066],[38.571929,48.12615]]]}},{"type":"Feature","properties":{"cadnum":"1414745700:01:002:0002"},"geometry":{"type":"Polygon","coordinates":[[[38.570109,48.127997],[38.570384,48.128195],[38.570559,48.128318],[38.570801,48.128156],[38.570644,48.128043],[38.570371,48.127841],[38.570109,48.127997]]]}}]}