{"type":"FeatureCollection","features":[{"type":"Feature","properties":{"cadnum":"1415047200:04:000:0015"},"geometry":{"type":"Polygon","coordinates":[[[38.273913,47.933781],[38.273922,47.933784],[38.274012,47.933809],[38.274173,47.933863],[38.274685,47.93336],[38.274412,47.933272],[38.273957,47.933724],[38.273913,47.933781]]]}},{"type":"Feature","properties":{"cadnum":"1415047200:04:000:0013"},"geometry":{"type":"Polygon","coordinates":[[[38.274689,47.93283],[38.275764,47.933254],[38.275848,47.933288],[38.276014,47.933176],[38.27593,47.933143],[38.275454,47.932966],[38.274821,47.932722],[38.274806,47.932731],[38.274775,47.932758],[38.274689,47.93283]]]}},{"type":"Feature","properties":{"cadnum":"1415047200:03:000:0019"},"geometry":{"type":"Polygon","coordinates":[[[38.232815,47.953898],[38.233683,47.954361],[38.233853,47.954223],[38.232937,47.953793],[38.232815,47.953898]]]}},{"type":"Feature","properties":{"cadnum":"1415047200:03:000:0025"},"geometry":{"type":"Polygon","coordinates":[[[38.233556,47.957068],[38.233772,47.957128],[38.233896,47.956908],[38.233979,47.956761],[38.234113,47.956511],[38.23387,47.956451],[38.23374,47.956689],[38.233681,47.956811],[38.23368,47.956811],[38.233556,47.957068]]]}},{"type":"Feature","properties":{"cadnum":"1415047200:03:000:0016"},"geometry":{"type":"Polygon","coordinates":[[[38.232455,47.95406],[38.232828,47.954286],[38.233394,47.954593],[38.233507,47.954499],[38.233534,47.954478],[38.233534,47.954475],[38.232909,47.954168],[38.232577,47.953976],[38.232455,47.95406]]]}},{"type":"Feature","properties":{"cadnum":"1415047200:03:000:0021"},"geometry":{"type":"Polygon","coordinates":[[[38.234019,47.954394],[38.234675,47.954692],[38.234868,47.954502],[38.234419,47.954297],[38.234373,47.954279],[38.234189,47.954219],[38.234019,47.954394]]]}},{"type":"Feature","properties":{"cadnum":"1415047200:07:000:0003"},"geometry":{"type":"Polygon","coordinates":[[[38.320747,47.990798],[38.322328,47.991275],[38.325891,47.992596],[38.325892,47.992596],[38.325979,47.992628],[38.328071,47.9937],[38.328225,47.993779],[38.329429,47.993728],[38.329757,47.993716],[38.331213,47.993658],[38.331318,47.993654],[38.331385,47.993651],[38.331548,47.993644],[38.331213,47.993435],[38.327512,47.991125],[38.327233,47.99095],[38.327242,47.990965],[38.327242,47.990966],[38.327219,47.990974],[38.327206,47.990957],[38.327229,47.99095],[38.326887,47.990738],[38.325892,47.990117],[38.325891,47.990117],[38.325891,47.990116],[38.325744,47.990024],[38.325621,47.989947],[38.321874,47.989065],[38.321325,47.989909],[38.321324,47.989909],[38.320747,47.990798]],[[38.329357,47.99349],[38.329285,47.993532],[38.329284,47.993532],[38.329267,47.993521],[38.329339,47.993479],[38.32934,47.993479],[38.329357,47.99349]],[[38.328934,47.993075],[38.328934,47.993076],[38.328912,47.993085],[38.328898,47.99307],[38.328926,47.99306],[38.328934,47.993075]],[[38.32858,47.992637],[38.328558,47.992646],[38.328544,47.992631],[38.328567,47.992621],[38.32858,47.992637]],[[38.328305,47.992297],[38.328284,47.992303],[38.328271,47.992289],[38.328271,47.992288],[38.328292,47.99228],[38.328305,47.992297]],[[38.327919,47.991814],[38.327898,47.991823],[38.327884,47.991805],[38.327906,47.991795],[38.327919,47.991814]],[[38.327623,47.99144],[38.327601,47.991449],[38.327587,47.991435],[38.327609,47.991426],[38.327623,47.99144]]]}},{"type":"Feature","properties":{"cadnum":"1415047200:07:000:0001"},"geometry":{"type":"Polygon","coordinates":[[[38.316736,47.990193],[38.317697,47.991366],[38.319592,47.991014],[38.319084,47.989909],[38.3189,47.989508],[38.317268,47.990024],[38.316736,47.990193]]]}},{"type":"Feature","properties":{"cadnum":"1415047200:02:000:0061"},"geometry":{"type":"Polygon","coordinates":[[[38.271496,47.983002],[38.271569,47.983042],[38.271626,47.98299],[38.271555,47.982951],[38.271496,47.983002]]]}},{"type":"Feature","properties":{"cadnum":"1415047200:02:000:0068"},"geometry":{"type":"Polygon","coordinates":[[[38.27324,47.985467],[38.273391,47.985576],[38.274268,47.985014],[38.27415,47.984929],[38.274115,47.984902],[38.274093,47.984918],[38.27324,47.985467]]]}},{"type":"Feature","properties":{"cadnum":"1415047200:02:000:0044"},"geometry":{"type":"Polygon","coordinates":[[[38.275588,47.982567],[38.275588,47.982572],[38.275675,47.982613],[38.275714,47.982632],[38.27578,47.982671],[38.275781,47.982671],[38.275844,47.982708],[38.275884,47.982728],[38.276167,47.982861],[38.276281,47.982918],[38.276281,47.982919],[38.277052,47.983303],[38.277089,47.983173],[38.276453,47.982877],[38.276271,47.982792],[38.275921,47.982632],[38.275886,47.982613],[38.275871,47.982605],[38.275817,47.982578],[38.275664,47.982498],[38.275638,47.982527],[38.275602,47.982556],[38.275601,47.982556],[38.275588,47.982566],[38.275588,47.982567]]]}},{"type":"Feature","properties":{"cadnum":"1415047200:02:000:0064"},"geometry":{"type":"Polygon","coordinates":[[[38.274102,47.984611],[38.274263,47.984719],[38.275117,47.984147],[38.274968,47.984042],[38.274812,47.984145],[38.274102,47.984611]]]}},{"type":"Feature","properties":{"cadnum":"1415047200:02:000:0025"},"geometry":{"type":"Polygon","coordinates":[[[38.275831,47.987226],[38.276281,47.987237],[38.276281,47.987238],[38.277955,47.987277],[38.278144,47.986233],[38.278431,47.984653],[38.277691,47.984631],[38.277821,47.984439],[38.277932,47.984401],[38.278251,47.984105],[38.278701,47.983739],[38.279303,47.98336],[38.279792,47.983104],[38.280372,47.982888],[38.280974,47.982726],[38.280951,47.982687],[38.281187,47.982639],[38.28119,47.982638],[38.281616,47.982548],[38.281729,47.982524],[38.281774,47.982514],[38.281775,47.982514],[38.282496,47.98234],[38.282784,47.982266],[38.283108,47.982173],[38.283467,47.982061],[38.283844,47.981935],[38.28436,47.981749],[38.284787,47.981577],[38.285892,47.981114],[38.286628,47.980802],[38.286588,47.98076],[38.285851,47.981072],[38.284752,47.981535],[38.284324,47.981707],[38.283813,47.981892],[38.283435,47.982019],[38.283075,47.982128],[38.282756,47.982217],[38.282469,47.982293],[38.281946,47.982419],[38.281706,47.982476],[38.281597,47.9825],[38.281331,47.982556],[38.281329,47.982556],[38.281168,47.98259],[38.281167,47.98259],[38.281053,47.982613],[38.281005,47.982623],[38.28092,47.982518],[38.280805,47.982556],[38.280622,47.982616],[38.280455,47.982671],[38.279775,47.982894],[38.279141,47.983222],[38.278647,47.983534],[38.277726,47.984241],[38.277924,47.983245],[38.27802,47.982671],[38.278021,47.982671],[38.278144,47.981938],[38.278158,47.981541],[38.278022,47.980867],[38.277614,47.980026],[38.277188,47.979416],[38.27668,47.97895],[38.276453,47.979056],[38.276024,47.979256],[38.276281,47.979647],[38.276281,47.979648],[38.277582,47.981625],[38.27744,47.982556],[38.277432,47.98261],[38.277423,47.982671],[38.27716,47.984415],[38.277309,47.984418],[38.277309,47.984419],[38.277282,47.984617],[38.276487,47.984635],[38.276416,47.984746],[38.276217,47.985059],[38.275986,47.986348],[38.275987,47.986348],[38.275831,47.987226]]]}},{"type":"Feature","properties":{"cadnum":"1415047200:02:000:0046"},"geometry":{"type":"Polygon","coordinates":[[[38.272911,47.985047],[38.273177,47.985139],[38.273832,47.984707],[38.273653,47.984571],[38.272911,47.985047]]]}},{"type":"Feature","properties":{"cadnum":"1415047200:07:000:0004"},"geometry":{"type":"Polygon","coordinates":[[[38.331823,47.983787],[38.333238,47.984899],[38.335586,47.984659],[38.333701,47.982714],[38.331823,47.983787]]]}},{"type":"Feature","properties":{"cadnum":"1415047200:03:000:0011"},"geometry":{"type":"Polygon","coordinates":[[[38.226589,47.957246],[38.226843,47.957381],[38.226843,47.957382],[38.226968,47.957447],[38.227008,47.957414],[38.227015,47.957408],[38.227071,47.95736],[38.227699,47.95683],[38.227326,47.956623],[38.227102,47.956811],[38.22704,47.956864],[38.226966,47.956926],[38.226967,47.956926],[38.226894,47.956989],[38.226589,47.957246]]]}},{"type":"Feature","properties":{"cadnum":"1415047200:03:000:0023"},"geometry":{"type":"Polygon","coordinates":[[[38.227591,47.957405],[38.227623,47.95742],[38.227641,47.957396],[38.227609,47.957384],[38.227591,47.957405]]]}},{"type":"Feature","properties":{"cadnum":"1415047200:07:000:0002"},"geometry":{"type":"Polygon","coordinates":[[[38.313138,47.990836],[38.31373,47.991915],[38.314733,47.991776],[38.314734,47.991776],[38.314734,47.991777],[38.317697,47.991366],[38.316736,47.990193],[38.314905,47.990116],[38.3144,47.990094],[38.313138,47.990836]]]}},{"type":"Feature","properties":{"cadnum":"1415047200:01:001:0017"},"geometry":{"type":"Polygon","coordinates":[[[38.267252,47.973251],[38.267347,47.973387],[38.267697,47.973345],[38.267751,47.973339],[38.26793,47.973305],[38.267777,47.972996],[38.267737,47.973008],[38.267571,47.973056],[38.267611,47.973125],[38.267252,47.973251]]]}},{"type":"Feature","properties":{"cadnum":"1415047200:01:001:0067"},"geometry":{"type":"Polygon","coordinates":[[[38.265267,47.972722],[38.265295,47.972764],[38.26537,47.972875],[38.265467,47.972972],[38.265608,47.973113],[38.265945,47.97298],[38.26581,47.9728],[38.265711,47.972632],[38.265467,47.972681],[38.265267,47.972722]]]}},{"type":"Feature","properties":{"cadnum":"1415047200:01:002:0043"},"geometry":{"type":"Polygon","coordinates":[[[38.258866,47.966461],[38.259802,47.966546],[38.260438,47.966603],[38.261211,47.966777],[38.262414,47.966999],[38.263888,47.967499],[38.26459,47.967846],[38.265467,47.968281],[38.265747,47.968419],[38.265504,47.968591],[38.267634,47.970376],[38.267634,47.970377],[38.267494,47.970457],[38.268694,47.971524],[38.268693,47.971524],[38.26894,47.971742],[38.269604,47.971628],[38.269605,47.971627],[38.26962,47.971639],[38.269621,47.971639],[38.27058,47.972349],[38.270788,47.972642],[38.270788,47.972643],[38.270915,47.972821],[38.27096,47.972884],[38.270963,47.972888],[38.271299,47.972815],[38.271079,47.972536],[38.271294,47.97246],[38.271402,47.972421],[38.271425,47.972416],[38.27137,47.972343],[38.271473,47.972307],[38.271335,47.972124],[38.27107,47.972214],[38.270788,47.971914],[38.270424,47.971525],[38.270548,47.971468],[38.270397,47.971321],[38.270271,47.971324],[38.27027,47.971324],[38.270041,47.971128],[38.269915,47.970894],[38.269521,47.970533],[38.269714,47.970448],[38.268946,47.969742],[38.268657,47.969935],[38.268339,47.969721],[38.267401,47.968503],[38.266513,47.967894],[38.266506,47.967889],[38.266053,47.967724],[38.265467,47.967544],[38.264441,47.967228],[38.262634,47.966599],[38.262455,47.966536],[38.262158,47.966443],[38.261732,47.96632],[38.26055,47.966202],[38.260542,47.966262],[38.259802,47.966249],[38.259099,47.966235],[38.258866,47.966461]]]}},{"type":"Feature","properties":{"cadnum":"1415047200:01:001:0022"},"geometry":{"type":"Polygon","coordinates":[[[38.26841,47.972536],[38.268797,47.973071],[38.268869,47.973047],[38.269053,47.972987],[38.268932,47.972806],[38.268657,47.972452],[38.268519,47.9725],[38.26841,47.972536]]]}},{"type":"Feature","properties":{"cadnum":"1415047200:01:001:0014"},"geometry":{"type":"Polygon","coordinates":[[[38.265594,47.972082],[38.265882,47.972202],[38.266022,47.972064],[38.266196,47.971859],[38.265864,47.971751],[38.265594,47.972082]]]}},{"type":"Feature","properties":{"cadnum":"1415047200:01:002:0111"},"geometry":{"type":"Polygon","coordinates":[[[38.271357,47.970154],[38.272219,47.970623],[38.272565,47.9708],[38.272664,47.97072],[38.271469,47.970058],[38.271357,47.970154]]]}},{"type":"Feature","properties":{"cadnum":"1415047200:01:002:0138"},"geometry":{"type":"Polygon","coordinates":[[[38.272925,47.968867],[38.273523,47.96918],[38.273674,47.969057],[38.273433,47.968939],[38.273293,47.968879],[38.27323,47.96884],[38.273217,47.968852],[38.273051,47.968752],[38.27301,47.968789],[38.272992,47.968807],[38.272925,47.968867]]]}},{"type":"Feature","properties":{"cadnum":"1415047200:01:002:0139"},"geometry":{"type":"Polygon","coordinates":[[[38.27182,47.968633],[38.272462,47.968876],[38.272674,47.968702],[38.271986,47.968437],[38.27182,47.968633]]]}},{"type":"Feature","properties":{"cadnum":"1415047200:01:002:0141"},"geometry":{"type":"Polygon","coordinates":[[[38.274632,47.969691],[38.274762,47.969769],[38.274762,47.96977],[38.274748,47.96985],[38.275481,47.970278],[38.275615,47.970172],[38.275449,47.970091],[38.275404,47.970069],[38.275449,47.970025],[38.274722,47.969619],[38.274632,47.969691]]]}},{"type":"Feature","properties":{"cadnum":"1415047200:01:002:0007"},"geometry":{"type":"Polygon","coordinates":[[[38.276114,47.969959],[38.276453,47.97015],[38.277083,47.970503],[38.277223,47.970392],[38.276373,47.969918],[38.276253,47.96985],[38.276213,47.969884],[38.276181,47.969908],[38.276114,47.969959]]]}},{"type":"Feature","properties":{"cadnum":"1415047200:01:002:0128"},"geometry":{"type":"Polygon","coordinates":[[[38.270818,47.969128],[38.27096,47.969207],[38.271412,47.969456],[38.271649,47.96957],[38.271756,47.96948],[38.27137,47.96927],[38.270963,47.969035],[38.270818,47.969128]]]}},{"type":"Feature","properties":{"cadnum":"1415047200:01:002:0108"},"geometry":{"type":"Polygon","coordinates":[[[38.272674,47.968611],[38.272772,47.968662],[38.272858,47.968591],[38.272758,47.968539],[38.272674,47.968611]]]}},{"type":"Feature","properties":{"cadnum":"1415047200:01:002:0106"},"geometry":{"type":"Polygon","coordinates":[[[38.270207,47.968948],[38.270338,47.968996],[38.270706,47.968758],[38.270788,47.968694],[38.270788,47.968695],[38.270917,47.968593],[38.2708,47.968554],[38.270764,47.968539],[38.270607,47.968488],[38.27041,47.968723],[38.270284,47.968864],[38.270207,47.968948]]]}},{"type":"Feature","properties":{"cadnum":"1415047200:01:002:0087"},"geometry":{"type":"Polygon","coordinates":[[[38.271555,47.969986],[38.272538,47.970527],[38.272674,47.970608],[38.272799,47.970515],[38.272454,47.970316],[38.271672,47.969889],[38.271555,47.969986]]]}},{"type":"Feature","properties":{"cadnum":"1415047200:01:002:0097"},"geometry":{"type":"Polygon","coordinates":[[[38.273047,47.969733],[38.273171,47.969839],[38.273177,47.969835],[38.273697,47.969436],[38.273567,47.969357],[38.27354,47.969342],[38.273477,47.969391],[38.273433,47.969432],[38.273288,47.969552],[38.273167,47.969643],[38.273047,47.969733]]]}},{"type":"Feature","properties":{"cadnum":"1415047200:01:002:0127"},"geometry":{"type":"Polygon","coordinates":[[[38.275791,47.967923],[38.275804,47.967932],[38.275834,47.967949],[38.275831,47.967949],[38.275848,47.967961],[38.27588,47.967983],[38.27606,47.968085],[38.27627,47.967916],[38.276271,47.967916],[38.276453,47.96775],[38.276513,47.967694],[38.276345,47.967598],[38.27624,47.967537],[38.27588,47.967846],[38.275879,47.967846],[38.275791,47.967923]]]}},{"type":"Feature","properties":{"cadnum":"1415047200:01:002:0129"},"geometry":{"type":"Polygon","coordinates":[[[38.270657,47.969242],[38.270788,47.969312],[38.270788,47.969313],[38.27089,47.969366],[38.27096,47.9694],[38.27096,47.969401],[38.271129,47.969483],[38.271523,47.969682],[38.271596,47.969621],[38.271618,47.969603],[38.271649,47.96957],[38.271412,47.969456],[38.270818,47.969128],[38.270657,47.969242]]]}},{"type":"Feature","properties":{"cadnum":"1415047200:01:002:0136"},"geometry":{"type":"Polygon","coordinates":[[[38.271865,47.969721],[38.271995,47.96979],[38.272278,47.969937],[38.272727,47.970181],[38.272821,47.970106],[38.272489,47.969902],[38.272184,47.969727],[38.272089,47.969679],[38.271976,47.969619],[38.271865,47.969721]]]}},{"type":"Feature","properties":{"cadnum":"1415047200:01:002:0137"},"geometry":{"type":"Polygon","coordinates":[[[38.273051,47.968752],[38.273217,47.968852],[38.27323,47.96884],[38.273293,47.968879],[38.273433,47.968939],[38.273693,47.969066],[38.273896,47.968918],[38.27324,47.968593],[38.273051,47.968752]]]}},{"type":"Feature","properties":{"cadnum":"1415047200:01:002:0003"},"geometry":{"type":"Polygon","coordinates":[[[38.270751,47.968259],[38.270788,47.96828],[38.270788,47.968281],[38.27111,47.968461],[38.271452,47.968185],[38.271074,47.967995],[38.270839,47.968187],[38.270751,47.968259]],[[38.27103,47.968337],[38.27106,47.96831],[38.271101,47.968335],[38.27107,47.968359],[38.27103,47.968337]]]}},{"type":"Feature","properties":{"cadnum":"1415047200:01:002:0134"},"geometry":{"type":"Polygon","coordinates":[[[38.275467,47.970443],[38.275773,47.970617],[38.27602,47.970737],[38.276281,47.970883],[38.276594,47.971056],[38.276706,47.970963],[38.276281,47.970728],[38.276281,47.970729],[38.27602,47.970584],[38.275597,47.970341],[38.275467,47.970443]]]}},{"type":"Feature","properties":{"cadnum":"1415047200:01:002:0039"},"geometry":{"type":"Polygon","coordinates":[[[38.27068,47.969561],[38.270788,47.969611],[38.270788,47.969612],[38.270838,47.969634],[38.27096,47.969691],[38.27096,47.96969],[38.271335,47.969862],[38.271523,47.969682],[38.27089,47.969366],[38.27068,47.969561]]]}},{"type":"Feature","properties":{"cadnum":"1415047200:01:002:0119"},"geometry":{"type":"Polygon","coordinates":[[[38.274173,47.971381],[38.274213,47.971405],[38.274433,47.971507],[38.274465,47.971524],[38.274466,47.971524],[38.274602,47.971596],[38.274605,47.971598],[38.274679,47.971639],[38.274938,47.971784],[38.275381,47.972046],[38.275454,47.972003],[38.274786,47.971568],[38.274785,47.971567],[38.274578,47.971438],[38.274492,47.971375],[38.274317,47.971275],[38.274173,47.971381]]]}},{"type":"Feature","properties":{"cadnum":"1415047200:01:002:0098"},"geometry":{"type":"Polygon","coordinates":[[[38.273177,47.969835],[38.273387,47.969998],[38.27393,47.969598],[38.273957,47.969576],[38.27393,47.969561],[38.273697,47.969436],[38.273177,47.969835]]]}},{"type":"Feature","properties":{"cadnum":"1415047200:01:002:0046"},"geometry":{"type":"Polygon","coordinates":[[[38.273957,47.970223],[38.274655,47.970707],[38.274649,47.970713],[38.274775,47.9708],[38.274919,47.970693],[38.274213,47.970196],[38.27416,47.97019],[38.274119,47.970166],[38.273957,47.970223]]]}},{"type":"Feature","properties":{"cadnum":"1415047200:01:002:0069"},"geometry":{"type":"Polygon","coordinates":[[[38.27103,47.968337],[38.27107,47.968359],[38.271101,47.968335],[38.27106,47.96831],[38.27103,47.968337]]]}},{"type":"Feature","properties":{"cadnum":"1415047200:01:002:0042"},"geometry":{"type":"Polygon","coordinates":[[[38.275773,47.96951],[38.276069,47.969685],[38.276131,47.969721],[38.276334,47.969561],[38.276091,47.969423],[38.275934,47.969375],[38.275773,47.96951]]]}},{"type":"Feature","properties":{"cadnum":"1415047200:01:002:0090"},"geometry":{"type":"Polygon","coordinates":[[[38.27403,47.970657],[38.274519,47.970987],[38.274775,47.9708],[38.274649,47.970713],[38.274655,47.970711],[38.274303,47.970464],[38.27403,47.970657]]]}},{"type":"Feature","properties":{"cadnum":"1415047200:04:000:0005"},"geometry":{"type":"Polygon","coordinates":[[[38.276356,47.935828],[38.276453,47.935854],[38.276453,47.935853],[38.276716,47.935924],[38.277215,47.935286],[38.276972,47.935201],[38.276356,47.935828]]]}},{"type":"Feature","properties":{"cadnum":"1415047200:04:000:0003"},"geometry":{"type":"Polygon","coordinates":[[[38.273481,47.936856],[38.273536,47.936872],[38.273661,47.936899],[38.273689,47.936908],[38.273697,47.936908],[38.27385,47.936568],[38.274026,47.936093],[38.273841,47.936059],[38.273544,47.936731],[38.273481,47.936856]]]}},{"type":"Feature","properties":{"cadnum":"1415047200:01:002:0103"},"geometry":{"type":"Polygon","coordinates":[[[38.268653,47.966993],[38.268703,47.967008],[38.268909,47.967062],[38.268995,47.966912],[38.269102,47.966828],[38.269569,47.966452],[38.269475,47.966409],[38.269336,47.966497],[38.269129,47.966594],[38.268865,47.966798],[38.268743,47.966912],[38.268716,47.966906],[38.268653,47.966993]]]}},{"type":"Feature","properties":{"cadnum":"1415047200:01:002:0124"},"geometry":{"type":"Polygon","coordinates":[[[38.266152,47.967108],[38.266255,47.96714],[38.266313,47.967042],[38.266498,47.967069],[38.266596,47.966964],[38.266739,47.966732],[38.266426,47.96665],[38.266152,47.967108]]]}},{"type":"Feature","properties":{"cadnum":"1415047200:01:002:0135"},"geometry":{"type":"Polygon","coordinates":[[[38.265011,47.963875],[38.265208,47.963971],[38.265295,47.964015],[38.265351,47.964043],[38.265475,47.964168],[38.26551,47.964202],[38.26551,47.964203],[38.265603,47.964283],[38.265604,47.964283],[38.265766,47.964422],[38.26581,47.964389],[38.265586,47.964206],[38.265586,47.964124],[38.26563,47.963962],[38.265577,47.963868],[38.265456,47.963736],[38.265338,47.963655],[38.265307,47.963676],[38.265267,47.9637],[38.265011,47.963875]]]}},{"type":"Feature","properties":{"cadnum":"1415047200:01:002:0125"},"geometry":{"type":"Polygon","coordinates":[[[38.266152,47.967282],[38.26643,47.967403],[38.266479,47.967339],[38.266695,47.96708],[38.266713,47.967087],[38.266766,47.967029],[38.266776,47.967015],[38.266915,47.966831],[38.266951,47.966783],[38.266739,47.966732],[38.266596,47.966964],[38.266498,47.967069],[38.266313,47.967042],[38.266255,47.96714],[38.266152,47.967282]]]}},{"type":"Feature","properties":{"cadnum":"1415047200:01:002:0048"},"geometry":{"type":"Polygon","coordinates":[[[38.269817,47.967755],[38.27014,47.967856],[38.270217,47.96782],[38.270355,47.967613],[38.269997,47.967501],[38.269817,47.967755]]]}},{"type":"Feature","properties":{"cadnum":"1415047200:01:002:0037"},"geometry":{"type":"Polygon","coordinates":[[[38.269789,47.964025],[38.270094,47.964168],[38.270238,47.964235],[38.270238,47.964236],[38.270431,47.964148],[38.270401,47.964034],[38.270788,47.963656],[38.270863,47.963583],[38.27096,47.963488],[38.271016,47.963433],[38.270845,47.963472],[38.270756,47.963493],[38.270563,47.963496],[38.27036,47.963439],[38.270311,47.963415],[38.270148,47.963558],[38.269789,47.964025]]]}},{"type":"Feature","properties":{"cadnum":"1415047200:01:002:0142"},"geometry":{"type":"Polygon","coordinates":[[[38.26881,47.966052],[38.269066,47.966154],[38.269179,47.966058],[38.269372,47.965887],[38.269521,47.965776],[38.269538,47.965749],[38.269542,47.965731],[38.269448,47.965676],[38.269412,47.965655],[38.2693,47.965592],[38.269269,47.965622],[38.269093,47.965763],[38.269022,47.965818],[38.26881,47.966052]]]}},{"type":"Feature","properties":{"cadnum":"1415047200:01:002:0105"},"geometry":{"type":"Polygon","coordinates":[[[38.266663,47.965412],[38.266802,47.965481],[38.267064,47.965613],[38.267347,47.965343],[38.267185,47.965258],[38.267122,47.965213],[38.267032,47.965141],[38.266911,47.965183],[38.266861,47.965216],[38.266825,47.965231],[38.266776,47.965207],[38.266722,47.965258],[38.266766,47.965312],[38.266663,47.965412]]]}},{"type":"Feature","properties":{"cadnum":"1415047200:01:002:0112"},"geometry":{"type":"Polygon","coordinates":[[[38.267557,47.964293],[38.267724,47.964425],[38.26776,47.964404],[38.267917,47.964311],[38.268217,47.964168],[38.268443,47.964061],[38.268154,47.963932],[38.267957,47.964068],[38.267575,47.964283],[38.267557,47.964293]]]}},{"type":"Feature","properties":{"cadnum":"1415047200:01:002:0126"},"geometry":{"type":"Polygon","coordinates":[[[38.269381,47.967186],[38.269678,47.967258],[38.269745,47.967153],[38.269808,47.967038],[38.269839,47.966988],[38.269892,47.966909],[38.270032,47.966735],[38.269812,47.966641],[38.269605,47.96684],[38.269561,47.966891],[38.269431,47.967098],[38.269381,47.967186]]]}},{"type":"Feature","properties":{"cadnum":"1415047200:01:002:0121"},"geometry":{"type":"Polygon","coordinates":[[[38.266609,47.967385],[38.266699,47.967405],[38.266928,47.967459],[38.267001,47.967318],[38.267085,47.967156],[38.267252,47.966858],[38.267077,47.966813],[38.266955,47.967017],[38.266924,47.967069],[38.266915,47.967084],[38.266884,47.967075],[38.266609,47.967385]]]}},{"type":"Feature","properties":{"cadnum":"1415047200:01:002:0044"},"geometry":{"type":"Polygon","coordinates":[[[38.269412,47.968088],[38.269857,47.968241],[38.269969,47.968055],[38.269566,47.967899],[38.269565,47.967898],[38.269514,47.967961],[38.269412,47.968088]]]}},{"type":"Feature","properties":{"cadnum":"1415047200:05:000:0007"},"geometry":{"type":"Polygon","coordinates":[[[38.206441,47.966656],[38.206809,47.966683],[38.206926,47.966233],[38.206548,47.966179],[38.206504,47.96629],[38.206485,47.966443],[38.206441,47.966656]]]}},{"type":"Feature","properties":{"cadnum":"1415047200:05:000:0003"},"geometry":{"type":"Polygon","coordinates":[[[38.2094,47.968205],[38.20967,47.968241],[38.209746,47.968143],[38.209839,47.967846],[38.209863,47.967769],[38.20985,47.967739],[38.209733,47.967718],[38.209697,47.967733],[38.20949,47.967685],[38.209473,47.967778],[38.20946,47.967846],[38.209459,47.967846],[38.209454,47.96788],[38.209439,47.967961],[38.20944,47.967961],[38.20941,47.96813],[38.2094,47.968205]]]}},{"type":"Feature","properties":{"cadnum":"1415047200:05:000:0005"},"geometry":{"type":"Polygon","coordinates":[[[38.207133,47.967838],[38.207151,47.967846],[38.20715,47.967846],[38.207373,47.967943],[38.207374,47.967944],[38.207456,47.967956],[38.207707,47.967357],[38.207383,47.967312],[38.207347,47.967583],[38.207316,47.967604],[38.207133,47.967838]]]}},{"type":"Feature","properties":{"cadnum":"1415047200:05:000:0006"},"geometry":{"type":"Polygon","coordinates":[[[38.20971,47.967131],[38.209818,47.967288],[38.209976,47.967625],[38.210232,47.967604],[38.210343,47.96755],[38.210142,47.967249],[38.20998,47.96708],[38.20971,47.967131]]]}},{"type":"Feature","properties":{"cadnum":"1415047200:01:002:0086"},"geometry":{"type":"Polygon","coordinates":[[[38.274402,47.964166],[38.274413,47.964168],[38.274873,47.964238],[38.275174,47.964283],[38.275359,47.964311],[38.275391,47.964169],[38.274483,47.964016],[38.274402,47.964166]]]}},{"type":"Feature","properties":{"cadnum":"1415047200:01:002:0068"},"geometry":{"type":"Polygon","coordinates":[[[38.273068,47.964407],[38.273293,47.964552],[38.273441,47.964416],[38.273529,47.964283],[38.273607,47.964166],[38.273743,47.964007],[38.273374,47.963941],[38.273288,47.964157],[38.273281,47.964168],[38.27328,47.964168],[38.273226,47.964253],[38.273226,47.964254],[38.273195,47.964283],[38.273196,47.964283],[38.273068,47.964407]]]}},{"type":"Feature","properties":{"cadnum":"1415047200:01:002:0008"},"geometry":{"type":"Polygon","coordinates":[[[38.270401,47.964034],[38.270431,47.964148],[38.270788,47.963873],[38.270843,47.96383],[38.27096,47.96374],[38.27096,47.963739],[38.271335,47.963448],[38.271119,47.963328],[38.270884,47.963559],[38.270401,47.964034]]]}},{"type":"Feature","properties":{"cadnum":"1415047200:01:002:0085"},"geometry":{"type":"Polygon","coordinates":[[[38.274326,47.964314],[38.275332,47.964443],[38.275359,47.964311],[38.274873,47.964238],[38.274402,47.964166],[38.274402,47.964168],[38.274401,47.964168],[38.274385,47.9642],[38.274341,47.964283],[38.274342,47.964283],[38.274326,47.964314]]]}},{"type":"Feature","properties":{"cadnum":"1415047200:01:002:0084"},"geometry":{"type":"Polygon","coordinates":[[[38.274483,47.964016],[38.275391,47.964169],[38.275414,47.964068],[38.274999,47.963944],[38.274869,47.963878],[38.274592,47.96383],[38.274483,47.964016]]]}},{"type":"Feature","properties":{"cadnum":"1415047200:01:002:0034"},"geometry":{"type":"Polygon","coordinates":[[[38.264669,47.958758],[38.264718,47.958774],[38.265295,47.958956],[38.266659,47.959384],[38.266825,47.959077],[38.266601,47.958963],[38.266884,47.958466],[38.266615,47.957625],[38.266403,47.957893],[38.266309,47.957931],[38.265917,47.95776],[38.266043,47.957122],[38.265917,47.957083],[38.265869,47.957071],[38.265477,47.957576],[38.265425,47.957677],[38.265168,47.958169],[38.265051,47.958208],[38.264669,47.958758]]]}},{"type":"Feature","properties":{"cadnum":"1415047200:01:002:0116"},"geometry":{"type":"Polygon","coordinates":[[[38.268384,47.960236],[38.268464,47.960428],[38.268693,47.960374],[38.269102,47.960281],[38.269376,47.960184],[38.269228,47.960022],[38.269102,47.960079],[38.269062,47.960094],[38.268384,47.960236]]]}},{"type":"Feature","properties":{"cadnum":"1415047200:01:002:0032"},"geometry":{"type":"Polygon","coordinates":[[[38.263497,47.961119],[38.263546,47.961135],[38.265467,47.96185],[38.265703,47.961937],[38.265707,47.961886],[38.265514,47.961788],[38.265514,47.961787],[38.265573,47.961712],[38.265617,47.961592],[38.265563,47.961357],[38.265917,47.960963],[38.265967,47.960957],[38.266022,47.960695],[38.265802,47.960605],[38.265773,47.960593],[38.265523,47.96049],[38.265522,47.96049],[38.265467,47.960467],[38.265467,47.960466],[38.264405,47.960028],[38.264359,47.960009],[38.263986,47.96049],[38.263985,47.96049],[38.263497,47.961119]]]}},{"type":"Feature","properties":{"cadnum":"1415047200:01:002:0104"},"geometry":{"type":"Polygon","coordinates":[[[38.267238,47.960172],[38.267364,47.960443],[38.268217,47.960269],[38.268384,47.960236],[38.269062,47.960094],[38.269102,47.960079],[38.269228,47.960022],[38.269085,47.959866],[38.268936,47.959911],[38.267238,47.960172]]]}},{"type":"Feature","properties":{"cadnum":"1415047200:01:002:0033"},"geometry":{"type":"Polygon","coordinates":[[[38.264359,47.960009],[38.264405,47.960028],[38.265295,47.960396],[38.265773,47.960593],[38.266022,47.960695],[38.266048,47.960564],[38.266066,47.960473],[38.266659,47.959384],[38.265467,47.95901],[38.264718,47.958774],[38.264669,47.958758],[38.264575,47.959108],[38.264502,47.959589],[38.264489,47.959839],[38.264359,47.960009]]]}},{"type":"Feature","properties":{"cadnum":"1415047200:01:002:0143"},"geometry":{"type":"Polygon","coordinates":[[[38.268693,47.960374],[38.268777,47.96049],[38.268801,47.960524],[38.26886,47.960605],[38.268865,47.960611],[38.268995,47.960573],[38.268995,47.960572],[38.269552,47.960386],[38.269376,47.960184],[38.269102,47.960281],[38.268693,47.960374]]]}},{"type":"Feature","properties":{"cadnum":"1415047200:02:000:0082"},"geometry":{"type":"Polygon","coordinates":[[[38.269521,47.985128],[38.269789,47.985335],[38.270244,47.985038],[38.270005,47.98483],[38.269982,47.984815],[38.269938,47.984842],[38.269521,47.985128]]]}},{"type":"Feature","properties":{"cadnum":"1415047200:02:000:0058"},"geometry":{"type":"Polygon","coordinates":[[[38.290325,47.985825],[38.290438,47.985849],[38.290473,47.985762],[38.290362,47.985741],[38.290325,47.985825]]]}},{"type":"Feature","properties":{"cadnum":"1415047200:02:000:0015"},"geometry":{"type":"Polygon","coordinates":[[[38.286826,47.98605],[38.286926,47.986095],[38.287024,47.986137],[38.28715,47.986195],[38.287266,47.986246],[38.287268,47.986247],[38.287312,47.986267],[38.287439,47.986153],[38.287439,47.986152],[38.287509,47.98609],[38.287439,47.986059],[38.287439,47.986058],[38.28705,47.985883],[38.286826,47.98605]]]}},{"type":"Feature","properties":{"cadnum":"1415047200:02:000:0055"},"geometry":{"type":"Polygon","coordinates":[[[38.2897,47.983231],[38.289754,47.983261],[38.28984,47.983305],[38.290029,47.983399],[38.290079,47.983426],[38.290109,47.983438],[38.290123,47.983447],[38.290132,47.983435],[38.290119,47.983429],[38.290155,47.983393],[38.290142,47.983387],[38.290272,47.983273],[38.290079,47.983173],[38.289979,47.983125],[38.289876,47.983084],[38.2897,47.983231]]]}},{"type":"Feature","properties":{"cadnum":"1415047200:02:000:0081"},"geometry":{"type":"Polygon","coordinates":[[[38.288528,47.976307],[38.288735,47.976589],[38.288811,47.976704],[38.288838,47.976757],[38.288865,47.9768],[38.288901,47.976851],[38.288955,47.976926],[38.288964,47.976935],[38.289167,47.976862],[38.289054,47.976751],[38.288915,47.976535],[38.288681,47.976247],[38.288528,47.976307]]]}},{"type":"Feature","properties":{"cadnum":"1415047200:06:000:0001"},"geometry":{"type":"Polygon","coordinates":[[[38.30544,47.990536],[38.305511,47.990584],[38.305753,47.990752],[38.306109,47.991014],[38.306293,47.99089],[38.305933,47.990611],[38.305673,47.990419],[38.305489,47.990529],[38.30547,47.990515],[38.30544,47.990536]]]}},{"type":"Feature","properties":{"cadnum":"1415047200:02:000:0063"},"geometry":{"type":"Polygon","coordinates":[[[38.282892,47.974168],[38.282955,47.97421],[38.283012,47.974172],[38.282951,47.97413],[38.282892,47.974168]]]}},{"type":"Feature","properties":{"cadnum":"1415047200:02:000:0071"},"geometry":{"type":"Polygon","coordinates":[[[38.282914,47.973943],[38.283026,47.974006],[38.283089,47.974042],[38.283152,47.973991],[38.283135,47.973979],[38.283255,47.97388],[38.283826,47.973363],[38.283655,47.973267],[38.283322,47.973582],[38.282914,47.973943]]]}},{"type":"Feature","properties":{"cadnum":"1415047200:02:000:0069"},"geometry":{"type":"Polygon","coordinates":[[[38.28228,47.973585],[38.282425,47.973666],[38.283188,47.97304],[38.282968,47.972942],[38.28228,47.973585]]]}},{"type":"Feature","properties":{"cadnum":"1415047200:01:002:0123"},"geometry":{"type":"Polygon","coordinates":[[[38.268397,47.968109],[38.269259,47.968341],[38.269624,47.968476],[38.269735,47.968346],[38.269601,47.968308],[38.269462,47.968263],[38.269238,47.968205],[38.268447,47.968025],[38.268397,47.968109]]]}},{"type":"Feature","properties":{"cadnum":"1415047200:01:001:0013"},"geometry":{"type":"Polygon","coordinates":[[[38.266865,47.971486],[38.266898,47.971495],[38.267118,47.971562],[38.267347,47.9713],[38.267378,47.971309],[38.26749,47.971143],[38.267261,47.971068],[38.267225,47.971056],[38.267215,47.971054],[38.266865,47.971486]]]}},{"type":"Feature","properties":{"cadnum":"1415047200:01:002:0133"},"geometry":{"type":"Polygon","coordinates":[[[38.269844,47.968662],[38.270284,47.968864],[38.27036,47.968776],[38.270131,47.96866],[38.270122,47.968635],[38.270108,47.968629],[38.270024,47.968596],[38.269938,47.96856],[38.269844,47.968662]]]}},{"type":"Feature","properties":{"cadnum":"1415047200:05:000:0004"},"geometry":{"type":"Polygon","coordinates":[[[38.206691,47.968716],[38.207307,47.96893],[38.207406,47.968545],[38.20694,47.968521],[38.206836,47.968575],[38.206691,47.968716]]]}},{"type":"Feature","properties":{"cadnum":"1415047200:04:000:0009"},"geometry":{"type":"Polygon","coordinates":[[[38.283026,47.932897],[38.283798,47.933279],[38.283934,47.933173],[38.283171,47.932792],[38.283026,47.932897]]]}},{"type":"Feature","properties":{"cadnum":"1415047200:04:000:0006"},"geometry":{"type":"Polygon","coordinates":[[[38.283328,47.932683],[38.283848,47.932966],[38.284014,47.932824],[38.283494,47.932542],[38.283328,47.932683]]]}},{"type":"Feature","properties":{"cadnum":"1415047200:01:002:0028"},"geometry":{"type":"Polygon","coordinates":[[[38.268523,47.963628],[38.26876,47.963725],[38.269506,47.963011],[38.269349,47.962873],[38.268523,47.963628]]]}},{"type":"Feature","properties":{"cadnum":"1415047200:01:002:0020"},"geometry":{"type":"Polygon","coordinates":[[[38.267431,47.962791],[38.26771,47.96284],[38.26824,47.962431],[38.267971,47.96232],[38.267481,47.962735],[38.267431,47.962791]]]}},{"type":"Feature","properties":{"cadnum":"1415047200:01:002:0026"},"geometry":{"type":"Polygon","coordinates":[[[38.268339,47.963547],[38.268523,47.963628],[38.269349,47.962873],[38.269332,47.962693],[38.268339,47.963547]]]}},{"type":"Feature","properties":{"cadnum":"1415047200:01:002:0029"},"geometry":{"type":"Polygon","coordinates":[[[38.267948,47.963225],[38.26803,47.963276],[38.269148,47.962452],[38.269165,47.962274],[38.267948,47.963225]]]}},{"type":"Feature","properties":{"cadnum":"1415047200:01:002:0016"},"geometry":{"type":"Polygon","coordinates":[[[38.266263,47.962254],[38.266663,47.962671],[38.267028,47.962602],[38.267059,47.962509],[38.26647,47.962079],[38.266263,47.962254]]]}},{"type":"Feature","properties":{"cadnum":"1415047200:01:002:0027"},"geometry":{"type":"Polygon","coordinates":[[[38.26876,47.963725],[38.269035,47.963808],[38.269655,47.963156],[38.269506,47.963011],[38.26876,47.963725]]]}},{"type":"Feature","properties":{"cadnum":"1415047200:01:002:0018"},"geometry":{"type":"Polygon","coordinates":[[[38.267104,47.962494],[38.267481,47.962735],[38.267971,47.96232],[38.268204,47.962118],[38.267885,47.961779],[38.267885,47.961778],[38.268056,47.961487],[38.267741,47.961487],[38.267611,47.961697],[38.267508,47.961881],[38.267418,47.962034],[38.267342,47.962124],[38.267221,47.962274],[38.267135,47.962431],[38.267104,47.962494]]]}},{"type":"Feature","properties":{"cadnum":"1415047200:01:002:0130"},"geometry":{"type":"Polygon","coordinates":[[[38.266911,47.963685],[38.266955,47.96373],[38.266974,47.963748],[38.267059,47.96383],[38.267194,47.96376],[38.267418,47.963598],[38.267791,47.96327],[38.267598,47.963198],[38.267189,47.963502],[38.266911,47.963685]]]}},{"type":"Feature","properties":{"cadnum":"1415047200:01:002:0030"},"geometry":{"type":"Polygon","coordinates":[[[38.269206,47.963875],[38.269506,47.963995],[38.269848,47.963718],[38.270217,47.963384],[38.269794,47.963282],[38.269206,47.963874],[38.269206,47.963875]]]}},{"type":"Feature","properties":{"cadnum":"1415047200:01:002:0021"},"geometry":{"type":"Polygon","coordinates":[[[38.267971,47.96232],[38.26824,47.962431],[38.26908,47.961658],[38.268887,47.961532],[38.268204,47.962118],[38.267971,47.96232]]]}},{"type":"Feature","properties":{"cadnum":"1415047200:01:002:0024"},"geometry":{"type":"Polygon","coordinates":[[[38.269035,47.963808],[38.269206,47.963875],[38.269206,47.963874],[38.269794,47.963282],[38.269655,47.963156],[38.269035,47.963808]]]}},{"type":"Feature","properties":{"cadnum":"1415047200:01:002:0031"},"geometry":{"type":"Polygon","coordinates":[[[38.261978,47.963174],[38.262028,47.963186],[38.262194,47.963279],[38.262447,47.963339],[38.26264,47.963225],[38.262764,47.963074],[38.263093,47.962969],[38.263299,47.962871],[38.263839,47.962545],[38.264346,47.962145],[38.264661,47.961973],[38.264862,47.961955],[38.265186,47.962034],[38.265295,47.962064],[38.265295,47.962065],[38.265366,47.962085],[38.265467,47.962106],[38.265467,47.962105],[38.265689,47.962151],[38.265703,47.962007],[38.265703,47.961937],[38.265295,47.961786],[38.263546,47.961135],[38.263497,47.961119],[38.26316,47.961585],[38.263326,47.961817],[38.263089,47.962191],[38.262716,47.962521],[38.262078,47.963023],[38.261978,47.963174]]]}},{"type":"Feature","properties":{"cadnum":"1415047200:01:002:0022"},"geometry":{"type":"Polygon","coordinates":[[[38.267512,47.963011],[38.267697,47.963132],[38.269215,47.961839],[38.26908,47.961658],[38.26824,47.962431],[38.26771,47.96284],[38.267512,47.963011]]]}},{"type":"Feature","properties":{"cadnum":"1415047200:01:002:0023"},"geometry":{"type":"Polygon","coordinates":[[[38.267697,47.963132],[38.267948,47.963225],[38.269165,47.962274],[38.269215,47.961839],[38.267697,47.963132]]]}},{"type":"Feature","properties":{"cadnum":"1415047200:01:002:0017"},"geometry":{"type":"Polygon","coordinates":[[[38.266448,47.96142],[38.267468,47.961863],[38.267634,47.961487],[38.267028,47.961279],[38.266615,47.961096],[38.266448,47.96142]]]}},{"type":"Feature","properties":{"cadnum":"1415047200:01:002:0118"},"geometry":{"type":"Polygon","coordinates":[[[38.266646,47.963435],[38.266739,47.963522],[38.266766,47.963511],[38.266933,47.96342],[38.267144,47.963273],[38.267504,47.962991],[38.267401,47.962921],[38.266996,47.963186],[38.266821,47.963339],[38.266798,47.96336],[38.266663,47.963426],[38.266646,47.963435]]]}},{"type":"Feature","properties":{"cadnum":"1415047200:01:002:0140"},"geometry":{"type":"Polygon","coordinates":[[[38.269355,47.960843],[38.269754,47.961072],[38.269988,47.96093],[38.269762,47.960669],[38.269355,47.960843]]]}},{"type":"Feature","properties":{"cadnum":"1415047200:01:002:0025"},"geometry":{"type":"Polygon","coordinates":[[[38.26803,47.963276],[38.268339,47.963547],[38.269332,47.962693],[38.269148,47.962452],[38.26803,47.963276]]]}},{"type":"Feature","properties":{"cadnum":"1415047200:01:002:0019"},"geometry":{"type":"Polygon","coordinates":[[[38.267885,47.961779],[38.268204,47.962118],[38.268887,47.961532],[38.26873,47.961471],[38.268056,47.961487],[38.267885,47.961779]]]}},{"type":"Feature","properties":{"cadnum":"1415047200:01:001:0024"},"geometry":{"type":"Polygon","coordinates":[[[38.264382,47.972024],[38.264634,47.972084],[38.264934,47.971718],[38.265044,47.971577],[38.26511,47.971493],[38.264881,47.971414],[38.264788,47.971524],[38.264771,47.971544],[38.264692,47.971639],[38.264693,47.971639],[38.264688,47.971645],[38.264382,47.972024]]]}},{"type":"Feature","properties":{"cadnum":"1415047200:01:001:0025"},"geometry":{"type":"Polygon","coordinates":[[[38.263502,47.97298],[38.263573,47.972996],[38.263569,47.973002],[38.263749,47.973026],[38.263946,47.973065],[38.263946,47.973062],[38.263959,47.973029],[38.263955,47.972987],[38.263951,47.972984],[38.263978,47.972855],[38.263969,47.9728],[38.263515,47.972833],[38.263502,47.972948],[38.263502,47.97298]]]}},{"type":"Feature","properties":{"cadnum":"1415047200:01:001:0020"},"geometry":{"type":"Polygon","coordinates":[[[38.26077,47.971886],[38.260915,47.971941],[38.260942,47.971946],[38.260959,47.971923],[38.261168,47.971633],[38.261512,47.971161],[38.261319,47.971098],[38.261022,47.971524],[38.261021,47.971524],[38.26077,47.971886]]]}},{"type":"Feature","properties":{"cadnum":"1415047200:02:000:0060"},"geometry":{"type":"Polygon","coordinates":[[[38.283049,47.985787],[38.283058,47.985846],[38.283138,47.98584],[38.283125,47.98578],[38.283049,47.985787]]]}},{"type":"Feature","properties":{"cadnum":"1415047200:02:000:0029"},"geometry":{"type":"Polygon","coordinates":[[[38.285479,47.985867],[38.286126,47.986233],[38.286152,47.986247],[38.28633,47.986348],[38.286331,47.986348],[38.28636,47.986364],[38.286477,47.986263],[38.28657,47.986183],[38.286364,47.986068],[38.287041,47.985368],[38.287014,47.985374],[38.287006,47.985359],[38.287033,47.985353],[38.287041,47.985367],[38.287104,47.985302],[38.286953,47.985215],[38.286561,47.984969],[38.286324,47.985167],[38.285735,47.985656],[38.285479,47.985867]],[[38.286395,47.985498],[38.286395,47.985497],[38.286421,47.985491],[38.286427,47.985509],[38.286404,47.985515],[38.286395,47.985498]],[[38.285789,47.985639],[38.285788,47.985638],[38.285789,47.985638],[38.285811,47.985633],[38.285821,47.985651],[38.285798,47.985656],[38.285789,47.985639]]]}},{"type":"Feature","properties":{"cadnum":"1415047200:02:000:0027"},"geometry":{"type":"Polygon","coordinates":[[[38.283853,47.985714],[38.28404,47.986348],[38.284307,47.987244],[38.285186,47.987262],[38.284773,47.986233],[38.28453,47.985624],[38.283853,47.985714]]]}},{"type":"Feature","properties":{"cadnum":"1415047200:02:000:0074"},"geometry":{"type":"Polygon","coordinates":[[[38.286494,47.986414],[38.286566,47.986447],[38.286651,47.986489],[38.286939,47.986625],[38.286974,47.986592],[38.287113,47.986444],[38.287119,47.986442],[38.286787,47.986285],[38.286786,47.986285],[38.286704,47.986249],[38.286683,47.98624],[38.286565,47.986348],[38.286566,47.986348],[38.286494,47.986414]]]}},{"type":"Feature","properties":{"cadnum":"1415047200:02:000:0028"},"geometry":{"type":"Polygon","coordinates":[[[38.28453,47.985624],[38.284819,47.986348],[38.285186,47.987262],[38.28636,47.986364],[38.286152,47.986247],[38.285479,47.985867],[38.284936,47.98554],[38.28453,47.985624]]]}},{"type":"Feature","properties":{"cadnum":"1415047200:01:001:0026"},"geometry":{"type":"Polygon","coordinates":[[[38.26056,47.967399],[38.261565,47.967791],[38.261691,47.967628],[38.260649,47.967285],[38.26056,47.967399]]]}},{"type":"Feature","properties":{"cadnum":"1415047200:01:001:0027"},"geometry":{"type":"Polygon","coordinates":[[[38.261938,47.967829],[38.262,47.967846],[38.262306,47.96793],[38.262311,47.967932],[38.262421,47.967961],[38.262422,47.967961],[38.262684,47.968031],[38.262751,47.967916],[38.262704,47.967904],[38.262684,47.967898],[38.262011,47.967715],[38.262011,47.967718],[38.261997,47.967736],[38.261938,47.967829]]]}},{"type":"Feature","properties":{"cadnum":"1415047200:01:002:0110"},"geometry":{"type":"Polygon","coordinates":[[[38.26333,47.965186],[38.263407,47.965216],[38.263452,47.965165],[38.26338,47.965134],[38.26333,47.965186]]]}},{"type":"Feature","properties":{"cadnum":"1415047200:01:002:0132"},"geometry":{"type":"Polygon","coordinates":[[[38.263533,47.966362],[38.263735,47.966434],[38.264211,47.966028],[38.263969,47.965934],[38.263915,47.965914],[38.263762,47.966094],[38.263533,47.966362]]]}},{"type":"Feature","properties":{"cadnum":"1415047200:01:001:0029"},"geometry":{"type":"Polygon","coordinates":[[[38.261839,47.967974],[38.261925,47.968004],[38.261988,47.968025],[38.262185,47.968094],[38.262194,47.968097],[38.262581,47.968194],[38.262661,47.96804],[38.262351,47.967953],[38.262335,47.967948],[38.262005,47.967838],[38.261948,47.967824],[38.26193,47.967846],[38.261929,47.967846],[38.261929,47.967847],[38.261847,47.967961],[38.261848,47.967961],[38.261839,47.967974]]]}},{"type":"Feature","properties":{"cadnum":"1415047200:01:001:0016"},"geometry":{"type":"Polygon","coordinates":[[[38.260128,47.967528],[38.260313,47.967597],[38.26086,47.967811],[38.26095,47.967846],[38.26108,47.967897],[38.261246,47.967961],[38.261247,47.967961],[38.261395,47.968019],[38.261439,47.967956],[38.261458,47.967938],[38.261481,47.967905],[38.261085,47.967757],[38.26095,47.967703],[38.260613,47.967571],[38.260227,47.967421],[38.260128,47.967528]]]}},{"type":"Feature","properties":{"cadnum":"1415047200:02:000:0067"},"geometry":{"type":"Polygon","coordinates":[[[38.287096,47.98109],[38.287268,47.981248],[38.287268,47.981249],[38.287429,47.981397],[38.287595,47.981508],[38.287639,47.981481],[38.287805,47.981604],[38.287913,47.981544],[38.28772,47.981397],[38.28759,47.981292],[38.287439,47.981165],[38.287439,47.981164],[38.287257,47.981009],[38.287096,47.98109]]]}},{"type":"Feature","properties":{"cadnum":"1415047200:02:000:0057"},"geometry":{"type":"Polygon","coordinates":[[[38.291237,47.982139],[38.291637,47.982407],[38.292149,47.982059],[38.29175,47.981794],[38.291237,47.982139]]]}},{"type":"Feature","properties":{"cadnum":"1415047200:02:000:0062"},"geometry":{"type":"Polygon","coordinates":[[[38.285479,47.977482],[38.285528,47.977524],[38.285614,47.977476],[38.285559,47.977434],[38.285479,47.977482]]]}},{"type":"Feature","properties":{"cadnum":"1415047200:02:000:0079"},"geometry":{"type":"Polygon","coordinates":[[[38.282563,47.978026],[38.282756,47.978155],[38.282798,47.978182],[38.282923,47.978267],[38.282951,47.978249],[38.283157,47.978132],[38.283364,47.978014],[38.283314,47.977957],[38.283247,47.977885],[38.283184,47.97781],[38.282563,47.978026]]]}},{"type":"Feature","properties":{"cadnum":"1415047200:02:000:0077"},"geometry":{"type":"Polygon","coordinates":[[[38.281777,47.976312],[38.281946,47.976465],[38.281946,47.976464],[38.282039,47.976547],[38.282209,47.976739],[38.282653,47.977194],[38.282798,47.97713],[38.281953,47.976267],[38.28193,47.976247],[38.281899,47.976261],[38.281777,47.976312]]]}},{"type":"Feature","properties":{"cadnum":"1415047200:04:000:0014"},"geometry":{"type":"Polygon","coordinates":[[[38.276953,47.938355],[38.277168,47.938414],[38.277527,47.938514],[38.277565,47.938524],[38.277577,47.938529],[38.278112,47.938761],[38.278221,47.938665],[38.277932,47.938518],[38.277927,47.938516],[38.277649,47.938406],[38.277286,47.938295],[38.277048,47.938214],[38.276953,47.938355]]]}},{"type":"Feature","properties":{"cadnum":"1415047200:01:002:0078"},"geometry":{"type":"Polygon","coordinates":[[[38.277785,47.967414],[38.277798,47.967421],[38.278072,47.967508],[38.278184,47.967369],[38.278234,47.967309],[38.277955,47.967228],[38.277951,47.967234],[38.277942,47.967231],[38.277808,47.967387],[38.277785,47.967414]]]}},{"type":"Feature","properties":{"cadnum":"1415047200:01:002:0079"},"geometry":{"type":"Polygon","coordinates":[[[38.278634,47.967129],[38.278854,47.967207],[38.278858,47.967201],[38.278871,47.967204],[38.278863,47.967213],[38.278934,47.967237],[38.279114,47.9673],[38.279316,47.96706],[38.278813,47.966909],[38.278634,47.967129]]]}},{"type":"Feature","properties":{"cadnum":"1415047200:01:002:0075"},"geometry":{"type":"Polygon","coordinates":[[[38.27667,47.967201],[38.276863,47.967309],[38.277322,47.966759],[38.277142,47.966696],[38.27667,47.967201]]]}},{"type":"Feature","properties":{"cadnum":"1415047200:01:002:0107"},"geometry":{"type":"Polygon","coordinates":[[[38.276087,47.966016],[38.276281,47.96617],[38.276387,47.966253],[38.276453,47.966189],[38.276613,47.966031],[38.276666,47.965977],[38.276387,47.965754],[38.276087,47.966016]]]}},{"type":"Feature","properties":{"cadnum":"1415047200:01:002:0093"},"geometry":{"type":"Polygon","coordinates":[[[38.277582,47.967078],[38.277884,47.967192],[38.278054,47.966999],[38.277749,47.9669],[38.277582,47.967078]]]}},{"type":"Feature","properties":{"cadnum":"1415047200:01:002:0094"},"geometry":{"type":"Polygon","coordinates":[[[38.277456,47.966696],[38.277475,47.966705],[38.277466,47.966714],[38.277681,47.966795],[38.277879,47.96656],[38.277645,47.96647],[38.277456,47.966696]]]}},{"type":"Feature","properties":{"cadnum":"1415047200:01:002:0081"},"geometry":{"type":"Polygon","coordinates":[[[38.27633,47.966783],[38.276453,47.966845],[38.276509,47.966873],[38.2768,47.966572],[38.276796,47.966569],[38.276774,47.966558],[38.276635,47.966494],[38.27633,47.966783]]]}},{"type":"Feature","properties":{"cadnum":"1415047200:01:002:0088"},"geometry":{"type":"Polygon","coordinates":[[[38.277416,47.967267],[38.277722,47.967385],[38.277884,47.967192],[38.277582,47.967078],[38.277416,47.967267]]]}},{"type":"Feature","properties":{"cadnum":"1415047200:01:002:0074"},"geometry":{"type":"Polygon","coordinates":[[[38.278184,47.967369],[38.278387,47.967448],[38.278611,47.967189],[38.2784,47.967117],[38.278234,47.967309],[38.278184,47.967369]]]}},{"type":"Feature","properties":{"cadnum":"1415047200:01:002:0096"},"geometry":{"type":"Polygon","coordinates":[[[38.277259,47.966951],[38.277582,47.967078],[38.277749,47.9669],[38.277421,47.966792],[38.277259,47.966951]]]}},{"type":"Feature","properties":{"cadnum":"1415047200:01:002:0076"},"geometry":{"type":"Polygon","coordinates":[[[38.276387,47.966253],[38.276607,47.966353],[38.276837,47.96613],[38.276613,47.966031],[38.276387,47.966253]]]}},{"type":"Feature","properties":{"cadnum":"1415047200:01:002:0109"},"geometry":{"type":"Polygon","coordinates":[[[38.277349,47.966654],[38.277429,47.966683],[38.277479,47.966629],[38.277398,47.966596],[38.277349,47.966654]]]}},{"type":"Feature","properties":{"cadnum":"1415047200:01:002:0077"},"geometry":{"type":"Polygon","coordinates":[[[38.277632,47.967601],[38.277641,47.967604],[38.277636,47.967613],[38.277897,47.967715],[38.277987,47.96761],[38.278072,47.967508],[38.277798,47.967421],[38.277789,47.967427],[38.277781,47.967423],[38.277632,47.967601]]]}},{"type":"Feature","properties":{"cadnum":"1415047200:01:002:0073"},"geometry":{"type":"Polygon","coordinates":[[[38.276639,47.967706],[38.276922,47.967833],[38.277093,47.967634],[38.277188,47.967535],[38.276869,47.967414],[38.276639,47.967706]]]}},{"type":"Feature","properties":{"cadnum":"1415047200:01:002:0080"},"geometry":{"type":"Polygon","coordinates":[[[38.279133,47.967736],[38.279362,47.967811],[38.27955,47.967565],[38.279582,47.967523],[38.279546,47.967508],[38.279366,47.967448],[38.279133,47.967736]]]}},{"type":"Feature","properties":{"cadnum":"1415047200:01:002:0089"},"geometry":{"type":"Polygon","coordinates":[[[38.277681,47.966795],[38.277825,47.966849],[38.277834,47.96684],[38.277857,47.966849],[38.277848,47.966858],[38.277915,47.966882],[38.278112,47.966647],[38.277879,47.96656],[38.277681,47.966795]]]}},{"type":"Feature","properties":{"cadnum":"1415047200:01:002:0071"},"geometry":{"type":"Polygon","coordinates":[[[38.279114,47.9673],[38.279222,47.967339],[38.279226,47.96733],[38.279227,47.96733],[38.279253,47.967339],[38.279244,47.967348],[38.279343,47.967381],[38.279582,47.967457],[38.279788,47.967195],[38.27955,47.967126],[38.279635,47.967024],[38.279433,47.966939],[38.279316,47.96706],[38.279114,47.9673]]]}},{"type":"Feature","properties":{"cadnum":"1415047200:01:002:0072"},"geometry":{"type":"Polygon","coordinates":[[[38.276922,47.967833],[38.276959,47.967846],[38.277207,47.967937],[38.277209,47.967938],[38.277385,47.967766],[38.277093,47.967634],[38.276922,47.967833]]]}},{"type":"Feature","properties":{"cadnum":"1415047200:01:002:0120"},"geometry":{"type":"Polygon","coordinates":[[[38.275381,47.967691],[38.275525,47.967766],[38.275777,47.967537],[38.276114,47.96721],[38.276267,47.967029],[38.276281,47.967014],[38.276281,47.967015],[38.276406,47.966885],[38.276324,47.966843],[38.276167,47.966997],[38.275997,47.967147],[38.275588,47.967517],[38.275381,47.967691]]]}},{"type":"Feature","properties":{"cadnum":"1415047200:04:000:0010"},"geometry":{"type":"Polygon","coordinates":[[[38.276684,47.932246],[38.277016,47.932418],[38.277026,47.932409],[38.277116,47.932455],[38.277381,47.932225],[38.277012,47.932048],[38.276684,47.932246]]]}},{"type":"Feature","properties":{"cadnum":"1415047200:04:000:0007"},"geometry":{"type":"Polygon","coordinates":[[[38.280349,47.935734],[38.280479,47.935756],[38.280542,47.935629],[38.280901,47.934877],[38.28092,47.934829],[38.281024,47.934579],[38.281032,47.934552],[38.281041,47.934534],[38.280947,47.934512],[38.280901,47.934503],[38.280897,47.934503],[38.280808,47.934734],[38.280797,47.934762],[38.280763,47.934849],[38.280764,47.934849],[38.280762,47.934855],[38.280349,47.935734]]]}},{"type":"Feature","properties":{"cadnum":"1415047200:04:000:0016"},"geometry":{"type":"Polygon","coordinates":[[[38.279968,47.932719],[38.280003,47.932728],[38.280299,47.932812],[38.281028,47.933041],[38.281117,47.932935],[38.280314,47.932686],[38.280314,47.932685],[38.280322,47.932671],[38.280327,47.932665],[38.280066,47.932593],[38.279968,47.932719]]]}},{"type":"Feature","properties":{"cadnum":"1415047200:04:000:0017"},"geometry":{"type":"Polygon","coordinates":[[[38.279163,47.932703],[38.279572,47.93289],[38.279617,47.932852],[38.279693,47.932884],[38.279802,47.932803],[38.279833,47.932779],[38.279941,47.932694],[38.279397,47.932451],[38.279163,47.932703]]]}},{"type":"Feature","properties":{"cadnum":"1415047200:02:000:0078"},"geometry":{"type":"Polygon","coordinates":[[[38.282267,47.98802],[38.282276,47.988038],[38.282316,47.988167],[38.283224,47.987978],[38.283179,47.987884],[38.283161,47.987839],[38.283089,47.987855],[38.282267,47.98802]]]}},{"type":"Feature","properties":{"cadnum":"1415047200:02:000:0065"},"geometry":{"type":"Polygon","coordinates":[[[38.281804,47.988978],[38.281863,47.989129],[38.281946,47.989113],[38.281946,47.989112],[38.282739,47.988951],[38.282668,47.988793],[38.281804,47.988978]]]}},{"type":"Feature","properties":{"cadnum":"1415047200:02:000:0026"},"geometry":{"type":"Polygon","coordinates":[[[38.285618,47.987124],[38.286215,47.987425],[38.286314,47.986865],[38.286171,47.986793],[38.285618,47.987124]]]}},{"type":"Feature","properties":{"cadnum":"1415047200:02:000:0072"},"geometry":{"type":"Polygon","coordinates":[[[38.281764,47.98676],[38.281775,47.986787],[38.2818,47.98685],[38.281946,47.986821],[38.282668,47.986676],[38.282595,47.986487],[38.282483,47.986507],[38.282366,47.986525],[38.282362,47.986516],[38.282322,47.986525],[38.282326,47.986534],[38.281899,47.986607],[38.281764,47.98676]]]}},{"type":"Feature","properties":{"cadnum":"1415047200:01:001:0019"},"geometry":{"type":"Polygon","coordinates":[[[38.262675,47.969908],[38.262873,47.969973],[38.263061,47.970051],[38.263326,47.969733],[38.26294,47.969598],[38.26272,47.96985],[38.262675,47.969908]]]}},{"type":"Feature","properties":{"cadnum":"1415047200:01:001:0002"},"geometry":{"type":"Polygon","coordinates":[[[38.26025,47.969986],[38.260259,47.969989],[38.260438,47.970031],[38.260527,47.969908],[38.260564,47.969862],[38.260393,47.969805],[38.26025,47.969986]]]}},{"type":"Feature","properties":{"cadnum":"1415047200:01:001:0004"},"geometry":{"type":"Polygon","coordinates":[[[38.261665,47.96823],[38.262764,47.968623],[38.262873,47.968503],[38.262734,47.968455],[38.261755,47.968103],[38.261665,47.96823]]]}},{"type":"Feature","properties":{"cadnum":"1415047200:01:001:0011"},"geometry":{"type":"Polygon","coordinates":[[[38.261755,47.968103],[38.262734,47.968455],[38.262854,47.968268],[38.262594,47.968196],[38.262194,47.968097],[38.261925,47.968004],[38.261839,47.967974],[38.261818,47.968007],[38.261755,47.968103]]]}},{"type":"Feature","properties":{"cadnum":"1415047200:01:001:0021"},"geometry":{"type":"Polygon","coordinates":[[[38.260493,47.969603],[38.260577,47.969637],[38.260632,47.96957],[38.26055,47.969538],[38.260493,47.969603]]]}},{"type":"Feature","properties":{"cadnum":"1415047200:01:001:0015"},"geometry":{"type":"Polygon","coordinates":[[[38.263936,47.970915],[38.264324,47.971054],[38.264571,47.970749],[38.264252,47.970617],[38.263936,47.970915]]]}},{"type":"Feature","properties":{"cadnum":"1415047200:01:001:0023"},"geometry":{"type":"Polygon","coordinates":[[[38.259374,47.970175],[38.259611,47.970262],[38.259802,47.97005],[38.259802,47.970051],[38.259921,47.969917],[38.259974,47.969858],[38.259974,47.969857],[38.26007,47.969748],[38.260101,47.969715],[38.259837,47.969621],[38.259374,47.970175]]]}},{"type":"Feature","properties":{"cadnum":"1415047200:01:001:0028"},"geometry":{"type":"Polygon","coordinates":[[[38.259976,47.970274],[38.260434,47.970457],[38.26056,47.97031],[38.260164,47.970157],[38.260114,47.970142],[38.259976,47.970274]]]}},{"type":"Feature","properties":{"cadnum":"1415047200:01:001:0018"},"geometry":{"type":"Polygon","coordinates":[[[38.262118,47.970274],[38.262257,47.970323],[38.262621,47.969884],[38.262487,47.969839],[38.262298,47.97006],[38.262177,47.970208],[38.262118,47.970274]]]}},{"type":"Feature","properties":{"cadnum":"1415047200:02:000:0076"},"geometry":{"type":"Polygon","coordinates":[[[38.280268,47.985357],[38.280272,47.985362],[38.280282,47.985386],[38.280354,47.985537],[38.280484,47.985513],[38.280511,47.985509],[38.280781,47.985462],[38.281171,47.985392],[38.281077,47.985208],[38.280588,47.985302],[38.280268,47.985357]]]}},{"type":"Feature","properties":{"cadnum":"1415047200:02:000:0031"},"geometry":{"type":"Polygon","coordinates":[[[38.281127,47.983615],[38.281148,47.983693],[38.281374,47.983661],[38.281351,47.983585],[38.281127,47.983615]]]}},{"type":"Feature","properties":{"cadnum":"1415047200:02:000:0073"},"geometry":{"type":"Polygon","coordinates":[[[38.279173,47.984746],[38.27923,47.98492],[38.279842,47.984845],[38.279873,47.984839],[38.279869,47.984818],[38.279859,47.9848],[38.279819,47.984686],[38.279173,47.984746]]]}},{"type":"Feature","properties":{"cadnum":"1415047200:02:000:0056"},"geometry":{"type":"Polygon","coordinates":[[[38.283049,47.979731],[38.283737,47.980263],[38.283884,47.980182],[38.283737,47.980058],[38.283484,47.979833],[38.283247,47.979635],[38.283089,47.97971],[38.283067,47.979722],[38.283049,47.979731]]]}},{"type":"Feature","properties":{"cadnum":"1415047200:01:002:0114"},"geometry":{"type":"Polygon","coordinates":[[[38.26364,47.963243],[38.263946,47.963502],[38.264162,47.963373],[38.264296,47.963493],[38.264718,47.963863],[38.264831,47.96379],[38.264732,47.963718],[38.264584,47.963637],[38.264489,47.96358],[38.264405,47.963565],[38.264162,47.963297],[38.264148,47.96331],[38.263919,47.963114],[38.263699,47.963207],[38.26364,47.963243]]]}},{"type":"Feature","properties":{"cadnum":"1415047200:02:000:0070"},"geometry":{"type":"Polygon","coordinates":[[[38.263946,47.963502],[38.264517,47.964007],[38.264718,47.963863],[38.264296,47.963493],[38.264162,47.963373],[38.263946,47.963502]]]}},{"type":"Feature","properties":{"cadnum":"1415047200:02:000:0034"},"geometry":{"type":"Polygon","coordinates":[[[38.27888,47.977933],[38.279326,47.978381],[38.279513,47.978315],[38.279204,47.97774],[38.279079,47.977816],[38.279037,47.97784],[38.27888,47.977933]]]}},{"type":"Feature","properties":{"cadnum":"1415047200:02:000:0059"},"geometry":{"type":"Polygon","coordinates":[[[38.276823,47.978522],[38.276905,47.97858],[38.277008,47.978513],[38.276926,47.978456],[38.276823,47.978522]]]}},{"type":"Feature","properties":{"cadnum":"1415047200:02:000:0047"},"geometry":{"type":"Polygon","coordinates":[[[38.277542,47.977776],[38.277762,47.977885],[38.277905,47.977948],[38.277978,47.977981],[38.278158,47.978065],[38.278202,47.978021],[38.27823,47.977993],[38.278202,47.977978],[38.277762,47.977765],[38.277649,47.977674],[38.277542,47.977776]]]}},{"type":"Feature","properties":{"cadnum":"1415047200:02:000:0053"},"geometry":{"type":"Polygon","coordinates":[[[38.277781,47.977587],[38.27849,47.978026],[38.27866,47.977921],[38.278001,47.977428],[38.277781,47.977587]]]}},{"type":"Feature","properties":{"cadnum":"1415047200:02:000:0032"},"geometry":{"type":"Polygon","coordinates":[[[38.278131,47.978092],[38.278274,47.978171],[38.278414,47.978081],[38.27823,47.977993],[38.278202,47.978021],[38.278158,47.978065],[38.278131,47.978092]]]}},{"type":"Feature","properties":{"cadnum":"1415047200:02:000:0080"},"geometry":{"type":"Polygon","coordinates":[[[38.277555,47.977602],[38.277649,47.977674],[38.277762,47.977765],[38.278202,47.977978],[38.27823,47.977993],[38.278414,47.978081],[38.27849,47.978026],[38.277781,47.977587],[38.277754,47.977569],[38.277704,47.977521],[38.277555,47.977602]]]}},{"type":"Feature","properties":{"cadnum":"1415047200:05:000:0002"},"geometry":{"type":"Polygon","coordinates":[[[38.21524,47.97274],[38.215743,47.972815],[38.215886,47.972557],[38.215366,47.972364],[38.21524,47.97274]]]}},{"type":"Feature","properties":{"cadnum":"1415047200:01:002:0100"},"geometry":{"type":"Polygon","coordinates":[[[38.276922,47.968455],[38.277488,47.968756],[38.277726,47.968557],[38.277268,47.968328],[38.277142,47.968263],[38.276922,47.968455]]]}},{"type":"Feature","properties":{"cadnum":"1415047200:01:002:0101"},"geometry":{"type":"Polygon","coordinates":[[[38.27676,47.968064],[38.27703,47.968205],[38.277142,47.968263],[38.277268,47.968328],[38.277726,47.968557],[38.277861,47.96844],[38.277412,47.968208],[38.276913,47.967967],[38.27676,47.968064]]]}},{"type":"Feature","properties":{"cadnum":"1415047200:01:002:0115"},"geometry":{"type":"Polygon","coordinates":[[[38.277133,47.969204],[38.277255,47.969258],[38.277376,47.969315],[38.277502,47.969372],[38.277718,47.969462],[38.278463,47.969811],[38.278553,47.969733],[38.277897,47.969429],[38.277511,47.969249],[38.277228,47.969126],[38.277133,47.969204]]]}},{"type":"Feature","properties":{"cadnum":"1415047200:01:002:0113"},"geometry":{"type":"Polygon","coordinates":[[[38.276523,47.969643],[38.277331,47.970091],[38.277506,47.969971],[38.276697,47.969514],[38.276523,47.969643]]]}},{"type":"Feature","properties":{"cadnum":"1415047200:03:000:0020"},"geometry":{"type":"Polygon","coordinates":[[[38.235083,47.959182],[38.235151,47.959201],[38.235268,47.959224],[38.235407,47.959255],[38.235474,47.95927],[38.235514,47.959276],[38.235591,47.959132],[38.235281,47.959065],[38.235209,47.959047],[38.235155,47.959035],[38.235128,47.95909],[38.235119,47.959104],[38.235083,47.959182]]]}},{"type":"Feature","properties":{"cadnum":"1415047200:03:000:0013"},"geometry":{"type":"Polygon","coordinates":[[[38.235312,47.957926],[38.235455,47.957955],[38.235488,47.957889],[38.235484,47.957886],[38.235524,47.957802],[38.235532,47.957805],[38.235545,47.957778],[38.235618,47.957616],[38.235641,47.957619],[38.235658,47.957585],[38.235685,47.957537],[38.235685,47.957534],[38.235595,47.957514],[38.235518,47.957492],[38.235442,47.95763],[38.235483,47.957639],[38.235484,47.957639],[38.235465,47.957666],[38.235421,47.957748],[38.235407,47.957775],[38.235411,47.957778],[38.235366,47.957866],[38.235312,47.957926]]]}},{"type":"Feature","properties":{"cadnum":"1415047200:02:000:0052"},"geometry":{"type":"Polygon","coordinates":[[[38.27999,47.986685],[38.280062,47.986862],[38.280179,47.986844],[38.280704,47.986739],[38.280637,47.986553],[38.27999,47.986685]]]}},{"type":"Feature","properties":{"cadnum":"1415047200:02:000:0075"},"geometry":{"type":"Polygon","coordinates":[[[38.272542,47.979425],[38.273378,47.9799],[38.273571,47.979746],[38.272754,47.979277],[38.272542,47.979425]]]}},{"type":"Feature","properties":{"cadnum":"1415047200:02:000:0054"},"geometry":{"type":"Polygon","coordinates":[[[38.274102,47.980534],[38.274798,47.980922],[38.274951,47.980816],[38.274268,47.980417],[38.274102,47.980534]]]}},{"type":"Feature","properties":{"cadnum":"1415047200:03:000:0022"},"geometry":{"type":"Polygon","coordinates":[[[38.229555,47.96087],[38.229846,47.961056],[38.230102,47.960711],[38.229783,47.960606],[38.229756,47.960617],[38.229555,47.96087]]]}},{"type":"Feature","properties":{"cadnum":"1415047200:03:000:0024"},"geometry":{"type":"Polygon","coordinates":[[[38.230704,47.960849],[38.231216,47.961003],[38.231333,47.961036],[38.231427,47.960852],[38.231387,47.960837],[38.230803,47.960675],[38.230776,47.960722],[38.230704,47.960849]]]}},{"type":"Feature","properties":{"cadnum":"1415047200:01:002:0062"},"geometry":{"type":"Polygon","coordinates":[[[38.273989,47.972759],[38.274007,47.972837],[38.274668,47.972942],[38.274806,47.972917],[38.275341,47.97253],[38.274496,47.972211],[38.273989,47.972759]]]}},{"type":"Feature","properties":{"cadnum":"1415047200:03:000:0007"},"geometry":{"type":"Polygon","coordinates":[[[38.233758,47.962849],[38.234212,47.963065],[38.234283,47.962958],[38.234333,47.962882],[38.233853,47.962671],[38.233758,47.962849]]]}},{"type":"Feature","properties":{"cadnum":"1415047200:03:000:0010"},"geometry":{"type":"Polygon","coordinates":[[[38.233673,47.96111],[38.2337,47.961117],[38.234234,47.961231],[38.234387,47.961264],[38.2344,47.96124],[38.234476,47.961096],[38.23379,47.960876],[38.233673,47.96111]]]}},{"type":"Feature","properties":{"cadnum":"1415047200:03:000:0026"},"geometry":{"type":"Polygon","coordinates":[[[38.233143,47.962058],[38.233876,47.962269],[38.233992,47.962058],[38.233251,47.961872],[38.233184,47.961986],[38.233143,47.962058]]]}},{"type":"Feature","properties":{"cadnum":"1415047200:03:000:0006"},"geometry":{"type":"Polygon","coordinates":[[[38.231037,47.955327],[38.231301,47.955486],[38.231939,47.955802],[38.232083,47.955681],[38.231176,47.955215],[38.231037,47.955327]]]}},{"type":"Feature","properties":{"cadnum":"1415047200:01:002:0131"},"geometry":{"type":"Polygon","coordinates":[[[38.271123,47.967051],[38.271286,47.967138],[38.271699,47.966656],[38.271528,47.96659],[38.271123,47.967051]]]}},{"type":"Feature","properties":{"cadnum":"1415047200:01:002:0117"},"geometry":{"type":"Polygon","coordinates":[[[38.274043,47.966999],[38.274259,47.967089],[38.274452,47.967171],[38.274699,47.967291],[38.274901,47.967087],[38.274246,47.966828],[38.274043,47.966999]]]}},{"type":"Feature","properties":{"cadnum":"1415047200:01:002:0091"},"geometry":{"type":"Polygon","coordinates":[[[38.271187,47.966299],[38.271487,47.966413],[38.271955,47.966037],[38.271991,47.966001],[38.271712,47.965883],[38.271663,47.965923],[38.271187,47.966299]]]}},{"type":"Feature","properties":{"cadnum":"1415047200:01:001:0066"},"geometry":{"type":"Polygon","coordinates":[[[38.272143,47.964993],[38.272709,47.965192],[38.27279,47.965084],[38.272619,47.965029],[38.272781,47.964774],[38.272808,47.964741],[38.27301,47.964579],[38.272943,47.964534],[38.272911,47.964516],[38.272888,47.964534],[38.272682,47.964702],[38.272605,47.964825],[38.272512,47.964942],[38.272511,47.964942],[38.272259,47.964846],[38.272143,47.964993]]]}},{"type":"Feature","properties":{"cadnum":"1415047200:01:002:0102"},"geometry":{"type":"Polygon","coordinates":[[[38.272246,47.965694],[38.273001,47.966013],[38.273163,47.965814],[38.272435,47.965517],[38.272246,47.965694]]]}},{"type":"Feature","properties":{"cadnum":"1415047200:01:002:0092"},"geometry":{"type":"Polygon","coordinates":[[[38.273374,47.965865],[38.274282,47.966121],[38.274798,47.966308],[38.274848,47.966253],[38.274905,47.966184],[38.273882,47.96589],[38.273764,47.965863],[38.273773,47.965845],[38.273729,47.965836],[38.27372,47.965854],[38.273441,47.965784],[38.273441,47.965785],[38.273374,47.965865]]]}},{"type":"Feature","properties":{"cadnum":"1415047200:01:002:0082"},"geometry":{"type":"Polygon","coordinates":[[[38.275741,47.966368],[38.275911,47.966476],[38.276194,47.966206],[38.276146,47.966179],[38.276173,47.966157],[38.276047,47.966052],[38.275745,47.966347],[38.275741,47.966368]]]}},{"type":"Feature","properties":{"cadnum":"1415047200:01:002:0083"},"geometry":{"type":"Polygon","coordinates":[[[38.275152,47.965872],[38.275292,47.966052],[38.27544,47.966133],[38.27571,47.965854],[38.2754,47.965661],[38.275152,47.965872]]]}},{"type":"Feature","properties":{"cadnum":"1415047200:01:002:0122"},"geometry":{"type":"Polygon","coordinates":[[[38.272211,47.965925],[38.272336,47.966001],[38.272525,47.966103],[38.272799,47.966251],[38.272902,47.96613],[38.27293,47.966103],[38.273001,47.966013],[38.272395,47.965758],[38.272211,47.965925]]]}},{"type":"Feature","properties":{"cadnum":"1415047200:01:002:0061"},"geometry":{"type":"Polygon","coordinates":[[[38.273724,47.965406],[38.273854,47.965477],[38.275152,47.965872],[38.275697,47.965406],[38.274668,47.964846],[38.273989,47.965171],[38.273724,47.965406]]]}}]}