{"type":"FeatureCollection","features":[{"type":"Feature","properties":{"cadnum":"1420383501:00:000:0080"},"geometry":{"type":"Polygon","coordinates":[[[37.020071,48.73106],[37.02075,48.731671],[37.021307,48.731365],[37.020759,48.730821],[37.020561,48.730622],[37.020339,48.730821],[37.020338,48.730821],[37.020213,48.730933],[37.020212,48.730934],[37.020071,48.73106]]]}},{"type":"Feature","properties":{"cadnum":"1420383501:00:000:0095"},"geometry":{"type":"Polygon","coordinates":[[[37.020561,48.730622],[37.020758,48.730821],[37.02076,48.730822],[37.020871,48.730934],[37.02106,48.731123],[37.021396,48.73093],[37.020831,48.730399],[37.020601,48.730572],[37.020561,48.730622]]]}},{"type":"Feature","properties":{"cadnum":"1420383501:00:000:0103"},"geometry":{"type":"Polygon","coordinates":[[[37.020247,48.728172],[37.020826,48.728756],[37.02119,48.728587],[37.020624,48.728021],[37.020247,48.728172]]]}},{"type":"Feature","properties":{"cadnum":"1420383501:00:000:0144"},"geometry":{"type":"Polygon","coordinates":[[[37.020983,48.730317],[37.021658,48.730934],[37.021659,48.730934],[37.022151,48.731383],[37.022119,48.731401],[37.022173,48.731442],[37.022223,48.731416],[37.022362,48.731345],[37.021771,48.730821],[37.02177,48.730821],[37.0211,48.730225],[37.020983,48.730317]]]}},{"type":"Feature","properties":{"cadnum":"1420383501:00:000:0077"},"geometry":{"type":"Polygon","coordinates":[[[37.018999,48.728752],[37.019565,48.729298],[37.019941,48.729129],[37.019385,48.728578],[37.018999,48.728752]]]}},{"type":"Feature","properties":{"cadnum":"1420383501:00:000:0105"},"geometry":{"type":"Polygon","coordinates":[[[37.019532,48.728723],[37.019941,48.729129],[37.02044,48.728925],[37.019937,48.728427],[37.019869,48.728459],[37.019865,48.728566],[37.019532,48.728723]]]}},{"type":"Feature","properties":{"cadnum":"1420383501:00:000:0104"},"geometry":{"type":"Polygon","coordinates":[[[37.019371,48.727505],[37.019613,48.727754],[37.020184,48.728337],[37.020647,48.728842],[37.020826,48.728756],[37.020247,48.728172],[37.020624,48.728021],[37.02119,48.728587],[37.021379,48.728498],[37.020785,48.72784],[37.020247,48.727259],[37.019371,48.727505]]]}},{"type":"Feature","properties":{"cadnum":"1420383501:00:000:0078"},"geometry":{"type":"Polygon","coordinates":[[[37.018446,48.728222],[37.018467,48.728246],[37.018999,48.728752],[37.019385,48.728578],[37.018854,48.728051],[37.019155,48.727935],[37.019133,48.727914],[37.018553,48.728145],[37.018446,48.728222]]]}},{"type":"Feature","properties":{"cadnum":"1420383501:00:000:0106"},"geometry":{"type":"Polygon","coordinates":[[[37.018854,48.728051],[37.019385,48.728578],[37.019532,48.728723],[37.019865,48.728566],[37.019869,48.72846],[37.019869,48.728459],[37.019937,48.728427],[37.02044,48.728925],[37.020647,48.728842],[37.020184,48.728337],[37.019613,48.727754],[37.019155,48.727935],[37.018854,48.728051]]]}},{"type":"Feature","properties":{"cadnum":"1420383501:00:000:0133"},"geometry":{"type":"Polygon","coordinates":[[[37.006638,48.735652],[37.006745,48.735724],[37.007532,48.736252],[37.007747,48.736396],[37.008892,48.737166],[37.009412,48.736763],[37.009557,48.736485],[37.00886,48.736035],[37.008116,48.735475],[37.007804,48.735241],[37.007576,48.735065],[37.007488,48.735109],[37.00701,48.735344],[37.006951,48.735374],[37.006785,48.73546],[37.006691,48.735566],[37.006638,48.735652]]]}},{"type":"Feature","properties":{"cadnum":"1420383501:00:000:0148"},"geometry":{"type":"Polygon","coordinates":[[[37.0291,48.723517],[37.029158,48.723573],[37.029157,48.723573],[37.029176,48.723591],[37.029271,48.723687],[37.029272,48.723687],[37.029505,48.723918],[37.029505,48.723917],[37.029872,48.724281],[37.030362,48.724086],[37.029862,48.723573],[37.029861,48.723573],[37.029599,48.723304],[37.029414,48.723383],[37.0291,48.723517]]]}},{"type":"Feature","properties":{"cadnum":"1420383501:00:000:0072"},"geometry":{"type":"Polygon","coordinates":[[[37.027169,48.727194],[37.027171,48.727197],[37.027176,48.727202],[37.027288,48.72731],[37.027289,48.72731],[37.027869,48.727867],[37.028457,48.727564],[37.028158,48.72728],[37.027815,48.726954],[37.027169,48.727194]]]}},{"type":"Feature","properties":{"cadnum":"1420383501:00:000:0124"},"geometry":{"type":"Polygon","coordinates":[[[37.028268,48.724006],[37.028929,48.724655],[37.029387,48.72445],[37.028758,48.723811],[37.028268,48.724006]]]}},{"type":"Feature","properties":{"cadnum":"1420383501:00:000:0123"},"geometry":{"type":"Polygon","coordinates":[[[37.028929,48.724655],[37.029333,48.725049],[37.029391,48.725105],[37.029505,48.725063],[37.029863,48.724931],[37.029387,48.72445],[37.028929,48.724655]]]}},{"type":"Feature","properties":{"cadnum":"1420383501:00:000:0138"},"geometry":{"type":"Polygon","coordinates":[[[37.025035,48.724258],[37.025637,48.724907],[37.027052,48.724373],[37.028322,48.723885],[37.028149,48.723687],[37.027716,48.723189],[37.026471,48.723687],[37.026472,48.723687],[37.026377,48.723725],[37.025035,48.724258]]]}},{"type":"Feature","properties":{"cadnum":"1420383501:00:000:0150"},"geometry":{"type":"Polygon","coordinates":[[[37.027716,48.723189],[37.02805,48.723573],[37.028322,48.723885],[37.028825,48.723627],[37.029077,48.723488],[37.029505,48.723304],[37.03024,48.72299],[37.029702,48.722397],[37.029505,48.722476],[37.029505,48.722475],[37.027716,48.723189]]]}},{"type":"Feature","properties":{"cadnum":"1420383501:00:000:0139"},"geometry":{"type":"Polygon","coordinates":[[[37.022672,48.7252],[37.023058,48.725473],[37.02384,48.725936],[37.023863,48.72595],[37.024012,48.725882],[37.024796,48.725523],[37.025515,48.724957],[37.025637,48.724907],[37.025035,48.724258],[37.023853,48.724729],[37.022672,48.7252]]]}},{"type":"Feature","properties":{"cadnum":"1420383501:00:000:0076"},"geometry":{"type":"Polygon","coordinates":[[[37.026513,48.72464],[37.027043,48.725206],[37.027492,48.725069],[37.027411,48.72499],[37.027595,48.724937],[37.027092,48.724415],[37.026513,48.72464]]]}},{"type":"Feature","properties":{"cadnum":"1420383501:00:000:0075"},"geometry":{"type":"Polygon","coordinates":[[[37.027043,48.725206],[37.027528,48.725724],[37.027995,48.725583],[37.027492,48.725069],[37.027043,48.725206]]]}},{"type":"Feature","properties":{"cadnum":"1420383501:00:000:0089"},"geometry":{"type":"Polygon","coordinates":[[[37.028947,48.726376],[37.029333,48.72676],[37.029499,48.726925],[37.029505,48.726922],[37.030065,48.726643],[37.029593,48.726166],[37.029333,48.726251],[37.028947,48.726376]]]}},{"type":"Feature","properties":{"cadnum":"1420383501:00:000:0143"},"geometry":{"type":"MultiPolygon","coordinates":[[[[37.032935,48.727834],[37.033402,48.728237],[37.033165,48.728335],[37.033415,48.728611],[37.033601,48.728779],[37.034998,48.728025],[37.034998,48.728024],[37.035322,48.727849],[37.035312,48.727852],[37.035306,48.727846],[37.035306,48.727845],[37.035307,48.727845],[37.035316,48.72784],[37.035324,48.727848],[37.035526,48.727739],[37.035455,48.727668],[37.035079,48.727301],[37.035891,48.726901],[37.036088,48.726557],[37.034826,48.72708],[37.034543,48.727197],[37.034542,48.727197],[37.034436,48.727241],[37.03426,48.72731],[37.034261,48.72731],[37.034261,48.727311],[37.032935,48.727834]],[[37.03462,48.728178],[37.03461,48.728183],[37.034602,48.728175],[37.034616,48.728172],[37.03462,48.728178]],[[37.033946,48.728486],[37.033932,48.728492],[37.033928,48.728483],[37.033928,48.728482],[37.033937,48.72848],[37.033946,48.728486]]],[[[37.035324,48.727848],[37.035323,48.727849],[37.035325,48.727849],[37.035324,48.727848]]]]}},{"type":"Feature","properties":{"cadnum":"1420383501:00:000:0117"},"geometry":{"type":"Polygon","coordinates":[[[37.029037,48.73],[37.029333,48.730302],[37.029398,48.730369],[37.029505,48.730477],[37.029652,48.730628],[37.029998,48.730476],[37.02936,48.729852],[37.029037,48.73]]]}},{"type":"Feature","properties":{"cadnum":"1420383501:00:000:0056"},"geometry":{"type":"Polygon","coordinates":[[[37.032886,48.726993],[37.033107,48.727197],[37.03322,48.727301],[37.03323,48.72731],[37.033488,48.727547],[37.033843,48.727357],[37.033729,48.727251],[37.033272,48.726826],[37.032886,48.726993]]]}},{"type":"Feature","properties":{"cadnum":"1420383501:00:000:0088"},"geometry":{"type":"Polygon","coordinates":[[[37.029499,48.726925],[37.029774,48.727197],[37.029773,48.727197],[37.029863,48.727285],[37.029863,48.727286],[37.030425,48.727004],[37.030065,48.726643],[37.029499,48.726925]]]}},{"type":"Feature","properties":{"cadnum":"1420383501:00:000:0115"},"geometry":{"type":"Polygon","coordinates":[[[37.033132,48.726694],[37.033272,48.726826],[37.03367,48.727197],[37.033729,48.727251],[37.033792,48.72731],[37.033793,48.72731],[37.033843,48.727357],[37.033892,48.727404],[37.034394,48.727206],[37.033654,48.726495],[37.033132,48.726694]]]}},{"type":"Feature","properties":{"cadnum":"1420383501:00:000:0093"},"geometry":{"type":"Polygon","coordinates":[[[37.023979,48.73456],[37.024442,48.734915],[37.024733,48.73487],[37.024954,48.735012],[37.025308,48.734805],[37.025089,48.734639],[37.024832,48.734444],[37.024553,48.73423],[37.024181,48.734444],[37.024083,48.7345],[37.023983,48.734557],[37.023984,48.734557],[37.023979,48.73456]]]}},{"type":"Feature","properties":{"cadnum":"1420383501:00:000:0092"},"geometry":{"type":"Polygon","coordinates":[[[37.023588,48.734257],[37.02384,48.734452],[37.02384,48.734453],[37.023841,48.734453],[37.023975,48.734557],[37.023976,48.734557],[37.023979,48.73456],[37.024012,48.734542],[37.024012,48.734541],[37.024083,48.7345],[37.024553,48.73423],[37.024159,48.733923],[37.024007,48.734012],[37.023588,48.734257]]]}},{"type":"Feature","properties":{"cadnum":"1420383501:00:000:0152"},"geometry":{"type":"Polygon","coordinates":[[[37.006039,48.731214],[37.00736,48.732361],[37.007463,48.73245],[37.007532,48.73251],[37.00759,48.73256],[37.008856,48.732224],[37.008039,48.731493],[37.00736,48.730889],[37.007284,48.730821],[37.00723,48.730773],[37.007101,48.730821],[37.0071,48.730821],[37.006039,48.731214]]]}},{"type":"Feature","properties":{"cadnum":"1420383501:00:000:0098"},"geometry":{"type":"Polygon","coordinates":[[[37.01142,48.731875],[37.011968,48.732311],[37.012261,48.732557],[37.012552,48.732426],[37.012238,48.73216],[37.011712,48.731748],[37.01142,48.731875]]]}},{"type":"Feature","properties":{"cadnum":"1420383501:00:000:0086"},"geometry":{"type":"Polygon","coordinates":[[[37.006596,48.733386],[37.006929,48.733658],[37.00736,48.734014],[37.007491,48.734121],[37.007532,48.7341],[37.007532,48.734099],[37.007863,48.733923],[37.007435,48.733574],[37.006731,48.733001],[37.006596,48.733386]]]}},{"type":"Feature","properties":{"cadnum":"1420383501:00:000:0154"},"geometry":{"type":"Polygon","coordinates":[[[37.011534,48.734176],[37.011853,48.734419],[37.012119,48.734265],[37.011813,48.734022],[37.011534,48.734176]]]}},{"type":"Feature","properties":{"cadnum":"1420383501:00:000:0155"},"geometry":{"type":"Polygon","coordinates":[[[37.010762,48.733539],[37.010991,48.733767],[37.011534,48.734176],[37.011813,48.734022],[37.011314,48.733625],[37.011085,48.733391],[37.010762,48.733539]]]}},{"type":"Feature","properties":{"cadnum":"1420383501:00:000:0085"},"geometry":{"type":"Polygon","coordinates":[[[37.007491,48.734121],[37.008018,48.734557],[37.008019,48.734557],[37.008061,48.734591],[37.008079,48.734604],[37.00839,48.734461],[37.008479,48.73442],[37.007863,48.733923],[37.007491,48.734121]]]}},{"type":"Feature","properties":{"cadnum":"1420383501:00:000:0119"},"geometry":{"type":"Polygon","coordinates":[[[37.008869,48.734441],[37.008872,48.734444],[37.008875,48.734447],[37.008987,48.734557],[37.008988,48.734557],[37.009386,48.734944],[37.009808,48.734743],[37.009475,48.734444],[37.009265,48.734254],[37.008869,48.734441]]]}},{"type":"Feature","properties":{"cadnum":"1420383501:00:000:0044"},"geometry":{"type":"Polygon","coordinates":[[[37.012351,48.732737],[37.012854,48.733217],[37.012854,48.733218],[37.012984,48.733342],[37.013025,48.733224],[37.013025,48.733223],[37.013104,48.732998],[37.012879,48.732752],[37.012705,48.732562],[37.012351,48.732737]]]}},{"type":"Feature","properties":{"cadnum":"1420383501:00:000:0066"},"geometry":{"type":"Polygon","coordinates":[[[37.007647,48.732598],[37.008322,48.733104],[37.008479,48.733051],[37.0078,48.732545],[37.007647,48.732598]]]}},{"type":"Feature","properties":{"cadnum":"1420383501:00:000:0067"},"geometry":{"type":"Polygon","coordinates":[[[37.008582,48.733463],[37.009296,48.734],[37.009687,48.733777],[37.009445,48.73359],[37.008896,48.733403],[37.008779,48.73335],[37.008582,48.733463]]]}},{"type":"Feature","properties":{"cadnum":"1420383501:00:000:0065"},"geometry":{"type":"Polygon","coordinates":[[[37.00833,48.733273],[37.008582,48.733463],[37.008779,48.73335],[37.008487,48.73322],[37.00833,48.733273]]]}},{"type":"Feature","properties":{"cadnum":"1420383501:00:000:0099"},"geometry":{"type":"Polygon","coordinates":[[[37.010846,48.731419],[37.01142,48.731875],[37.011712,48.731748],[37.01112,48.731282],[37.010846,48.731419]]]}},{"type":"Feature","properties":{"cadnum":"1420383501:00:000:0127"},"geometry":{"type":"Polygon","coordinates":[[[37.01805,48.735966],[37.018347,48.736203],[37.018412,48.736255],[37.018518,48.73634],[37.018519,48.73634],[37.01902,48.73674],[37.019249,48.736606],[37.018427,48.735951],[37.01828,48.735833],[37.01805,48.735966]]]}},{"type":"Feature","properties":{"cadnum":"1420383501:00:000:0068"},"geometry":{"type":"Polygon","coordinates":[[[37.014569,48.735208],[37.014982,48.735614],[37.015454,48.735333],[37.015037,48.734929],[37.014569,48.735208]]]}},{"type":"Feature","properties":{"cadnum":"1420383501:00:000:0048"},"geometry":{"type":"Polygon","coordinates":[[[37.018396,48.735693],[37.018518,48.735781],[37.018518,48.73578],[37.018519,48.73578],[37.018634,48.735862],[37.018926,48.735697],[37.018687,48.735519],[37.018396,48.735693]]]}},{"type":"Feature","properties":{"cadnum":"1420383501:00:000:0134"},"geometry":{"type":"Polygon","coordinates":[[[37.034413,48.724815],[37.034759,48.725155],[37.034998,48.725055],[37.034998,48.725054],[37.035396,48.724886],[37.035042,48.724555],[37.034826,48.724644],[37.034413,48.724815]]]}},{"type":"Feature","properties":{"cadnum":"1420383501:00:000:0135"},"geometry":{"type":"Polygon","coordinates":[[[37.033731,48.724145],[37.034413,48.724815],[37.034998,48.724573],[37.035042,48.724555],[37.034958,48.724475],[37.034314,48.723866],[37.033731,48.724145]]]}},{"type":"Feature","properties":{"cadnum":"1420383501:00:000:0130"},"geometry":{"type":"Polygon","coordinates":[[[37.035078,48.727301],[37.035088,48.72731],[37.035526,48.727739],[37.03655,48.727269],[37.036933,48.727094],[37.038343,48.726444],[37.038298,48.726347],[37.037643,48.725739],[37.036088,48.726557],[37.035891,48.726901],[37.035289,48.727197],[37.035288,48.727197],[37.035078,48.727301]]]}},{"type":"Feature","properties":{"cadnum":"1420383501:00:000:0036"},"geometry":{"type":"Polygon","coordinates":[[[37.032019,48.723297],[37.032312,48.723573],[37.032382,48.723639],[37.032432,48.723687],[37.032433,48.723687],[37.03254,48.723787],[37.032985,48.723615],[37.032455,48.723126],[37.032019,48.723297]]]}},{"type":"Feature","properties":{"cadnum":"1420383501:00:000:0037"},"geometry":{"type":"Polygon","coordinates":[[[37.031377,48.722702],[37.032019,48.723297],[37.032455,48.723126],[37.031813,48.722533],[37.031377,48.722702]]]}},{"type":"Feature","properties":{"cadnum":"1420383501:00:000:0149"},"geometry":{"type":"Polygon","coordinates":[[[37.029702,48.722397],[37.03024,48.72299],[37.030981,48.722714],[37.031282,48.722669],[37.032746,48.722065],[37.032221,48.721463],[37.031089,48.721843],[37.029702,48.722397]]]}},{"type":"Feature","properties":{"cadnum":"1420383501:00:000:0042"},"geometry":{"type":"Polygon","coordinates":[[[37.027083,48.73088],[37.027148,48.730934],[37.027149,48.730934],[37.027928,48.731567],[37.028148,48.731431],[37.027548,48.730934],[37.027316,48.730741],[37.027182,48.730821],[37.027083,48.73088]]]}},{"type":"Feature","properties":{"cadnum":"1420383501:00:000:0090"},"geometry":{"type":"Polygon","coordinates":[[[37.024051,48.730761],[37.024114,48.73082],[37.024114,48.730821],[37.02441,48.731093],[37.024851,48.730839],[37.024976,48.730767],[37.024612,48.730432],[37.024051,48.730761]]]}},{"type":"Feature","properties":{"cadnum":"1420383501:00:000:0091"},"geometry":{"type":"Polygon","coordinates":[[[37.02441,48.731093],[37.024865,48.731514],[37.025182,48.731564],[37.025465,48.731404],[37.025511,48.731259],[37.025034,48.730821],[37.025033,48.730821],[37.024976,48.730767],[37.024883,48.730821],[37.024851,48.730839],[37.024686,48.730934],[37.02441,48.731093]]]}},{"type":"Feature","properties":{"cadnum":"1420383501:00:000:0137"},"geometry":{"type":"Polygon","coordinates":[[[37.027343,48.730761],[37.027549,48.730934],[37.02755,48.730934],[37.028148,48.731431],[37.028398,48.731297],[37.028111,48.731105],[37.027759,48.730841],[37.027528,48.730667],[37.027343,48.730761]]]}},{"type":"Feature","properties":{"cadnum":"1420383501:00:000:0145"},"geometry":{"type":"Polygon","coordinates":[[[37.025182,48.729108],[37.02565,48.729534],[37.026104,48.72928],[37.025699,48.72888],[37.025182,48.729108]]]}},{"type":"Feature","properties":{"cadnum":"1420383501:00:000:0071"},"geometry":{"type":"Polygon","coordinates":[[[37.027869,48.727867],[37.028219,48.728205],[37.028807,48.7279],[37.028457,48.727564],[37.027869,48.727867]]]}},{"type":"Feature","properties":{"cadnum":"1420383501:00:000:0108"},"geometry":{"type":"Polygon","coordinates":[[[37.026597,48.729733],[37.027146,48.730225],[37.027725,48.729947],[37.027832,48.729896],[37.027285,48.72941],[37.027209,48.729448],[37.026597,48.729733]]]}},{"type":"Feature","properties":{"cadnum":"1420383501:00:000:0118"},"geometry":{"type":"Polygon","coordinates":[[[37.028763,48.729727],[37.029037,48.73],[37.02936,48.729852],[37.029086,48.729585],[37.028763,48.729727]]]}},{"type":"Feature","properties":{"cadnum":"1420383501:00:000:0146"},"geometry":{"type":"Polygon","coordinates":[[[37.024415,48.728412],[37.025182,48.729108],[37.025699,48.72888],[37.024968,48.72816],[37.024415,48.728412]]]}},{"type":"Feature","properties":{"cadnum":"1420383501:00:000:0107"},"geometry":{"type":"Polygon","coordinates":[[[37.026297,48.729464],[37.026597,48.729733],[37.027209,48.729448],[37.027285,48.72941],[37.026979,48.729134],[37.02689,48.729141],[37.026845,48.729143],[37.026297,48.729464]]]}},{"type":"Feature","properties":{"cadnum":"1420383501:00:000:0052"},"geometry":{"type":"Polygon","coordinates":[[[37.028228,48.729274],[37.028736,48.72974],[37.029123,48.729571],[37.028601,48.72909],[37.028228,48.729274]]]}},{"type":"Feature","properties":{"cadnum":"1420383501:00:000:0051"},"geometry":{"type":"Polygon","coordinates":[[[37.027649,48.728741],[37.028228,48.729274],[37.028601,48.72909],[37.028026,48.72856],[37.027649,48.728741]]]}},{"type":"Feature","properties":{"cadnum":"1420383501:00:000:0116"},"geometry":{"type":"Polygon","coordinates":[[[37.01642,48.730752],[37.016479,48.73082],[37.016479,48.730821],[37.016976,48.731383],[37.017358,48.731235],[37.016951,48.730832],[37.016725,48.730607],[37.01642,48.730752]]]}},{"type":"Feature","properties":{"cadnum":"1420383501:00:000:0058"},"geometry":{"type":"Polygon","coordinates":[[[37.01425,48.729641],[37.015001,48.730335],[37.015368,48.730157],[37.01505,48.729855],[37.014659,48.729448],[37.01425,48.729641]]]}},{"type":"Feature","properties":{"cadnum":"1420383501:00:000:0054"},"geometry":{"type":"Polygon","coordinates":[[[37.016465,48.729307],[37.017314,48.730006],[37.017565,48.729878],[37.016762,48.729161],[37.016465,48.729307]]]}},{"type":"Feature","properties":{"cadnum":"1420383501:00:000:0055"},"geometry":{"type":"Polygon","coordinates":[[[37.015944,48.728877],[37.016465,48.729307],[37.016762,48.729161],[37.016263,48.728714],[37.015944,48.728877]]]}},{"type":"Feature","properties":{"cadnum":"1420383501:00:000:0151"},"geometry":{"type":"Polygon","coordinates":[[[37.016813,48.730636],[37.017117,48.730934],[37.017118,48.730934],[37.017207,48.73102],[37.017374,48.730934],[37.017786,48.730721],[37.017589,48.730508],[37.017379,48.730546],[37.017378,48.730546],[37.017226,48.730425],[37.016813,48.730636]]]}},{"type":"Feature","properties":{"cadnum":"1420383501:00:000:0153"},"geometry":{"type":"Polygon","coordinates":[[[37.017207,48.73102],[37.01745,48.731261],[37.017979,48.730935],[37.017942,48.730894],[37.017786,48.730721],[37.017594,48.730821],[37.017593,48.730821],[37.017207,48.73102]]]}},{"type":"Feature","properties":{"cadnum":"1420383501:00:000:0070"},"geometry":{"type":"Polygon","coordinates":[[[37.017341,48.730267],[37.017412,48.730344],[37.017525,48.73029],[37.017452,48.730216],[37.017341,48.730267]]]}},{"type":"Feature","properties":{"cadnum":"1420383501:00:000:0059"},"geometry":{"type":"Polygon","coordinates":[[[37.015001,48.730335],[37.015526,48.73082],[37.015526,48.730821],[37.015592,48.730881],[37.015593,48.730882],[37.015594,48.730882],[37.015953,48.730702],[37.015368,48.730157],[37.015001,48.730335]]]}},{"type":"Feature","properties":{"cadnum":"1420383501:00:000:0141"},"geometry":{"type":"Polygon","coordinates":[[[37.013819,48.730909],[37.013849,48.730934],[37.013905,48.730981],[37.014498,48.731469],[37.014825,48.731306],[37.014397,48.730934],[37.014169,48.730735],[37.013997,48.730821],[37.013996,48.730821],[37.013819,48.730909]]]}},{"type":"Feature","properties":{"cadnum":"1420383501:00:000:0061"},"geometry":{"type":"Polygon","coordinates":[[[37.012651,48.73048],[37.012902,48.730683],[37.013212,48.730934],[37.013213,48.730934],[37.013505,48.73117],[37.013905,48.730981],[37.013712,48.730821],[37.013711,48.730821],[37.013051,48.730272],[37.01301,48.730293],[37.012651,48.73048]]]}},{"type":"Feature","properties":{"cadnum":"1420383501:00:000:0140"},"geometry":{"type":"Polygon","coordinates":[[[37.011766,48.729111],[37.012854,48.730307],[37.012863,48.730317],[37.013025,48.730234],[37.013464,48.730008],[37.012854,48.729333],[37.012431,48.728866],[37.011766,48.729111]]]}},{"type":"Feature","properties":{"cadnum":"1420383501:00:000:0142"},"geometry":{"type":"Polygon","coordinates":[[[37.013051,48.730272],[37.013712,48.73082],[37.013712,48.730821],[37.013819,48.730909],[37.014169,48.730735],[37.013424,48.730085],[37.013051,48.730272]]]}},{"type":"Feature","properties":{"cadnum":"1420383501:00:000:0132"},"geometry":{"type":"Polygon","coordinates":[[[37.007854,48.738855],[37.008303,48.73905],[37.009372,48.738067],[37.009372,48.738066],[37.010424,48.737101],[37.009997,48.736837],[37.009382,48.73732],[37.008847,48.738067],[37.008846,48.738067],[37.008582,48.738437],[37.007971,48.738786],[37.007854,48.738855]]]}},{"type":"Feature","properties":{"cadnum":"1420383501:00:000:0120"},"geometry":{"type":"Polygon","coordinates":[[[37.009386,48.734944],[37.009858,48.73541],[37.010374,48.735252],[37.009808,48.734743],[37.009386,48.734944]]]}},{"type":"Feature","properties":{"cadnum":"1420383501:00:000:0147"},"geometry":{"type":"Polygon","coordinates":[[[37.029872,48.724281],[37.030322,48.724729],[37.030806,48.72454],[37.030362,48.724086],[37.029872,48.724281]]]}},{"type":"Feature","properties":{"cadnum":"1420383501:00:000:0081"},"geometry":{"type":"Polygon","coordinates":[[[37.030096,48.726622],[37.030448,48.726995],[37.031027,48.726732],[37.030662,48.726361],[37.030096,48.726622]]]}},{"type":"Feature","properties":{"cadnum":"1420383501:00:000:0057"},"geometry":{"type":"Polygon","coordinates":[[[37.032306,48.726457],[37.032886,48.726993],[37.033272,48.726826],[37.032693,48.726288],[37.032306,48.726457]]]}},{"type":"Feature","properties":{"cadnum":"1420383501:00:000:0050"},"geometry":{"type":"Polygon","coordinates":[[[37.032473,48.72517],[37.032689,48.725381],[37.033155,48.725179],[37.033119,48.725141],[37.032845,48.725008],[37.032473,48.72517]]]}},{"type":"Feature","properties":{"cadnum":"1420383501:00:000:0074"},"geometry":{"type":"Polygon","coordinates":[[[37.031844,48.725493],[37.031938,48.725576],[37.032333,48.72541],[37.03219,48.725274],[37.031844,48.725493]]]}},{"type":"Feature","properties":{"cadnum":"1420383501:00:000:0113"},"geometry":{"type":"Polygon","coordinates":[[[37.030668,48.726365],[37.031027,48.726732],[37.031601,48.726477],[37.031251,48.726104],[37.030668,48.726365]]]}},{"type":"Feature","properties":{"cadnum":"1420383501:00:000:0049"},"geometry":{"type":"Polygon","coordinates":[[[37.032689,48.725381],[37.033159,48.725843],[37.033609,48.725656],[37.033155,48.725179],[37.032689,48.725381]]]}},{"type":"Feature","properties":{"cadnum":"1420383501:00:000:0114"},"geometry":{"type":"Polygon","coordinates":[[[37.032693,48.726288],[37.033132,48.726694],[37.033654,48.726495],[37.033218,48.72608],[37.032693,48.726288]]]}},{"type":"Feature","properties":{"cadnum":"1420383501:00:000:0073"},"geometry":{"type":"Polygon","coordinates":[[[37.031938,48.725576],[37.032532,48.726116],[37.032913,48.725956],[37.032333,48.72541],[37.031938,48.725576]]]}},{"type":"Feature","properties":{"cadnum":"1420383501:00:000:0097"},"geometry":{"type":"Polygon","coordinates":[[[37.022802,48.732097],[37.023593,48.73285],[37.024012,48.732608],[37.024012,48.732607],[37.024033,48.732595],[37.023923,48.73248],[37.023297,48.731828],[37.022802,48.732097]]]}},{"type":"Feature","properties":{"cadnum":"1420383501:00:000:0128"},"geometry":{"type":"Polygon","coordinates":[[[37.021324,48.734162],[37.021752,48.734557],[37.021753,48.734557],[37.021756,48.73456],[37.021958,48.734474],[37.021959,48.734474],[37.022282,48.734334],[37.02185,48.733937],[37.021324,48.734162]]]}},{"type":"Feature","properties":{"cadnum":"1420383501:00:000:0129"},"geometry":{"type":"Polygon","coordinates":[[[37.02092,48.734077],[37.021485,48.734557],[37.021486,48.734557],[37.021586,48.734642],[37.021679,48.734591],[37.021756,48.73456],[37.02163,48.734444],[37.021629,48.734444],[37.021324,48.734162],[37.02185,48.733937],[37.021612,48.733717],[37.02092,48.734077]]]}},{"type":"Feature","properties":{"cadnum":"1420383501:00:000:0084"},"geometry":{"type":"Polygon","coordinates":[[[37.020772,48.732693],[37.020974,48.732859],[37.02105,48.732817],[37.021077,48.732752],[37.02106,48.732737],[37.020916,48.732619],[37.020772,48.732693]]]}},{"type":"Feature","properties":{"cadnum":"1420383501:00:000:0062"},"geometry":{"type":"Polygon","coordinates":[[[37.021959,48.734474],[37.022059,48.734557],[37.02206,48.734557],[37.022353,48.734797],[37.022591,48.734663],[37.022443,48.734512],[37.022449,48.7345],[37.022452,48.734494],[37.022282,48.734334],[37.022028,48.734444],[37.022027,48.734444],[37.021959,48.734474]]]}},{"type":"Feature","properties":{"cadnum":"1420383501:00:000:0096"},"geometry":{"type":"Polygon","coordinates":[[[37.022408,48.731715],[37.022802,48.732097],[37.023297,48.731828],[37.022905,48.731422],[37.022408,48.731715]]]}},{"type":"Feature","properties":{"cadnum":"1420383501:00:000:0111"},"geometry":{"type":"Polygon","coordinates":[[[37.019888,48.731256],[37.020062,48.731422],[37.020332,48.731295],[37.020071,48.73106],[37.019888,48.731256]]]}},{"type":"Feature","properties":{"cadnum":"1420383501:00:000:0131"},"geometry":{"type":"Polygon","coordinates":[[[37.018886,48.733644],[37.019559,48.734299],[37.019676,48.734246],[37.020282,48.733955],[37.020498,48.733851],[37.019752,48.733167],[37.018886,48.733644]]]}},{"type":"Feature","properties":{"cadnum":"1420383501:00:000:0005"},"geometry":{"type":"Polygon","coordinates":[[[37.020979,48.732589],[37.021172,48.732744],[37.021276,48.732675],[37.021307,48.732652],[37.021127,48.732506],[37.021064,48.732542],[37.021037,48.732553],[37.020979,48.732589]]]}},{"type":"Feature","properties":{"cadnum":"1420383501:00:000:0122"},"geometry":{"type":"Polygon","coordinates":[[[37.019676,48.734246],[37.020012,48.734557],[37.020013,48.734557],[37.020031,48.734574],[37.020109,48.734536],[37.020637,48.734284],[37.020282,48.733955],[37.019676,48.734246]]]}},{"type":"Feature","properties":{"cadnum":"1420383501:00:000:0110"},"geometry":{"type":"Polygon","coordinates":[[[37.020062,48.731422],[37.020875,48.732171],[37.021131,48.73202],[37.02075,48.731671],[37.020332,48.731295],[37.020062,48.731422]]]}},{"type":"Feature","properties":{"cadnum":"1420383501:00:000:0094"},"geometry":{"type":"Polygon","coordinates":[[[37.02106,48.731123],[37.021307,48.731365],[37.021666,48.731727],[37.021945,48.731564],[37.021823,48.731449],[37.021733,48.731363],[37.02181,48.73131],[37.021396,48.73093],[37.02106,48.731123]]]}},{"type":"Feature","properties":{"cadnum":"1420383501:00:000:0109"},"geometry":{"type":"Polygon","coordinates":[[[37.023341,48.731179],[37.02384,48.73163],[37.023974,48.731751],[37.024012,48.73173],[37.024012,48.731729],[37.024303,48.731561],[37.02384,48.731149],[37.023664,48.730992],[37.023341,48.731179]]]}},{"type":"Feature","properties":{"cadnum":"1420383501:00:000:0079"},"geometry":{"type":"Polygon","coordinates":[[[37.02075,48.731671],[37.021131,48.73202],[37.021666,48.731727],[37.021307,48.731365],[37.02075,48.731671]]]}},{"type":"Feature","properties":{"cadnum":"1420383501:00:000:0064"},"geometry":{"type":"Polygon","coordinates":[[[37.029689,48.731991],[37.02998,48.732254],[37.030232,48.732124],[37.029949,48.731846],[37.029689,48.731991]]]}},{"type":"Feature","properties":{"cadnum":"1420383501:00:000:0063"},"geometry":{"type":"Polygon","coordinates":[[[37.028893,48.731273],[37.029333,48.73167],[37.029333,48.731671],[37.029422,48.731751],[37.029505,48.731825],[37.029689,48.731991],[37.029949,48.731846],[37.029832,48.731733],[37.029439,48.731384],[37.029153,48.731128],[37.028893,48.731273]]]}},{"type":"Feature","properties":{"cadnum":"1420383501:00:000:0030"},"geometry":{"type":"Polygon","coordinates":[[[37.019074,48.735326],[37.020067,48.73607],[37.020278,48.735946],[37.019308,48.73519],[37.019074,48.735326]]]}},{"type":"Feature","properties":{"cadnum":"1420383501:00:000:0047"},"geometry":{"type":"Polygon","coordinates":[[[37.018634,48.735862],[37.019496,48.736479],[37.019752,48.736319],[37.018926,48.735697],[37.018634,48.735862]]]}},{"type":"Feature","properties":{"cadnum":"1420383501:00:000:0082"},"geometry":{"type":"Polygon","coordinates":[[[37.018936,48.735702],[37.019752,48.736319],[37.020018,48.736171],[37.019236,48.735534],[37.018936,48.735702]]]}},{"type":"Feature","properties":{"cadnum":"1420383501:00:000:0083"},"geometry":{"type":"Polygon","coordinates":[[[37.018687,48.735519],[37.018936,48.735702],[37.019236,48.735534],[37.018993,48.735335],[37.018687,48.735519]]]}},{"type":"Feature","properties":{"cadnum":"1420383501:00:000:0003"},"geometry":{"type":"Polygon","coordinates":[[[37.005456,48.73293],[37.005887,48.733783],[37.006651,48.733609],[37.006225,48.732755],[37.005456,48.73293]]]}},{"type":"Feature","properties":{"cadnum":"1420383501:00:000:0101"},"geometry":{"type":"Polygon","coordinates":[[[37.027765,48.732456],[37.028425,48.733004],[37.02848,48.733049],[37.028991,48.732782],[37.028924,48.732725],[37.028278,48.732184],[37.027765,48.732456]]]}},{"type":"Feature","properties":{"cadnum":"1420383501:00:000:0136"},"geometry":{"type":"Polygon","coordinates":[[[37.028377,48.731508],[37.029064,48.732083],[37.029369,48.731923],[37.028708,48.731324],[37.028377,48.731508]]]}},{"type":"Feature","properties":{"cadnum":"1420383501:00:000:0121"},"geometry":{"type":"Polygon","coordinates":[[[37.023974,48.731751],[37.024559,48.732278],[37.024913,48.732116],[37.024303,48.731561],[37.023974,48.731751]]]}},{"type":"Feature","properties":{"cadnum":"1420383501:00:000:0043"},"geometry":{"type":"Polygon","coordinates":[[[37.027335,48.732139],[37.02848,48.733096],[37.028673,48.732983],[37.027515,48.732038],[37.027335,48.732139]]]}},{"type":"Feature","properties":{"cadnum":"1420383501:00:000:0112"},"geometry":{"type":"Polygon","coordinates":[[[37.025345,48.731756],[37.025907,48.732302],[37.02618,48.732562],[37.026454,48.732399],[37.026167,48.73216],[37.025569,48.731659],[37.025345,48.731756]]]}},{"type":"Feature","properties":{"cadnum":"1420383501:00:000:0100"},"geometry":{"type":"Polygon","coordinates":[[[37.027335,48.732097],[37.027765,48.732456],[37.028278,48.732184],[37.027842,48.731816],[37.027335,48.732097]]]}},{"type":"Feature","properties":{"cadnum":"1420383501:00:000:0102"},"geometry":{"type":"Polygon","coordinates":[[[37.017211,48.734136],[37.017309,48.734213],[37.017399,48.734165],[37.017301,48.734088],[37.017211,48.734136]]]}},{"type":"Feature","properties":{"cadnum":"1420383501:00:000:0125"},"geometry":{"type":"Polygon","coordinates":[[[37.017008,48.733789],[37.017179,48.733958],[37.017475,48.734169],[37.017907,48.733908],[37.017628,48.73362],[37.017507,48.733513],[37.017008,48.733789]]]}},{"type":"Feature","properties":{"cadnum":"1420383501:00:000:0126"},"geometry":{"type":"Polygon","coordinates":[[[37.0162,48.732995],[37.017008,48.733789],[37.017507,48.733513],[37.01655,48.73266],[37.0162,48.732995]]]}},{"type":"Feature","properties":{"cadnum":"1420383501:00:000:0006"},"geometry":{"type":"Polygon","coordinates":[[[37.016855,48.734239],[37.016986,48.734349],[37.017142,48.734266],[37.017012,48.734156],[37.016855,48.734239]]]}},{"type":"Feature","properties":{"cadnum":"1420383501:00:000:0060"},"geometry":{"type":"Polygon","coordinates":[[[37.013505,48.73117],[37.014112,48.731659],[37.014498,48.731469],[37.013905,48.730981],[37.013505,48.73117]]]}}]}