{"type":"FeatureCollection","features":[{"type":"Feature","properties":{"cadnum":"1420383801:00:000:0047"},"geometry":{"type":"Polygon","coordinates":[[[37.114103,48.662924],[37.114736,48.663642],[37.115189,48.663517],[37.11461,48.662788],[37.114103,48.662924]]]}},{"type":"Feature","properties":{"cadnum":"1420383801:00:000:0053"},"geometry":{"type":"Polygon","coordinates":[[[37.112688,48.663447],[37.112975,48.663687],[37.113137,48.663603],[37.113101,48.663574],[37.113298,48.663476],[37.113056,48.663289],[37.112854,48.663376],[37.112688,48.663447]]]}},{"type":"Feature","properties":{"cadnum":"1420383801:00:000:0051"},"geometry":{"type":"Polygon","coordinates":[[[37.112337,48.663553],[37.113056,48.664183],[37.11342,48.66406],[37.112975,48.663687],[37.112688,48.663447],[37.112337,48.663553]]]}},{"type":"Feature","properties":{"cadnum":"1420383801:00:000:0070"},"geometry":{"type":"Polygon","coordinates":[[[37.111664,48.663758],[37.111731,48.663807],[37.111855,48.663896],[37.111902,48.66393],[37.112652,48.664467],[37.113155,48.664269],[37.113056,48.664183],[37.112337,48.663553],[37.111757,48.66373],[37.111664,48.663758]]]}},{"type":"Feature","properties":{"cadnum":"1420383801:00:000:0052"},"geometry":{"type":"Polygon","coordinates":[[[37.113101,48.663574],[37.113137,48.663603],[37.11395,48.664265],[37.11409,48.6642],[37.114228,48.664319],[37.114386,48.664511],[37.114583,48.664452],[37.11443,48.66431],[37.114277,48.664203],[37.114201,48.664168],[37.113694,48.663776],[37.113298,48.663476],[37.113101,48.663574]]]}},{"type":"Feature","properties":{"cadnum":"1420383801:00:000:0059"},"geometry":{"type":"Polygon","coordinates":[[[37.11642,48.664117],[37.117013,48.664841],[37.117179,48.664758],[37.11691,48.664417],[37.116618,48.664058],[37.11642,48.664117]]]}},{"type":"Feature","properties":{"cadnum":"1420383801:00:000:0069"},"geometry":{"type":"Polygon","coordinates":[[[37.112652,48.664467],[37.112962,48.664689],[37.113222,48.664867],[37.113281,48.664852],[37.113294,48.664867],[37.113654,48.664758],[37.11355,48.664634],[37.113451,48.664529],[37.113155,48.664269],[37.112652,48.664467]]]}},{"type":"Feature","properties":{"cadnum":"1420383801:00:000:0049"},"geometry":{"type":"Polygon","coordinates":[[[37.112975,48.663687],[37.11342,48.66406],[37.113788,48.664363],[37.11413,48.664597],[37.114386,48.664511],[37.114228,48.664319],[37.11409,48.6642],[37.11395,48.664265],[37.113137,48.663603],[37.112975,48.663687]]]}},{"type":"Feature","properties":{"cadnum":"1420383801:00:000:0046"},"geometry":{"type":"Polygon","coordinates":[[[37.114736,48.663642],[37.115243,48.664212],[37.115652,48.664105],[37.115189,48.663517],[37.114736,48.663642]]]}},{"type":"Feature","properties":{"cadnum":"1420383801:00:000:0078"},"geometry":{"type":"Polygon","coordinates":[[[37.112912,48.661002],[37.113428,48.661219],[37.113815,48.661382],[37.115382,48.662044],[37.115383,48.662044],[37.115922,48.662272],[37.116057,48.662257],[37.115565,48.662045],[37.115565,48.662044],[37.11391,48.661329],[37.113532,48.661162],[37.112985,48.660925],[37.112912,48.661002]]]}},{"type":"Feature","properties":{"cadnum":"1420383801:00:000:0050"},"geometry":{"type":"Polygon","coordinates":[[[37.113056,48.664183],[37.113451,48.664529],[37.11355,48.664634],[37.113654,48.664758],[37.11413,48.664597],[37.113784,48.664363],[37.11342,48.66406],[37.113056,48.664183]]]}},{"type":"Feature","properties":{"cadnum":"1420383801:00:000:0009"},"geometry":{"type":"Polygon","coordinates":[[[37.060158,48.61997],[37.062292,48.619365],[37.065388,48.618487],[37.065389,48.618487],[37.066065,48.618295],[37.067776,48.61771],[37.067785,48.617705],[37.067785,48.617706],[37.067895,48.617649],[37.067957,48.617617],[37.072146,48.615448],[37.072147,48.615448],[37.072556,48.615771],[37.073278,48.615398],[37.073287,48.615393],[37.07345,48.615309],[37.074325,48.614855],[37.074326,48.614855],[37.078943,48.612467],[37.078943,48.612466],[37.081344,48.611224],[37.081345,48.611224],[37.08214,48.610812],[37.081745,48.610474],[37.081745,48.610473],[37.084436,48.609078],[37.084436,48.609077],[37.08546,48.608547],[37.084911,48.608404],[37.084437,48.608651],[37.084436,48.608651],[37.084436,48.60865],[37.081458,48.610195],[37.081135,48.609921],[37.078849,48.611107],[37.078843,48.61111],[37.078767,48.611149],[37.078623,48.611224],[37.078624,48.611224],[37.073278,48.613997],[37.071842,48.614742],[37.071683,48.614825],[37.071624,48.614855],[37.071623,48.614855],[37.071523,48.614908],[37.071846,48.615181],[37.067957,48.617197],[37.067561,48.617402],[37.065845,48.617987],[37.064021,48.618487],[37.062464,48.618915],[37.062464,48.618914],[37.060172,48.619543],[37.060158,48.61997]]]}},{"type":"Feature","properties":{"cadnum":"1420383801:00:000:0090"},"geometry":{"type":"Polygon","coordinates":[[[37.131571,48.658086],[37.131925,48.658303],[37.131924,48.658303],[37.131944,48.658314],[37.131944,48.658315],[37.132105,48.658416],[37.132106,48.658416],[37.132487,48.658655],[37.132747,48.65848],[37.132601,48.658392],[37.132199,48.658148],[37.131848,48.65791],[37.131571,48.658086]]]}},{"type":"Feature","properties":{"cadnum":"1420383801:00:000:0063"},"geometry":{"type":"Polygon","coordinates":[[[37.131848,48.65791],[37.132199,48.658148],[37.132454,48.658303],[37.132453,48.658303],[37.133173,48.658739],[37.13333,48.658611],[37.133002,48.658416],[37.132361,48.658035],[37.132001,48.65781],[37.131848,48.65791]]]}},{"type":"Feature","properties":{"cadnum":"1420383801:00:000:0054"},"geometry":{"type":"Polygon","coordinates":[[[37.128044,48.66026],[37.12821,48.660371],[37.12821,48.660372],[37.128355,48.660468],[37.128382,48.660451],[37.128543,48.660349],[37.128974,48.660649],[37.129212,48.660504],[37.128472,48.65999],[37.128229,48.660144],[37.128044,48.66026]]]}},{"type":"Feature","properties":{"cadnum":"1420383801:00:000:0088"},"geometry":{"type":"Polygon","coordinates":[[[37.130236,48.658925],[37.130613,48.659172],[37.13122,48.659572],[37.131485,48.659421],[37.131449,48.6594],[37.130847,48.659032],[37.130479,48.658768],[37.130236,48.658925]]]}},{"type":"Feature","properties":{"cadnum":"1420383801:00:000:0091"},"geometry":{"type":"Polygon","coordinates":[[[37.132487,48.658655],[37.13298,48.658967],[37.133173,48.658739],[37.132747,48.65848],[37.132487,48.658655]]]}},{"type":"Feature","properties":{"cadnum":"1420383801:00:000:0085"},"geometry":{"type":"Polygon","coordinates":[[[37.13068,48.658644],[37.131063,48.658872],[37.131413,48.659082],[37.131741,48.658904],[37.131342,48.658622],[37.131036,48.658418],[37.13068,48.658644]]]}},{"type":"Feature","properties":{"cadnum":"1420383801:00:000:0087"},"geometry":{"type":"Polygon","coordinates":[[[37.130479,48.658768],[37.130847,48.659032],[37.131449,48.6594],[37.131826,48.659332],[37.131413,48.659082],[37.131063,48.658872],[37.13068,48.658644],[37.130479,48.658768]]]}},{"type":"Feature","properties":{"cadnum":"1420383801:00:000:0086"},"geometry":{"type":"Polygon","coordinates":[[[37.131413,48.659082],[37.131826,48.659332],[37.132185,48.659219],[37.131741,48.658904],[37.131413,48.659082]]]}},{"type":"Feature","properties":{"cadnum":"1420383801:00:000:0042"},"geometry":{"type":"Polygon","coordinates":[[[37.132172,48.656531],[37.132621,48.656724],[37.132963,48.656899],[37.13333,48.656676],[37.133223,48.656602],[37.133143,48.656564],[37.132496,48.656332],[37.132172,48.656531]]]}},{"type":"Feature","properties":{"cadnum":"1420383801:00:000:0093"},"geometry":{"type":"Polygon","coordinates":[[[37.128296,48.656053],[37.128588,48.656249],[37.128907,48.656465],[37.129284,48.65624],[37.128902,48.655961],[37.128692,48.655807],[37.128296,48.656053]]]}},{"type":"Feature","properties":{"cadnum":"1420383801:00:000:0094"},"geometry":{"type":"Polygon","coordinates":[[[37.128907,48.656465],[37.129734,48.657021],[37.13003,48.656798],[37.129284,48.65624],[37.128907,48.656465]]]}},{"type":"Feature","properties":{"cadnum":"1420383801:00:000:0036"},"geometry":{"type":"Polygon","coordinates":[[[37.127285,48.656689],[37.12751,48.656872],[37.127977,48.657246],[37.12821,48.657114],[37.12821,48.657115],[37.128319,48.657053],[37.127833,48.656703],[37.127586,48.656516],[37.127285,48.656689]]]}},{"type":"Feature","properties":{"cadnum":"1420383801:00:000:0043"},"geometry":{"type":"Polygon","coordinates":[[[37.131072,48.65606],[37.132172,48.656531],[37.132496,48.656332],[37.132118,48.656196],[37.131309,48.655917],[37.131072,48.65606]]]}},{"type":"Feature","properties":{"cadnum":"1420383801:00:000:0037"},"geometry":{"type":"Polygon","coordinates":[[[37.127977,48.657246],[37.12821,48.657432],[37.12821,48.657433],[37.12861,48.657751],[37.128983,48.657531],[37.128319,48.657053],[37.127977,48.657246]]]}},{"type":"Feature","properties":{"cadnum":"1420383801:00:000:0082"},"geometry":{"type":"Polygon","coordinates":[[[37.126315,48.659172],[37.126872,48.659584],[37.12712,48.659433],[37.126562,48.659038],[37.126315,48.659172]]]}},{"type":"Feature","properties":{"cadnum":"1420383801:00:000:0048"},"geometry":{"type":"Polygon","coordinates":[[[37.123705,48.66008],[37.123984,48.660406],[37.124617,48.660133],[37.124684,48.660106],[37.12442,48.659825],[37.123705,48.66008]]]}},{"type":"Feature","properties":{"cadnum":"1420383801:00:000:0081"},"geometry":{"type":"Polygon","coordinates":[[[37.126872,48.659584],[37.127747,48.660234],[37.128009,48.660089],[37.127959,48.660058],[37.127977,48.660041],[37.127168,48.659468],[37.12712,48.659433],[37.126872,48.659584]]]}},{"type":"Feature","properties":{"cadnum":"1420383801:00:000:0073"},"geometry":{"type":"Polygon","coordinates":[[[37.12252,48.659711],[37.122579,48.659801],[37.122565,48.659807],[37.122573,48.659816],[37.122587,48.65981],[37.122717,48.659941],[37.122812,48.660038],[37.122889,48.660011],[37.122889,48.66001],[37.123261,48.659875],[37.122956,48.659507],[37.122717,48.659592],[37.122717,48.659593],[37.122551,48.659652],[37.12252,48.659711]]]}},{"type":"Feature","properties":{"cadnum":"1420383801:00:000:0010"},"geometry":{"type":"Polygon","coordinates":[[[37.12291,48.660557],[37.123158,48.660883],[37.123296,48.660753],[37.123782,48.660584],[37.123818,48.660551],[37.123656,48.660361],[37.123589,48.660361],[37.12291,48.660557]]]}},{"type":"Feature","properties":{"cadnum":"1420383801:00:000:0080"},"geometry":{"type":"Polygon","coordinates":[[[37.123049,48.661213],[37.123117,48.661301],[37.123283,48.661242],[37.123216,48.661156],[37.123049,48.661213]]]}},{"type":"Feature","properties":{"cadnum":"1420383801:00:000:0072"},"geometry":{"type":"Polygon","coordinates":[[[37.125246,48.658587],[37.12596,48.659165],[37.126275,48.658972],[37.125596,48.6584],[37.125246,48.658587]]]}},{"type":"Feature","properties":{"cadnum":"1420383801:00:000:0044"},"geometry":{"type":"Polygon","coordinates":[[[37.121873,48.658216],[37.121981,48.658303],[37.122026,48.658339],[37.122121,48.658416],[37.122122,48.658416],[37.122376,48.65862],[37.122606,48.658789],[37.122717,48.658729],[37.122717,48.65873],[37.122832,48.658667],[37.122889,48.658637],[37.122889,48.658636],[37.122952,48.658602],[37.122876,48.658555],[37.122703,48.658448],[37.122535,48.658325],[37.12217,48.658059],[37.121873,48.658216]]]}},{"type":"Feature","properties":{"cadnum":"1420383801:00:000:0083"},"geometry":{"type":"Polygon","coordinates":[[[37.121765,48.657365],[37.122659,48.658303],[37.122658,48.658303],[37.122673,48.658317],[37.122674,48.658319],[37.122717,48.658362],[37.122717,48.658363],[37.122814,48.658461],[37.122889,48.658538],[37.122986,48.658638],[37.123117,48.658572],[37.123,48.658451],[37.123045,48.658427],[37.122958,48.658343],[37.122897,48.658284],[37.122717,48.6581],[37.121931,48.657294],[37.121765,48.657365]]]}},{"type":"Feature","properties":{"cadnum":"1420383801:00:000:0035"},"geometry":{"type":"Polygon","coordinates":[[[37.122893,48.661076],[37.122956,48.661147],[37.123055,48.661109],[37.122996,48.661037],[37.122893,48.661076]]]}},{"type":"Feature","properties":{"cadnum":"1420383801:00:000:0029"},"geometry":{"type":"Polygon","coordinates":[[[37.127168,48.659468],[37.127977,48.660041],[37.127959,48.660058],[37.128009,48.660089],[37.128292,48.65991],[37.127434,48.659302],[37.127168,48.659468]]]}},{"type":"Feature","properties":{"cadnum":"1420383801:00:000:0030"},"geometry":{"type":"Polygon","coordinates":[[[37.126562,48.659038],[37.127168,48.659468],[37.127434,48.659302],[37.126854,48.658895],[37.126562,48.659038]]]}},{"type":"Feature","properties":{"cadnum":"1420383801:00:000:0071"},"geometry":{"type":"Polygon","coordinates":[[[37.124613,48.658068],[37.124856,48.658273],[37.124893,48.658303],[37.124892,48.658303],[37.124994,48.658384],[37.125033,48.658416],[37.125246,48.658587],[37.125596,48.6584],[37.125139,48.658011],[37.12499,48.657887],[37.124986,48.657881],[37.124613,48.658068]]]}},{"type":"Feature","properties":{"cadnum":"1420383801:00:000:0060"},"geometry":{"type":"Polygon","coordinates":[[[37.117812,48.665701],[37.117961,48.665867],[37.118069,48.665986],[37.118118,48.666039],[37.118311,48.665977],[37.118262,48.665927],[37.118203,48.665859],[37.118154,48.665805],[37.117992,48.665627],[37.117812,48.665701]]]}},{"type":"Feature","properties":{"cadnum":"1420383801:00:000:0057"},"geometry":{"type":"Polygon","coordinates":[[[37.122919,48.662809],[37.123342,48.663194],[37.123558,48.662815],[37.123436,48.662642],[37.122919,48.662809]]]}},{"type":"Feature","properties":{"cadnum":"1420383801:00:000:0056"},"geometry":{"type":"Polygon","coordinates":[[[37.122592,48.66234],[37.122717,48.662572],[37.122736,48.662607],[37.122883,48.662809],[37.122889,48.662809],[37.122889,48.662808],[37.122915,48.662806],[37.122919,48.662809],[37.123436,48.662642],[37.123269,48.662411],[37.123095,48.662186],[37.122717,48.662302],[37.122592,48.66234]]]}},{"type":"Feature","properties":{"cadnum":"1420383801:00:000:0079"},"geometry":{"type":"Polygon","coordinates":[[[37.124047,48.663797],[37.124151,48.66382],[37.124187,48.663752],[37.124078,48.663728],[37.124047,48.663796],[37.124047,48.663797]]]}},{"type":"Feature","properties":{"cadnum":"1420383801:00:000:0077"},"geometry":{"type":"Polygon","coordinates":[[[37.122367,48.663372],[37.122386,48.66339],[37.122529,48.663343],[37.122717,48.663575],[37.122717,48.663576],[37.12273,48.663592],[37.122889,48.663552],[37.122889,48.663551],[37.122893,48.66355],[37.122717,48.663331],[37.122669,48.663271],[37.122367,48.663372]]]}},{"type":"Feature","properties":{"cadnum":"1420383801:00:000:0040"},"geometry":{"type":"Polygon","coordinates":[[[37.121289,48.659418],[37.121554,48.659836],[37.12181,48.660186],[37.122151,48.660089],[37.121891,48.659744],[37.121617,48.659328],[37.121289,48.659418]]]}},{"type":"Feature","properties":{"cadnum":"1420383801:00:000:0055"},"geometry":{"type":"Polygon","coordinates":[[[37.120935,48.661589],[37.121202,48.661931],[37.121201,48.661931],[37.121271,48.662019],[37.121271,48.66202],[37.121293,48.662044],[37.121604,48.6624],[37.121873,48.662319],[37.121751,48.662186],[37.121684,48.662118],[37.121613,48.662022],[37.121231,48.661507],[37.121015,48.661569],[37.120935,48.661589]]]}},{"type":"Feature","properties":{"cadnum":"1420383801:00:000:0062"},"geometry":{"type":"Polygon","coordinates":[[[37.117871,48.659124],[37.117969,48.659273],[37.118302,48.659172],[37.118172,48.658981],[37.117871,48.659124]]]}},{"type":"Feature","properties":{"cadnum":"1420383801:00:000:0061"},"geometry":{"type":"Polygon","coordinates":[[[37.117969,48.659273],[37.118307,48.659771],[37.118495,48.660026],[37.118824,48.659928],[37.118652,48.659685],[37.118302,48.659172],[37.117969,48.659273]]]}},{"type":"Feature","properties":{"cadnum":"1420383801:00:000:0092"},"geometry":{"type":"Polygon","coordinates":[[[37.119623,48.658261],[37.119655,48.658303],[37.119654,48.658303],[37.120153,48.658952],[37.120646,48.658807],[37.120257,48.658303],[37.120053,48.658038],[37.119623,48.658261]]]}},{"type":"Feature","properties":{"cadnum":"1420383801:00:000:0041"},"geometry":{"type":"Polygon","coordinates":[[[37.12181,48.660186],[37.121873,48.660281],[37.122214,48.660177],[37.122151,48.660089],[37.12181,48.660186]]]}},{"type":"Feature","properties":{"cadnum":"1420383801:00:000:0089"},"geometry":{"type":"Polygon","coordinates":[[[37.120153,48.658952],[37.120539,48.659462],[37.121024,48.659328],[37.120646,48.658807],[37.120153,48.658952]]]}},{"type":"Feature","properties":{"cadnum":"1420383801:00:000:0068"},"geometry":{"type":"Polygon","coordinates":[[[37.120369,48.662035],[37.120374,48.662044],[37.120375,48.662044],[37.120375,48.662045],[37.120768,48.662646],[37.121195,48.662527],[37.120821,48.661977],[37.120778,48.661912],[37.120715,48.661931],[37.120369,48.662035]]]}},{"type":"Feature","properties":{"cadnum":"1420383801:00:000:0096"},"geometry":{"type":"Polygon","coordinates":[[[37.119695,48.66103],[37.119915,48.661333],[37.120707,48.66112],[37.120485,48.660778],[37.120154,48.660882],[37.119695,48.66103]]]}},{"type":"Feature","properties":{"cadnum":"1420383801:00:000:0064"},"geometry":{"type":"Polygon","coordinates":[[[37.125022,48.656848],[37.125323,48.657118],[37.125573,48.657347],[37.125974,48.657148],[37.125713,48.656914],[37.125435,48.656658],[37.125022,48.656848]]]}},{"type":"Feature","properties":{"cadnum":"1420383801:00:000:0066"},"geometry":{"type":"Polygon","coordinates":[[[37.12654,48.657068],[37.126738,48.65724],[37.127124,48.657573],[37.127501,48.657371],[37.127133,48.657053],[37.126917,48.656872],[37.12654,48.657068]]]}},{"type":"Feature","properties":{"cadnum":"1420383801:00:000:0074"},"geometry":{"type":"Polygon","coordinates":[[[37.125759,48.65643],[37.12605,48.656682],[37.126374,48.656961],[37.126734,48.656775],[37.126719,48.656762],[37.126451,48.656528],[37.126113,48.656247],[37.125759,48.65643]]]}},{"type":"Feature","properties":{"cadnum":"1420383801:00:000:0075"},"geometry":{"type":"Polygon","coordinates":[[[37.124887,48.65568],[37.125759,48.65643],[37.126113,48.656247],[37.125187,48.655469],[37.124887,48.65568]]]}},{"type":"Feature","properties":{"cadnum":"1420383801:00:000:0067"},"geometry":{"type":"Polygon","coordinates":[[[37.127124,48.657573],[37.127851,48.658198],[37.128189,48.657961],[37.127501,48.657371],[37.127124,48.657573]]]}},{"type":"Feature","properties":{"cadnum":"1420383801:00:000:0065"},"geometry":{"type":"Polygon","coordinates":[[[37.124128,48.656041],[37.125022,48.656848],[37.125435,48.656658],[37.12455,48.655836],[37.124128,48.656041]]]}},{"type":"Feature","properties":{"cadnum":"1420383801:00:000:0076"},"geometry":{"type":"Polygon","coordinates":[[[37.121743,48.662565],[37.12195,48.662892],[37.122227,48.663203],[37.122367,48.663372],[37.122669,48.663271],[37.12225,48.662758],[37.122013,48.662486],[37.121743,48.662565]]]}},{"type":"Feature","properties":{"cadnum":"1420383801:00:000:0084"},"geometry":{"type":"Polygon","coordinates":[[[37.121648,48.657243],[37.121765,48.657365],[37.121931,48.657294],[37.121814,48.657171],[37.121648,48.657243]]]}},{"type":"Feature","properties":{"cadnum":"1420383801:00:000:0045"},"geometry":{"type":"Polygon","coordinates":[[[37.121011,48.657522],[37.121873,48.658216],[37.12217,48.658059],[37.121275,48.657412],[37.121011,48.657522]]]}},{"type":"Feature","properties":{"cadnum":"1420383801:00:000:0058"},"geometry":{"type":"Polygon","coordinates":[[[37.113042,48.660872],[37.113608,48.661124],[37.113981,48.66129],[37.114727,48.661619],[37.115073,48.6614],[37.114318,48.661105],[37.113918,48.660951],[37.113218,48.660679],[37.113042,48.660872]]]}}]}