{"type":"FeatureCollection","features":[{"type":"Feature","properties":{"cadnum":"1420387009:00:000:0005"},"geometry":{"type":"Polygon","coordinates":[[[37.201015,48.642403],[37.202663,48.642239],[37.203211,48.641148],[37.202986,48.640949],[37.201693,48.640661],[37.201015,48.642403]]]}},{"type":"Feature","properties":{"cadnum":"1420387009:00:000:0024"},"geometry":{"type":"Polygon","coordinates":[[[37.185847,48.639109],[37.18714,48.639225],[37.188807,48.639011],[37.188807,48.63901],[37.189309,48.638945],[37.188694,48.638924],[37.1886,48.63888],[37.188635,48.638684],[37.188654,48.638578],[37.188654,48.638426],[37.188151,48.638189],[37.187648,48.638162],[37.187009,48.638191],[37.186323,48.6382],[37.185847,48.639109]]]}},{"type":"Feature","properties":{"cadnum":"1420387009:00:000:0025"},"geometry":{"type":"Polygon","coordinates":[[[37.193797,48.638447],[37.1943,48.638448],[37.196254,48.638453],[37.19646,48.637473],[37.1943,48.637459],[37.1943,48.637458],[37.193976,48.637456],[37.193797,48.638447]]]}},{"type":"Feature","properties":{"cadnum":"1420387009:00:000:0023"},"geometry":{"type":"Polygon","coordinates":[[[37.192831,48.636066],[37.194128,48.636167],[37.194171,48.63617],[37.1943,48.63618],[37.194942,48.636229],[37.195153,48.635137],[37.195185,48.634965],[37.194677,48.634971],[37.194147,48.634977],[37.193258,48.634986],[37.19315,48.63506],[37.193078,48.635271],[37.193015,48.635467],[37.192831,48.636066]],[[37.194829,48.635051],[37.194829,48.635069],[37.194803,48.635069],[37.194803,48.635051],[37.194829,48.635051]],[[37.194103,48.635096],[37.194128,48.635093],[37.194128,48.635094],[37.194129,48.635093],[37.194129,48.635111],[37.194103,48.635113],[37.194103,48.635096]],[[37.193302,48.635149],[37.19333,48.635146],[37.193334,48.635164],[37.193307,48.635167],[37.193307,48.635166],[37.193302,48.635149]]]}},{"type":"Feature","properties":{"cadnum":"1420387009:00:000:0009"},"geometry":{"type":"Polygon","coordinates":[[[37.188078,48.636286],[37.188635,48.636324],[37.189692,48.636396],[37.190132,48.635443],[37.190217,48.635259],[37.190347,48.634986],[37.188807,48.634977],[37.188416,48.634974],[37.188191,48.635846],[37.188128,48.636096],[37.188078,48.636286]],[[37.190154,48.635345],[37.190158,48.635362],[37.190132,48.635362],[37.190128,48.635345],[37.190154,48.635345]],[[37.189399,48.63539],[37.189426,48.635384],[37.189435,48.635401],[37.189409,48.635408],[37.189399,48.63539]],[[37.18873,48.635701],[37.188753,48.635689],[37.188753,48.63569],[37.188766,48.635704],[37.188766,48.635705],[37.188744,48.635716],[37.188743,48.635716],[37.18873,48.635701]]]}},{"type":"Feature","properties":{"cadnum":"1420387009:00:000:0010"},"geometry":{"type":"Polygon","coordinates":[[[37.200831,48.636312],[37.201315,48.636316],[37.201594,48.636319],[37.202609,48.63633],[37.202965,48.634917],[37.20212,48.634933],[37.201212,48.63495],[37.201177,48.635081],[37.200831,48.636312]],[[37.201953,48.635036],[37.201931,48.635034],[37.201931,48.635033],[37.201953,48.634971],[37.20198,48.634974],[37.201953,48.635036]],[[37.201805,48.635434],[37.201804,48.635434],[37.201778,48.635428],[37.201783,48.63541],[37.20181,48.635416],[37.20181,48.635417],[37.201805,48.635434]],[[37.201634,48.635876],[37.201608,48.635874],[37.201607,48.635874],[37.201617,48.635855],[37.201643,48.635859],[37.201644,48.635859],[37.201634,48.635876]],[[37.201464,48.63498],[37.201491,48.63498],[37.201491,48.634998],[37.201464,48.634998],[37.201464,48.63498]],[[37.201468,48.636316],[37.201441,48.63631],[37.20145,48.636292],[37.201451,48.636292],[37.201477,48.636297],[37.201477,48.636298],[37.201468,48.636316]]]}},{"type":"Feature","properties":{"cadnum":"1420387009:00:000:0011"},"geometry":{"type":"Polygon","coordinates":[[[37.201868,48.636895],[37.202362,48.636912],[37.202467,48.63664],[37.202586,48.63633],[37.202074,48.636325],[37.201959,48.63664],[37.201959,48.636641],[37.201868,48.636895]]]}},{"type":"Feature","properties":{"cadnum":"1420387009:00:000:0022"},"geometry":{"type":"Polygon","coordinates":[[[37.194942,48.636229],[37.195099,48.636242],[37.196787,48.636238],[37.197089,48.635128],[37.197139,48.634941],[37.195185,48.634965],[37.195153,48.635137],[37.194942,48.636229]],[[37.197026,48.635021],[37.197053,48.635021],[37.197053,48.635039],[37.197026,48.635039],[37.197026,48.635021]],[[37.196294,48.635027],[37.196321,48.635027],[37.196321,48.635045],[37.19629,48.635045],[37.196294,48.635027]],[[37.195745,48.635036],[37.195746,48.635036],[37.195773,48.635036],[37.195774,48.635036],[37.195774,48.635054],[37.195773,48.635054],[37.195746,48.635054],[37.195745,48.635054],[37.195745,48.635036]],[[37.195584,48.635001],[37.195585,48.635001],[37.195611,48.635001],[37.195611,48.635018],[37.195611,48.635019],[37.195585,48.635019],[37.195584,48.635018],[37.195584,48.635001]]]}}]}