{"type":"FeatureCollection","features":[{"type":"Feature","properties":{"cadnum":"1420355000:01:000:0171"},"geometry":{"type":"Polygon","coordinates":[[[36.907993,48.782166],[36.908437,48.785253],[36.908437,48.785254],[36.908537,48.785943],[36.910239,48.785943],[36.910239,48.785253],[36.910243,48.782166],[36.907993,48.782166]]]}},{"type":"Feature","properties":{"cadnum":"1420355000:01:000:0177"},"geometry":{"type":"Polygon","coordinates":[[[36.90538,48.779136],[36.905579,48.77959],[36.907712,48.781521],[36.907711,48.781521],[36.907927,48.781715],[36.907991,48.782166],[36.909361,48.782166],[36.909128,48.781634],[36.909129,48.781634],[36.908655,48.780548],[36.907836,48.778668],[36.90538,48.779136]]]}},{"type":"Feature","properties":{"cadnum":"1420355000:01:000:0172"},"geometry":{"type":"Polygon","coordinates":[[[36.910239,48.785944],[36.911742,48.785944],[36.912129,48.785961],[36.912129,48.785253],[36.912133,48.782168],[36.911155,48.782168],[36.910243,48.782167],[36.910239,48.78514],[36.910239,48.785944]]]}},{"type":"Feature","properties":{"cadnum":"1420355000:01:000:0176"},"geometry":{"type":"Polygon","coordinates":[[[36.913927,48.782169],[36.913927,48.784614],[36.915835,48.784614],[36.916163,48.784019],[36.916788,48.783161],[36.917223,48.782539],[36.917484,48.782169],[36.913927,48.782169]]]}},{"type":"Feature","properties":{"cadnum":"1420355000:01:000:0035"},"geometry":{"type":"Polygon","coordinates":[[[36.83201,48.680724],[36.837072,48.681212],[36.837072,48.681213],[36.841662,48.681655],[36.842737,48.681759],[36.848059,48.682275],[36.848059,48.682276],[36.851822,48.682639],[36.852394,48.680069],[36.852918,48.677722],[36.848059,48.677275],[36.842566,48.67677],[36.842565,48.67677],[36.842327,48.676747],[36.84024,48.676555],[36.840145,48.676547],[36.839009,48.676442],[36.839008,48.676442],[36.837072,48.676264],[36.83302,48.67589],[36.83288,48.676555],[36.832881,48.676555],[36.832122,48.680182],[36.832123,48.680182],[36.83201,48.680724]]]}},{"type":"Feature","properties":{"cadnum":"1420355000:01:000:0438"},"geometry":{"type":"Polygon","coordinates":[[[36.942062,48.756846],[36.947107,48.756705],[36.947107,48.756704],[36.948471,48.756666],[36.948445,48.75629],[36.948446,48.75629],[36.948337,48.754649],[36.946936,48.754692],[36.94354,48.754794],[36.942781,48.754729],[36.942266,48.75629],[36.942093,48.756817],[36.942062,48.756846]]]}},{"type":"Feature","properties":{"cadnum":"1420355000:01:000:0382"},"geometry":{"type":"Polygon","coordinates":[[[36.924998,48.747696],[36.92503,48.747794],[36.925135,48.748129],[36.925387,48.748934],[36.925385,48.748934],[36.925389,48.748943],[36.92539,48.748943],[36.925525,48.749047],[36.925526,48.749047],[36.925699,48.749179],[36.927747,48.749227],[36.927653,48.748964],[36.927087,48.74737],[36.924998,48.747696]]]}},{"type":"Feature","properties":{"cadnum":"1420355000:01:000:0601"},"geometry":{"type":"Polygon","coordinates":[[[36.934992,48.778499],[36.935949,48.781068],[36.935949,48.781069],[36.936079,48.781417],[36.936121,48.78141],[36.941227,48.780518],[36.941442,48.780477],[36.944217,48.77995],[36.942801,48.777901],[36.942133,48.776933],[36.941614,48.776185],[36.940422,48.774465],[36.940303,48.774281],[36.940302,48.774281],[36.93898,48.772239],[36.937426,48.773153],[36.935949,48.774016],[36.9353,48.774394],[36.935301,48.774394],[36.935176,48.774468],[36.935949,48.776483],[36.935949,48.776484],[36.936286,48.777359],[36.936326,48.777653],[36.936063,48.777901],[36.936062,48.777901],[36.935951,48.778006],[36.935943,48.778014],[36.935818,48.778133],[36.934992,48.778499]]]}},{"type":"Feature","properties":{"cadnum":"1420355000:01:000:0454"},"geometry":{"type":"Polygon","coordinates":[[[36.961707,48.750638],[36.961756,48.752082],[36.961771,48.752555],[36.961771,48.752556],[36.961825,48.754111],[36.962352,48.754095],[36.963415,48.75408],[36.965456,48.754049],[36.96551,48.752669],[36.965539,48.751929],[36.965593,48.750525],[36.963587,48.750584],[36.961707,48.750638]]]}},{"type":"Feature","properties":{"cadnum":"1420355000:02:000:0129"},"geometry":{"type":"Polygon","coordinates":[[[36.96637,48.74986],[36.96637,48.74989],[36.966402,48.74989],[36.966402,48.74986],[36.96637,48.74986]]]}},{"type":"Feature","properties":{"cadnum":"1420355000:02:000:0127"},"geometry":{"type":"Polygon","coordinates":[[[36.968257,48.750018],[36.968266,48.750027],[36.968274,48.75002],[36.96827,48.750012],[36.968257,48.750018]]]}},{"type":"Feature","properties":{"cadnum":"1420355000:02:000:0125"},"geometry":{"type":"Polygon","coordinates":[[[36.968337,48.750106],[36.968337,48.750127],[36.968383,48.750127],[36.968383,48.750106],[36.968337,48.750106]]]}},{"type":"Feature","properties":{"cadnum":"1420355000:02:000:0128"},"geometry":{"type":"Polygon","coordinates":[[[36.968239,48.749994],[36.968239,48.750003],[36.968253,48.750003],[36.968253,48.749994],[36.968239,48.749994]]]}},{"type":"Feature","properties":{"cadnum":"1420355000:02:000:0126"},"geometry":{"type":"Polygon","coordinates":[[[36.968297,48.749988],[36.968297,48.75002],[36.968392,48.75002],[36.968392,48.749988],[36.968297,48.749988]]]}},{"type":"Feature","properties":{"cadnum":"1420355000:01:000:0003"},"geometry":{"type":"Polygon","coordinates":[[[36.956718,48.721538],[36.957571,48.721577],[36.957603,48.72296],[36.957922,48.723185],[36.958637,48.723687],[36.963415,48.72704],[36.963415,48.727041],[36.963478,48.727085],[36.963587,48.725867],[36.963587,48.725864],[36.963791,48.723573],[36.96379,48.723573],[36.964111,48.719985],[36.963587,48.720021],[36.963587,48.72002],[36.962983,48.720063],[36.962651,48.720086],[36.962648,48.71995],[36.962648,48.719949],[36.962633,48.719075],[36.958289,48.71906],[36.957922,48.719633],[36.957722,48.719949],[36.957722,48.71995],[36.957656,48.720054],[36.957651,48.720063],[36.957419,48.720433],[36.956718,48.721538]]]}},{"type":"Feature","properties":{"cadnum":"1420355000:01:000:0161"},"geometry":{"type":"Polygon","coordinates":[[[36.900362,48.784912],[36.900708,48.785253],[36.900709,48.785253],[36.902428,48.786943],[36.903162,48.786756],[36.905168,48.786245],[36.906048,48.786076],[36.905931,48.785673],[36.905707,48.785458],[36.905046,48.785298],[36.903497,48.785366],[36.903222,48.785254],[36.903222,48.785253],[36.903162,48.785229],[36.903162,48.785228],[36.902891,48.785117],[36.901767,48.784289],[36.900362,48.784912]]]}},{"type":"Feature","properties":{"cadnum":"1420355000:02:000:0043"},"geometry":{"type":"Polygon","coordinates":[[[36.948426,48.741064],[36.948418,48.741289],[36.948499,48.741802],[36.9485,48.741802],[36.948552,48.742122],[36.952429,48.741943],[36.956088,48.741773],[36.957922,48.741689],[36.957986,48.741686],[36.958094,48.741681],[36.958861,48.741645],[36.958951,48.740596],[36.957922,48.740642],[36.957922,48.740643],[36.952429,48.740886],[36.952429,48.740887],[36.948426,48.741064]]]}},{"type":"Feature","properties":{"cadnum":"1420355000:01:001:0114"},"geometry":{"type":"Polygon","coordinates":[[[36.903389,48.721434],[36.90436,48.722593],[36.904934,48.723687],[36.905701,48.725143],[36.907739,48.7258],[36.908483,48.725696],[36.908484,48.725696],[36.908484,48.725697],[36.914148,48.724902],[36.917164,48.724478],[36.916947,48.723573],[36.916569,48.721996],[36.913977,48.722068],[36.913041,48.722093],[36.912587,48.720983],[36.908655,48.720835],[36.907791,48.720802],[36.903492,48.72033],[36.903389,48.721434]]]}},{"type":"Feature","properties":{"cadnum":"1420355000:01:000:0315"},"geometry":{"type":"Polygon","coordinates":[[[36.972614,48.781705],[36.973673,48.782435],[36.974401,48.781975],[36.974474,48.781929],[36.974573,48.781866],[36.974947,48.781629],[36.97834,48.779482],[36.977285,48.778751],[36.974401,48.780574],[36.974401,48.780575],[36.972904,48.781521],[36.972903,48.781521],[36.972747,48.78162],[36.972725,48.781634],[36.972614,48.781705]]]}},{"type":"Feature","properties":{"cadnum":"1420355000:01:000:0305"},"geometry":{"type":"Polygon","coordinates":[[[36.966343,48.783575],[36.966689,48.783723],[36.967543,48.78425],[36.968908,48.783387],[36.97168,48.781634],[36.972065,48.781391],[36.970979,48.780642],[36.96959,48.781521],[36.969422,48.781627],[36.969411,48.781634],[36.968977,48.781909],[36.966343,48.783575]]]}},{"type":"Feature","properties":{"cadnum":"1420355000:01:000:0306"},"geometry":{"type":"Polygon","coordinates":[[[36.964044,48.782314],[36.965197,48.783084],[36.966343,48.783575],[36.968908,48.781953],[36.968977,48.781909],[36.96908,48.781844],[36.969422,48.781627],[36.970979,48.780642],[36.968926,48.779224],[36.965297,48.781521],[36.964044,48.782314]]]}},{"type":"Feature","properties":{"cadnum":"1420355000:01:000:0316"},"geometry":{"type":"Polygon","coordinates":[[[36.967318,48.77805],[36.968377,48.778783],[36.968908,48.779148],[36.969438,48.779511],[36.970498,48.780242],[36.971553,48.780974],[36.972511,48.781634],[36.972614,48.781705],[36.972747,48.78162],[36.974573,48.780467],[36.974573,48.780466],[36.977285,48.778751],[36.976224,48.77802],[36.976179,48.777988],[36.975165,48.777289],[36.974573,48.77688],[36.974573,48.776879],[36.974109,48.776558],[36.97305,48.775829],[36.972614,48.775527],[36.971953,48.775116],[36.96908,48.776935],[36.967552,48.777901],[36.967551,48.777901],[36.96746,48.777959],[36.967373,48.778014],[36.967318,48.77805]]]}},{"type":"Feature","properties":{"cadnum":"1420355000:01:000:0314"},"geometry":{"type":"Polygon","coordinates":[[[36.973673,48.782435],[36.974573,48.783059],[36.974729,48.783166],[36.977152,48.781634],[36.9794,48.780213],[36.97834,48.779482],[36.975118,48.781521],[36.974947,48.781629],[36.974939,48.781634],[36.974474,48.781929],[36.973673,48.782435]]]}},{"type":"Feature","properties":{"cadnum":"1420355000:02:000:0124"},"geometry":{"type":"Polygon","coordinates":[[[36.972933,48.749829],[36.972946,48.749829],[36.972946,48.749816],[36.972933,48.74982],[36.972933,48.749829]]]}},{"type":"Feature","properties":{"cadnum":"1420355000:01:000:0226"},"geometry":{"type":"Polygon","coordinates":[[[36.922133,48.764722],[36.922914,48.76704],[36.923269,48.768091],[36.924382,48.767908],[36.924562,48.767154],[36.924562,48.767153],[36.924963,48.76548],[36.925066,48.765048],[36.924984,48.764929],[36.924665,48.764879],[36.922684,48.764835],[36.922133,48.764722]]]}},{"type":"Feature","properties":{"cadnum":"1420355000:01:000:0856"},"geometry":{"type":"Polygon","coordinates":[[[36.919986,48.732079],[36.920823,48.734557],[36.920824,48.734557],[36.921971,48.737948],[36.925135,48.737487],[36.930628,48.736687],[36.930628,48.736686],[36.935257,48.736011],[36.934754,48.734444],[36.934026,48.732169],[36.931237,48.732032],[36.930628,48.731925],[36.930628,48.731924],[36.929984,48.73181],[36.929988,48.731905],[36.928103,48.731851],[36.92807,48.731842],[36.927378,48.731641],[36.926723,48.731641],[36.925667,48.731715],[36.925135,48.731788],[36.923036,48.732077],[36.919986,48.732079]]]}},{"type":"Feature","properties":{"cadnum":"1420355000:01:000:0044"},"geometry":{"type":"Polygon","coordinates":[[[36.943341,48.724421],[36.944277,48.727197],[36.944276,48.727197],[36.944766,48.728646],[36.946185,48.728433],[36.945768,48.727197],[36.945767,48.727197],[36.944972,48.724839],[36.943341,48.724421]]]}},{"type":"Feature","properties":{"cadnum":"1420355000:01:000:0043"},"geometry":{"type":"Polygon","coordinates":[[[36.941919,48.724053],[36.943014,48.72731],[36.943015,48.72731],[36.943527,48.728829],[36.944766,48.728646],[36.944315,48.72731],[36.943341,48.724421],[36.941919,48.724053]]]}},{"type":"Feature","properties":{"cadnum":"1420355000:01:000:0512"},"geometry":{"type":"Polygon","coordinates":[[[36.964052,48.738606],[36.964308,48.738558],[36.966024,48.738082],[36.966222,48.738028],[36.966209,48.73777],[36.965274,48.736784],[36.967245,48.735142],[36.964066,48.73514],[36.964054,48.738066],[36.964054,48.738067],[36.964052,48.738606]]]}},{"type":"Feature","properties":{"cadnum":"1420355000:01:000:0511"},"geometry":{"type":"Polygon","coordinates":[[[36.962341,48.738934],[36.963415,48.738728],[36.963415,48.738729],[36.964052,48.738606],[36.964053,48.73818],[36.964054,48.73818],[36.964066,48.73514],[36.963415,48.735139],[36.96235,48.735137],[36.962343,48.738066],[36.962343,48.738067],[36.962342,48.738067],[36.962341,48.738934]]]}},{"type":"Feature","properties":{"cadnum":"1420355000:01:000:0263"},"geometry":{"type":"Polygon","coordinates":[[[36.950178,48.787807],[36.950912,48.788759],[36.950912,48.78876],[36.950944,48.7888],[36.950999,48.788873],[36.952043,48.790225],[36.9526,48.790953],[36.9526,48.790952],[36.952601,48.790952],[36.953035,48.791518],[36.954121,48.791246],[36.955546,48.790885],[36.954321,48.78876],[36.95432,48.78876],[36.953318,48.787017],[36.952968,48.787105],[36.952587,48.787202],[36.951894,48.787375],[36.951601,48.787449],[36.950178,48.787807]]]}},{"type":"Feature","properties":{"cadnum":"1420355000:01:000:0442"},"geometry":{"type":"Polygon","coordinates":[[[36.948601,48.757691],[36.948678,48.758806],[36.952429,48.7587],[36.956272,48.758591],[36.956215,48.757735],[36.956201,48.757474],[36.952429,48.757582],[36.948601,48.757691]]]}},{"type":"Feature","properties":{"cadnum":"1420355000:01:000:0187"},"geometry":{"type":"Polygon","coordinates":[[[36.907129,48.773766],[36.907353,48.774281],[36.908655,48.777269],[36.90893,48.777901],[36.909137,48.778374],[36.910403,48.778133],[36.910333,48.777975],[36.908773,48.774394],[36.908655,48.774123],[36.908424,48.773593],[36.907129,48.773766]]]}},{"type":"Feature","properties":{"cadnum":"1420355000:01:000:0204"},"geometry":{"type":"Polygon","coordinates":[[[36.899033,48.774394],[36.899931,48.774263],[36.90299,48.773982],[36.903084,48.773974],[36.903162,48.773964],[36.903162,48.773963],[36.905115,48.773704],[36.905702,48.773624],[36.904427,48.772315],[36.903155,48.772564],[36.901408,48.772905],[36.899213,48.774281],[36.899212,48.774281],[36.899033,48.774394]]]}},{"type":"Feature","properties":{"cadnum":"1420355000:01:000:0207"},"geometry":{"type":"Polygon","coordinates":[[[36.90663,48.771036],[36.907301,48.771644],[36.907301,48.771645],[36.9073,48.771645],[36.907038,48.771699],[36.90842,48.773264],[36.908483,48.773255],[36.908483,48.773256],[36.908484,48.773256],[36.910745,48.772956],[36.908814,48.770774],[36.908815,48.770774],[36.908484,48.770399],[36.908483,48.770399],[36.908431,48.77034],[36.9076,48.770661],[36.90663,48.771036]]]}},{"type":"Feature","properties":{"cadnum":"1420355000:01:000:0334"},"geometry":{"type":"Polygon","coordinates":[[[36.97326,48.77154],[36.974573,48.77245],[36.974573,48.772449],[36.974616,48.772479],[36.977282,48.770661],[36.978138,48.770077],[36.976728,48.769178],[36.974551,48.770661],[36.97455,48.770661],[36.97441,48.770757],[36.974384,48.770774],[36.97326,48.77154]]]}},{"type":"Feature","properties":{"cadnum":"1420355000:01:000:0201"},"geometry":{"type":"Polygon","coordinates":[[[36.922554,48.784756],[36.924963,48.784958],[36.928499,48.785253],[36.9285,48.785253],[36.929346,48.785324],[36.929385,48.785171],[36.929517,48.784667],[36.929517,48.784383],[36.925135,48.784018],[36.922734,48.783818],[36.922684,48.784063],[36.922554,48.784756]]]}},{"type":"Feature","properties":{"cadnum":"1420355000:02:000:0082"},"geometry":{"type":"Polygon","coordinates":[[[36.929867,48.751395],[36.929965,48.751457],[36.929988,48.75144],[36.92989,48.75138],[36.929867,48.751395]]]}},{"type":"Feature","properties":{"cadnum":"1420355000:02:000:0132"},"geometry":{"type":"Polygon","coordinates":[[[36.928803,48.751845],[36.928816,48.751842],[36.928816,48.751833],[36.928803,48.751833],[36.928803,48.751845]]]}},{"type":"Feature","properties":{"cadnum":"1420355000:01:000:0369"},"geometry":{"type":"Polygon","coordinates":[[[36.985715,48.765074],[36.986331,48.765471],[36.987009,48.765907],[36.990653,48.763419],[36.990921,48.763236],[36.9896,48.76255],[36.989497,48.762496],[36.988142,48.763419],[36.988141,48.763419],[36.985715,48.765074]]]}},{"type":"Feature","properties":{"cadnum":"1420355000:01:000:0368"},"geometry":{"type":"Polygon","coordinates":[[[36.987009,48.765907],[36.987633,48.766307],[36.988271,48.766715],[36.990881,48.764933],[36.990881,48.764934],[36.992327,48.763946],[36.991904,48.763748],[36.991273,48.763419],[36.990921,48.763236],[36.990487,48.763533],[36.987009,48.765907]]]}},{"type":"Feature","properties":{"cadnum":"1420355000:02:000:0111"},"geometry":{"type":"Polygon","coordinates":[[[36.982149,48.728154],[36.983357,48.73082],[36.983357,48.730821],[36.983371,48.73085],[36.983377,48.730877],[36.983388,48.730933],[36.983392,48.730934],[36.983393,48.730934],[36.985388,48.731326],[36.988724,48.731979],[36.988914,48.732017],[36.989191,48.731943],[36.991053,48.731452],[36.992062,48.731185],[36.991796,48.730835],[36.991053,48.729854],[36.990881,48.729627],[36.990845,48.729579],[36.989295,48.727311],[36.989295,48.72731],[36.989296,48.72731],[36.98895,48.726803],[36.986968,48.727197],[36.986816,48.727227],[36.986398,48.72731],[36.985388,48.727511],[36.985388,48.727512],[36.982149,48.728154]]]}},{"type":"Feature","properties":{"cadnum":"1420355000:01:000:0431"},"geometry":{"type":"Polygon","coordinates":[[[36.940525,48.741121],[36.940768,48.741802],[36.941614,48.744168],[36.941886,48.74493],[36.944982,48.744447],[36.943996,48.741689],[36.943616,48.740626],[36.941442,48.740975],[36.940584,48.741112],[36.940525,48.741121]]]}},{"type":"Feature","properties":{"cadnum":"1420355000:01:000:0432"},"geometry":{"type":"Polygon","coordinates":[[[36.943616,48.740626],[36.944036,48.741802],[36.944982,48.744447],[36.945332,48.74439],[36.94663,48.744189],[36.945772,48.741803],[36.945772,48.741802],[36.945773,48.741802],[36.945295,48.740472],[36.944272,48.740516],[36.944375,48.740969],[36.944093,48.741002],[36.944092,48.741002],[36.943683,48.740614],[36.943616,48.740626]]]}},{"type":"Feature","properties":{"cadnum":"1420355000:01:000:0270"},"geometry":{"type":"Polygon","coordinates":[[[36.962797,48.784633],[36.963089,48.78514],[36.963088,48.78514],[36.963587,48.786005],[36.965026,48.788501],[36.966812,48.788051],[36.965134,48.78514],[36.964583,48.784183],[36.963587,48.784434],[36.962797,48.784633]]]}},{"type":"Feature","properties":{"cadnum":"1420355000:01:000:0449"},"geometry":{"type":"Polygon","coordinates":[[[36.96245,48.754247],[36.962581,48.75629],[36.962582,48.75629],[36.962664,48.757551],[36.963127,48.75754],[36.963415,48.757163],[36.963479,48.757079],[36.963587,48.756938],[36.964081,48.75629],[36.964082,48.75629],[36.965687,48.75419],[36.963415,48.75423],[36.96245,48.754247]]]}},{"type":"Feature","properties":{"cadnum":"1420355000:01:000:0286"},"geometry":{"type":"Polygon","coordinates":[[[36.95038,48.777798],[36.950439,48.777901],[36.952024,48.780648],[36.952429,48.780676],[36.953834,48.780772],[36.954167,48.780746],[36.9526,48.778029],[36.9526,48.778028],[36.952592,48.778014],[36.952204,48.777339],[36.95038,48.777798]]]}},{"type":"Feature","properties":{"cadnum":"1420355000:01:000:0287"},"geometry":{"type":"Polygon","coordinates":[[[36.952204,48.777339],[36.952429,48.77773],[36.952429,48.777731],[36.952527,48.777901],[36.954167,48.780746],[36.955945,48.78061],[36.954448,48.778014],[36.954449,48.778014],[36.953825,48.776931],[36.952601,48.777239],[36.9526,48.777239],[36.952204,48.777339]]]}},{"type":"Feature","properties":{"cadnum":"1420355000:01:000:0285"},"geometry":{"type":"Polygon","coordinates":[[[36.947968,48.778405],[36.949006,48.780207],[36.94972,48.78037],[36.951131,48.780586],[36.952024,48.780648],[36.950504,48.778014],[36.95038,48.777798],[36.949968,48.777901],[36.949651,48.777981],[36.949519,48.778014],[36.947968,48.778405]]]}},{"type":"Feature","properties":{"cadnum":"1420355000:02:000:0039"},"geometry":{"type":"Polygon","coordinates":[[[36.898224,48.790568],[36.8984,48.792273],[36.898411,48.792378],[36.898411,48.792379],[36.89841,48.792379],[36.898637,48.794539],[36.90299,48.79434],[36.908483,48.794088],[36.908484,48.794088],[36.910518,48.793994],[36.91036,48.792492],[36.910086,48.789873],[36.9097,48.790014],[36.90939,48.790029],[36.908655,48.789953],[36.908655,48.789952],[36.906255,48.789701],[36.904687,48.789648],[36.90299,48.789868],[36.901597,48.790047],[36.899886,48.789941],[36.899117,48.790014],[36.898224,48.790568]]]}},{"type":"Feature","properties":{"cadnum":"1420355000:02:000:0112"},"geometry":{"type":"Polygon","coordinates":[[[36.948552,48.742122],[36.948678,48.742883],[36.949261,48.744541],[36.949275,48.744556],[36.952429,48.74441],[36.952496,48.744407],[36.9526,48.744402],[36.952601,48.744402],[36.958094,48.744147],[36.958829,48.744112],[36.958681,48.743744],[36.958857,48.741689],[36.958861,48.741645],[36.957986,48.741686],[36.95792,48.741689],[36.957903,48.741689],[36.956088,48.741773],[36.955456,48.741802],[36.955457,48.741802],[36.955457,48.741803],[36.9526,48.741935],[36.948552,48.742122]]]}},{"type":"Feature","properties":{"cadnum":"1420355000:01:000:0569"},"geometry":{"type":"Polygon","coordinates":[[[36.90223,48.759254],[36.902749,48.759798],[36.903077,48.760141],[36.903865,48.760965],[36.904503,48.761332],[36.906035,48.763364],[36.907067,48.762526],[36.904567,48.759912],[36.903331,48.758617],[36.90299,48.758814],[36.90299,48.758815],[36.90223,48.759254]]]}},{"type":"Feature","properties":{"cadnum":"1420355000:01:000:0301"},"geometry":{"type":"Polygon","coordinates":[[[36.971113,48.787544],[36.971499,48.787875],[36.971658,48.788759],[36.971658,48.78876],[36.971662,48.788777],[36.971727,48.788873],[36.971728,48.788873],[36.972182,48.789523],[36.972582,48.789834],[36.973929,48.788768],[36.974396,48.788404],[36.974401,48.788392],[36.974476,48.788216],[36.974573,48.787986],[36.974573,48.787985],[36.974828,48.787381],[36.9764,48.786454],[36.976813,48.785768],[36.977652,48.78525],[36.977651,48.785249],[36.97626,48.784289],[36.974913,48.78514],[36.974912,48.78514],[36.974774,48.785228],[36.974734,48.785253],[36.974734,48.785254],[36.974462,48.785427],[36.971113,48.787544]]]}},{"type":"Feature","properties":{"cadnum":"1420355000:01:000:0522"},"geometry":{"type":"Polygon","coordinates":[[[36.980941,48.718803],[36.981511,48.720063],[36.982499,48.72224],[36.984264,48.721891],[36.98378,48.720824],[36.983541,48.720471],[36.983608,48.72045],[36.983382,48.71995],[36.983381,48.71995],[36.983381,48.719949],[36.982594,48.718207],[36.98214,48.718298],[36.982073,48.718311],[36.98218,48.718539],[36.982185,48.718649],[36.982189,48.718853],[36.980941,48.718803]]]}},{"type":"Feature","properties":{"cadnum":"1420355000:02:000:0105"},"geometry":{"type":"Polygon","coordinates":[[[36.978516,48.711637],[36.979144,48.712701],[36.979688,48.713622],[36.979895,48.714041],[36.97999,48.714235],[36.980066,48.714389],[36.980155,48.714568],[36.980442,48.715155],[36.981213,48.716439],[36.981214,48.716439],[36.98126,48.716515],[36.982213,48.716325],[36.984589,48.715854],[36.983524,48.714055],[36.983451,48.713927],[36.982734,48.712701],[36.982733,48.712701],[36.98214,48.711684],[36.981866,48.711583],[36.981,48.711649],[36.980241,48.711598],[36.980049,48.711589],[36.979692,48.711572],[36.978516,48.711637]]]}},{"type":"Feature","properties":{"cadnum":"1420355000:01:000:0203"},"geometry":{"type":"Polygon","coordinates":[[[36.89584,48.774849],[36.897497,48.774613],[36.899033,48.774394],[36.901408,48.772905],[36.900065,48.771661],[36.899293,48.772266],[36.897497,48.773609],[36.897497,48.77361],[36.896447,48.774394],[36.89584,48.774849]]]}},{"type":"Feature","properties":{"cadnum":"1420355000:01:000:0047"},"geometry":{"type":"Polygon","coordinates":[[[36.94354,48.728874],[36.944232,48.730934],[36.944233,48.730934],[36.944676,48.732248],[36.946441,48.731988],[36.946084,48.730934],[36.9453,48.728611],[36.94354,48.728874]]]}},{"type":"Feature","properties":{"cadnum":"1420355000:01:000:0059"},"geometry":{"type":"Polygon","coordinates":[[[36.9389,48.728578],[36.939089,48.729271],[36.939722,48.729022],[36.940705,48.728877],[36.941442,48.72916],[36.941518,48.729188],[36.941614,48.730177],[36.941666,48.730711],[36.943781,48.730459],[36.943108,48.728482],[36.942932,48.727982],[36.941614,48.728177],[36.941146,48.728246],[36.939286,48.728521],[36.9389,48.728578]]]}},{"type":"Feature","properties":{"cadnum":"1420355000:01:000:0318"},"geometry":{"type":"Polygon","coordinates":[[[36.968257,48.772216],[36.968652,48.77244],[36.968908,48.772626],[36.968908,48.772627],[36.968922,48.772635],[36.96908,48.772755],[36.96908,48.772754],[36.971263,48.774394],[36.971264,48.774394],[36.971446,48.77453],[36.971616,48.774669],[36.972236,48.775051],[36.973451,48.774281],[36.97345,48.774281],[36.973656,48.774151],[36.973646,48.774145],[36.972038,48.773008],[36.97078,48.772106],[36.969685,48.77212],[36.969042,48.772117],[36.968257,48.772216]]]}},{"type":"Feature","properties":{"cadnum":"1420355000:01:000:0222"},"geometry":{"type":"Polygon","coordinates":[[[36.915479,48.767526],[36.91659,48.768666],[36.91947,48.768241],[36.91947,48.768242],[36.921498,48.767942],[36.92123,48.767154],[36.92123,48.767153],[36.921231,48.767153],[36.921078,48.766699],[36.919642,48.766911],[36.919641,48.766911],[36.918766,48.76704],[36.918524,48.767076],[36.917999,48.767153],[36.917999,48.767154],[36.915479,48.767526]]]}},{"type":"Feature","properties":{"cadnum":"1420355000:01:000:0538"},"geometry":{"type":"Polygon","coordinates":[[[36.917942,48.770051],[36.91813,48.770246],[36.918323,48.77041],[36.918768,48.770774],[36.918769,48.770774],[36.919641,48.771487],[36.919642,48.771487],[36.919667,48.771508],[36.921113,48.770851],[36.920979,48.770663],[36.920655,48.770208],[36.92078,48.769634],[36.91947,48.769826],[36.91947,48.769827],[36.917942,48.770051]]]}},{"type":"Feature","properties":{"cadnum":"1420355000:01:000:0357"},"geometry":{"type":"Polygon","coordinates":[[[36.981201,48.767242],[36.982504,48.768076],[36.984025,48.76704],[36.985388,48.766113],[36.985388,48.766114],[36.986331,48.765471],[36.985715,48.765074],[36.98556,48.764976],[36.985559,48.764976],[36.985559,48.764975],[36.985023,48.764633],[36.98133,48.767153],[36.98133,48.767154],[36.981201,48.767242]]]}},{"type":"Feature","properties":{"cadnum":"1420355000:01:000:0340"},"geometry":{"type":"Polygon","coordinates":[[[36.980518,48.771543],[36.981983,48.772479],[36.984649,48.770661],[36.985348,48.770184],[36.983883,48.769249],[36.981812,48.770661],[36.981811,48.770661],[36.980518,48.771543]]]}},{"type":"Feature","properties":{"cadnum":"1420355000:01:000:0355"},"geometry":{"type":"Polygon","coordinates":[[[36.983807,48.768912],[36.985113,48.769746],[36.985388,48.769559],[36.988936,48.767141],[36.988271,48.766715],[36.987633,48.766307],[36.986388,48.767153],[36.986388,48.767154],[36.98556,48.767719],[36.985559,48.767719],[36.985559,48.767718],[36.983807,48.768912]]]}},{"type":"Feature","properties":{"cadnum":"1420355000:01:000:0354"},"geometry":{"type":"Polygon","coordinates":[[[36.985113,48.769746],[36.985388,48.769922],[36.985388,48.769923],[36.986416,48.770581],[36.990239,48.767976],[36.989493,48.767499],[36.988936,48.767141],[36.98556,48.769442],[36.985559,48.769442],[36.985113,48.769746]]]}},{"type":"Feature","properties":{"cadnum":"1420355000:01:000:0356"},"geometry":{"type":"Polygon","coordinates":[[[36.982504,48.768076],[36.983807,48.768912],[36.985388,48.767835],[36.985388,48.767836],[36.986555,48.76704],[36.987633,48.766307],[36.987009,48.765907],[36.986331,48.765471],[36.98556,48.765997],[36.985559,48.765997],[36.985559,48.765996],[36.983859,48.767153],[36.983859,48.767154],[36.982504,48.768076]]]}},{"type":"Feature","properties":{"cadnum":"1420355000:01:000:0608"},"geometry":{"type":"Polygon","coordinates":[[[36.977572,48.736304],[36.979638,48.736334],[36.979895,48.736336],[36.982077,48.736352],[36.98209,48.735807],[36.980066,48.735793],[36.977577,48.735774],[36.977572,48.736304]]]}},{"type":"Feature","properties":{"cadnum":"1420355000:01:000:0605"},"geometry":{"type":"Polygon","coordinates":[[[36.977595,48.734692],[36.980066,48.734713],[36.980066,48.734712],[36.982122,48.734728],[36.982127,48.734557],[36.982128,48.734557],[36.98214,48.734186],[36.979895,48.73417],[36.979895,48.734171],[36.977612,48.734154],[36.977602,48.734444],[36.977601,48.734444],[36.977595,48.734692]]]}},{"type":"Feature","properties":{"cadnum":"1420355000:01:000:0607"},"geometry":{"type":"Polygon","coordinates":[[[36.977577,48.735774],[36.979895,48.735791],[36.979895,48.735792],[36.98209,48.735807],[36.982109,48.735267],[36.980066,48.735252],[36.980066,48.735251],[36.977585,48.735232],[36.977577,48.735774]]]}},{"type":"Feature","properties":{"cadnum":"1420355000:01:000:0606"},"geometry":{"type":"Polygon","coordinates":[[[36.977585,48.735232],[36.979895,48.73525],[36.982109,48.735267],[36.982122,48.734728],[36.979895,48.734711],[36.977595,48.734692],[36.977591,48.734905],[36.977585,48.735232]]]}},{"type":"Feature","properties":{"cadnum":"1420355000:01:000:0367"},"geometry":{"type":"Polygon","coordinates":[[[36.988271,48.766715],[36.988779,48.76704],[36.988778,48.76704],[36.988936,48.767141],[36.988955,48.767153],[36.988956,48.767153],[36.989493,48.767499],[36.989999,48.767153],[36.99,48.767153],[36.991053,48.766437],[36.991053,48.766436],[36.993719,48.764619],[36.993109,48.764311],[36.992327,48.763946],[36.991053,48.764816],[36.988271,48.766715]]]}},{"type":"Feature","properties":{"cadnum":"1420355000:01:000:0366"},"geometry":{"type":"Polygon","coordinates":[[[36.989493,48.767499],[36.990239,48.767976],[36.990696,48.768269],[36.990881,48.768143],[36.992498,48.76704],[36.995053,48.7653],[36.993719,48.764619],[36.990881,48.766553],[36.990166,48.76704],[36.990165,48.76704],[36.989493,48.767499]]]}},{"type":"Feature","properties":{"cadnum":"1420355000:01:000:0284"},"geometry":{"type":"Polygon","coordinates":[[[36.946005,48.778899],[36.946936,48.780513],[36.947517,48.781521],[36.947516,48.781521],[36.947681,48.781805],[36.948448,48.781612],[36.950192,48.781172],[36.949985,48.78113],[36.948615,48.780119],[36.948615,48.780118],[36.949006,48.780207],[36.947968,48.778405],[36.947085,48.778628],[36.946005,48.778899]]]}},{"type":"Feature","properties":{"cadnum":"1420355000:02:000:0037"},"geometry":{"type":"Polygon","coordinates":[[[36.894871,48.795294],[36.895133,48.795721],[36.895403,48.795997],[36.895402,48.795997],[36.895735,48.796337],[36.896485,48.796836],[36.897071,48.797164],[36.897497,48.797436],[36.897547,48.797467],[36.897669,48.797615],[36.897908,48.797903],[36.897842,48.798804],[36.898539,48.79878],[36.90044,48.798716],[36.902289,48.798604],[36.90299,48.798562],[36.903653,48.798521],[36.904175,48.798497],[36.907963,48.798325],[36.907731,48.79611],[36.90753,48.794177],[36.903162,48.794377],[36.897669,48.794627],[36.894887,48.794753],[36.894871,48.795294]]]}},{"type":"Feature","properties":{"cadnum":"1420355000:01:000:0425"},"geometry":{"type":"Polygon","coordinates":[[[36.939475,48.747379],[36.939802,48.748436],[36.940565,48.748332],[36.941614,48.748191],[36.94658,48.747518],[36.946454,48.747139],[36.94623,48.746461],[36.941442,48.747112],[36.939475,48.747379]]]}},{"type":"Feature","properties":{"cadnum":"1420355000:01:000:0376"},"geometry":{"type":"Polygon","coordinates":[[[36.900878,48.761741],[36.901323,48.763052],[36.901323,48.763053],[36.901256,48.763064],[36.90161,48.763366],[36.901711,48.763419],[36.901901,48.763518],[36.901928,48.763533],[36.902023,48.763582],[36.90299,48.763623],[36.90299,48.763624],[36.903069,48.763627],[36.903162,48.763631],[36.903162,48.76363],[36.903304,48.763636],[36.903704,48.763648],[36.905042,48.763686],[36.904993,48.763526],[36.904992,48.763526],[36.904526,48.76302],[36.90382,48.761681],[36.903444,48.761362],[36.903162,48.761404],[36.900878,48.761741]]]}},{"type":"Feature","properties":{"cadnum":"1420355000:01:000:0260"},"geometry":{"type":"Polygon","coordinates":[[[36.963702,48.790305],[36.964897,48.792378],[36.964898,48.792378],[36.964898,48.792379],[36.964897,48.792379],[36.965346,48.793157],[36.966113,48.792492],[36.966716,48.79197],[36.965494,48.789852],[36.963702,48.790305]]]}},{"type":"Feature","properties":{"cadnum":"1420355000:01:000:0464"},"geometry":{"type":"Polygon","coordinates":[[[36.961932,48.760358],[36.96226,48.760515],[36.963587,48.760453],[36.963587,48.760452],[36.968908,48.760197],[36.968998,48.760193],[36.968957,48.759798],[36.968955,48.759798],[36.968903,48.759316],[36.964605,48.75952],[36.963587,48.75957],[36.963587,48.759569],[36.962274,48.759633],[36.962196,48.759798],[36.962195,48.759798],[36.961932,48.760358]]]}},{"type":"Feature","properties":{"cadnum":"1420355000:01:000:0469"},"geometry":{"type":"Polygon","coordinates":[[[36.968935,48.758997],[36.96902,48.759798],[36.969022,48.759815],[36.969032,48.759912],[36.969042,48.76],[36.970908,48.759911],[36.974573,48.759737],[36.975025,48.759715],[36.974918,48.758709],[36.974573,48.758726],[36.968935,48.758997]]]}},{"type":"Feature","properties":{"cadnum":"1420355000:01:000:0470"},"geometry":{"type":"Polygon","coordinates":[[[36.968822,48.757948],[36.968908,48.758747],[36.968935,48.758997],[36.96908,48.75899],[36.974401,48.758734],[36.974401,48.758735],[36.974918,48.758709],[36.974809,48.757738],[36.974401,48.757758],[36.974015,48.757776],[36.968908,48.757945],[36.968822,48.757948]]]}},{"type":"Feature","properties":{"cadnum":"1420355000:02:000:0038"},"geometry":{"type":"Polygon","coordinates":[[[36.90753,48.794177],[36.907719,48.795997],[36.907963,48.798325],[36.908483,48.798302],[36.908484,48.798302],[36.910974,48.798187],[36.912248,48.797573],[36.913977,48.797007],[36.91424,48.79692],[36.914761,48.796625],[36.915113,48.796282],[36.915414,48.796077],[36.915452,48.795641],[36.915758,48.795314],[36.916412,48.794964],[36.918921,48.793873],[36.91947,48.793749],[36.919557,48.793729],[36.919641,48.79371],[36.919642,48.79371],[36.920053,48.793616],[36.920123,48.793602],[36.919642,48.793624],[36.919641,48.793624],[36.914148,48.793875],[36.908655,48.794126],[36.90753,48.794177]]]}},{"type":"Feature","properties":{"cadnum":"1420355000:01:000:0195"},"geometry":{"type":"Polygon","coordinates":[[[36.915763,48.785636],[36.91947,48.785945],[36.922282,48.786179],[36.922372,48.785704],[36.922478,48.785152],[36.919642,48.784916],[36.919641,48.784916],[36.91635,48.784641],[36.915988,48.785253],[36.915989,48.785253],[36.915989,48.785254],[36.915763,48.785636]]]}},{"type":"Feature","properties":{"cadnum":"1420355000:01:000:0193"},"geometry":{"type":"Polygon","coordinates":[[[36.91484,48.788488],[36.914867,48.788496],[36.915582,48.78855],[36.918147,48.78876],[36.918148,48.78876],[36.919641,48.788882],[36.919641,48.788881],[36.919642,48.788881],[36.921734,48.789052],[36.921777,48.78882],[36.921946,48.787942],[36.919642,48.787751],[36.919641,48.787751],[36.915135,48.787374],[36.91484,48.788488]]]}},{"type":"Feature","properties":{"cadnum":"1420355000:01:000:0194"},"geometry":{"type":"Polygon","coordinates":[[[36.915135,48.787374],[36.91947,48.787736],[36.921946,48.787942],[36.921978,48.787774],[36.922145,48.786897],[36.919642,48.786689],[36.919641,48.786689],[36.919641,48.786688],[36.91541,48.786336],[36.915135,48.787374]]]}},{"type":"Feature","properties":{"cadnum":"1420355000:01:000:0564"},"geometry":{"type":"Polygon","coordinates":[[[36.92105,48.751785],[36.921343,48.752669],[36.921344,48.752669],[36.922168,48.755143],[36.92352,48.754948],[36.922723,48.752556],[36.922723,48.752555],[36.922491,48.751857],[36.921194,48.751525],[36.92105,48.751785]]]}},{"type":"Feature","properties":{"cadnum":"1420355000:01:000:0565"},"geometry":{"type":"Polygon","coordinates":[[[36.922491,48.751856],[36.922723,48.752555],[36.922723,48.752556],[36.922725,48.75256],[36.922761,48.752669],[36.923521,48.754948],[36.924956,48.754739],[36.924255,48.752631],[36.924138,48.752278],[36.922491,48.751856]]]}},{"type":"Feature","properties":{"cadnum":"1420355000:01:000:0561"},"geometry":{"type":"Polygon","coordinates":[[[36.923332,48.755022],[36.923753,48.75629],[36.923754,48.75629],[36.924369,48.758135],[36.925135,48.758023],[36.925403,48.757983],[36.925542,48.757963],[36.924963,48.756227],[36.924963,48.756228],[36.924963,48.756229],[36.924946,48.756177],[36.924945,48.756177],[36.924504,48.754851],[36.923332,48.755022]]]}},{"type":"Feature","properties":{"cadnum":"1420355000:01:000:0559"},"geometry":{"type":"Polygon","coordinates":[[[36.920088,48.755494],[36.920531,48.756177],[36.921028,48.756944],[36.921691,48.758524],[36.923186,48.758306],[36.922478,48.756177],[36.922151,48.755193],[36.920088,48.755494]]]}},{"type":"Feature","properties":{"cadnum":"1420355000:01:000:0560"},"geometry":{"type":"Polygon","coordinates":[[[36.922151,48.755193],[36.922515,48.75629],[36.922516,48.75629],[36.923186,48.758306],[36.924044,48.758181],[36.924369,48.758134],[36.923717,48.756177],[36.923334,48.755021],[36.922151,48.755193]]]}},{"type":"Feature","properties":{"cadnum":"1420355000:02:000:0020"},"geometry":{"type":"Polygon","coordinates":[[[36.931489,48.735789],[36.932097,48.738066],[36.932097,48.738067],[36.932096,48.738067],[36.932611,48.739989],[36.935949,48.73946],[36.93947,48.738901],[36.941614,48.738899],[36.943028,48.738896],[36.943661,48.738156],[36.945322,48.737509],[36.94539,48.734541],[36.945395,48.734376],[36.944581,48.734444],[36.941676,48.734687],[36.941442,48.734709],[36.935949,48.73523],[36.935114,48.735309],[36.931489,48.735789]]]}},{"type":"Feature","properties":{"cadnum":"1420355000:01:000:0421"},"geometry":{"type":"Polygon","coordinates":[[[36.928713,48.738114],[36.928717,48.738123],[36.928736,48.73818],[36.928737,48.73818],[36.929027,48.739],[36.930628,48.738751],[36.934425,48.738161],[36.935949,48.737924],[36.936061,48.737906],[36.935949,48.73759],[36.935921,48.737406],[36.935791,48.737015],[36.930456,48.737844],[36.92902,48.738067],[36.928715,48.738114],[36.928713,48.738114]]]}},{"type":"Feature","properties":{"cadnum":"1420355000:01:000:0166"},"geometry":{"type":"Polygon","coordinates":[[[36.894505,48.783276],[36.895641,48.784392],[36.897669,48.783491],[36.899738,48.782572],[36.899572,48.782415],[36.89931,48.782181],[36.898642,48.781596],[36.898524,48.781492],[36.898459,48.781521],[36.898455,48.781523],[36.898204,48.781634],[36.897669,48.781872],[36.894505,48.783276]]]}},{"type":"Feature","properties":{"cadnum":"1420355000:01:000:0167"},"geometry":{"type":"Polygon","coordinates":[[[36.893306,48.782095],[36.894505,48.783276],[36.897497,48.781948],[36.897497,48.781949],[36.898455,48.781523],[36.898524,48.781492],[36.898305,48.781296],[36.897497,48.78084],[36.896895,48.7805],[36.894343,48.781634],[36.893306,48.782095]]]}},{"type":"Feature","properties":{"cadnum":"1420355000:01:001:0113"},"geometry":{"type":"Polygon","coordinates":[[[36.901341,48.748463],[36.901341,48.748472],[36.90135,48.748475],[36.901354,48.748466],[36.901341,48.748463]]]}},{"type":"Feature","properties":{"cadnum":"1420355000:01:001:0094"},"geometry":{"type":"Polygon","coordinates":[[[36.959682,48.730445],[36.959781,48.730506],[36.959804,48.730491],[36.959704,48.73043],[36.959682,48.730445]]]}},{"type":"Feature","properties":{"cadnum":"1420355000:01:000:0599"},"geometry":{"type":"Polygon","coordinates":[[[36.962117,48.729011],[36.962224,48.730827],[36.963559,48.730827],[36.963587,48.730828],[36.963587,48.730827],[36.964964,48.730829],[36.965889,48.730829],[36.966392,48.730832],[36.967907,48.730832],[36.968908,48.730835],[36.968908,48.730836],[36.969105,48.730836],[36.968943,48.728708],[36.968912,48.728711],[36.965782,48.728998],[36.963716,48.729191],[36.963415,48.729157],[36.962117,48.729011]]]}},{"type":"Feature","properties":{"cadnum":"1420355000:02:000:0091"},"geometry":{"type":"Polygon","coordinates":[[[36.962507,48.728456],[36.962606,48.728519],[36.962629,48.728504],[36.96253,48.728442],[36.962507,48.728456]]]}},{"type":"Feature","properties":{"cadnum":"1420355000:01:000:0039"},"geometry":{"type":"Polygon","coordinates":[[[36.950928,48.729858],[36.951148,48.730545],[36.9526,48.730328],[36.952601,48.730328],[36.958094,48.729502],[36.958999,48.729366],[36.958977,48.728649],[36.957922,48.728808],[36.952601,48.729608],[36.9526,48.729608],[36.9526,48.729607],[36.950928,48.729858]]]}},{"type":"Feature","properties":{"cadnum":"1420355000:01:000:0384"},"geometry":{"type":"Polygon","coordinates":[[[36.917861,48.74206],[36.919641,48.74393],[36.919642,48.74393],[36.920709,48.745051],[36.923665,48.744631],[36.922713,48.741689],[36.922712,48.741689],[36.922613,48.741381],[36.919663,48.741802],[36.919666,48.741802],[36.919666,48.741803],[36.919642,48.741806],[36.919641,48.741806],[36.917861,48.74206]]]}},{"type":"Feature","properties":{"cadnum":"1420355000:01:000:0602"},"geometry":{"type":"Polygon","coordinates":[[[36.912277,48.743804],[36.913625,48.745425],[36.913626,48.745425],[36.913734,48.745555],[36.913977,48.746037],[36.913977,48.746038],[36.91469,48.747453],[36.915839,48.748249],[36.9177,48.748534],[36.91947,48.748748],[36.91947,48.748749],[36.919587,48.748762],[36.919641,48.748771],[36.919641,48.74877],[36.919642,48.74877],[36.920741,48.748933],[36.920741,48.748934],[36.920826,48.748946],[36.921169,48.74899],[36.921279,48.749004],[36.920772,48.746591],[36.919924,48.745425],[36.919541,48.744897],[36.916031,48.741719],[36.915799,48.741509],[36.915522,48.741689],[36.913977,48.742696],[36.913977,48.742697],[36.912277,48.743804]]]}},{"type":"Feature","properties":{"cadnum":"1420355000:01:000:0501"},"geometry":{"type":"Polygon","coordinates":[[[36.975285,48.742848],[36.975319,48.745425],[36.975331,48.746301],[36.976715,48.746292],[36.977119,48.746292],[36.977105,48.745312],[36.977105,48.745311],[36.977073,48.742839],[36.975285,48.742848]]]}},{"type":"Feature","properties":{"cadnum":"1420355000:01:000:0330"},"geometry":{"type":"Polygon","coordinates":[[[36.978924,48.775187],[36.979032,48.775299],[36.979895,48.7762],[36.979895,48.776201],[36.979962,48.776271],[36.980066,48.7762],[36.980066,48.776199],[36.982876,48.774281],[36.983757,48.77368],[36.982405,48.772813],[36.980085,48.774394],[36.980086,48.774394],[36.979895,48.774525],[36.978924,48.775187]]]}},{"type":"Feature","properties":{"cadnum":"1420355000:01:000:0331"},"geometry":{"type":"Polygon","coordinates":[[[36.977536,48.774237],[36.977605,48.774281],[36.977604,48.774281],[36.977766,48.774384],[36.977782,48.774394],[36.977783,48.774394],[36.978767,48.775018],[36.978924,48.775187],[36.980066,48.774408],[36.980251,48.774281],[36.982405,48.772813],[36.980973,48.771896],[36.979895,48.77263],[36.977536,48.774237]]]}},{"type":"Feature","properties":{"cadnum":"1420355000:01:000:0332"},"geometry":{"type":"Polygon","coordinates":[[[36.976074,48.773348],[36.97692,48.773849],[36.977536,48.774239],[36.980066,48.772514],[36.980973,48.771896],[36.979895,48.771205],[36.979894,48.771205],[36.979545,48.770981],[36.976074,48.773348]]]}},{"type":"Feature","properties":{"cadnum":"1420355000:01:000:0527"},"geometry":{"type":"Polygon","coordinates":[[[36.934655,48.786162],[36.935508,48.787342],[36.936121,48.78715],[36.936121,48.787149],[36.937948,48.786573],[36.937246,48.785599],[36.936506,48.785487],[36.936121,48.785627],[36.934655,48.786162]]]}},{"type":"Feature","properties":{"cadnum":"1420355000:01:000:0231"},"geometry":{"type":"Polygon","coordinates":[[[36.934705,48.790301],[36.935517,48.791429],[36.935949,48.792027],[36.935949,48.792028],[36.936202,48.792378],[36.936202,48.792379],[36.936201,48.792379],[36.936263,48.792463],[36.936283,48.792492],[36.93647,48.792749],[36.937469,48.792434],[36.941303,48.791228],[36.940351,48.789908],[36.939538,48.788781],[36.939246,48.788873],[36.935949,48.78991],[36.934705,48.790301]]]}},{"type":"Feature","properties":{"cadnum":"1420355000:01:000:0232"},"geometry":{"type":"Polygon","coordinates":[[[36.93391,48.789198],[36.934705,48.790301],[36.936121,48.789856],[36.939538,48.788781],[36.938743,48.787677],[36.935949,48.788556],[36.935302,48.78876],[36.93501,48.788851],[36.934942,48.788873],[36.93391,48.789198]]]}},{"type":"Feature","properties":{"cadnum":"1420355000:01:000:0409"},"geometry":{"type":"Polygon","coordinates":[[[36.922254,48.739127],[36.922568,48.740093],[36.925135,48.739695],[36.929059,48.739085],[36.929027,48.739],[36.928717,48.738123],[36.928352,48.73818],[36.924963,48.738707],[36.922254,48.739127]]]}},{"type":"Feature","properties":{"cadnum":"1420355000:01:000:0395"},"geometry":{"type":"Polygon","coordinates":[[[36.935095,48.756379],[36.936121,48.756402],[36.936121,48.756401],[36.936726,48.756414],[36.936737,48.756177],[36.936825,48.754309],[36.935986,48.754293],[36.935194,48.754276],[36.935099,48.75629],[36.935095,48.756379]]]}},{"type":"Feature","properties":{"cadnum":"1420355000:01:000:0352"},"geometry":{"type":"Polygon","coordinates":[[[36.987719,48.771419],[36.989143,48.77233],[36.991053,48.771031],[36.991594,48.770661],[36.992969,48.769726],[36.991887,48.769033],[36.991541,48.768811],[36.991053,48.769144],[36.98883,48.770661],[36.988829,48.770661],[36.987719,48.771419]]]}},{"type":"Feature","properties":{"cadnum":"1420355000:01:000:0282"},"geometry":{"type":"Polygon","coordinates":[[[36.945997,48.782229],[36.9468,48.783326],[36.946936,48.783292],[36.946936,48.783293],[36.952456,48.781903],[36.952159,48.781645],[36.951927,48.781584],[36.951014,48.781343],[36.950192,48.781172],[36.948808,48.781521],[36.948448,48.781612],[36.94836,48.781634],[36.947681,48.781805],[36.947089,48.781955],[36.945997,48.782229]]]}},{"type":"Feature","properties":{"cadnum":"1420355000:01:000:0531"},"geometry":{"type":"Polygon","coordinates":[[[36.942285,48.784811],[36.942538,48.78514],[36.943292,48.786119],[36.945644,48.785328],[36.945541,48.785194],[36.944945,48.784419],[36.942285,48.784811]]]}},{"type":"Feature","properties":{"cadnum":"1420355000:01:000:0307"},"geometry":{"type":"Polygon","coordinates":[[[36.963032,48.781615],[36.963057,48.781634],[36.963058,48.781634],[36.963587,48.782002],[36.963874,48.782201],[36.964044,48.782314],[36.965118,48.781634],[36.968927,48.779225],[36.967916,48.778527],[36.963587,48.781265],[36.963181,48.781521],[36.96318,48.781521],[36.963032,48.781615]]]}},{"type":"Feature","properties":{"cadnum":"1420355000:01:000:0308"},"geometry":{"type":"Polygon","coordinates":[[[36.962023,48.780915],[36.962895,48.781521],[36.963031,48.781615],[36.963032,48.781615],[36.963415,48.781373],[36.967916,48.778527],[36.967049,48.777929],[36.966903,48.777828],[36.966787,48.777901],[36.963717,48.779844],[36.963415,48.780034],[36.963415,48.780035],[36.962023,48.780915]]]}},{"type":"Feature","properties":{"cadnum":"1420355000:01:000:0310"},"geometry":{"type":"Polygon","coordinates":[[[36.958016,48.777431],[36.958511,48.777901],[36.958623,48.778007],[36.95863,48.778014],[36.958955,48.778322],[36.95975,48.779171],[36.960765,48.778763],[36.959665,48.777901],[36.958896,48.777297],[36.958016,48.777431]]]}},{"type":"Feature","properties":{"cadnum":"1420355000:01:000:0279"},"geometry":{"type":"Polygon","coordinates":[[[36.958411,48.781448],[36.958453,48.781521],[36.958461,48.781535],[36.958517,48.781634],[36.958518,48.781634],[36.960567,48.785194],[36.961021,48.785079],[36.962794,48.784635],[36.963415,48.784479],[36.964582,48.784185],[36.96474,48.784146],[36.963415,48.783714],[36.963199,48.783643],[36.961318,48.783477],[36.960828,48.783273],[36.960823,48.782962],[36.961878,48.782806],[36.960454,48.781634],[36.960266,48.781479],[36.958411,48.781448]]]}},{"type":"Feature","properties":{"cadnum":"1420355000:01:000:0309"},"geometry":{"type":"Polygon","coordinates":[[[36.959876,48.779334],[36.960589,48.77992],[36.962022,48.780915],[36.963415,48.780034],[36.963461,48.780005],[36.963587,48.779925],[36.963587,48.779924],[36.963716,48.779843],[36.966769,48.777913],[36.966905,48.777828],[36.965706,48.777001],[36.964088,48.777623],[36.963567,48.777835],[36.963403,48.777901],[36.963291,48.777947],[36.963124,48.778014],[36.961829,48.778541],[36.959876,48.779334]]]}},{"type":"Feature","properties":{"cadnum":"1420355000:01:000:0319"},"geometry":{"type":"Polygon","coordinates":[[[36.958896,48.777297],[36.959809,48.778014],[36.95981,48.778014],[36.960765,48.778763],[36.961951,48.77828],[36.962616,48.77801],[36.963587,48.777618],[36.963945,48.777472],[36.965081,48.777034],[36.964375,48.776481],[36.963587,48.776598],[36.958896,48.777297]]]}},{"type":"Feature","properties":{"cadnum":"1420355000:02:000:0040"},"geometry":{"type":"Polygon","coordinates":[[[36.910153,48.789849],[36.910416,48.792378],[36.910416,48.792379],[36.910585,48.793992],[36.913977,48.793837],[36.91947,48.793586],[36.92012,48.793556],[36.920124,48.793601],[36.920363,48.793545],[36.92105,48.792986],[36.922326,48.792683],[36.923202,48.792751],[36.924895,48.792538],[36.925074,48.7924],[36.924984,48.792169],[36.924118,48.791864],[36.922684,48.791568],[36.921575,48.791461],[36.920214,48.79163],[36.919644,48.79158],[36.919563,48.791546],[36.917717,48.790763],[36.915467,48.790124],[36.913981,48.789944],[36.913769,48.789917],[36.912687,48.789538],[36.912063,48.789571],[36.910688,48.789648],[36.910153,48.789849]]]}},{"type":"Feature","properties":{"cadnum":"1420355000:02:000:0077"},"geometry":{"type":"Polygon","coordinates":[[[36.916442,48.76082],[36.916541,48.760882],[36.916564,48.760865],[36.916464,48.760803],[36.916442,48.76082]]]}},{"type":"Feature","properties":{"cadnum":"1420355000:02:000:0076"},"geometry":{"type":"Polygon","coordinates":[[[36.914111,48.762454],[36.91421,48.762517],[36.914231,48.762502],[36.914134,48.76244],[36.914111,48.762454]]]}},{"type":"Feature","properties":{"cadnum":"1420355000:01:000:0361"},"geometry":{"type":"Polygon","coordinates":[[[36.975991,48.763902],[36.977294,48.764737],[36.979058,48.763533],[36.979059,48.763533],[36.979894,48.762963],[36.979895,48.762963],[36.981116,48.762129],[36.980066,48.761457],[36.979858,48.761323],[36.979813,48.761294],[36.976531,48.763533],[36.975991,48.763902]]]}},{"type":"Feature","properties":{"cadnum":"1420355000:01:000:0467"},"geometry":{"type":"Polygon","coordinates":[[[36.969155,48.761003],[36.969268,48.762034],[36.974573,48.761782],[36.97525,48.76175],[36.975138,48.76072],[36.974401,48.760755],[36.969155,48.761003]]]}},{"type":"Feature","properties":{"cadnum":"1420355000:01:000:0360"},"geometry":{"type":"Polygon","coordinates":[[[36.977294,48.764737],[36.978596,48.765572],[36.980066,48.76457],[36.980066,48.764569],[36.981584,48.763533],[36.982419,48.762963],[36.981529,48.762395],[36.981116,48.762129],[36.980066,48.762846],[36.979225,48.763419],[36.979224,48.763419],[36.977294,48.764737]]]}},{"type":"Feature","properties":{"cadnum":"1420355000:01:000:0468"},"geometry":{"type":"Polygon","coordinates":[[[36.969042,48.76],[36.969155,48.761003],[36.974573,48.760747],[36.975138,48.76072],[36.975046,48.759912],[36.975047,48.759912],[36.975025,48.759715],[36.974401,48.759745],[36.974401,48.759746],[36.973286,48.759798],[36.973278,48.759798],[36.970908,48.759911],[36.9709,48.759912],[36.969042,48.76]]]}},{"type":"Feature","properties":{"cadnum":"1420355000:01:000:0466"},"geometry":{"type":"Polygon","coordinates":[[[36.969268,48.762034],[36.969362,48.762886],[36.970117,48.763029],[36.971711,48.763088],[36.97282,48.762985],[36.974082,48.763],[36.974401,48.762954],[36.974419,48.762952],[36.974573,48.762856],[36.975321,48.762392],[36.97525,48.76175],[36.974401,48.76179],[36.969268,48.762034]]]}},{"type":"Feature","properties":{"cadnum":"1420355000:02:000:0110"},"geometry":{"type":"Polygon","coordinates":[[[36.979643,48.730199],[36.979895,48.730248],[36.980036,48.730276],[36.980066,48.730282],[36.982742,48.730805],[36.983021,48.730862],[36.982971,48.730735],[36.982531,48.729771],[36.980066,48.729742],[36.980066,48.729741],[36.979656,48.729736],[36.979643,48.730199]]]}},{"type":"Feature","properties":{"cadnum":"1420355000:01:000:0296"},"geometry":{"type":"Polygon","coordinates":[[[36.940634,48.771792],[36.941524,48.773341],[36.942129,48.774394],[36.94213,48.774394],[36.943028,48.775954],[36.943638,48.775799],[36.944303,48.775634],[36.943524,48.774281],[36.943523,48.774281],[36.941932,48.771516],[36.941442,48.771621],[36.940634,48.771792]]]}},{"type":"Feature","properties":{"cadnum":"1420355000:01:000:0418"},"geometry":{"type":"Polygon","coordinates":[[[36.929658,48.740773],[36.92974,48.741001],[36.929968,48.741646],[36.930456,48.741571],[36.930525,48.74156],[36.930628,48.741544],[36.936121,48.740692],[36.936121,48.740691],[36.937001,48.740554],[36.936691,48.739682],[36.935949,48.739797],[36.930456,48.740649],[36.929658,48.740773]]]}},{"type":"Feature","properties":{"cadnum":"1420355000:01:000:0163"},"geometry":{"type":"Polygon","coordinates":[[[36.895641,48.784392],[36.896403,48.78514],[36.896503,48.785238],[36.897669,48.784722],[36.897669,48.784721],[36.900622,48.783409],[36.899738,48.782572],[36.897497,48.783567],[36.897497,48.783568],[36.895641,48.784392]]]}},{"type":"Feature","properties":{"cadnum":"1420355000:01:000:0160"},"geometry":{"type":"Polygon","coordinates":[[[36.897618,48.784995],[36.897765,48.78514],[36.897764,48.78514],[36.899966,48.787304],[36.900452,48.787215],[36.900842,48.787348],[36.902428,48.786943],[36.900588,48.78514],[36.900366,48.784922],[36.899567,48.784129],[36.899566,48.784129],[36.897618,48.784995]]]}},{"type":"Feature","properties":{"cadnum":"1420355000:01:000:0162"},"geometry":{"type":"Polygon","coordinates":[[[36.899567,48.784129],[36.900362,48.784912],[36.901767,48.784289],[36.900807,48.783578],[36.899567,48.784129]]]}},{"type":"Feature","properties":{"cadnum":"1420355000:01:000:0543"},"geometry":{"type":"Polygon","coordinates":[[[36.95445,48.767198],[36.954687,48.768003],[36.954693,48.768014],[36.958094,48.767574],[36.958874,48.767473],[36.958352,48.76704],[36.957989,48.766739],[36.954791,48.767153],[36.95479,48.767153],[36.95445,48.767198]]]}},{"type":"Feature","properties":{"cadnum":"1420355000:01:000:0326"},"geometry":{"type":"Polygon","coordinates":[[[36.95436,48.770321],[36.954476,48.770661],[36.954475,48.770661],[36.954624,48.771097],[36.95679,48.770774],[36.957922,48.770606],[36.959574,48.770359],[36.959098,48.769613],[36.957997,48.769778],[36.95436,48.770321]]]}},{"type":"Feature","properties":{"cadnum":"1420355000:01:000:0540"},"geometry":{"type":"Polygon","coordinates":[[[36.950811,48.768506],[36.951198,48.769423],[36.952429,48.769184],[36.952429,48.769185],[36.953888,48.7689],[36.954913,48.768754],[36.954693,48.768014],[36.954687,48.768003],[36.952429,48.768296],[36.950811,48.768506]]]}},{"type":"Feature","properties":{"cadnum":"1420355000:01:000:0327"},"geometry":{"type":"Polygon","coordinates":[[[36.954217,48.769891],[36.95436,48.770321],[36.957922,48.769789],[36.957997,48.769778],[36.958094,48.769764],[36.959098,48.769613],[36.958851,48.769228],[36.958094,48.769337],[36.954217,48.769891]]]}},{"type":"Feature","properties":{"cadnum":"1420355000:01:000:0542"},"geometry":{"type":"Polygon","coordinates":[[[36.954693,48.768014],[36.954913,48.768754],[36.957922,48.768324],[36.959606,48.768082],[36.958874,48.767473],[36.957922,48.767596],[36.954693,48.768014]]]}},{"type":"Feature","properties":{"cadnum":"1420355000:01:000:0081"},"geometry":{"type":"Polygon","coordinates":[[[36.945825,48.735652],[36.945983,48.736126],[36.946936,48.735983],[36.946936,48.735984],[36.9526,48.735131],[36.952601,48.735131],[36.952716,48.735113],[36.952567,48.734639],[36.946936,48.735486],[36.945825,48.735652]]]}},{"type":"Feature","properties":{"cadnum":"1420355000:01:000:0082"},"geometry":{"type":"Polygon","coordinates":[[[36.945664,48.735179],[36.945825,48.735652],[36.947107,48.73546],[36.952429,48.73466],[36.952567,48.734639],[36.952503,48.734444],[36.952501,48.734444],[36.952446,48.734277],[36.95241,48.734165],[36.949802,48.734557],[36.947107,48.734963],[36.947107,48.734962],[36.945664,48.735179]]]}},{"type":"Feature","properties":{"cadnum":"1420355000:01:001:0103"},"geometry":{"type":"Polygon","coordinates":[[[36.904036,48.718607],[36.904077,48.71861],[36.908483,48.718779],[36.908484,48.718779],[36.908484,48.71878],[36.908874,48.718794],[36.908807,48.717857],[36.912243,48.717516],[36.911899,48.716325],[36.911874,48.716236],[36.911056,48.716325],[36.911053,48.716326],[36.910019,48.716439],[36.908522,48.716603],[36.908294,48.716627],[36.906591,48.716622],[36.904257,48.716364],[36.904251,48.716363],[36.904243,48.716439],[36.904244,48.716439],[36.904036,48.718607]]]}},{"type":"Feature","properties":{"cadnum":"1420355000:01:000:0312"},"geometry":{"type":"Polygon","coordinates":[[[36.975791,48.783899],[36.976876,48.784648],[36.979895,48.782739],[36.980054,48.782638],[36.980066,48.78263],[36.981546,48.781693],[36.981295,48.781521],[36.981294,48.781521],[36.980459,48.780945],[36.980024,48.781221],[36.979369,48.781634],[36.97937,48.781634],[36.975791,48.783899]]]}},{"type":"Feature","properties":{"cadnum":"1420355000:01:000:0341"},"geometry":{"type":"Polygon","coordinates":[[[36.977558,48.778682],[36.978983,48.779665],[36.980066,48.778982],[36.980066,48.778981],[36.980914,48.778446],[36.980685,48.778256],[36.980537,48.778168],[36.980257,48.778014],[36.979895,48.777815],[36.979894,48.777815],[36.979378,48.777532],[36.978614,48.778014],[36.977558,48.778682]]]}},{"type":"Feature","properties":{"cadnum":"1420355000:01:000:0313"},"geometry":{"type":"Polygon","coordinates":[[[36.974729,48.783166],[36.97579,48.783898],[36.979368,48.781634],[36.979369,48.781634],[36.979894,48.781302],[36.979895,48.781302],[36.979895,48.781303],[36.980021,48.781222],[36.980066,48.781194],[36.980461,48.780944],[36.979895,48.780554],[36.9794,48.780213],[36.977331,48.781521],[36.97733,48.781521],[36.974729,48.783166]]]}},{"type":"Feature","properties":{"cadnum":"1420355000:01:000:0534"},"geometry":{"type":"Polygon","coordinates":[[[36.975987,48.777596],[36.976428,48.777901],[36.976427,48.777901],[36.977558,48.778682],[36.978794,48.777901],[36.978793,48.777901],[36.979378,48.777532],[36.978529,48.777061],[36.977604,48.776575],[36.975987,48.777596]]]}},{"type":"Feature","properties":{"cadnum":"1420355000:01:000:0533"},"geometry":{"type":"Polygon","coordinates":[[[36.978983,48.779665],[36.979895,48.780294],[36.980438,48.780669],[36.982229,48.779538],[36.980914,48.778446],[36.979895,48.77909],[36.978983,48.779665]]]}},{"type":"Feature","properties":{"cadnum":"1420355000:01:000:0537"},"geometry":{"type":"Polygon","coordinates":[[[36.917371,48.775095],[36.919641,48.77681],[36.919641,48.776809],[36.919642,48.776809],[36.920183,48.777218],[36.920799,48.775753],[36.919751,48.776001],[36.919595,48.776095],[36.919294,48.775593],[36.919294,48.775101],[36.91947,48.77499],[36.91947,48.774991],[36.919491,48.774977],[36.918566,48.774403],[36.917371,48.775095]]]}},{"type":"Feature","properties":{"cadnum":"1420355000:02:000:0022"},"geometry":{"type":"Polygon","coordinates":[[[36.92012,48.778925],[36.922254,48.778419],[36.922264,48.778014],[36.922265,48.778014],[36.922271,48.777765],[36.92148,48.778014],[36.920283,48.778392],[36.92012,48.778925]]]}},{"type":"Feature","properties":{"cadnum":"1420355000:01:000:0328"},"geometry":{"type":"Polygon","coordinates":[[[36.982036,48.777993],[36.982066,48.778014],[36.982325,48.778197],[36.982742,48.77844],[36.983568,48.778153],[36.983837,48.777901],[36.98443,48.777348],[36.984525,48.7771],[36.984799,48.776359],[36.984983,48.775957],[36.982169,48.777901],[36.982036,48.777993]]]}},{"type":"Feature","properties":{"cadnum":"1420355000:01:000:0237"},"geometry":{"type":"Polygon","coordinates":[[[36.941227,48.79081],[36.941442,48.791109],[36.941442,48.79111],[36.942179,48.792128],[36.946674,48.790619],[36.945672,48.789316],[36.941442,48.790738],[36.941227,48.79081]]]}},{"type":"Feature","properties":{"cadnum":"1420355000:01:000:0390"},"geometry":{"type":"Polygon","coordinates":[[[36.933765,48.760619],[36.93434,48.760631],[36.936121,48.760667],[36.936176,48.760668],[36.936672,48.760679],[36.936711,48.759819],[36.936771,48.758564],[36.936033,48.758549],[36.933864,48.758504],[36.933805,48.759762],[36.933803,48.759798],[36.933802,48.759798],[36.933798,48.759889],[36.933797,48.759912],[36.933765,48.760619]]]}},{"type":"Feature","properties":{"cadnum":"1420355000:01:000:0276"},"geometry":{"type":"Polygon","coordinates":[[[36.953632,48.782471],[36.955236,48.785253],[36.955237,48.785253],[36.955237,48.785254],[36.955882,48.786372],[36.956282,48.786271],[36.957373,48.785999],[36.956944,48.785254],[36.956944,48.785253],[36.955127,48.782095],[36.95497,48.782146],[36.953632,48.782471]]]}},{"type":"Feature","properties":{"cadnum":"1420355000:01:000:0274"},"geometry":{"type":"Polygon","coordinates":[[[36.950718,48.783202],[36.951899,48.785253],[36.9519,48.785253],[36.9519,48.785254],[36.9526,48.786468],[36.952601,48.786468],[36.952968,48.787105],[36.953318,48.787017],[36.95441,48.786741],[36.953552,48.785254],[36.953552,48.785253],[36.953553,48.785253],[36.9526,48.783599],[36.9526,48.783598],[36.952163,48.782838],[36.950718,48.783202]]]}},{"type":"Feature","properties":{"cadnum":"1420355000:01:000:0264"},"geometry":{"type":"Polygon","coordinates":[[[36.953318,48.787017],[36.954385,48.788873],[36.954386,48.788873],[36.955546,48.790885],[36.957023,48.790514],[36.956012,48.78876],[36.954796,48.786647],[36.95441,48.786741],[36.953318,48.787017]]]}},{"type":"Feature","properties":{"cadnum":"1420355000:01:000:0275"},"geometry":{"type":"Polygon","coordinates":[[[36.952163,48.782838],[36.952429,48.7833],[36.952429,48.783301],[36.953487,48.78514],[36.95441,48.786741],[36.954796,48.786647],[36.955882,48.786372],[36.955171,48.78514],[36.953632,48.782471],[36.953156,48.782587],[36.952429,48.782771],[36.952163,48.782838]]]}},{"type":"Feature","properties":{"cadnum":"1420355000:01:000:0158"},"geometry":{"type":"Polygon","coordinates":[[[36.889506,48.788541],[36.889798,48.788689],[36.892004,48.788202],[36.894645,48.787618],[36.895498,48.787884],[36.896993,48.787751],[36.895219,48.786005],[36.893849,48.786614],[36.892004,48.787434],[36.889672,48.78847],[36.889506,48.788541]]]}},{"type":"Feature","properties":{"cadnum":"1420355000:01:000:0446"},"geometry":{"type":"Polygon","coordinates":[[[36.955999,48.75443],[36.956098,48.755914],[36.956122,48.75629],[36.956123,48.75629],[36.956201,48.757474],[36.956215,48.757735],[36.957922,48.757687],[36.958825,48.757661],[36.958734,48.75629],[36.958735,48.75629],[36.958609,48.754356],[36.958094,48.754371],[36.955999,48.75443]]]}},{"type":"Feature","properties":{"cadnum":"1420355000:01:000:0208"},"geometry":{"type":"Polygon","coordinates":[[[36.908431,48.77034],[36.908655,48.770594],[36.908715,48.770661],[36.908714,48.770661],[36.910745,48.772956],[36.91254,48.772718],[36.912674,48.772702],[36.91097,48.770774],[36.910038,48.769719],[36.908577,48.770287],[36.908431,48.77034]]]}},{"type":"Feature","properties":{"cadnum":"1420355000:01:000:0209"},"geometry":{"type":"Polygon","coordinates":[[[36.910038,48.769719],[36.91087,48.770661],[36.910869,48.770661],[36.912674,48.772702],[36.913977,48.772548],[36.914,48.772545],[36.914148,48.772528],[36.914148,48.772527],[36.914403,48.772497],[36.914148,48.772209],[36.914148,48.772208],[36.912879,48.770774],[36.91288,48.770774],[36.911462,48.76917],[36.910104,48.769694],[36.910038,48.769719]]]}},{"type":"Feature","properties":{"cadnum":"1420355000:02:000:0130"},"geometry":{"type":"Polygon","coordinates":[[[36.958698,48.750509],[36.958698,48.750518],[36.958712,48.750518],[36.958712,48.750509],[36.958698,48.750509]]]}},{"type":"Feature","properties":{"cadnum":"1420355000:01:000:0604"},"geometry":{"type":"Polygon","coordinates":[[[36.977612,48.734154],[36.980066,48.734172],[36.98214,48.734186],[36.982153,48.733656],[36.980447,48.733623],[36.980066,48.73362],[36.979306,48.733614],[36.97834,48.733632],[36.977631,48.733635],[36.977612,48.734154]]]}},{"type":"Feature","properties":{"cadnum":"1420355000:01:000:0551"},"geometry":{"type":"Polygon","coordinates":[[[36.928605,48.758396],[36.928902,48.759323],[36.929138,48.759798],[36.929158,48.759838],[36.929194,48.759912],[36.929336,48.760195],[36.929649,48.76052],[36.929662,48.760535],[36.930456,48.760552],[36.930494,48.760552],[36.930628,48.760555],[36.930643,48.760555],[36.930677,48.759798],[36.930742,48.75844],[36.930483,48.758436],[36.928605,48.758396]]]}},{"type":"Feature","properties":{"cadnum":"1420355000:01:000:0544"},"geometry":{"type":"Polygon","coordinates":[[[36.932229,48.763106],[36.932582,48.763419],[36.934548,48.765166],[36.934852,48.765403],[36.935032,48.76535],[36.934889,48.765297],[36.93559,48.764462],[36.934537,48.763419],[36.934265,48.76315],[36.932229,48.763106]]]}},{"type":"Feature","properties":{"cadnum":"1420355000:01:000:0548"},"geometry":{"type":"Polygon","coordinates":[[[36.93242,48.762359],[36.934257,48.762397],[36.93434,48.760631],[36.933765,48.760619],[36.932503,48.760593],[36.93242,48.762359]]]}},{"type":"Feature","properties":{"cadnum":"1420355000:01:000:0546"},"geometry":{"type":"Polygon","coordinates":[[[36.934265,48.76315],[36.934651,48.763533],[36.93559,48.764462],[36.936121,48.763829],[36.936121,48.763828],[36.936463,48.763419],[36.937233,48.762502],[36.936121,48.762479],[36.934812,48.762451],[36.934265,48.76315]]]}},{"type":"Feature","properties":{"cadnum":"1420355000:01:000:0549"},"geometry":{"type":"Polygon","coordinates":[[[36.934256,48.762395],[36.935949,48.762431],[36.936093,48.762434],[36.936121,48.761846],[36.936177,48.760669],[36.936016,48.760666],[36.934341,48.76063],[36.934256,48.762395]]]}},{"type":"Feature","properties":{"cadnum":"1420355000:01:000:0196"},"geometry":{"type":"Polygon","coordinates":[[[36.91635,48.784641],[36.91947,48.784902],[36.922478,48.785152],[36.922553,48.784758],[36.922686,48.784062],[36.91947,48.783795],[36.917052,48.783593],[36.916623,48.78418],[36.91635,48.784641]]]}},{"type":"Feature","properties":{"cadnum":"1420355000:01:000:0311"},"geometry":{"type":"Polygon","coordinates":[[[36.976876,48.784646],[36.977586,48.78514],[36.977585,48.78514],[36.977702,48.785221],[36.978277,48.784866],[36.979499,48.784833],[36.980066,48.784596],[36.980434,48.784442],[36.981897,48.782693],[36.98165,48.78206],[36.981879,48.781924],[36.981547,48.781693],[36.980066,48.78263],[36.976876,48.784646]]]}},{"type":"Feature","properties":{"cadnum":"1420355000:01:001:0112"},"geometry":{"type":"Polygon","coordinates":[[[36.914451,48.750974],[36.914465,48.750977],[36.91447,48.750968],[36.914457,48.750966],[36.914451,48.750974]]]}},{"type":"Feature","properties":{"cadnum":"1420355000:01:000:0151"},"geometry":{"type":"Polygon","coordinates":[[[36.88784,48.799059],[36.889444,48.798987],[36.889461,48.79888],[36.890651,48.79611],[36.890801,48.795762],[36.889633,48.795505],[36.889384,48.795997],[36.889383,48.795997],[36.88784,48.799059]]]}},{"type":"Feature","properties":{"cadnum":"1420355000:02:000:0084"},"geometry":{"type":"Polygon","coordinates":[[[36.935783,48.747237],[36.935881,48.747299],[36.935904,48.747284],[36.935804,48.747222],[36.935783,48.747237]]]}},{"type":"Feature","properties":{"cadnum":"1420355000:01:000:0253"},"geometry":{"type":"Polygon","coordinates":[[[36.955008,48.791069],[36.955762,48.792378],[36.955762,48.792379],[36.955761,48.792379],[36.957162,48.794807],[36.957922,48.794706],[36.957922,48.794707],[36.958035,48.794691],[36.958094,48.794684],[36.958094,48.794683],[36.958928,48.794571],[36.957922,48.792826],[36.957922,48.792827],[36.957729,48.792492],[36.956669,48.790651],[36.955008,48.791069]]]}},{"type":"Feature","properties":{"cadnum":"1420355000:01:000:0155"},"geometry":{"type":"Polygon","coordinates":[[[36.896033,48.791828],[36.89609,48.792379],[36.897249,48.792328],[36.897497,48.792317],[36.897498,48.792317],[36.897669,48.792309],[36.897669,48.792308],[36.8984,48.792273],[36.898224,48.790568],[36.897519,48.791003],[36.896261,48.791642],[36.896033,48.791828]]]}},{"type":"Feature","properties":{"cadnum":"1420355000:02:000:0042"},"geometry":{"type":"Polygon","coordinates":[[[36.913696,48.772908],[36.914148,48.773251],[36.914148,48.77325],[36.915512,48.774281],[36.916884,48.775317],[36.918516,48.774373],[36.918512,48.774371],[36.91679,48.773306],[36.916651,48.772969],[36.917277,48.772529],[36.916609,48.772561],[36.914062,48.772866],[36.913696,48.772908]]]}},{"type":"Feature","properties":{"cadnum":"1420355000:02:000:0041"},"geometry":{"type":"Polygon","coordinates":[[[36.911717,48.773157],[36.913353,48.774394],[36.913354,48.774394],[36.913977,48.774865],[36.915577,48.776073],[36.916884,48.775317],[36.915662,48.774394],[36.913977,48.773121],[36.913696,48.772908],[36.912632,48.773036],[36.911717,48.773157]]]}},{"type":"Feature","properties":{"cadnum":"1420355000:01:000:0133"},"geometry":{"type":"Polygon","coordinates":[[[36.85144,48.740978],[36.851678,48.741656],[36.851688,48.741689],[36.851712,48.741767],[36.851723,48.741802],[36.851772,48.741962],[36.853552,48.741716],[36.853552,48.741717],[36.857332,48.741195],[36.857009,48.740211],[36.853724,48.740664],[36.85144,48.740978]]]}},{"type":"Feature","properties":{"cadnum":"1420355000:00:000:0225"},"geometry":{"type":"Polygon","coordinates":[[[36.911685,48.707932],[36.911847,48.708169],[36.912463,48.708044],[36.91231,48.707908],[36.912224,48.707932],[36.91218,48.707864],[36.912157,48.70787],[36.91213,48.707831],[36.912113,48.707802],[36.911685,48.707932]]]}},{"type":"Feature","properties":{"cadnum":"1420355000:02:000:0093"},"geometry":{"type":"Polygon","coordinates":[[[36.970304,48.723005],[36.970358,48.723037],[36.970413,48.723002],[36.970354,48.722966],[36.970304,48.723005]]]}},{"type":"Feature","properties":{"cadnum":"1420355000:01:001:0096"},"geometry":{"type":"Polygon","coordinates":[[[36.973184,48.720948],[36.973283,48.72101],[36.973306,48.720995],[36.973207,48.720933],[36.973184,48.720948]]]}},{"type":"Feature","properties":{"cadnum":"1420355000:01:000:0422"},"geometry":{"type":"Polygon","coordinates":[[[36.92839,48.737202],[36.928713,48.738114],[36.930628,48.737817],[36.935791,48.737015],[36.935504,48.736162],[36.932657,48.73658],[36.930456,48.7369],[36.92891,48.737125],[36.92839,48.737202]]]}},{"type":"Feature","properties":{"cadnum":"1420355000:01:000:0320"},"geometry":{"type":"Polygon","coordinates":[[[36.957054,48.776534],[36.957764,48.777194],[36.957922,48.777343],[36.958016,48.777431],[36.958094,48.777419],[36.958896,48.777297],[36.963415,48.776624],[36.964375,48.776481],[36.963415,48.775728],[36.963262,48.775608],[36.958094,48.776379],[36.957054,48.776534]]]}},{"type":"Feature","properties":{"cadnum":"1420355000:02:000:0068"},"geometry":{"type":"Polygon","coordinates":[[[36.895012,48.775889],[36.895085,48.775915],[36.895129,48.775868],[36.895052,48.775838],[36.895012,48.775889]]]}},{"type":"Feature","properties":{"cadnum":"1420355000:02:000:0067"},"geometry":{"type":"Polygon","coordinates":[[[36.894258,48.777694],[36.894388,48.777718],[36.894397,48.777697],[36.894266,48.777673],[36.894258,48.777694]]]}},{"type":"Feature","properties":{"cadnum":"1420355000:01:000:0536"},"geometry":{"type":"Polygon","coordinates":[[[36.972236,48.775051],[36.972811,48.775404],[36.974203,48.776365],[36.974401,48.77624],[36.975627,48.775465],[36.975421,48.77535],[36.974886,48.774998],[36.974401,48.774665],[36.974008,48.774394],[36.974009,48.774394],[36.973656,48.774151],[36.973271,48.774394],[36.973272,48.774394],[36.972236,48.775051]]]}},{"type":"Feature","properties":{"cadnum":"1420355000:01:000:0157"},"geometry":{"type":"Polygon","coordinates":[[[36.927698,48.789538],[36.928039,48.789564],[36.92825,48.789467],[36.928408,48.788873],[36.928556,48.788322],[36.92803,48.788277],[36.927872,48.788873],[36.927873,48.788873],[36.927698,48.789538]]]}},{"type":"Feature","properties":{"cadnum":"1420355000:02:000:0081"},"geometry":{"type":"Polygon","coordinates":[[[36.927069,48.753358],[36.927168,48.75342],[36.927191,48.753403],[36.927091,48.753343],[36.927069,48.753358]]]}},{"type":"Feature","properties":{"cadnum":"1420355000:02:000:0123"},"geometry":{"type":"Polygon","coordinates":[[[36.992583,48.749026],[36.992583,48.749034],[36.992596,48.749034],[36.992596,48.749026],[36.992583,48.749026]]]}},{"type":"Feature","properties":{"cadnum":"1420355000:02:000:0083"},"geometry":{"type":"Polygon","coordinates":[[[36.933034,48.749168],[36.933133,48.74923],[36.933154,48.749215],[36.933057,48.749153],[36.933034,48.749168]]]}},{"type":"Feature","properties":{"cadnum":"1420355000:01:001:0095"},"geometry":{"type":"Polygon","coordinates":[[[36.964991,48.726711],[36.96509,48.726773],[36.965113,48.726758],[36.965014,48.726696],[36.964991,48.726711]]]}},{"type":"Feature","properties":{"cadnum":"1420355000:02:000:0092"},"geometry":{"type":"Polygon","coordinates":[[[36.967597,48.724877],[36.967695,48.724939],[36.967717,48.724924],[36.967618,48.724862],[36.967597,48.724877]]]}},{"type":"Feature","properties":{"cadnum":"1420355000:01:000:0351"},"geometry":{"type":"Polygon","coordinates":[[[36.989143,48.77233],[36.990558,48.773236],[36.990881,48.773019],[36.990881,48.77302],[36.99225,48.7721],[36.994263,48.770966],[36.994537,48.770729],[36.993109,48.769814],[36.992969,48.769726],[36.991594,48.770661],[36.991428,48.770774],[36.990881,48.771148],[36.989143,48.77233]]]}},{"type":"Feature","properties":{"cadnum":"1420355000:02:000:0064"},"geometry":{"type":"Polygon","coordinates":[[[36.891536,48.784469],[36.891666,48.784493],[36.891675,48.784471],[36.891545,48.784448],[36.891536,48.784469]]]}},{"type":"Feature","properties":{"cadnum":"1420355000:02:000:0131"},"geometry":{"type":"Polygon","coordinates":[[[36.944676,48.75117],[36.944676,48.751179],[36.944689,48.751179],[36.944689,48.75117],[36.944676,48.75117]]]}},{"type":"Feature","properties":{"cadnum":"1420355000:01:000:0272"},"geometry":{"type":"Polygon","coordinates":[[[36.947865,48.784797],[36.948128,48.78514],[36.950178,48.787807],[36.951601,48.787449],[36.950274,48.78514],[36.950273,48.78514],[36.949796,48.784309],[36.947865,48.784797]]]}},{"type":"Feature","properties":{"cadnum":"1420355000:01:000:0609"},"geometry":{"type":"Polygon","coordinates":[[[36.897604,48.751596],[36.897731,48.752013],[36.897869,48.752434],[36.903162,48.751719],[36.905249,48.751436],[36.905186,48.751166],[36.905056,48.750586],[36.903277,48.750826],[36.903162,48.750842],[36.897604,48.751596]]]}},{"type":"Feature","properties":{"cadnum":"1420355000:01:000:0610"},"geometry":{"type":"Polygon","coordinates":[[[36.897358,48.750758],[36.897497,48.751232],[36.897604,48.751596],[36.897669,48.751588],[36.897669,48.751587],[36.90299,48.750865],[36.90299,48.750866],[36.903277,48.750826],[36.905056,48.750586],[36.904859,48.749742],[36.904858,48.749742],[36.903162,48.749972],[36.900505,48.750332],[36.897529,48.750735],[36.897358,48.750758]]]}},{"type":"Feature","properties":{"cadnum":"1420355000:01:000:0383"},"geometry":{"type":"Polygon","coordinates":[[[36.920709,48.745051],[36.920956,48.745311],[36.920956,48.745312],[36.921031,48.74539],[36.921063,48.745425],[36.921518,48.745904],[36.922034,48.74753],[36.924464,48.747184],[36.923912,48.745425],[36.923913,48.745425],[36.923665,48.744631],[36.920709,48.745051]]]}},{"type":"Feature","properties":{"cadnum":"1420355000:01:000:0529"},"geometry":{"type":"Polygon","coordinates":[[[36.943777,48.78675],[36.944263,48.787384],[36.947107,48.786428],[36.947107,48.786427],[36.948391,48.785996],[36.947905,48.785366],[36.947107,48.785634],[36.947107,48.785633],[36.943777,48.78675]]]}},{"type":"Feature","properties":{"cadnum":"1420355000:02:000:0073"},"geometry":{"type":"Polygon","coordinates":[[[36.90665,48.767692],[36.906749,48.767751],[36.906771,48.767736],[36.906673,48.767674],[36.90665,48.767692]]]}},{"type":"Feature","properties":{"cadnum":"1420355000:02:000:0072"},"geometry":{"type":"Polygon","coordinates":[[[36.904224,48.769391],[36.904323,48.769453],[36.904346,48.769438],[36.904247,48.769376],[36.904224,48.769391]]]}},{"type":"Feature","properties":{"cadnum":"1420355000:02:000:0086"},"geometry":{"type":"Polygon","coordinates":[[[36.94119,48.743439],[36.94129,48.743502],[36.941311,48.743487],[36.941213,48.743425],[36.94119,48.743439]]]}},{"type":"Feature","properties":{"cadnum":"1420355000:02:000:0085"},"geometry":{"type":"Polygon","coordinates":[[[36.938441,48.745371],[36.938527,48.745425],[36.938528,48.745425],[36.93854,48.745433],[36.938563,48.745419],[36.938483,48.745368],[36.938464,48.745356],[36.938445,48.745368],[36.938441,48.745371]]]}},{"type":"Feature","properties":{"cadnum":"1420355000:02:000:0088"},"geometry":{"type":"Polygon","coordinates":[[[36.94636,48.739808],[36.94646,48.739871],[36.946481,48.739853],[36.946383,48.73979],[36.94636,48.739808]]]}},{"type":"Feature","properties":{"cadnum":"1420355000:01:001:0097"},"geometry":{"type":"Polygon","coordinates":[[[36.975744,48.719146],[36.975843,48.719209],[36.975866,48.719194],[36.975767,48.719132],[36.975744,48.719146]]]}},{"type":"Feature","properties":{"cadnum":"1420355000:01:001:0098"},"geometry":{"type":"Polygon","coordinates":[[[36.978304,48.717347],[36.978403,48.717407],[36.978426,48.717392],[36.978327,48.71733],[36.978304,48.717347]]]}},{"type":"Feature","properties":{"cadnum":"1420355000:01:000:0532"},"geometry":{"type":"Polygon","coordinates":[[[36.980438,48.780669],[36.981669,48.781521],[36.981708,48.781548],[36.981833,48.781634],[36.982073,48.781799],[36.982549,48.781567],[36.982868,48.781411],[36.983438,48.780823],[36.983074,48.780237],[36.98223,48.779538],[36.982229,48.779538],[36.980438,48.780669]]]}},{"type":"Feature","properties":{"cadnum":"1420355000:02:000:0021"},"geometry":{"type":"Polygon","coordinates":[[[36.920026,48.779245],[36.922231,48.779334],[36.922254,48.778419],[36.92012,48.778925],[36.920026,48.779245]]]}},{"type":"Feature","properties":{"cadnum":"1420355000:01:000:0381"},"geometry":{"type":"Polygon","coordinates":[[[36.922034,48.74753],[36.922357,48.748554],[36.922568,48.748925],[36.923686,48.748851],[36.925017,48.748946],[36.924904,48.748591],[36.924464,48.747184],[36.922034,48.74753]]]}},{"type":"Feature","properties":{"cadnum":"1420355000:02:000:0071"},"geometry":{"type":"Polygon","coordinates":[[[36.901893,48.771029],[36.901993,48.77109],[36.902015,48.771073],[36.901916,48.771013],[36.901893,48.771029]]]}},{"type":"Feature","properties":{"cadnum":"1420355000:01:000:0447"},"geometry":{"type":"Polygon","coordinates":[[[36.958609,48.754356],[36.958727,48.756177],[36.958825,48.757661],[36.959997,48.757628],[36.960779,48.757604],[36.960685,48.756177],[36.960684,48.756177],[36.960563,48.7543],[36.958609,48.754356]]]}},{"type":"Feature","properties":{"cadnum":"1420355000:01:000:0448"},"geometry":{"type":"Polygon","coordinates":[[[36.960563,48.7543],[36.960691,48.75629],[36.960692,48.75629],[36.960779,48.757604],[36.962664,48.757551],[36.962574,48.756177],[36.96245,48.754247],[36.96236,48.75425],[36.960563,48.7543]]]}},{"type":"Feature","properties":{"cadnum":"1420355000:01:000:0333"},"geometry":{"type":"Polygon","coordinates":[[[36.974616,48.772479],[36.974679,48.772523],[36.976072,48.773349],[36.979543,48.770981],[36.979221,48.770774],[36.978138,48.770077],[36.977116,48.770774],[36.974616,48.772479]]]}},{"type":"Feature","properties":{"cadnum":"1420355000:01:001:0111"},"geometry":{"type":"Polygon","coordinates":[[[36.920013,48.752005],[36.920026,48.752008],[36.92003,48.751998],[36.920017,48.751996],[36.920013,48.752005]]]}},{"type":"Feature","properties":{"cadnum":"1420355000:02:000:0133"},"geometry":{"type":"Polygon","coordinates":[[[36.920973,48.752011],[36.920973,48.75202],[36.920987,48.75202],[36.920987,48.752011],[36.920973,48.752011]]]}},{"type":"Feature","properties":{"cadnum":"1420355000:02:000:0066"},"geometry":{"type":"Polygon","coordinates":[[[36.89335,48.779952],[36.893481,48.779976],[36.89349,48.779956],[36.893355,48.779932],[36.89335,48.779952]]]}},{"type":"Feature","properties":{"cadnum":"1420355000:01:000:0456"},"geometry":{"type":"Polygon","coordinates":[[[36.954998,48.746352],[36.955169,48.748934],[36.955292,48.750779],[36.956863,48.750733],[36.956749,48.749047],[36.95675,48.749047],[36.956719,48.748571],[36.956242,48.74783],[36.956584,48.747767],[36.956667,48.747774],[36.956547,48.745982],[36.955745,48.746121],[36.954998,48.746352]]]}},{"type":"Feature","properties":{"cadnum":"1420355000:01:000:0455"},"geometry":{"type":"Polygon","coordinates":[[[36.953199,48.746867],[36.953342,48.749047],[36.953343,48.749047],[36.953461,48.750832],[36.955292,48.750779],[36.955176,48.749047],[36.955177,48.749047],[36.954998,48.746352],[36.954418,48.746533],[36.953199,48.746867]]]}},{"type":"Feature","properties":{"cadnum":"1420355000:01:000:0597"},"geometry":{"type":"Polygon","coordinates":[[[36.908748,48.731958],[36.908897,48.731949],[36.908918,48.731887],[36.90895,48.731848],[36.909048,48.73181],[36.909147,48.731789],[36.909193,48.731745],[36.909233,48.731718],[36.909327,48.731671],[36.909381,48.731656],[36.909503,48.731633],[36.90965,48.73162],[36.909745,48.731656],[36.909746,48.731656],[36.90987,48.731896],[36.90987,48.731929],[36.909889,48.731976],[36.909893,48.732002],[36.90992,48.732032],[36.909996,48.732041],[36.910109,48.732044],[36.910235,48.732275],[36.910396,48.732542],[36.910505,48.732702],[36.910616,48.732722],[36.910773,48.732713],[36.910931,48.732681],[36.911092,48.732652],[36.911421,48.732521],[36.911524,48.732438],[36.911524,48.732402],[36.911497,48.732349],[36.911492,48.732293],[36.911201,48.731703],[36.910935,48.7312],[36.910891,48.731123],[36.91073,48.730821],[36.91073,48.73082],[36.910719,48.7308],[36.910643,48.730693],[36.910602,48.730652],[36.910531,48.730614],[36.910167,48.73053],[36.909866,48.730476],[36.909344,48.730432],[36.909318,48.730687],[36.909371,48.73082],[36.909371,48.730821],[36.909457,48.731034],[36.909543,48.731229],[36.909463,48.731244],[36.909538,48.731416],[36.909619,48.731401],[36.90965,48.731487],[36.90965,48.731488],[36.908923,48.73162],[36.908868,48.731641],[36.908824,48.731671],[36.908807,48.731712],[36.908748,48.731958]]]}},{"type":"Feature","properties":{"cadnum":"1420355000:02:000:0078"},"geometry":{"type":"Polygon","coordinates":[[[36.919145,48.758922],[36.919245,48.758984],[36.919267,48.758966],[36.919168,48.758905],[36.919145,48.758922]]]}},{"type":"Feature","properties":{"cadnum":"1420355000:01:000:0393"},"geometry":{"type":"Polygon","coordinates":[[[36.931565,48.758413],[36.933344,48.758448],[36.93345,48.756177],[36.933449,48.756177],[36.933541,48.754241],[36.931762,48.754205],[36.931664,48.75629],[36.931665,48.75629],[36.931565,48.758413]]]}},{"type":"Feature","properties":{"cadnum":"1420355000:01:001:0092"},"geometry":{"type":"Polygon","coordinates":[[[36.954324,48.734209],[36.954423,48.734272],[36.954444,48.734254],[36.954347,48.734195],[36.954324,48.734209]]]}},{"type":"Feature","properties":{"cadnum":"1420355000:01:001:0093"},"geometry":{"type":"Polygon","coordinates":[[[36.956978,48.732343],[36.957077,48.732406],[36.9571,48.732391],[36.957001,48.732329],[36.956978,48.732343]]]}},{"type":"Feature","properties":{"cadnum":"1420355000:02:000:0097"},"geometry":{"type":"Polygon","coordinates":[[[36.888329,48.786908],[36.888383,48.786991],[36.88841,48.786982],[36.88836,48.786899],[36.888329,48.786908]]]}},{"type":"Feature","properties":{"cadnum":"1420355000:02:000:0063"},"geometry":{"type":"Polygon","coordinates":[[[36.890831,48.786254],[36.890894,48.786289],[36.890953,48.786248],[36.890884,48.786209],[36.890831,48.786254]]]}},{"type":"Feature","properties":{"cadnum":"1420355000:02:000:0065"},"geometry":{"type":"Polygon","coordinates":[[[36.892444,48.782214],[36.892574,48.782234],[36.892582,48.782214],[36.892448,48.782193],[36.892444,48.782214]]]}},{"type":"Feature","properties":{"cadnum":"1420355000:02:000:0075"},"geometry":{"type":"Polygon","coordinates":[[[36.911919,48.763994],[36.912017,48.764056],[36.91204,48.764038],[36.911941,48.763976],[36.911919,48.763994]]]}},{"type":"Feature","properties":{"cadnum":"1420355000:02:000:0074"},"geometry":{"type":"Polygon","coordinates":[[[36.909448,48.765729],[36.909547,48.765789],[36.90957,48.765774],[36.909471,48.765711],[36.909448,48.765729]]]}},{"type":"Feature","properties":{"cadnum":"1420355000:02:000:0089"},"geometry":{"type":"Polygon","coordinates":[[[36.949154,48.737845],[36.949253,48.737904],[36.949275,48.737889],[36.949177,48.737827],[36.949154,48.737845]]]}},{"type":"Feature","properties":{"cadnum":"1420355000:02:000:0090"},"geometry":{"type":"Polygon","coordinates":[[[36.95179,48.735987],[36.95189,48.736049],[36.951911,48.736031],[36.951813,48.735972],[36.95179,48.735987]]]}}]}