{"type":"FeatureCollection","features":[{"type":"Feature","properties":{"cadnum":"1420381007:00:000:0064"},"geometry":{"type":"Polygon","coordinates":[[[37.016259,48.682284],[37.016267,48.682619],[37.016312,48.683088],[37.016699,48.683055],[37.016653,48.682601],[37.016622,48.682272],[37.016259,48.682284]]]}},{"type":"Feature","properties":{"cadnum":"1420381007:00:000:0080"},"geometry":{"type":"Polygon","coordinates":[[[37.01588,48.683061],[37.0162,48.683058],[37.016217,48.683096],[37.016312,48.683088],[37.016267,48.682619],[37.016259,48.682284],[37.015921,48.682296],[37.015907,48.682622],[37.01588,48.683061]]]}},{"type":"Feature","properties":{"cadnum":"1420381007:00:000:0070"},"geometry":{"type":"Polygon","coordinates":[[[37.020435,48.682145],[37.020494,48.682901],[37.022079,48.682945],[37.022052,48.682269],[37.021819,48.682254],[37.021724,48.68223],[37.021649,48.682177],[37.021563,48.682109],[37.020435,48.682145]]]}},{"type":"Feature","properties":{"cadnum":"1420381007:00:000:0067"},"geometry":{"type":"Polygon","coordinates":[[[37.018477,48.682198],[37.018486,48.682886],[37.01893,48.682886],[37.018913,48.682189],[37.018477,48.682198]]]}},{"type":"Feature","properties":{"cadnum":"1420381007:00:000:0081"},"geometry":{"type":"Polygon","coordinates":[[[37.019123,48.682903],[37.020494,48.682889],[37.020435,48.682145],[37.019142,48.68218],[37.019123,48.682903]]]}},{"type":"Feature","properties":{"cadnum":"1420381007:00:000:0057"},"geometry":{"type":"Polygon","coordinates":[[[37.02344,48.682056],[37.02358,48.682936],[37.02384,48.682912],[37.025821,48.682729],[37.02676,48.682485],[37.026629,48.681967],[37.024012,48.68204],[37.02344,48.682056]]]}},{"type":"Feature","properties":{"cadnum":"1420381007:00:000:0077"},"geometry":{"type":"Polygon","coordinates":[[[37.022052,48.682269],[37.022075,48.682874],[37.023566,48.682859],[37.02344,48.682056],[37.023436,48.682023],[37.022326,48.682056],[37.022052,48.682269]]]}},{"type":"Feature","properties":{"cadnum":"1420381007:00:000:0071"},"geometry":{"type":"Polygon","coordinates":[[[36.990957,48.686127],[36.991053,48.68613],[36.991053,48.686129],[36.991235,48.686133],[36.991365,48.685095],[36.991061,48.685086],[36.990957,48.686127]]]}},{"type":"Feature","properties":{"cadnum":"1420381007:00:000:0023"},"geometry":{"type":"Polygon","coordinates":[[[36.98696,48.685519],[36.987543,48.685546],[36.987723,48.685169],[36.987126,48.685131],[36.98696,48.685519]]]}},{"type":"Feature","properties":{"cadnum":"1420381007:00:000:0059"},"geometry":{"type":"Polygon","coordinates":[[[36.985675,48.68538],[36.986223,48.685409],[36.986231,48.685347],[36.986138,48.685344],[36.986137,48.685344],[36.986178,48.685033],[36.985728,48.685009],[36.985675,48.68538]]]}},{"type":"Feature","properties":{"cadnum":"1420381007:00:000:0030"},"geometry":{"type":"Polygon","coordinates":[[[36.985845,48.685973],[36.986231,48.685993],[36.986281,48.685549],[36.985904,48.685531],[36.985845,48.685973]]]}},{"type":"Feature","properties":{"cadnum":"1420381007:00:000:0065"},"geometry":{"type":"Polygon","coordinates":[[[36.987086,48.684318],[36.987426,48.68433],[36.987472,48.68387],[36.987135,48.683859],[36.987086,48.684318]]]}},{"type":"Feature","properties":{"cadnum":"1420381007:00:000:0046"},"geometry":{"type":"Polygon","coordinates":[[[36.985761,48.684766],[36.986218,48.68478],[36.986258,48.684363],[36.98581,48.684347],[36.985761,48.684766]]]}},{"type":"Feature","properties":{"cadnum":"1420381007:00:000:0027"},"geometry":{"type":"Polygon","coordinates":[[[36.986394,48.684312],[36.986753,48.68433],[36.986829,48.683856],[36.986488,48.683841],[36.986394,48.684312]]]}},{"type":"Feature","properties":{"cadnum":"1420381007:00:000:0050"},"geometry":{"type":"Polygon","coordinates":[[[36.988361,48.686041],[36.988644,48.686047],[36.988743,48.684988],[36.988451,48.684982],[36.988361,48.686041]]]}},{"type":"Feature","properties":{"cadnum":"1420381007:00:000:0058"},"geometry":{"type":"Polygon","coordinates":[[[36.986707,48.684754],[36.987149,48.684778],[36.98718,48.684375],[36.98674,48.684354],[36.986707,48.684754]]]}},{"type":"Feature","properties":{"cadnum":"1420381007:00:000:0051"},"geometry":{"type":"Polygon","coordinates":[[[36.988451,48.684982],[36.988743,48.684988],[36.988828,48.684007],[36.988531,48.684001],[36.988451,48.684982]]]}},{"type":"Feature","properties":{"cadnum":"1420381007:00:000:0024"},"geometry":{"type":"Polygon","coordinates":[[[36.985109,48.68543],[36.985559,48.685451],[36.985559,48.68545],[36.98556,48.68545],[36.985576,48.685451],[36.985644,48.685083],[36.985388,48.685072],[36.985195,48.685063],[36.985109,48.68543]]]}},{"type":"Feature","properties":{"cadnum":"1420381007:00:000:0053"},"geometry":{"type":"Polygon","coordinates":[[[36.989007,48.687436],[36.989008,48.687436],[36.989007,48.687468],[36.989367,48.687494],[36.98937,48.687322],[36.989369,48.687322],[36.989371,48.68726],[36.989013,48.68726],[36.989011,48.687322],[36.98901,48.687322],[36.989009,48.687387],[36.989007,48.687436]]]}},{"type":"Feature","properties":{"cadnum":"1420381007:00:000:0052"},"geometry":{"type":"Polygon","coordinates":[[[36.989013,48.68726],[36.989371,48.68726],[36.989371,48.687259],[36.989394,48.686587],[36.98939,48.686421],[36.989026,48.686426],[36.989013,48.687259],[36.989013,48.68726]]]}},{"type":"Feature","properties":{"cadnum":"1420381007:00:000:0073"},"geometry":{"type":"Polygon","coordinates":[[[36.990418,48.68723],[36.990751,48.687236],[36.990814,48.686604],[36.990831,48.686358],[36.990459,48.686371],[36.990454,48.686593],[36.990418,48.68723]]]}},{"type":"Feature","properties":{"cadnum":"1420381007:00:000:0028"},"geometry":{"type":"Polygon","coordinates":[[[36.985445,48.685955],[36.985559,48.685961],[36.985559,48.68596],[36.98556,48.68596],[36.985845,48.685973],[36.985904,48.685531],[36.985499,48.685514],[36.985451,48.685846],[36.985459,48.685846],[36.985445,48.685955]]]}},{"type":"Feature","properties":{"cadnum":"1420381007:00:000:0033"},"geometry":{"type":"Polygon","coordinates":[[[36.986501,48.685496],[36.98696,48.685519],[36.987126,48.685131],[36.986667,48.685131],[36.986501,48.685496]]]}},{"type":"Feature","properties":{"cadnum":"1420381007:00:000:0061"},"geometry":{"type":"Polygon","coordinates":[[[36.99385,48.688179],[36.994348,48.68822],[36.994544,48.687336],[36.994581,48.687174],[36.994061,48.687118],[36.994019,48.687322],[36.994014,48.687351],[36.993996,48.687436],[36.993997,48.687436],[36.99385,48.688179]]]}},{"type":"Feature","properties":{"cadnum":"1420381007:00:000:0060"},"geometry":{"type":"Polygon","coordinates":[[[36.994061,48.687118],[36.994581,48.687174],[36.994707,48.686611],[36.994173,48.686554],[36.994061,48.687118]]]}},{"type":"Feature","properties":{"cadnum":"1420381007:00:000:0031"},"geometry":{"type":"Polygon","coordinates":[[[36.990979,48.687933],[36.991254,48.687989],[36.99133,48.687343],[36.991028,48.687343],[36.99102,48.687436],[36.991021,48.687436],[36.990979,48.687933]]]}},{"type":"Feature","properties":{"cadnum":"1420381007:00:000:0072"},"geometry":{"type":"Polygon","coordinates":[[[36.991061,48.685086],[36.991365,48.685095],[36.99137,48.685048],[36.991438,48.684525],[36.991464,48.684312],[36.991137,48.684303],[36.991101,48.684674],[36.991061,48.685086]]]}},{"type":"Feature","properties":{"cadnum":"1420381007:00:000:0020"},"geometry":{"type":"Polygon","coordinates":[[[36.991267,48.685083],[36.99156,48.685089],[36.991617,48.684571],[36.991307,48.684558],[36.991267,48.685083]]]}},{"type":"Feature","properties":{"cadnum":"1420381007:00:000:0022"},"geometry":{"type":"Polygon","coordinates":[[[36.993554,48.685021],[36.993795,48.685027],[36.993831,48.684363],[36.993594,48.684357],[36.993554,48.685021]]]}},{"type":"Feature","properties":{"cadnum":"1420381007:00:000:0026"},"geometry":{"type":"Polygon","coordinates":[[[36.993472,48.686234],[36.993732,48.68624],[36.993795,48.685027],[36.993554,48.685021],[36.993472,48.686234]]]}},{"type":"Feature","properties":{"cadnum":"1420381007:00:000:0021"},"geometry":{"type":"Polygon","coordinates":[[[36.991177,48.686169],[36.991442,48.686175],[36.99156,48.685089],[36.991267,48.685083],[36.991177,48.686169]]]}},{"type":"Feature","properties":{"cadnum":"1420381007:00:000:0041"},"geometry":{"type":"Polygon","coordinates":[[[36.993485,48.688224],[36.994065,48.688268],[36.994088,48.687399],[36.99387,48.687379],[36.993644,48.687358],[36.993629,48.687436],[36.993485,48.688224]]]}},{"type":"Feature","properties":{"cadnum":"1420381007:00:000:0040"},"geometry":{"type":"Polygon","coordinates":[[[36.993644,48.687358],[36.99387,48.687379],[36.994088,48.687399],[36.99411,48.686611],[36.993782,48.68658],[36.99365,48.687322],[36.993649,48.687322],[36.993644,48.687358]]]}},{"type":"Feature","properties":{"cadnum":"1420381007:00:000:0032"},"geometry":{"type":"Polygon","coordinates":[[[36.991028,48.687343],[36.99133,48.687343],[36.991442,48.686379],[36.991105,48.686385],[36.991028,48.687343]]]}},{"type":"Feature","properties":{"cadnum":"1420381007:00:000:0011"},"geometry":{"type":"Polygon","coordinates":[[[37.000053,48.682903],[37.00011,48.683129],[37.000434,48.683094],[37.000376,48.682868],[37.000053,48.682903]]]}},{"type":"Feature","properties":{"cadnum":"1420381007:00:000:0002"},"geometry":{"type":"Polygon","coordinates":[[[36.999823,48.680454],[36.999967,48.681395],[36.999999,48.681391],[37.000296,48.681373],[37.000304,48.681371],[37.00016,48.680434],[36.999823,48.680454]]]}},{"type":"Feature","properties":{"cadnum":"1420381007:00:000:0074"},"geometry":{"type":"Polygon","coordinates":[[[37.003286,48.683977],[37.003575,48.683965],[37.003652,48.683696],[37.003816,48.683132],[37.003359,48.683158],[37.003311,48.683696],[37.00331,48.683696],[37.003286,48.683977]]]}},{"type":"Feature","properties":{"cadnum":"1420381007:00:000:0079"},"geometry":{"type":"Polygon","coordinates":[[[37.006888,48.683776],[37.007418,48.683776],[37.00746,48.683509],[37.006947,48.683505],[37.006906,48.683696],[37.006904,48.683696],[37.006888,48.683776]]]}},{"type":"Feature","properties":{"cadnum":"1420381007:00:000:0054"},"geometry":{"type":"Polygon","coordinates":[[[37.00855,48.683467],[37.009053,48.683437],[37.009053,48.683336],[37.009099,48.682821],[37.008609,48.682844],[37.00855,48.683467]]]}},{"type":"Feature","properties":{"cadnum":"1420381007:00:000:0078"},"geometry":{"type":"Polygon","coordinates":[[[37.006947,48.683505],[37.00736,48.683508],[37.00736,48.683509],[37.00746,48.683509],[37.007527,48.683221],[37.007532,48.683161],[37.007554,48.682918],[37.007532,48.682919],[37.007028,48.68294],[37.006947,48.683505]]]}},{"type":"Feature","properties":{"cadnum":"1420381007:00:000:0068"},"geometry":{"type":"Polygon","coordinates":[[[37.011681,48.682666],[37.011722,48.683242],[37.012242,48.683236],[37.012202,48.682637],[37.011681,48.682666]]]}},{"type":"Feature","properties":{"cadnum":"1420381007:00:000:0069"},"geometry":{"type":"Polygon","coordinates":[[[37.011722,48.683242],[37.011726,48.683336],[37.012247,48.683325],[37.012242,48.683236],[37.011722,48.683242]]]}},{"type":"Feature","properties":{"cadnum":"1420381007:00:000:0029"},"geometry":{"type":"Polygon","coordinates":[[[36.984755,48.684672],[36.985325,48.684692],[36.985369,48.684256],[36.98483,48.684247],[36.984755,48.684672]]]}},{"type":"Feature","properties":{"cadnum":"1420381007:00:000:0062"},"geometry":{"type":"Polygon","coordinates":[[[36.983438,48.686643],[36.984,48.68669],[36.98408,48.686156],[36.98351,48.686109],[36.983438,48.686643]]]}},{"type":"Feature","properties":{"cadnum":"1420381007:00:000:0063"},"geometry":{"type":"Polygon","coordinates":[[[36.983361,48.687254],[36.983906,48.68729],[36.983986,48.686767],[36.984,48.68669],[36.983438,48.686643],[36.98338,48.687079],[36.983361,48.687254]]]}},{"type":"Feature","properties":{"cadnum":"1420381007:00:000:0004"},"geometry":{"type":"Polygon","coordinates":[[[36.982885,48.685353],[36.98298,48.685356],[36.982981,48.685356],[36.982962,48.685685],[36.983618,48.6857],[36.983636,48.685347],[36.983555,48.685288],[36.983564,48.685074],[36.982899,48.685057],[36.982885,48.685353]]]}}]}