{"type":"FeatureCollection","features":[{"type":"Feature","properties":{"cadnum":"1420383301:00:000:0146"},"geometry":{"type":"Polygon","coordinates":[[[36.966972,48.636105],[36.9673,48.636325],[36.967511,48.636182],[36.967161,48.635974],[36.966972,48.636105]]]}},{"type":"Feature","properties":{"cadnum":"1420383301:00:000:0145"},"geometry":{"type":"Polygon","coordinates":[[[36.9673,48.636325],[36.967606,48.636527],[36.967692,48.636584],[36.967778,48.63664],[36.96778,48.636642],[36.96827,48.636963],[36.968526,48.636788],[36.968279,48.63664],[36.96801,48.636479],[36.967511,48.636182],[36.9673,48.636325]]]}},{"type":"Feature","properties":{"cadnum":"1420383301:00:000:0065"},"geometry":{"type":"Polygon","coordinates":[[[36.963033,48.633739],[36.963343,48.633994],[36.963415,48.633956],[36.963415,48.633957],[36.963545,48.633888],[36.963249,48.633624],[36.963033,48.633739]]]}},{"type":"Feature","properties":{"cadnum":"1420383301:00:000:0234"},"geometry":{"type":"Polygon","coordinates":[[[36.935288,48.653164],[36.93545,48.653241],[36.935868,48.652979],[36.935949,48.652922],[36.935949,48.652923],[36.936115,48.652807],[36.936121,48.652803],[36.938481,48.651159],[36.938854,48.650899],[36.940144,48.649908],[36.941442,48.648811],[36.943087,48.647419],[36.945376,48.645483],[36.945646,48.645296],[36.947107,48.644451],[36.947712,48.6441],[36.948156,48.643787],[36.9526,48.640652],[36.952601,48.640652],[36.952601,48.640651],[36.953267,48.640181],[36.953892,48.63974],[36.956264,48.638008],[36.957117,48.637438],[36.957787,48.637028],[36.957922,48.636967],[36.958348,48.636776],[36.959065,48.636527],[36.960442,48.636048],[36.961488,48.635645],[36.961731,48.635494],[36.962926,48.634427],[36.963587,48.634064],[36.963587,48.634063],[36.965706,48.632897],[36.968019,48.631623],[36.968908,48.631117],[36.971419,48.629685],[36.971909,48.62938],[36.97191,48.62938],[36.972132,48.629241],[36.972447,48.628986],[36.972865,48.628051],[36.973098,48.627835],[36.973713,48.627571],[36.974401,48.627354],[36.974516,48.627318],[36.974573,48.6273],[36.978763,48.62598],[36.979157,48.625736],[36.979063,48.625588],[36.978957,48.625636],[36.978915,48.625655],[36.978906,48.625659],[36.97879,48.625749],[36.97865,48.625857],[36.974573,48.627137],[36.973606,48.62744],[36.973008,48.627683],[36.97274,48.627876],[36.972281,48.628921],[36.972281,48.628922],[36.971989,48.629156],[36.971807,48.629266],[36.971806,48.629266],[36.971748,48.629302],[36.97162,48.62938],[36.970956,48.629785],[36.96908,48.630863],[36.967115,48.631991],[36.965809,48.632712],[36.96547,48.632897],[36.963415,48.634017],[36.962804,48.63435],[36.961605,48.635413],[36.961379,48.635562],[36.960639,48.63585],[36.958359,48.63664],[36.958226,48.636686],[36.958094,48.636746],[36.957687,48.636927],[36.956884,48.637405],[36.95283,48.64027],[36.95283,48.640271],[36.952769,48.640314],[36.952456,48.640541],[36.94985,48.642424],[36.947942,48.643787],[36.947941,48.643787],[36.947802,48.643887],[36.947778,48.6439],[36.947779,48.6439],[36.947006,48.644343],[36.945502,48.645204],[36.945224,48.645398],[36.942849,48.647416],[36.942848,48.647416],[36.941442,48.648611],[36.941442,48.648612],[36.939969,48.649863],[36.938923,48.650683],[36.938237,48.651159],[36.938238,48.651159],[36.936121,48.652631],[36.935611,48.652985],[36.935288,48.653163],[36.935288,48.653164]]]}},{"type":"Feature","properties":{"cadnum":"1420383301:00:000:0289"},"geometry":{"type":"Polygon","coordinates":[[[36.963087,48.635463],[36.963415,48.635935],[36.963513,48.636075],[36.963587,48.636049],[36.963864,48.635951],[36.963424,48.635373],[36.96341,48.635354],[36.963087,48.635463]]]}},{"type":"Feature","properties":{"cadnum":"1420383301:00:000:0007"},"geometry":{"type":"Polygon","coordinates":[[[36.963846,48.633514],[36.964008,48.633647],[36.964147,48.633573],[36.963985,48.633439],[36.963846,48.633514]]]}},{"type":"Feature","properties":{"cadnum":"1420383301:00:000:0089"},"geometry":{"type":"Polygon","coordinates":[[[36.965337,48.633223],[36.966303,48.634137],[36.966545,48.634015],[36.965836,48.633365],[36.965777,48.633386],[36.965499,48.633131],[36.965337,48.633223]]]}},{"type":"Feature","properties":{"cadnum":"1420383301:00:000:0297"},"geometry":{"type":"Polygon","coordinates":[[[36.967763,48.63213],[36.968599,48.632897],[36.968701,48.63299],[36.968702,48.632991],[36.96893,48.632884],[36.968,48.632018],[36.967763,48.63213]]]}},{"type":"Feature","properties":{"cadnum":"1420383301:00:000:0167"},"geometry":{"type":"Polygon","coordinates":[[[36.964471,48.633686],[36.965134,48.634306],[36.965463,48.634146],[36.964784,48.633529],[36.964471,48.633686]]]}},{"type":"Feature","properties":{"cadnum":"1420383301:00:000:0168"},"geometry":{"type":"Polygon","coordinates":[[[36.965134,48.634306],[36.96557,48.634707],[36.965863,48.634508],[36.965463,48.634146],[36.965134,48.634306]]]}},{"type":"Feature","properties":{"cadnum":"1420383301:00:000:0298"},"geometry":{"type":"Polygon","coordinates":[[[36.968702,48.632991],[36.968723,48.63301],[36.968724,48.63301],[36.968782,48.633063],[36.968908,48.633004],[36.969012,48.632955],[36.968945,48.632897],[36.968944,48.632897],[36.96893,48.632884],[36.968903,48.632897],[36.968702,48.632991]]]}},{"type":"Feature","properties":{"cadnum":"1420383301:00:000:0045"},"geometry":{"type":"Polygon","coordinates":[[[36.964282,48.634752],[36.964672,48.63512],[36.964964,48.634941],[36.964587,48.634588],[36.964282,48.634752]]]}},{"type":"Feature","properties":{"cadnum":"1420383301:00:000:0037"},"geometry":{"type":"Polygon","coordinates":[[[36.963622,48.634099],[36.963935,48.634437],[36.964281,48.634752],[36.964282,48.634752],[36.964587,48.634588],[36.963909,48.63395],[36.963622,48.634099]]]}},{"type":"Feature","properties":{"cadnum":"1420383301:00:000:0313"},"geometry":{"type":"Polygon","coordinates":[[[36.963895,48.632326],[36.964526,48.632897],[36.964834,48.633175],[36.965054,48.633054],[36.965007,48.63301],[36.964151,48.632216],[36.963895,48.632326]]]}},{"type":"Feature","properties":{"cadnum":"1420383301:00:000:0040"},"geometry":{"type":"Polygon","coordinates":[[[36.928407,48.658361],[36.928528,48.658416],[36.928529,48.658416],[36.928843,48.658558],[36.929386,48.658792],[36.929575,48.658501],[36.929029,48.658318],[36.929018,48.658314],[36.928587,48.658189],[36.928468,48.658303],[36.928467,48.658303],[36.928407,48.658361]]]}},{"type":"Feature","properties":{"cadnum":"1420383301:00:000:0138"},"geometry":{"type":"Polygon","coordinates":[[[36.946185,48.65116],[36.946576,48.651481],[36.94676,48.651632],[36.94676,48.651633],[36.946747,48.651641],[36.946907,48.651774],[36.946935,48.651745],[36.946936,48.651745],[36.946936,48.651746],[36.94716,48.651514],[36.947106,48.651472],[36.94681,48.65124],[36.946648,48.651111],[36.946494,48.650988],[36.946392,48.651045],[36.946391,48.651045],[36.94626,48.651118],[36.946187,48.651159],[36.946185,48.65116]]]}},{"type":"Feature","properties":{"cadnum":"1420383301:00:000:0139"},"geometry":{"type":"Polygon","coordinates":[[[36.945637,48.650712],[36.946182,48.651159],[36.946183,48.651159],[36.946185,48.65116],[36.94626,48.651118],[36.946494,48.650988],[36.945835,48.65046],[36.945722,48.65052],[36.94583,48.650608],[36.945637,48.650712]]]}},{"type":"Feature","properties":{"cadnum":"1420383301:00:000:0308"},"geometry":{"type":"Polygon","coordinates":[[[36.943181,48.647412],[36.943181,48.647416],[36.943198,48.647564],[36.943498,48.648228],[36.943657,48.648092],[36.943989,48.647935],[36.944114,48.647846],[36.944267,48.6477],[36.944473,48.647579],[36.944676,48.647466],[36.944789,48.647362],[36.945143,48.647039],[36.9453,48.646804],[36.945511,48.646356],[36.945601,48.646175],[36.945399,48.646098],[36.944928,48.645919],[36.943678,48.646985],[36.943181,48.647412]],[[36.945466,48.646187],[36.945479,48.646172],[36.945502,48.646181],[36.945493,48.646196],[36.945466,48.646187]],[[36.945098,48.646704],[36.945098,48.646703],[36.945112,48.646689],[36.945138,48.646697],[36.945138,48.646698],[36.945125,48.646712],[36.945098,48.646704]],[[36.944726,48.647223],[36.944734,48.647208],[36.944762,48.647214],[36.944748,48.647232],[36.944726,48.647223]]]}},{"type":"Feature","properties":{"cadnum":"1420383301:00:000:0293"},"geometry":{"type":"Polygon","coordinates":[[[36.941833,48.649374],[36.942739,48.649962],[36.942781,48.649988],[36.942875,48.65005],[36.943378,48.649781],[36.94419,48.649955],[36.944869,48.649489],[36.943611,48.648828],[36.943575,48.648792],[36.943305,48.648446],[36.941833,48.649374]],[[36.943265,48.649291],[36.943238,48.649282],[36.943252,48.649267],[36.943274,48.649276],[36.943265,48.649291]],[[36.942843,48.649878],[36.942816,48.649869],[36.942829,48.649854],[36.942852,48.649861],[36.942843,48.649878]]]}},{"type":"Feature","properties":{"cadnum":"1420383301:00:000:0291"},"geometry":{"type":"Polygon","coordinates":[[[36.940122,48.650045],[36.941442,48.650785],[36.941442,48.650786],[36.941593,48.65087],[36.941614,48.650881],[36.941716,48.650938],[36.942089,48.65065],[36.942183,48.650576],[36.942408,48.650401],[36.942305,48.650347],[36.942259,48.650324],[36.941503,48.649934],[36.941258,48.649807],[36.941614,48.649526],[36.942565,48.648774],[36.942228,48.648543],[36.941734,48.648721],[36.941609,48.648795],[36.941101,48.649095],[36.940122,48.650045]]]}},{"type":"Feature","properties":{"cadnum":"1420383301:01:000:0032"},"geometry":{"type":"Polygon","coordinates":[[[36.940907,48.644122],[36.941083,48.644258],[36.941614,48.643961],[36.941614,48.64396],[36.941793,48.64386],[36.942049,48.643717],[36.941927,48.64362],[36.94163,48.643787],[36.941629,48.643787],[36.94151,48.643854],[36.941509,48.643854],[36.941497,48.643843],[36.94146,48.643813],[36.941303,48.6439],[36.941304,48.6439],[36.940907,48.644122]]]}},{"type":"Feature","properties":{"cadnum":"1420383301:00:000:0273"},"geometry":{"type":"Polygon","coordinates":[[[36.982373,48.624607],[36.982392,48.624629],[36.982581,48.624836],[36.983021,48.6253],[36.983124,48.625403],[36.983402,48.625285],[36.983147,48.625023],[36.982629,48.624492],[36.982373,48.624607]]]}},{"type":"Feature","properties":{"cadnum":"1420383301:00:000:0232"},"geometry":{"type":"Polygon","coordinates":[[[36.98156,48.625041],[36.981902,48.625392],[36.982144,48.625635],[36.982144,48.625636],[36.982219,48.625711],[36.982256,48.625749],[36.982621,48.626116],[36.982801,48.625949],[36.982487,48.62569],[36.982325,48.625555],[36.981965,48.625207],[36.981889,48.625118],[36.981763,48.624961],[36.98156,48.625041]]]}},{"type":"Feature","properties":{"cadnum":"1420383301:00:000:0024"},"geometry":{"type":"Polygon","coordinates":[[[36.981399,48.625106],[36.981583,48.625296],[36.981579,48.625296],[36.981881,48.625635],[36.981882,48.625635],[36.981882,48.625636],[36.981881,48.625636],[36.981982,48.625749],[36.981983,48.625749],[36.982059,48.625834],[36.982235,48.625727],[36.982234,48.625727],[36.981902,48.625392],[36.98156,48.625041],[36.981399,48.625106]]]}},{"type":"Feature","properties":{"cadnum":"1420383301:00:000:0229"},"geometry":{"type":"Polygon","coordinates":[[[36.98113,48.625315],[36.981323,48.625597],[36.981352,48.625635],[36.981352,48.625636],[36.981351,48.625636],[36.981723,48.626136],[36.981929,48.626068],[36.981622,48.625676],[36.981507,48.625528],[36.981304,48.625255],[36.98113,48.625315]]]}},{"type":"Feature","properties":{"cadnum":"1420383301:00:000:0277"},"geometry":{"type":"Polygon","coordinates":[[[36.982105,48.624726],[36.982549,48.625207],[36.982822,48.625091],[36.982581,48.624836],[36.982392,48.624629],[36.982373,48.624607],[36.982105,48.624726]]]}},{"type":"Feature","properties":{"cadnum":"1420383301:00:000:0044"},"geometry":{"type":"Polygon","coordinates":[[[36.980671,48.625498],[36.980852,48.625749],[36.981283,48.626345],[36.981503,48.626273],[36.981131,48.625749],[36.9809,48.625424],[36.980671,48.625498]]]}},{"type":"Feature","properties":{"cadnum":"1420383301:00:000:0017"},"geometry":{"type":"Polygon","coordinates":[[[36.979935,48.625255],[36.979998,48.625324],[36.980066,48.625296],[36.980137,48.625267],[36.980074,48.625196],[36.979935,48.625255]]]}},{"type":"Feature","properties":{"cadnum":"1420383301:00:000:0237"},"geometry":{"type":"Polygon","coordinates":[[[36.980204,48.625665],[36.980205,48.625665],[36.980265,48.625749],[36.980744,48.626413],[36.980954,48.626359],[36.980484,48.625679],[36.980434,48.625605],[36.980317,48.625636],[36.980207,48.625664],[36.980204,48.625665]]]}},{"type":"Feature","properties":{"cadnum":"1420383301:00:000:0196"},"geometry":{"type":"Polygon","coordinates":[[[36.980006,48.625724],[36.980023,48.625749],[36.980024,48.625749],[36.980545,48.626478],[36.980744,48.626413],[36.980205,48.625665],[36.980204,48.625665],[36.980113,48.625692],[36.980006,48.625724]]]}},{"type":"Feature","properties":{"cadnum":"1420383301:00:000:0197"},"geometry":{"type":"Polygon","coordinates":[[[36.981763,48.624961],[36.981889,48.625118],[36.981965,48.625207],[36.982325,48.625555],[36.982526,48.625511],[36.982113,48.625068],[36.982077,48.62505],[36.981952,48.62489],[36.981763,48.624961]]]}},{"type":"Feature","properties":{"cadnum":"1420383301:00:000:0258"},"geometry":{"type":"Polygon","coordinates":[[[36.982629,48.624492],[36.983147,48.625023],[36.983555,48.62484],[36.983025,48.624317],[36.982629,48.624492]]]}},{"type":"Feature","properties":{"cadnum":"1420383301:00:000:0233"},"geometry":{"type":"Polygon","coordinates":[[[36.951566,48.643552],[36.951971,48.643786],[36.951971,48.643787],[36.951972,48.643787],[36.952069,48.643843],[36.952167,48.6439],[36.952253,48.64395],[36.952429,48.644054],[36.952429,48.644055],[36.952989,48.644388],[36.953102,48.644309],[36.952429,48.643909],[36.952222,48.643787],[36.951687,48.643468],[36.951566,48.643552]]]}},{"type":"Feature","properties":{"cadnum":"1420383301:00:000:0201"},"geometry":{"type":"Polygon","coordinates":[[[36.955029,48.645166],[36.956268,48.645685],[36.956327,48.645646],[36.955922,48.645463],[36.955169,48.645118],[36.955114,48.645098],[36.955029,48.645166]]]}},{"type":"Feature","properties":{"cadnum":"1420383301:00:000:0301"},"geometry":{"type":"Polygon","coordinates":[[[36.956408,48.644234],[36.957486,48.644916],[36.957679,48.644775],[36.956991,48.644324],[36.956618,48.64408],[36.956408,48.644234]]]}},{"type":"Feature","properties":{"cadnum":"1420383301:00:000:0174"},"geometry":{"type":"Polygon","coordinates":[[[36.953129,48.643712],[36.953238,48.643786],[36.953238,48.643787],[36.953596,48.644029],[36.953791,48.6439],[36.953877,48.643843],[36.953928,48.64381],[36.953444,48.64353],[36.953129,48.643712]]]}},{"type":"Feature","properties":{"cadnum":"1420383301:00:000:0240"},"geometry":{"type":"Polygon","coordinates":[[[36.955945,48.643941],[36.956408,48.644234],[36.956618,48.64408],[36.956991,48.644324],[36.957211,48.644172],[36.957261,48.644205],[36.957473,48.64405],[36.957122,48.643809],[36.9567,48.643519],[36.956221,48.643787],[36.95622,48.643787],[36.956073,48.643869],[36.956018,48.6439],[36.955945,48.643941]]]}},{"type":"Feature","properties":{"cadnum":"1420383301:00:000:0122"},"geometry":{"type":"Polygon","coordinates":[[[36.953712,48.646282],[36.953964,48.646475],[36.954414,48.646807],[36.954737,48.646608],[36.954288,48.646276],[36.954023,48.646092],[36.953712,48.646282]]]}},{"type":"Feature","properties":{"cadnum":"1420383301:00:000:0123"},"geometry":{"type":"Polygon","coordinates":[[[36.953429,48.646066],[36.953712,48.646282],[36.954023,48.646092],[36.953695,48.64586],[36.953429,48.646066]]]}},{"type":"Feature","properties":{"cadnum":"1420383301:00:000:0304"},"geometry":{"type":"Polygon","coordinates":[[[36.952599,48.642815],[36.954411,48.643786],[36.954411,48.643787],[36.95441,48.643787],[36.954553,48.643863],[36.954651,48.643786],[36.953255,48.643035],[36.953003,48.642881],[36.952725,48.642723],[36.952599,48.642815]]]}},{"type":"Feature","properties":{"cadnum":"1420383301:00:000:0093"},"geometry":{"type":"Polygon","coordinates":[[[36.955169,48.645118],[36.955922,48.645463],[36.956327,48.645646],[36.956584,48.645475],[36.956268,48.645332],[36.955379,48.644991],[36.955169,48.645118]]]}},{"type":"Feature","properties":{"cadnum":"1420383301:00:000:0160"},"geometry":{"type":"Polygon","coordinates":[[[36.957261,48.644205],[36.957876,48.64462],[36.957922,48.644588],[36.957922,48.644589],[36.958092,48.644472],[36.957473,48.64405],[36.957261,48.644205]]]}},{"type":"Feature","properties":{"cadnum":"1420383301:00:000:0287"},"geometry":{"type":"Polygon","coordinates":[[[36.952236,48.639079],[36.952429,48.639343],[36.952527,48.639476],[36.9526,48.639416],[36.952601,48.639416],[36.952653,48.639373],[36.952752,48.639269],[36.952626,48.639088],[36.952484,48.639131],[36.95242,48.63915],[36.952419,48.63915],[36.952356,48.639046],[36.952236,48.639079]]]}},{"type":"Feature","properties":{"cadnum":"1420383301:00:000:0165"},"geometry":{"type":"Polygon","coordinates":[[[36.956085,48.637473],[36.956129,48.637509],[36.956192,48.637556],[36.95657,48.637379],[36.956466,48.637295],[36.956085,48.637473]]]}},{"type":"Feature","properties":{"cadnum":"1420383301:00:000:0005"},"geometry":{"type":"Polygon","coordinates":[[[36.956507,48.638112],[36.956578,48.638156],[36.956628,48.63812],[36.956555,48.638076],[36.956507,48.638112]]]}},{"type":"Feature","properties":{"cadnum":"1420383301:00:000:0107"},"geometry":{"type":"Polygon","coordinates":[[[36.957314,48.638387],[36.957913,48.638402],[36.957922,48.638403],[36.958433,48.638435],[36.958488,48.638159],[36.957922,48.638131],[36.957404,48.638105],[36.957314,48.638387]]]}},{"type":"Feature","properties":{"cadnum":"1420383301:00:000:0164"},"geometry":{"type":"Polygon","coordinates":[[[36.955285,48.637707],[36.955568,48.637912],[36.955869,48.637705],[36.956129,48.637509],[36.956085,48.637473],[36.955869,48.637313],[36.955438,48.63761],[36.95541,48.637625],[36.955285,48.637707]]]}},{"type":"Feature","properties":{"cadnum":"1420383301:00:000:0106"},"geometry":{"type":"Polygon","coordinates":[[[36.957136,48.638785],[36.957922,48.638846],[36.957969,48.63885],[36.958094,48.638859],[36.958442,48.638886],[36.958483,48.638642],[36.958094,48.638615],[36.957733,48.638589],[36.957557,48.638583],[36.957432,48.638578],[36.957217,48.638578],[36.957136,48.638785]]]}},{"type":"Feature","properties":{"cadnum":"1420383301:00:000:0090"},"geometry":{"type":"Polygon","coordinates":[[[36.957217,48.638578],[36.957432,48.638578],[36.957557,48.638583],[36.957733,48.638589],[36.957922,48.638603],[36.958483,48.638642],[36.958766,48.638664],[36.958806,48.638453],[36.958725,48.63845],[36.958433,48.638435],[36.958094,48.638414],[36.957913,48.638402],[36.957314,48.638387],[36.957288,48.638387],[36.957217,48.638578]]]}},{"type":"Feature","properties":{"cadnum":"1420383301:00:000:0135"},"geometry":{"type":"Polygon","coordinates":[[[36.954953,48.637663],[36.955155,48.637797],[36.95541,48.637625],[36.955438,48.63761],[36.955869,48.637313],[36.955689,48.63717],[36.954953,48.637663]]]}},{"type":"Feature","properties":{"cadnum":"1420383301:00:000:0217"},"geometry":{"type":"Polygon","coordinates":[[[36.957343,48.638447],[36.957544,48.638501],[36.95766,48.638532],[36.957819,48.638587],[36.957922,48.63862],[36.958013,48.638649],[36.958094,48.638675],[36.958496,48.638803],[36.958626,48.638844],[36.958752,48.638604],[36.958483,48.638536],[36.957993,48.638408],[36.957432,48.638277],[36.957404,48.638272],[36.957343,48.638447]]]}},{"type":"Feature","properties":{"cadnum":"1420383301:00:000:0006"},"geometry":{"type":"Polygon","coordinates":[[[36.955595,48.637963],[36.955748,48.638067],[36.955928,48.637948],[36.95577,48.637844],[36.955595,48.637963]]]}},{"type":"Feature","properties":{"cadnum":"1420383301:00:000:0236"},"geometry":{"type":"Polygon","coordinates":[[[36.954158,48.639738],[36.954576,48.639999],[36.954817,48.639815],[36.954404,48.639553],[36.954158,48.639738]]]}},{"type":"Feature","properties":{"cadnum":"1420383301:00:000:0200"},"geometry":{"type":"Polygon","coordinates":[[[36.953555,48.637925],[36.954284,48.638405],[36.954863,48.638788],[36.955169,48.638569],[36.955559,48.638295],[36.955649,48.638233],[36.955056,48.637835],[36.954293,48.637328],[36.954014,48.637289],[36.953609,48.637542],[36.953834,48.637681],[36.953555,48.637925]]]}},{"type":"Feature","properties":{"cadnum":"1420383301:00:000:0118"},"geometry":{"type":"Polygon","coordinates":[[[36.953651,48.640171],[36.953672,48.640186],[36.953676,48.640188],[36.95382,48.64027],[36.953838,48.640281],[36.953785,48.640323],[36.953838,48.640355],[36.953848,48.640361],[36.953901,48.640391],[36.954148,48.64021],[36.954098,48.64018],[36.954053,48.640214],[36.95401,48.640245],[36.95401,48.640246],[36.954004,48.640242],[36.953758,48.640094],[36.95367,48.640157],[36.953669,48.640157],[36.953651,48.640171]]]}},{"type":"Feature","properties":{"cadnum":"1420383301:00:000:0199"},"geometry":{"type":"Polygon","coordinates":[[[36.954127,48.640301],[36.954431,48.640518],[36.954907,48.640785],[36.955119,48.640628],[36.95471,48.640385],[36.954521,48.64027],[36.954328,48.640153],[36.954323,48.640157],[36.954322,48.640157],[36.954241,48.640217],[36.954168,48.64027],[36.954168,48.640271],[36.954127,48.640301]]]}},{"type":"Feature","properties":{"cadnum":"1420383301:00:000:0104"},"geometry":{"type":"Polygon","coordinates":[[[36.954643,48.637419],[36.954782,48.63758],[36.955824,48.63677],[36.955689,48.636616],[36.955213,48.636924],[36.954643,48.637419]]]}},{"type":"Feature","properties":{"cadnum":"1420383301:00:000:0249"},"geometry":{"type":"Polygon","coordinates":[[[36.955824,48.638494],[36.956224,48.638711],[36.956345,48.638618],[36.956618,48.638788],[36.956821,48.638655],[36.956668,48.638563],[36.956947,48.638369],[36.956804,48.638281],[36.956803,48.638281],[36.956542,48.63847],[36.956134,48.638227],[36.955859,48.638423],[36.955824,48.638494]]]}},{"type":"Feature","properties":{"cadnum":"1420383301:00:000:0259"},"geometry":{"type":"Polygon","coordinates":[[[36.956219,48.640195],[36.956337,48.64027],[36.956338,48.64027],[36.956529,48.640391],[36.957306,48.640848],[36.957513,48.64069],[36.956987,48.640376],[36.956704,48.640215],[36.956425,48.640052],[36.956274,48.640157],[36.956219,48.640195]]]}},{"type":"Feature","properties":{"cadnum":"1420383301:00:000:0079"},"geometry":{"type":"Polygon","coordinates":[[[36.955941,48.638987],[36.956673,48.63937],[36.956754,48.639408],[36.956825,48.63921],[36.956515,48.639043],[36.956551,48.639025],[36.956188,48.638788],[36.956008,48.63893],[36.955941,48.638987]]]}},{"type":"Feature","properties":{"cadnum":"1420383301:00:000:0175"},"geometry":{"type":"Polygon","coordinates":[[[36.953048,48.638791],[36.953089,48.638915],[36.953326,48.63888],[36.953748,48.638776],[36.953749,48.638776],[36.954094,48.63899],[36.954499,48.638702],[36.954023,48.638402],[36.953942,48.638462],[36.953704,48.638601],[36.953618,48.638655],[36.953246,48.638765],[36.953048,48.638791]]]}},{"type":"Feature","properties":{"cadnum":"1420383301:00:000:0225"},"geometry":{"type":"Polygon","coordinates":[[[36.954314,48.637206],[36.954486,48.637331],[36.95515,48.636844],[36.955458,48.63664],[36.955544,48.636584],[36.95563,48.636527],[36.955635,48.636523],[36.9555,48.636375],[36.955254,48.636527],[36.955253,48.636527],[36.955162,48.636583],[36.955069,48.63664],[36.95507,48.63664],[36.95507,48.636641],[36.954976,48.636699],[36.954314,48.637206]]]}},{"type":"Feature","properties":{"cadnum":"1420383301:00:000:0261"},"geometry":{"type":"Polygon","coordinates":[[[36.956704,48.632282],[36.956744,48.632409],[36.957014,48.632356],[36.956964,48.632237],[36.956704,48.632282]]]}},{"type":"Feature","properties":{"cadnum":"1420383301:00:000:0260"},"geometry":{"type":"Polygon","coordinates":[[[36.95497,48.632596],[36.954997,48.632798],[36.95528,48.632744],[36.956179,48.632522],[36.956744,48.632409],[36.956704,48.632282],[36.955901,48.632424],[36.955343,48.632517],[36.95497,48.632596]]]}},{"type":"Feature","properties":{"cadnum":"1420383301:00:000:0048"},"geometry":{"type":"Polygon","coordinates":[[[36.920103,48.667902],[36.92074,48.667982],[36.921243,48.66806],[36.921319,48.66792],[36.921558,48.667935],[36.921562,48.667914],[36.921697,48.667926],[36.92176,48.667843],[36.921122,48.667787],[36.920785,48.667757],[36.920246,48.66771],[36.920103,48.667902]]]}},{"type":"Feature","properties":{"cadnum":"1420383301:00:000:0039"},"geometry":{"type":"Polygon","coordinates":[[[36.920246,48.66771],[36.920785,48.667757],[36.921122,48.667787],[36.9222,48.667882],[36.9222,48.667881],[36.922294,48.667751],[36.921212,48.667656],[36.921216,48.667641],[36.921113,48.667629],[36.921118,48.667624],[36.921019,48.667614],[36.921019,48.667609],[36.920875,48.667594],[36.920525,48.667534],[36.92039,48.667514],[36.920246,48.66771]]]}},{"type":"Feature","properties":{"cadnum":"1420383301:00:000:0182"},"geometry":{"type":"Polygon","coordinates":[[[36.93907,48.650763],[36.939657,48.651159],[36.939658,48.651159],[36.939991,48.651383],[36.940278,48.651214],[36.939998,48.651045],[36.939277,48.650611],[36.93907,48.650763]]]}},{"type":"Feature","properties":{"cadnum":"1420383301:00:000:0294"},"geometry":{"type":"Polygon","coordinates":[[[36.938248,48.653178],[36.938684,48.653487],[36.939353,48.653078],[36.940009,48.652676],[36.940427,48.65244],[36.941186,48.651534],[36.941514,48.651145],[36.941512,48.651145],[36.941208,48.650962],[36.941115,48.651045],[36.941114,48.651045],[36.940391,48.651695],[36.939034,48.652641],[36.938248,48.653178]],[[36.940305,48.652442],[36.940315,48.652427],[36.940341,48.652433],[36.940341,48.652434],[36.940328,48.652451],[36.940305,48.652442]]]}},{"type":"Feature","properties":{"cadnum":"1420383301:00:000:0246"},"geometry":{"type":"Polygon","coordinates":[[[36.974046,48.627921],[36.974195,48.628138],[36.974383,48.628325],[36.974401,48.628319],[36.974845,48.62817],[36.974828,48.628143],[36.974442,48.6276],[36.974208,48.627683],[36.974289,48.627817],[36.974046,48.627921]]]}},{"type":"Feature","properties":{"cadnum":"1420383301:00:000:0099"},"geometry":{"type":"Polygon","coordinates":[[[36.970979,48.626383],[36.971033,48.626466],[36.971032,48.626466],[36.971006,48.626472],[36.971023,48.626499],[36.971046,48.626493],[36.971086,48.626546],[36.971558,48.626424],[36.971499,48.626345],[36.971446,48.626261],[36.970979,48.626383]]]}},{"type":"Feature","properties":{"cadnum":"1420383301:00:000:0098"},"geometry":{"type":"Polygon","coordinates":[[[36.971262,48.627045],[36.971373,48.627214],[36.971849,48.627096],[36.971796,48.62701],[36.971742,48.62692],[36.971262,48.627045]]]}},{"type":"Feature","properties":{"cadnum":"1420383301:00:000:0268"},"geometry":{"type":"Polygon","coordinates":[[[36.972304,48.629461],[36.973229,48.630103],[36.97348,48.629949],[36.972551,48.629301],[36.972429,48.62938],[36.972304,48.629461]]]}},{"type":"Feature","properties":{"cadnum":"1420383301:00:000:0265"},"geometry":{"type":"Polygon","coordinates":[[[36.974119,48.629233],[36.974169,48.629266],[36.974168,48.629266],[36.974339,48.629379],[36.97434,48.62938],[36.974379,48.629405],[36.974401,48.629389],[36.974401,48.62939],[36.97444,48.629362],[36.974573,48.629267],[36.974666,48.629201],[36.974428,48.629037],[36.974119,48.629233]]]}},{"type":"Feature","properties":{"cadnum":"1420383301:00:000:0034"},"geometry":{"type":"Polygon","coordinates":[[[36.973201,48.628847],[36.973319,48.628924],[36.97331,48.628927],[36.973327,48.628937],[36.973333,48.62893],[36.973404,48.628986],[36.973363,48.629005],[36.97344,48.629058],[36.97348,48.629037],[36.973597,48.62912],[36.973803,48.629266],[36.973862,48.629308],[36.973964,48.62938],[36.973965,48.62938],[36.974149,48.629509],[36.974383,48.629405],[36.974216,48.629297],[36.974119,48.629233],[36.973373,48.628746],[36.973201,48.628847]]]}},{"type":"Feature","properties":{"cadnum":"1420383301:00:000:0247"},"geometry":{"type":"Polygon","coordinates":[[[36.974383,48.628325],[36.974388,48.628334],[36.974401,48.628332],[36.974401,48.628333],[36.97453,48.628317],[36.974573,48.628312],[36.974573,48.628311],[36.974635,48.628304],[36.974801,48.628248],[36.974864,48.6282],[36.974845,48.62817],[36.974573,48.628261],[36.974383,48.628325]]]}},{"type":"Feature","properties":{"cadnum":"1420383301:00:000:0163"},"geometry":{"type":"Polygon","coordinates":[[[36.973247,48.629135],[36.973418,48.629266],[36.973491,48.629321],[36.973567,48.62938],[36.973568,48.62938],[36.974136,48.629812],[36.974243,48.629741],[36.973746,48.629322],[36.973629,48.629239],[36.973589,48.629257],[36.973526,48.629197],[36.973566,48.629179],[36.973499,48.62912],[36.973494,48.629124],[36.973493,48.629124],[36.97348,48.629114],[36.97349,48.629111],[36.973394,48.629046],[36.973247,48.629135]]]}},{"type":"Feature","properties":{"cadnum":"1420383301:00:000:0264"},"geometry":{"type":"Polygon","coordinates":[[[36.973373,48.628746],[36.974118,48.629233],[36.974119,48.629233],[36.974428,48.629037],[36.973732,48.628553],[36.973373,48.628746]]]}},{"type":"Feature","properties":{"cadnum":"1420383301:00:000:0227"},"geometry":{"type":"Polygon","coordinates":[[[36.974203,48.625908],[36.974401,48.626239],[36.974485,48.626379],[36.974573,48.626526],[36.974589,48.626552],[36.974855,48.626902],[36.975111,48.626825],[36.974837,48.626464],[36.974837,48.626463],[36.974459,48.625831],[36.974203,48.625908]]]}},{"type":"Feature","properties":{"cadnum":"1420383301:00:000:0228"},"geometry":{"type":"Polygon","coordinates":[[[36.97392,48.625433],[36.97404,48.625635],[36.97404,48.625636],[36.974039,48.625636],[36.974203,48.625908],[36.974459,48.625831],[36.974342,48.625636],[36.974182,48.625364],[36.97392,48.625433]]]}},{"type":"Feature","properties":{"cadnum":"1420383301:00:000:0076"},"geometry":{"type":"Polygon","coordinates":[[[36.972807,48.628544],[36.97305,48.628574],[36.973085,48.628449],[36.972843,48.62842],[36.972807,48.628544]]]}},{"type":"Feature","properties":{"cadnum":"1420383301:00:000:0270"},"geometry":{"type":"Polygon","coordinates":[[[36.9714,48.626341],[36.97145,48.626422],[36.971499,48.626505],[36.971882,48.626416],[36.971792,48.626259],[36.971805,48.626253],[36.971796,48.626237],[36.971782,48.62624],[36.9714,48.626341]]]}},{"type":"Feature","properties":{"cadnum":"1420383301:00:000:0274"},"geometry":{"type":"Polygon","coordinates":[[[36.971895,48.62717],[36.971994,48.627339],[36.972375,48.627244],[36.972317,48.627137],[36.972318,48.627137],[36.972344,48.627131],[36.972325,48.627102],[36.972299,48.627107],[36.972281,48.627075],[36.971895,48.62717]]]}},{"type":"Feature","properties":{"cadnum":"1420383301:00:000:0195"},"geometry":{"type":"Polygon","coordinates":[[[36.971796,48.627586],[36.971872,48.627654],[36.972029,48.627681],[36.972249,48.627696],[36.9726,48.62763],[36.972484,48.627404],[36.971796,48.627586]]]}},{"type":"Feature","properties":{"cadnum":"1420383301:00:000:0309"},"geometry":{"type":"Polygon","coordinates":[[[36.971356,48.62752],[36.971459,48.62763],[36.972021,48.628248],[36.972465,48.628334],[36.972528,48.628158],[36.972097,48.62807],[36.971688,48.627769],[36.971455,48.627577],[36.971356,48.62752]]]}},{"type":"Feature","properties":{"cadnum":"1420383301:00:000:0230"},"geometry":{"type":"Polygon","coordinates":[[[36.970687,48.62603],[36.970786,48.626199],[36.971207,48.626089],[36.971149,48.626],[36.971109,48.625925],[36.970687,48.62603]]]}},{"type":"Feature","properties":{"cadnum":"1420383301:00:000:0086"},"geometry":{"type":"Polygon","coordinates":[[[36.971262,48.627595],[36.971908,48.628636],[36.972321,48.628898],[36.97247,48.628556],[36.972021,48.628464],[36.971356,48.627665],[36.971262,48.627595]]]}},{"type":"Feature","properties":{"cadnum":"1420383301:00:000:0154"},"geometry":{"type":"Polygon","coordinates":[[[36.971356,48.62752],[36.971922,48.628455],[36.972398,48.628521],[36.972465,48.628334],[36.972021,48.628248],[36.971459,48.62763],[36.971356,48.62752]]]}},{"type":"Feature","properties":{"cadnum":"1420383301:00:000:0315"},"geometry":{"type":"Polygon","coordinates":[[[36.970337,48.625528],[36.970399,48.625635],[36.970399,48.625636],[36.970398,48.625636],[36.970434,48.625698],[36.970458,48.625692],[36.970516,48.625679],[36.970518,48.625679],[36.970937,48.625588],[36.970889,48.625492],[36.970844,48.62541],[36.970614,48.625465],[36.970337,48.625528]]]}},{"type":"Feature","properties":{"cadnum":"1420383301:00:000:0256"},"geometry":{"type":"Polygon","coordinates":[[[36.971845,48.626066],[36.971981,48.62627],[36.972981,48.626018],[36.97287,48.625837],[36.972614,48.625894],[36.971845,48.626066]]]}},{"type":"Feature","properties":{"cadnum":"1420383301:00:000:0299"},"geometry":{"type":"Polygon","coordinates":[[[36.971796,48.62701],[36.971849,48.627096],[36.971895,48.62717],[36.972281,48.627075],[36.972182,48.626911],[36.971796,48.62701]]]}},{"type":"Feature","properties":{"cadnum":"1420383301:00:000:0147"},"geometry":{"type":"Polygon","coordinates":[[[36.952303,48.641608],[36.9526,48.641779],[36.952601,48.641779],[36.953142,48.642091],[36.953278,48.641993],[36.952429,48.64151],[36.952303,48.641608]]]}},{"type":"Feature","properties":{"cadnum":"1420383301:00:000:0189"},"geometry":{"type":"Polygon","coordinates":[[[36.951054,48.643913],[36.95224,48.644596],[36.952429,48.64446],[36.951415,48.643857],[36.951261,48.643765],[36.951231,48.643787],[36.95123,48.643787],[36.951151,48.643843],[36.951072,48.6439],[36.951054,48.643913]]]}},{"type":"Feature","properties":{"cadnum":"1420383301:00:000:0290"},"geometry":{"type":"Polygon","coordinates":[[[36.949963,48.640548],[36.950232,48.640765],[36.950578,48.640548],[36.950968,48.640296],[36.950911,48.640261],[36.95091,48.64026],[36.950722,48.640112],[36.950637,48.640157],[36.950636,48.640157],[36.95046,48.640251],[36.950424,48.64027],[36.950366,48.640301],[36.949963,48.640548]]]}},{"type":"Feature","properties":{"cadnum":"1420383301:00:000:0223"},"geometry":{"type":"Polygon","coordinates":[[[36.950488,48.642925],[36.950748,48.643077],[36.951207,48.642753],[36.950815,48.642712],[36.950488,48.642925]]]}},{"type":"Feature","properties":{"cadnum":"1420383301:00:000:0087"},"geometry":{"type":"Polygon","coordinates":[[[36.948737,48.640296],[36.948894,48.640628],[36.949397,48.640329],[36.949317,48.640271],[36.949317,48.64027],[36.949064,48.640082],[36.94895,48.640157],[36.948949,48.640157],[36.948807,48.64025],[36.948776,48.64027],[36.948776,48.640271],[36.948737,48.640296]]]}},{"type":"Feature","properties":{"cadnum":"1420383301:00:000:0222"},"geometry":{"type":"Polygon","coordinates":[[[36.950748,48.643077],[36.951112,48.643288],[36.951238,48.643207],[36.951454,48.643344],[36.951683,48.643169],[36.951731,48.643074],[36.951207,48.642753],[36.950748,48.643077]]]}},{"type":"Feature","properties":{"cadnum":"1420383301:00:000:0084"},"geometry":{"type":"Polygon","coordinates":[[[36.949904,48.642005],[36.95003,48.642106],[36.950605,48.641806],[36.950645,48.641834],[36.950718,48.641788],[36.950708,48.64178],[36.950708,48.641779],[36.950995,48.641619],[36.950794,48.641471],[36.949904,48.642005]]]}},{"type":"Feature","properties":{"cadnum":"1420383301:00:000:0285"},"geometry":{"type":"Polygon","coordinates":[[[36.952006,48.642059],[36.952236,48.642219],[36.9526,48.642415],[36.952601,48.642415],[36.952657,48.642445],[36.952936,48.642243],[36.952509,48.642003],[36.952284,48.641851],[36.952006,48.642059]]]}},{"type":"Feature","properties":{"cadnum":"1420383301:00:000:0151"},"geometry":{"type":"Polygon","coordinates":[[[36.95158,48.642231],[36.95232,48.642709],[36.952429,48.642629],[36.952554,48.642536],[36.951817,48.642067],[36.95158,48.642231]]]}},{"type":"Feature","properties":{"cadnum":"1420383301:00:000:0082"},"geometry":{"type":"Polygon","coordinates":[[[36.950838,48.641352],[36.951058,48.641528],[36.951943,48.640916],[36.9518,48.640798],[36.950959,48.641304],[36.950938,48.641287],[36.950838,48.641352]]]}},{"type":"Feature","properties":{"cadnum":"1420383301:00:000:0066"},"geometry":{"type":"Polygon","coordinates":[[[36.952123,48.641741],[36.952429,48.641948],[36.952429,48.641949],[36.952509,48.642003],[36.9526,48.642054],[36.952601,48.642054],[36.952936,48.642243],[36.953142,48.642091],[36.952429,48.64168],[36.952303,48.641608],[36.952123,48.641741]]]}},{"type":"Feature","properties":{"cadnum":"1420383301:00:000:0239"},"geometry":{"type":"Polygon","coordinates":[[[36.950911,48.640261],[36.950925,48.64027],[36.950927,48.64027],[36.950968,48.640296],[36.951242,48.640468],[36.951395,48.640364],[36.951539,48.64027],[36.95154,48.64027],[36.951781,48.640114],[36.951517,48.639904],[36.951087,48.640157],[36.951086,48.640157],[36.950911,48.640261]]]}},{"type":"Feature","properties":{"cadnum":"1420383301:00:000:0051"},"geometry":{"type":"Polygon","coordinates":[[[36.951794,48.64153],[36.952123,48.641741],[36.952303,48.641608],[36.952429,48.64151],[36.952559,48.641421],[36.952217,48.641213],[36.951794,48.64153]]]}},{"type":"Feature","properties":{"cadnum":"1420383301:00:000:0216"},"geometry":{"type":"Polygon","coordinates":[[[36.94924,48.641528],[36.949513,48.641673],[36.950129,48.641219],[36.950393,48.641047],[36.950165,48.640871],[36.949895,48.641047],[36.94924,48.641528]]]}},{"type":"Feature","properties":{"cadnum":"1420383301:00:000:0173"},"geometry":{"type":"Polygon","coordinates":[[[36.952263,48.643139],[36.952429,48.643245],[36.95259,48.643347],[36.9526,48.643355],[36.9526,48.643354],[36.952601,48.643354],[36.953129,48.643712],[36.953444,48.64353],[36.952873,48.643198],[36.952513,48.642978],[36.952473,48.643009],[36.952442,48.643026],[36.952263,48.643139]]]}},{"type":"Feature","properties":{"cadnum":"1420383301:00:000:0094"},"geometry":{"type":"Polygon","coordinates":[[[36.951498,48.64175],[36.951907,48.642017],[36.952226,48.641812],[36.952123,48.641741],[36.951794,48.64153],[36.951498,48.64175]]]}},{"type":"Feature","properties":{"cadnum":"1420383301:00:000:0110"},"geometry":{"type":"Polygon","coordinates":[[[36.949055,48.641011],[36.949234,48.641163],[36.949653,48.640961],[36.949967,48.640794],[36.949769,48.640635],[36.949702,48.640661],[36.949617,48.640717],[36.94945,48.640818],[36.949055,48.641011]]]}},{"type":"Feature","properties":{"cadnum":"1420383301:00:000:0047"},"geometry":{"type":"Polygon","coordinates":[[[36.923134,48.661675],[36.923775,48.661931],[36.923833,48.661954],[36.924059,48.662044],[36.92406,48.662044],[36.924132,48.662073],[36.924156,48.662044],[36.924292,48.661886],[36.923279,48.661512],[36.923134,48.661675]]]}},{"type":"Feature","properties":{"cadnum":"1420383301:00:000:0284"},"geometry":{"type":"Polygon","coordinates":[[[36.979799,48.625792],[36.980066,48.626156],[36.980066,48.626155],[36.980352,48.626543],[36.980545,48.626478],[36.980006,48.625724],[36.979799,48.625792]]]}},{"type":"Feature","properties":{"cadnum":"1420383301:00:000:0194"},"geometry":{"type":"Polygon","coordinates":[[[36.979472,48.625911],[36.979526,48.626012],[36.979895,48.626519],[36.979983,48.626641],[36.980066,48.626755],[36.980191,48.626926],[36.980392,48.626816],[36.979944,48.626244],[36.979661,48.625848],[36.979472,48.625911]]]}},{"type":"Feature","properties":{"cadnum":"1420383301:00:000:0292"},"geometry":{"type":"Polygon","coordinates":[[[36.957369,48.642712],[36.958094,48.643159],[36.95911,48.643787],[36.95913,48.643799],[36.959294,48.6439],[36.959408,48.64397],[36.959554,48.643877],[36.960343,48.643376],[36.958205,48.642059],[36.957922,48.64228],[36.957369,48.642712]]]}},{"type":"Feature","properties":{"cadnum":"1420383301:00:000:0316"},"geometry":{"type":"Polygon","coordinates":[[[36.974752,48.623471],[36.974837,48.623604],[36.975128,48.624037],[36.975354,48.623969],[36.974971,48.623399],[36.974752,48.623471]]]}},{"type":"Feature","properties":{"cadnum":"1420383301:00:000:0023"},"geometry":{"type":"Polygon","coordinates":[[[36.974365,48.623625],[36.974401,48.623679],[36.974421,48.623708],[36.974573,48.623935],[36.974747,48.624195],[36.974971,48.624124],[36.974589,48.623553],[36.974448,48.623598],[36.974365,48.623625]]]}},{"type":"Feature","properties":{"cadnum":"1420383301:00:000:0215"},"geometry":{"type":"Polygon","coordinates":[[[36.974975,48.624528],[36.975187,48.624824],[36.975407,48.62475],[36.975187,48.62445],[36.974975,48.624528]]]}},{"type":"Feature","properties":{"cadnum":"1420383301:00:000:0300"},"geometry":{"type":"Polygon","coordinates":[[[36.977432,48.625689],[36.977469,48.625749],[36.977644,48.626035],[36.977882,48.625956],[36.977693,48.625668],[36.977662,48.625621],[36.977611,48.625636],[36.977433,48.625689],[36.977432,48.625689]]]}},{"type":"Feature","properties":{"cadnum":"1420383301:00:000:0251"},"geometry":{"type":"Polygon","coordinates":[[[36.977056,48.625623],[36.977063,48.625635],[36.977063,48.625636],[36.977062,48.625636],[36.977369,48.626112],[36.977644,48.626035],[36.977432,48.625689],[36.977348,48.625546],[36.977056,48.625623]]]}},{"type":"Feature","properties":{"cadnum":"1420383301:00:000:0272"},"geometry":{"type":"Polygon","coordinates":[[[36.974082,48.623702],[36.974401,48.624173],[36.974401,48.624174],[36.974469,48.624272],[36.974573,48.62424],[36.974688,48.624204],[36.974573,48.624035],[36.974302,48.623637],[36.974082,48.623702]]]}},{"type":"Feature","properties":{"cadnum":"1420383301:00:000:0231"},"geometry":{"type":"Polygon","coordinates":[[[36.976832,48.624723],[36.976943,48.624884],[36.977334,48.624735],[36.977212,48.624572],[36.976832,48.624723]]]}},{"type":"Feature","properties":{"cadnum":"1420383301:00:000:0275"},"geometry":{"type":"Polygon","coordinates":[[[36.975434,48.625525],[36.975506,48.625635],[36.975506,48.625636],[36.975505,48.625636],[36.97587,48.626193],[36.976086,48.626514],[36.976355,48.626442],[36.976094,48.626081],[36.975838,48.625674],[36.975713,48.625474],[36.975694,48.625445],[36.975434,48.625525]]]}},{"type":"Feature","properties":{"cadnum":"1420383301:00:000:0198"},"geometry":{"type":"Polygon","coordinates":[[[36.975614,48.623198],[36.976,48.623768],[36.976224,48.623708],[36.975834,48.623138],[36.975614,48.623198]]]}},{"type":"Feature","properties":{"cadnum":"1420383301:00:000:0271"},"geometry":{"type":"Polygon","coordinates":[[[36.974985,48.624195],[36.975182,48.624453],[36.975187,48.62445],[36.975411,48.624382],[36.975205,48.624121],[36.974985,48.624195]]]}},{"type":"Feature","properties":{"cadnum":"1420383301:00:000:0063"},"geometry":{"type":"Polygon","coordinates":[[[36.977729,48.625005],[36.977832,48.625168],[36.978254,48.625032],[36.978151,48.624866],[36.977729,48.625005]]]}},{"type":"Feature","properties":{"cadnum":"1420383301:00:000:0253"},"geometry":{"type":"Polygon","coordinates":[[[36.975623,48.624314],[36.975843,48.624605],[36.976059,48.624534],[36.975847,48.624239],[36.975623,48.624314]]]}},{"type":"Feature","properties":{"cadnum":"1420383301:00:000:0155"},"geometry":{"type":"Polygon","coordinates":[[[36.976732,48.623613],[36.976948,48.623883],[36.977245,48.623788],[36.977029,48.623509],[36.976732,48.623613]]]}},{"type":"Feature","properties":{"cadnum":"1420383301:00:000:0241"},"geometry":{"type":"Polygon","coordinates":[[[36.977176,48.625196],[36.977294,48.62535],[36.977715,48.625228],[36.977595,48.625071],[36.977176,48.625196]]]}},{"type":"Feature","properties":{"cadnum":"1420383301:00:000:0150"},"geometry":{"type":"Polygon","coordinates":[[[36.974119,48.624483],[36.974312,48.624735],[36.974401,48.624707],[36.974532,48.624667],[36.974342,48.624415],[36.974119,48.624483]]]}},{"type":"Feature","properties":{"cadnum":"1420383301:00:000:0188"},"geometry":{"type":"Polygon","coordinates":[[[36.975385,48.623257],[36.975776,48.623827],[36.976,48.623768],[36.975614,48.623198],[36.975385,48.623257]]]}},{"type":"Feature","properties":{"cadnum":"1420383301:00:000:0252"},"geometry":{"type":"Polygon","coordinates":[[[36.974316,48.624756],[36.974401,48.624865],[36.974536,48.625035],[36.974573,48.625024],[36.974573,48.625023],[36.974747,48.624967],[36.974532,48.624685],[36.974316,48.624756]]]}},{"type":"Feature","properties":{"cadnum":"1420383301:00:000:0207"},"geometry":{"type":"Polygon","coordinates":[[[36.975713,48.625474],[36.975814,48.625635],[36.975814,48.625636],[36.975838,48.625674],[36.975885,48.625749],[36.976094,48.626081],[36.976355,48.626442],[36.976606,48.626371],[36.976355,48.625994],[36.9762,48.625749],[36.975973,48.625392],[36.975713,48.625474]]]}},{"type":"Feature","properties":{"cadnum":"1420383301:00:000:0114"},"geometry":{"type":"Polygon","coordinates":[[[36.974396,48.624394],[36.974401,48.624401],[36.974497,48.624525],[36.974573,48.624623],[36.974603,48.624661],[36.974809,48.624572],[36.974608,48.624317],[36.974439,48.624378],[36.974396,48.624394]]]}},{"type":"Feature","properties":{"cadnum":"1420383301:00:000:0276"},"geometry":{"type":"Polygon","coordinates":[[[36.975134,48.625059],[36.975434,48.625525],[36.975694,48.625445],[36.975398,48.624976],[36.975134,48.625059]]]}},{"type":"Feature","properties":{"cadnum":"1420383301:00:000:0224"},"geometry":{"type":"Polygon","coordinates":[[[36.97795,48.625561],[36.977999,48.625635],[36.977999,48.625636],[36.977998,48.625636],[36.978036,48.625692],[36.978073,48.625749],[36.978074,48.625749],[36.978174,48.625899],[36.97844,48.625822],[36.978767,48.625719],[36.978771,48.625718],[36.978511,48.625374],[36.978191,48.625469],[36.978205,48.625489],[36.97795,48.625561]]]}},{"type":"Feature","properties":{"cadnum":"1420383301:00:000:0235"},"geometry":{"type":"Polygon","coordinates":[[[36.976239,48.622957],[36.976633,48.623524],[36.976916,48.623432],[36.976494,48.622874],[36.976239,48.622957]]]}},{"type":"Feature","properties":{"cadnum":"1420383301:00:000:0262"},"geometry":{"type":"Polygon","coordinates":[[[36.976602,48.624379],[36.976705,48.624554],[36.977123,48.624415],[36.977002,48.624254],[36.976602,48.624379]]]}},{"type":"Feature","properties":{"cadnum":"1420383301:00:000:0075"},"geometry":{"type":"Polygon","coordinates":[[[36.974092,48.624818],[36.974316,48.625106],[36.974401,48.625079],[36.974536,48.625035],[36.974306,48.624747],[36.974092,48.624818]]]}},{"type":"Feature","properties":{"cadnum":"1420383301:00:000:0193"},"geometry":{"type":"Polygon","coordinates":[[[36.975843,48.623898],[36.975857,48.623913],[36.97587,48.623934],[36.976,48.624082],[36.976072,48.624168],[36.97631,48.624094],[36.976216,48.623966],[36.976103,48.623818],[36.975843,48.623898]]]}},{"type":"Feature","properties":{"cadnum":"1420383301:00:000:0250"},"geometry":{"type":"Polygon","coordinates":[[[36.977662,48.625621],[36.977671,48.625635],[36.977671,48.625636],[36.977693,48.625668],[36.977745,48.625749],[36.977746,48.625749],[36.977882,48.625956],[36.978157,48.625872],[36.978074,48.625749],[36.978075,48.625749],[36.97795,48.625561],[36.977935,48.62554],[36.977662,48.625621]]]}},{"type":"Feature","properties":{"cadnum":"1420383301:00:000:0112"},"geometry":{"type":"Polygon","coordinates":[[[36.977474,48.624721],[36.977568,48.624887],[36.978067,48.624732],[36.97795,48.624572],[36.977474,48.624721]]]}},{"type":"Feature","properties":{"cadnum":"1420383301:00:000:0208"},"geometry":{"type":"Polygon","coordinates":[[[36.975398,48.624976],[36.975713,48.625474],[36.975973,48.625392],[36.975663,48.624902],[36.975398,48.624976]]]}},{"type":"Feature","properties":{"cadnum":"1420383301:00:000:0057"},"geometry":{"type":"Polygon","coordinates":[[[36.976872,48.624551],[36.976988,48.624712],[36.977379,48.62456],[36.977245,48.624406],[36.976872,48.624551]]]}},{"type":"Feature","properties":{"cadnum":"1420383301:00:000:0181"},"geometry":{"type":"Polygon","coordinates":[[[36.96015,48.63482],[36.96019,48.634894],[36.96067,48.635764],[36.960693,48.635799],[36.960945,48.635716],[36.960656,48.635199],[36.960392,48.634739],[36.96015,48.63482]]]}},{"type":"Feature","properties":{"cadnum":"1420383301:00:000:0214"},"geometry":{"type":"Polygon","coordinates":[[[36.95979,48.63484],[36.95988,48.634988],[36.96019,48.634894],[36.960127,48.634784],[36.9601,48.634739],[36.95979,48.63484]]]}},{"type":"Feature","properties":{"cadnum":"1420383301:00:000:0092"},"geometry":{"type":"Polygon","coordinates":[[[36.960069,48.636238],[36.960431,48.63664],[36.960949,48.637215],[36.961182,48.637129],[36.960742,48.636641],[36.960742,48.63664],[36.960302,48.636152],[36.960069,48.636238]]]}},{"type":"Feature","properties":{"cadnum":"1420383301:00:000:0015"},"geometry":{"type":"Polygon","coordinates":[[[36.959134,48.63473],[36.959247,48.6349],[36.960019,48.634653],[36.959897,48.63449],[36.959134,48.63473]]]}},{"type":"Feature","properties":{"cadnum":"1420383301:00:000:0209"},"geometry":{"type":"Polygon","coordinates":[[[36.961236,48.635808],[36.961375,48.63601],[36.961744,48.636473],[36.962098,48.636348],[36.961564,48.635663],[36.961236,48.635808]]]}},{"type":"Feature","properties":{"cadnum":"1420383301:00:000:0312"},"geometry":{"type":"Polygon","coordinates":[[[36.957437,48.634832],[36.957567,48.63501],[36.958094,48.63484],[36.958094,48.634839],[36.958501,48.634707],[36.958905,48.634579],[36.958825,48.634446],[36.958838,48.63444],[36.958806,48.634389],[36.958371,48.634517],[36.957922,48.634668],[36.957922,48.634669],[36.957437,48.634832]]]}},{"type":"Feature","properties":{"cadnum":"1420383301:00:000:0311"},"geometry":{"type":"Polygon","coordinates":[[[36.959044,48.634532],[36.959148,48.634713],[36.959763,48.634514],[36.959848,48.634481],[36.959507,48.634107],[36.959454,48.634131],[36.959647,48.634339],[36.959646,48.634339],[36.959184,48.634487],[36.959192,48.634493],[36.959044,48.634532]]]}},{"type":"Feature","properties":{"cadnum":"1420383301:00:000:0310"},"geometry":{"type":"Polygon","coordinates":[[[36.962737,48.633469],[36.963006,48.633716],[36.963226,48.633602],[36.962947,48.633365],[36.962737,48.633469]]]}},{"type":"Feature","properties":{"cadnum":"1420383301:00:000:0109"},"geometry":{"type":"Polygon","coordinates":[[[36.962071,48.633795],[36.96235,48.634048],[36.962691,48.634354],[36.962767,48.634315],[36.962777,48.634321],[36.962809,48.634306],[36.962804,48.6343],[36.962916,48.634244],[36.962291,48.633692],[36.962071,48.633795]]]}},{"type":"Feature","properties":{"cadnum":"1420383301:00:000:0202"},"geometry":{"type":"Polygon","coordinates":[[[36.957593,48.634176],[36.957702,48.634505],[36.957922,48.634439],[36.958046,48.634401],[36.958094,48.634387],[36.958465,48.634273],[36.958716,48.634214],[36.958609,48.63398],[36.957922,48.634113],[36.957593,48.634176]]]}},{"type":"Feature","properties":{"cadnum":"1420383301:00:000:0213"},"geometry":{"type":"Polygon","coordinates":[[[36.95988,48.634988],[36.960427,48.635885],[36.960693,48.635799],[36.96067,48.635764],[36.96019,48.634894],[36.95988,48.634988]]]}},{"type":"Feature","properties":{"cadnum":"1420383301:00:000:0080"},"geometry":{"type":"Polygon","coordinates":[[[36.962314,48.633709],[36.962916,48.634244],[36.963136,48.634143],[36.962553,48.633585],[36.962314,48.633709]]]}},{"type":"Feature","properties":{"cadnum":"1420383301:00:000:0288"},"geometry":{"type":"Polygon","coordinates":[[[36.962557,48.634784],[36.962884,48.635179],[36.963087,48.635463],[36.96341,48.635354],[36.96319,48.635063],[36.962844,48.634555],[36.962557,48.634784]]]}},{"type":"Feature","properties":{"cadnum":"1420383301:00:000:0043"},"geometry":{"type":"Polygon","coordinates":[[[36.926799,48.659957],[36.928241,48.660536],[36.92838,48.660388],[36.926948,48.659797],[36.926799,48.659957]]]}},{"type":"Feature","properties":{"cadnum":"1420383301:00:000:0042"},"geometry":{"type":"Polygon","coordinates":[[[36.929386,48.658792],[36.929674,48.658913],[36.929827,48.658759],[36.930181,48.65886],[36.930374,48.658771],[36.929575,48.658501],[36.929386,48.658792]]]}},{"type":"Feature","properties":{"cadnum":"1420383301:00:000:0219"},"geometry":{"type":"Polygon","coordinates":[[[36.968631,48.631755],[36.968908,48.631999],[36.968908,48.632],[36.968971,48.632055],[36.96908,48.632153],[36.969421,48.632462],[36.969659,48.632337],[36.96908,48.631837],[36.968841,48.63163],[36.968631,48.631755]]]}},{"type":"Feature","properties":{"cadnum":"1420383301:00:000:0238"},"geometry":{"type":"Polygon","coordinates":[[[36.964492,48.632151],[36.965293,48.632922],[36.96557,48.632768],[36.964735,48.632041],[36.964492,48.632151]]]}},{"type":"Feature","properties":{"cadnum":"1420383301:00:000:0255"},"geometry":{"type":"Polygon","coordinates":[[[36.937162,48.653181],[36.937498,48.653406],[36.938127,48.653828],[36.938221,48.653887],[36.938554,48.653674],[36.937988,48.653344],[36.937476,48.652994],[36.937162,48.653181]]]}},{"type":"Feature","properties":{"cadnum":"1420383301:00:000:0254"},"geometry":{"type":"Polygon","coordinates":[[[36.936416,48.65268],[36.937162,48.653181],[36.937476,48.652994],[36.936722,48.652478],[36.936416,48.65268]]]}},{"type":"Feature","properties":{"cadnum":"1420383301:00:000:0187"},"geometry":{"type":"Polygon","coordinates":[[[36.971725,48.629815],[36.973027,48.630697],[36.973201,48.630566],[36.971868,48.629717],[36.971725,48.629815]]]}},{"type":"Feature","properties":{"cadnum":"1420383301:00:000:0137"},"geometry":{"type":"Polygon","coordinates":[[[36.971266,48.631234],[36.971392,48.631335],[36.971553,48.631465],[36.971823,48.631331],[36.971526,48.631085],[36.971266,48.631234]]]}},{"type":"Feature","properties":{"cadnum":"1420383301:00:000:0100"},"geometry":{"type":"Polygon","coordinates":[[[36.970903,48.631498],[36.971342,48.631753],[36.971432,48.631697],[36.971096,48.631504],[36.971249,48.631421],[36.97114,48.631353],[36.970903,48.631498]]]}},{"type":"Feature","properties":{"cadnum":"1420383301:00:000:0269"},"geometry":{"type":"Polygon","coordinates":[[[36.973229,48.630103],[36.973306,48.630156],[36.973553,48.629999],[36.97348,48.629949],[36.973229,48.630103]]]}},{"type":"Feature","properties":{"cadnum":"1420383301:00:000:0101"},"geometry":{"type":"Polygon","coordinates":[[[36.969882,48.630907],[36.970903,48.631498],[36.97114,48.631353],[36.970237,48.630792],[36.970215,48.630806],[36.970214,48.630806],[36.97013,48.630759],[36.969882,48.630907]]]}},{"type":"Feature","properties":{"cadnum":"1420383301:00:000:0078"},"geometry":{"type":"Polygon","coordinates":[[[36.970992,48.630236],[36.972159,48.63113],[36.972362,48.631014],[36.971145,48.63015],[36.970992,48.630236]]]}},{"type":"Feature","properties":{"cadnum":"1420383301:00:000:0136"},"geometry":{"type":"Polygon","coordinates":[[[36.970434,48.630569],[36.971266,48.631234],[36.971526,48.631085],[36.970713,48.630414],[36.970434,48.630569]]]}},{"type":"Feature","properties":{"cadnum":"1420383301:00:000:0085"},"geometry":{"type":"Polygon","coordinates":[[[36.968423,48.625183],[36.968643,48.625546],[36.968885,48.625483],[36.968886,48.625483],[36.968903,48.625504],[36.968908,48.625503],[36.968908,48.625504],[36.969033,48.625472],[36.968765,48.625091],[36.968423,48.625183]]]}},{"type":"Feature","properties":{"cadnum":"1420383301:00:000:0302"},"geometry":{"type":"Polygon","coordinates":[[[36.947798,48.64462],[36.948238,48.644848],[36.948691,48.645059],[36.94897,48.644843],[36.947999,48.644418],[36.947798,48.64462]]]}},{"type":"Feature","properties":{"cadnum":"1420383301:00:000:0190"},"geometry":{"type":"Polygon","coordinates":[[[36.95224,48.644596],[36.95232,48.644643],[36.952509,48.644507],[36.952429,48.64446],[36.95224,48.644596]]]}},{"type":"Feature","properties":{"cadnum":"1420383301:00:000:0303"},"geometry":{"type":"Polygon","coordinates":[[[36.947695,48.644566],[36.947798,48.64462],[36.947999,48.644418],[36.947888,48.644368],[36.947695,48.644566]]]}},{"type":"Feature","properties":{"cadnum":"1420383301:00:000:0283"},"geometry":{"type":"Polygon","coordinates":[[[36.950766,48.645041],[36.951251,48.645436],[36.95166,48.645145],[36.951148,48.644789],[36.950766,48.645041]]]}},{"type":"Feature","properties":{"cadnum":"1420383301:00:000:0282"},"geometry":{"type":"Polygon","coordinates":[[[36.950169,48.644561],[36.950766,48.645041],[36.951148,48.644789],[36.950775,48.644528],[36.950744,48.644549],[36.950439,48.64435],[36.950169,48.644561]]]}},{"type":"Feature","properties":{"cadnum":"1420383301:00:000:0305"},"geometry":{"type":"Polygon","coordinates":[[[36.950869,48.644053],[36.951974,48.644736],[36.952194,48.644573],[36.951054,48.643913],[36.950869,48.644053]]]}},{"type":"Feature","properties":{"cadnum":"1420383301:00:000:0133"},"geometry":{"type":"Polygon","coordinates":[[[36.970907,48.625341],[36.97096,48.625427],[36.97101,48.625511],[36.9714,48.62541],[36.971302,48.625243],[36.970907,48.625341]]]}},{"type":"Feature","properties":{"cadnum":"1420383301:00:000:0226"},"geometry":{"type":"Polygon","coordinates":[[[36.97344,48.623539],[36.973516,48.623652],[36.973637,48.623833],[36.973822,48.624114],[36.974033,48.6244],[36.974249,48.624329],[36.974029,48.624035],[36.973844,48.623759],[36.97379,48.623678],[36.973723,48.623577],[36.973602,48.623396],[36.973494,48.623426],[36.97344,48.623539]],[[36.973767,48.623687],[36.973754,48.62367],[36.973754,48.623669],[36.973776,48.623663],[36.973777,48.623663],[36.97379,48.623678],[36.973767,48.623687]]]}},{"type":"Feature","properties":{"cadnum":"1420383301:00:000:0081"},"geometry":{"type":"Polygon","coordinates":[[[36.973193,48.624037],[36.973589,48.624539],[36.973817,48.624468],[36.973637,48.624242],[36.973413,48.623913],[36.973291,48.623731],[36.973207,48.623984],[36.973193,48.624037]]]}},{"type":"Feature","properties":{"cadnum":"1420383301:00:000:0278"},"geometry":{"type":"Polygon","coordinates":[[[36.973333,48.624738],[36.973457,48.625029],[36.973903,48.624893],[36.9737,48.624635],[36.973333,48.624738]]]}},{"type":"Feature","properties":{"cadnum":"1420383301:00:000:0295"},"geometry":{"type":"Polygon","coordinates":[[[36.973413,48.623913],[36.973637,48.624242],[36.973817,48.624468],[36.974033,48.6244],[36.973822,48.624114],[36.973656,48.623863],[36.973476,48.623889],[36.973413,48.623913]]]}},{"type":"Feature","properties":{"cadnum":"1420383301:00:000:0296"},"geometry":{"type":"Polygon","coordinates":[[[36.973907,48.623854],[36.974029,48.624035],[36.974249,48.624329],[36.974262,48.624343],[36.974469,48.624272],[36.97414,48.623791],[36.973907,48.623854]]]}},{"type":"Feature","properties":{"cadnum":"1420383301:00:000:0212"},"geometry":{"type":"Polygon","coordinates":[[[36.970683,48.625124],[36.970794,48.625317],[36.971194,48.625222],[36.971077,48.625038],[36.970683,48.625124]]]}},{"type":"Feature","properties":{"cadnum":"1420383301:00:000:0016"},"geometry":{"type":"Polygon","coordinates":[[[36.971006,48.625513],[36.971059,48.625605],[36.971109,48.625685],[36.971503,48.625579],[36.9714,48.62541],[36.97101,48.625511],[36.971006,48.625513]]]}},{"type":"Feature","properties":{"cadnum":"1420383301:00:000:0116"},"geometry":{"type":"Polygon","coordinates":[[[36.970821,48.624145],[36.970929,48.624325],[36.97136,48.624219],[36.971975,48.624067],[36.971891,48.623916],[36.971522,48.623874],[36.97145,48.623883],[36.971199,48.623937],[36.971248,48.624028],[36.970821,48.624145]]]}},{"type":"Feature","properties":{"cadnum":"1420383301:00:000:0117"},"geometry":{"type":"Polygon","coordinates":[[[36.971027,48.624637],[36.971117,48.624807],[36.971872,48.624631],[36.971849,48.62445],[36.971027,48.624637]]]}},{"type":"Feature","properties":{"cadnum":"1420383301:00:000:0245"},"geometry":{"type":"Polygon","coordinates":[[[36.975811,48.627454],[36.975811,48.627455],[36.975906,48.627642],[36.976107,48.627627],[36.976009,48.627362],[36.975887,48.627384],[36.975914,48.627434],[36.975811,48.627454]]]}},{"type":"Feature","properties":{"cadnum":"1420383301:00:000:0192"},"geometry":{"type":"Polygon","coordinates":[[[36.976692,48.62763],[36.976696,48.627639],[36.977199,48.62765],[36.977109,48.627509],[36.976692,48.62763]]]}},{"type":"Feature","properties":{"cadnum":"1420383301:00:000:0279"},"geometry":{"type":"Polygon","coordinates":[[[36.975596,48.627066],[36.975811,48.627454],[36.975914,48.627434],[36.975887,48.627384],[36.975888,48.627384],[36.976009,48.627362],[36.976107,48.627627],[36.976373,48.627627],[36.975987,48.626971],[36.975596,48.627066]]]}},{"type":"Feature","properties":{"cadnum":"1420383301:00:000:0153"},"geometry":{"type":"Polygon","coordinates":[[[36.979117,48.627087],[36.979256,48.62728],[36.979522,48.62714],[36.979423,48.626998],[36.979117,48.627087]]]}},{"type":"Feature","properties":{"cadnum":"1420383301:00:000:0152"},"geometry":{"type":"Polygon","coordinates":[[[36.978533,48.626291],[36.979117,48.627087],[36.979423,48.626998],[36.978861,48.626196],[36.978533,48.626291]]]}},{"type":"Feature","properties":{"cadnum":"1420383301:00:000:0248"},"geometry":{"type":"Polygon","coordinates":[[[36.977369,48.626582],[36.977935,48.627511],[36.978277,48.627494],[36.978277,48.627493],[36.97799,48.627003],[36.9779,48.626959],[36.977585,48.626519],[36.977369,48.626582]]]}},{"type":"Feature","properties":{"cadnum":"1420383301:00:000:0267"},"geometry":{"type":"Polygon","coordinates":[[[36.976575,48.626816],[36.976786,48.627146],[36.976903,48.627173],[36.977109,48.627509],[36.977199,48.62765],[36.977285,48.627621],[36.976773,48.62676],[36.976575,48.626816]]]}},{"type":"Feature","properties":{"cadnum":"1420383301:00:000:0244"},"geometry":{"type":"Polygon","coordinates":[[[36.975987,48.626971],[36.976373,48.627627],[36.976696,48.627639],[36.976692,48.62763],[36.976279,48.626897],[36.975987,48.626971]]]}},{"type":"Feature","properties":{"cadnum":"1420383301:00:000:0191"},"geometry":{"type":"Polygon","coordinates":[[[36.976279,48.626897],[36.976692,48.62763],[36.977109,48.627509],[36.976903,48.627173],[36.976786,48.627146],[36.976575,48.626816],[36.976279,48.626897]]]}},{"type":"Feature","properties":{"cadnum":"1420383301:00:000:0132"},"geometry":{"type":"Polygon","coordinates":[[[36.977931,48.626466],[36.978004,48.626558],[36.978157,48.626799],[36.97826,48.626956],[36.978308,48.626941],[36.9786,48.627404],[36.978757,48.627336],[36.978358,48.626745],[36.978187,48.626487],[36.978147,48.626404],[36.977931,48.626466]]]}},{"type":"Feature","properties":{"cadnum":"1420383301:00:000:0306"},"geometry":{"type":"Polygon","coordinates":[[[36.951876,48.639444],[36.951907,48.639467],[36.952154,48.639669],[36.952339,48.639577],[36.952119,48.639349],[36.952087,48.639317],[36.951876,48.639444]],[[36.951898,48.63945],[36.95189,48.639444],[36.951898,48.639438],[36.951911,48.639444],[36.951898,48.63945]]]}},{"type":"Feature","properties":{"cadnum":"1420383301:00:000:1133"},"geometry":{"type":"Polygon","coordinates":[[[36.951341,48.638827],[36.951381,48.638862],[36.951431,48.638838],[36.951395,48.638803],[36.951341,48.638827]]]}},{"type":"Feature","properties":{"cadnum":"1420383301:00:000:0003"},"geometry":{"type":"Polygon","coordinates":[[[36.948152,48.640065],[36.948341,48.64021],[36.948494,48.640121],[36.948431,48.640074],[36.948678,48.639931],[36.948548,48.639833],[36.948152,48.640065]]]}},{"type":"Feature","properties":{"cadnum":"1420383301:00:000:0242"},"geometry":{"type":"Polygon","coordinates":[[[36.953978,48.641836],[36.954355,48.642035],[36.95488,48.642329],[36.955155,48.642103],[36.955123,48.642065],[36.954526,48.641821],[36.954221,48.641652],[36.953978,48.641836]]]}},{"type":"Feature","properties":{"cadnum":"1420383301:00:000:0210"},"geometry":{"type":"Polygon","coordinates":[[[36.953012,48.642519],[36.953515,48.642798],[36.954243,48.643193],[36.954436,48.64305],[36.953641,48.642626],[36.953219,48.642371],[36.953012,48.642519]]]}},{"type":"Feature","properties":{"cadnum":"1420383301:00:000:0211"},"geometry":{"type":"Polygon","coordinates":[[[36.954243,48.643193],[36.95463,48.643403],[36.954809,48.643249],[36.954436,48.64305],[36.954243,48.643193]]]}},{"type":"Feature","properties":{"cadnum":"1420383301:00:000:0129"},"geometry":{"type":"Polygon","coordinates":[[[36.953555,48.640732],[36.95431,48.641222],[36.954624,48.641009],[36.953852,48.64053],[36.953825,48.640551],[36.953555,48.640732]]]}},{"type":"Feature","properties":{"cadnum":"1420383301:00:000:0115"},"geometry":{"type":"Polygon","coordinates":[[[36.952657,48.640961],[36.953039,48.641177],[36.953093,48.641139],[36.953282,48.640993],[36.9529,48.640771],[36.952657,48.640961]]]}},{"type":"Feature","properties":{"cadnum":"1420383301:00:000:0307"},"geometry":{"type":"Polygon","coordinates":[[[36.952725,48.642723],[36.953003,48.642881],[36.953255,48.643035],[36.954651,48.643786],[36.95475,48.643712],[36.953339,48.642958],[36.952815,48.642661],[36.952725,48.642723]]]}},{"type":"Feature","properties":{"cadnum":"1420383301:00:000:0243"},"geometry":{"type":"Polygon","coordinates":[[[36.95488,48.642329],[36.955456,48.642652],[36.955542,48.642602],[36.955155,48.642103],[36.95488,48.642329]]]}},{"type":"Feature","properties":{"cadnum":"1420383301:00:000:0088"},"geometry":{"type":"Polygon","coordinates":[[[36.952706,48.641444],[36.953484,48.641898],[36.953691,48.641753],[36.952896,48.64129],[36.952802,48.641364],[36.952706,48.641444]]]}},{"type":"Feature","properties":{"cadnum":"1420383301:00:000:0140"},"geometry":{"type":"Polygon","coordinates":[[[36.953816,48.640554],[36.954634,48.641077],[36.954913,48.640869],[36.954913,48.640868],[36.954108,48.640385],[36.954068,48.640361],[36.953816,48.640554]]]}},{"type":"Feature","properties":{"cadnum":"1420383301:00:000:0148"},"geometry":{"type":"Polygon","coordinates":[[[36.953335,48.640895],[36.954117,48.64137],[36.95431,48.641222],[36.953561,48.640735],[36.953335,48.640895]]]}},{"type":"Feature","properties":{"cadnum":"1420383301:00:000:0111"},"geometry":{"type":"Polygon","coordinates":[[[36.954373,48.641542],[36.955249,48.642008],[36.955397,48.64183],[36.955339,48.641795],[36.95462,48.641361],[36.954373,48.641542]]]}},{"type":"Feature","properties":{"cadnum":"1420383301:00:000:0263"},"geometry":{"type":"Polygon","coordinates":[[[36.953811,48.641958],[36.954261,48.642201],[36.95497,48.642558],[36.9551,48.642454],[36.95488,48.642329],[36.954355,48.642035],[36.953978,48.641836],[36.953811,48.641958]]]}},{"type":"Feature","properties":{"cadnum":"1420383301:00:000:0102"},"geometry":{"type":"Polygon","coordinates":[[[36.952896,48.64129],[36.953691,48.641753],[36.953884,48.641614],[36.953093,48.641139],[36.953035,48.641183],[36.952896,48.64129]]]}},{"type":"Feature","properties":{"cadnum":"1420383301:00:000:0286"},"geometry":{"type":"Polygon","coordinates":[[[36.955838,48.640468],[36.956956,48.641121],[36.957108,48.640961],[36.956417,48.640584],[36.956012,48.640343],[36.955838,48.640468]]]}},{"type":"Feature","properties":{"cadnum":"1420383301:00:000:0067"},"geometry":{"type":"Polygon","coordinates":[[[36.952945,48.640581],[36.953246,48.64075],[36.953291,48.640714],[36.95325,48.64069],[36.953362,48.640602],[36.953354,48.640596],[36.953299,48.640566],[36.953349,48.640525],[36.953178,48.640433],[36.953156,48.64042],[36.952945,48.64058],[36.952945,48.640581]]]}},{"type":"Feature","properties":{"cadnum":"1420383301:00:000:0221"},"geometry":{"type":"Polygon","coordinates":[[[36.953821,48.640453],[36.954638,48.640985],[36.954907,48.640785],[36.954431,48.640518],[36.954127,48.640301],[36.954077,48.640263],[36.953821,48.640453]]]}},{"type":"Feature","properties":{"cadnum":"1420383301:00:000:0108"},"geometry":{"type":"Polygon","coordinates":[[[36.958433,48.638435],[36.958725,48.63845],[36.958779,48.638171],[36.958488,48.638159],[36.958433,48.638435]]]}},{"type":"Feature","properties":{"cadnum":"1420383301:00:000:0091"},"geometry":{"type":"Polygon","coordinates":[[[36.960949,48.637215],[36.961056,48.637331],[36.961285,48.637241],[36.961182,48.637129],[36.960949,48.637215]]]}},{"type":"Feature","properties":{"cadnum":"1420383301:00:000:0105"},"geometry":{"type":"Polygon","coordinates":[[[36.958442,48.638886],[36.958757,48.63891],[36.959062,48.638684],[36.958945,48.638675],[36.958766,48.638664],[36.958483,48.638642],[36.958442,48.638886]]]}},{"type":"Feature","properties":{"cadnum":"1420383301:00:000:0179"},"geometry":{"type":"Polygon","coordinates":[[[36.953588,48.636096],[36.953704,48.636325],[36.954962,48.635923],[36.95497,48.635932],[36.955006,48.635918],[36.954913,48.63574],[36.953588,48.636096]]]}},{"type":"Feature","properties":{"cadnum":"1420383301:00:000:0176"},"geometry":{"type":"Polygon","coordinates":[[[36.953452,48.636132],[36.953578,48.636363],[36.953704,48.636325],[36.953588,48.636096],[36.953452,48.636132]]]}},{"type":"Feature","properties":{"cadnum":"1420383301:00:000:0070"},"geometry":{"type":"Polygon","coordinates":[[[36.953605,48.634505],[36.954544,48.634442],[36.95489,48.634446],[36.954921,48.634217],[36.954508,48.634255],[36.953911,48.6342],[36.953605,48.634505]]]}},{"type":"Feature","properties":{"cadnum":"1420383301:00:000:0083"},"geometry":{"type":"Polygon","coordinates":[[[36.953515,48.635654],[36.953628,48.635892],[36.954804,48.635627],[36.954683,48.635395],[36.953515,48.635654]]]}},{"type":"Feature","properties":{"cadnum":"1420383301:00:000:0203"},"geometry":{"type":"Polygon","coordinates":[[[36.95511,48.634618],[36.955465,48.634517],[36.955631,48.634446],[36.955914,48.634286],[36.956197,48.634178],[36.956075,48.634006],[36.955532,48.634149],[36.95528,48.634205],[36.955163,48.634214],[36.95511,48.634618]]]}},{"type":"Feature","properties":{"cadnum":"1420383301:00:000:0281"},"geometry":{"type":"Polygon","coordinates":[[[36.956727,48.635577],[36.95696,48.63574],[36.95728,48.63552],[36.95706,48.635351],[36.956727,48.635577]]]}},{"type":"Feature","properties":{"cadnum":"1420383301:00:000:0177"},"geometry":{"type":"Polygon","coordinates":[[[36.955676,48.636108],[36.955806,48.636197],[36.956142,48.635974],[36.95706,48.635345],[36.956987,48.635285],[36.955972,48.635954],[36.955676,48.636108]]]}},{"type":"Feature","properties":{"cadnum":"1420383301:00:000:0280"},"geometry":{"type":"Polygon","coordinates":[[[36.955815,48.636203],[36.956008,48.636384],[36.956184,48.63628],[36.95696,48.63574],[36.956727,48.635577],[36.956134,48.63598],[36.955999,48.636084],[36.955815,48.636203]]]}}]}