{"type":"FeatureCollection","features":[{"type":"Feature","properties":{"cadnum":"1420355113:00:000:0046"},"geometry":{"type":"Polygon","coordinates":[[[36.876198,48.709082],[36.876435,48.709133],[36.876615,48.709171],[36.876943,48.708536],[36.876502,48.708433],[36.876201,48.709076],[36.8762,48.709076],[36.876198,48.709082]]]}},{"type":"Feature","properties":{"cadnum":"1420355113:00:000:0034"},"geometry":{"type":"Polygon","coordinates":[[[36.861514,48.705735],[36.861784,48.705803],[36.861969,48.705451],[36.861968,48.705451],[36.862323,48.704779],[36.862067,48.704716],[36.861668,48.705451],[36.861667,48.705451],[36.861514,48.705735]]]}},{"type":"Feature","properties":{"cadnum":"1420355113:00:000:0049"},"geometry":{"type":"Polygon","coordinates":[[[36.861806,48.705762],[36.862085,48.705821],[36.862219,48.705565],[36.862219,48.705564],[36.862596,48.704847],[36.862323,48.704779],[36.861969,48.705451],[36.861806,48.705762]]]}},{"type":"Feature","properties":{"cadnum":"1420355113:00:000:0025"},"geometry":{"type":"Polygon","coordinates":[[[36.852981,48.701754],[36.853281,48.701826],[36.853724,48.701932],[36.853724,48.701931],[36.853752,48.701938],[36.853753,48.701938],[36.853829,48.701799],[36.853552,48.70174],[36.853044,48.70163],[36.852981,48.701754]]]}},{"type":"Feature","properties":{"cadnum":"1420355113:00:000:0024"},"geometry":{"type":"Polygon","coordinates":[[[36.852801,48.702099],[36.853552,48.702289],[36.853573,48.702294],[36.853724,48.701997],[36.853753,48.701938],[36.853724,48.701931],[36.852981,48.701754],[36.852943,48.701826],[36.852801,48.702099]]]}},{"type":"Feature","properties":{"cadnum":"1420355113:00:000:0032"},"geometry":{"type":"Polygon","coordinates":[[[36.851224,48.701668],[36.85148,48.701734],[36.851858,48.701108],[36.851602,48.701043],[36.851224,48.701668]]]}},{"type":"Feature","properties":{"cadnum":"1420355113:00:000:0014"},"geometry":{"type":"Polygon","coordinates":[[[36.850061,48.702878],[36.851224,48.703118],[36.851799,48.70206],[36.85103,48.701865],[36.850734,48.701791],[36.85064,48.701826],[36.85055,48.701879],[36.850521,48.701939],[36.850061,48.702878]]]}},{"type":"Feature","properties":{"cadnum":"1420355113:00:000:0031"},"geometry":{"type":"Polygon","coordinates":[[[36.85148,48.701734],[36.851875,48.701835],[36.852275,48.701174],[36.85188,48.701066],[36.851858,48.701108],[36.85148,48.701734]]]}},{"type":"Feature","properties":{"cadnum":"1420355113:00:000:0051"},"geometry":{"type":"Polygon","coordinates":[[[36.866886,48.705658],[36.867196,48.705753],[36.867427,48.705451],[36.867812,48.70495],[36.867506,48.704856],[36.866958,48.705564],[36.866959,48.705564],[36.866959,48.705565],[36.866886,48.705658]]]}},{"type":"Feature","properties":{"cadnum":"1420355113:00:000:0026"},"geometry":{"type":"Polygon","coordinates":[[[36.869932,48.707917],[36.870203,48.707989],[36.8703,48.708015],[36.870825,48.707161],[36.870569,48.707102],[36.870367,48.707357],[36.870113,48.707683],[36.869932,48.707917]]]}},{"type":"Feature","properties":{"cadnum":"1420355113:00:000:0052"},"geometry":{"type":"Polygon","coordinates":[[[36.864308,48.705074],[36.864321,48.705119],[36.864371,48.705164],[36.86446,48.705202],[36.864538,48.705226],[36.864564,48.705234],[36.86471,48.705275],[36.86495,48.705341],[36.865344,48.705451],[36.865376,48.70546],[36.865404,48.705467],[36.865765,48.705564],[36.865894,48.705599],[36.866464,48.705756],[36.867502,48.706026],[36.868997,48.706414],[36.869621,48.706595],[36.870031,48.706709],[36.87007,48.706719],[36.870203,48.706781],[36.870206,48.706782],[36.870305,48.706865],[36.87047,48.70695],[36.870668,48.707042],[36.870785,48.707081],[36.871621,48.707268],[36.872024,48.707365],[36.872443,48.707461],[36.872959,48.707573],[36.873408,48.707677],[36.873925,48.707796],[36.874481,48.707926],[36.874971,48.708039],[36.875357,48.708127],[36.875524,48.708165],[36.875525,48.708165],[36.875545,48.70817],[36.875696,48.708204],[36.875712,48.708208],[36.876386,48.708365],[36.876781,48.708468],[36.876817,48.708477],[36.877167,48.708566],[36.877428,48.708628],[36.877433,48.708619],[36.877446,48.708596],[36.876336,48.708308],[36.875573,48.708136],[36.875605,48.708083],[36.875626,48.70805],[36.875645,48.708024],[36.875397,48.707965],[36.874997,48.707884],[36.874647,48.707807],[36.874252,48.707716],[36.874028,48.707665],[36.873638,48.707576],[36.873341,48.707508],[36.8725,48.707306],[36.872173,48.707229],[36.871733,48.707132],[36.871728,48.707143],[36.87172,48.707158],[36.871108,48.707022],[36.870785,48.70691],[36.870619,48.706826],[36.870466,48.706743],[36.870332,48.70666],[36.870183,48.706589],[36.869105,48.706272],[36.868508,48.706115],[36.867982,48.705979],[36.866558,48.705608],[36.866233,48.705518],[36.865472,48.705309],[36.864627,48.705084],[36.864577,48.705001],[36.864613,48.704894],[36.86468,48.704784],[36.86471,48.704792],[36.86471,48.704791],[36.864717,48.704793],[36.86481,48.70466],[36.865076,48.704274],[36.865409,48.703794],[36.865466,48.703658],[36.865489,48.703554],[36.865458,48.703121],[36.865458,48.703107],[36.865256,48.703107],[36.865219,48.703109],[36.865219,48.70313],[36.865242,48.703379],[36.865252,48.703536],[36.865229,48.703646],[36.865179,48.703747],[36.864596,48.704579],[36.864439,48.704825],[36.864384,48.704917],[36.86434,48.704986],[36.864317,48.705021],[36.864308,48.705074]],[[36.865449,48.703468],[36.865481,48.703509],[36.865458,48.703516],[36.865458,48.703515],[36.865426,48.703474],[36.865449,48.703468]],[[36.865282,48.703681],[36.865283,48.703681],[36.865305,48.70369],[36.865292,48.703702],[36.865269,48.703696],[36.865282,48.703681]],[[36.865108,48.703913],[36.865129,48.703918],[36.86513,48.703918],[36.865122,48.703933],[36.865121,48.703933],[36.865099,48.703927],[36.865108,48.703913]],[[36.864955,48.704138],[36.864977,48.704144],[36.864969,48.704159],[36.864946,48.704153],[36.864955,48.704138]],[[36.864784,48.704372],[36.864806,48.704378],[36.864793,48.704393],[36.864776,48.704384],[36.864784,48.704372]],[[36.86471,48.704501],[36.864717,48.704494],[36.864735,48.7045],[36.864726,48.704514],[36.864703,48.704509],[36.864703,48.704508],[36.86471,48.704501]],[[36.86464,48.704615],[36.864653,48.704621],[36.864623,48.704663],[36.864604,48.704656],[36.86464,48.704615]],[[36.864627,48.704568],[36.86464,48.704573],[36.864627,48.704592],[36.864609,48.704586],[36.864609,48.704585],[36.864627,48.704568]],[[36.864514,48.704772],[36.864537,48.704781],[36.864528,48.704793],[36.864527,48.704793],[36.864506,48.704787],[36.864514,48.704772]],[[36.864416,48.704911],[36.864439,48.70492],[36.864424,48.704935],[36.864407,48.704926],[36.864416,48.704911]]]}},{"type":"Feature","properties":{"cadnum":"1420355113:00:000:0040"},"geometry":{"type":"Polygon","coordinates":[[[36.865112,48.705626],[36.865242,48.705658],[36.865315,48.705528],[36.865236,48.705508],[36.865189,48.705495],[36.865147,48.705564],[36.865148,48.705564],[36.865148,48.705565],[36.865112,48.705626]]]}},{"type":"Feature","properties":{"cadnum":"1420355113:00:000:0037"},"geometry":{"type":"Polygon","coordinates":[[[36.866109,48.706536],[36.866523,48.706625],[36.86694,48.705908],[36.866626,48.70583],[36.866464,48.706103],[36.866378,48.706088],[36.866109,48.706536]]]}},{"type":"Feature","properties":{"cadnum":"1420355113:00:000:0027"},"geometry":{"type":"Polygon","coordinates":[[[36.869689,48.708231],[36.870031,48.708323],[36.870031,48.708324],[36.870097,48.708341],[36.870203,48.708171],[36.870203,48.70817],[36.8703,48.708015],[36.870031,48.707943],[36.869932,48.707917],[36.869689,48.708231]]]}},{"type":"Feature","properties":{"cadnum":"1420355113:00:000:0036"},"geometry":{"type":"Polygon","coordinates":[[[36.854961,48.702241],[36.855698,48.70241],[36.855931,48.701959],[36.856002,48.701826],[36.85608,48.701681],[36.855338,48.701494],[36.855113,48.701939],[36.854961,48.702241]]]}},{"type":"Feature","properties":{"cadnum":"1420355113:00:000:0047"},"geometry":{"type":"Polygon","coordinates":[[[36.855931,48.701959],[36.856357,48.702045],[36.856833,48.702303],[36.856834,48.702303],[36.85678,48.702419],[36.857153,48.702501],[36.857386,48.701995],[36.857154,48.701939],[36.85608,48.701681],[36.85594,48.701939],[36.855941,48.701939],[36.855931,48.701959]]]}},{"type":"Feature","properties":{"cadnum":"1420355113:00:000:0050"},"geometry":{"type":"Polygon","coordinates":[[[36.858918,48.703631],[36.859045,48.703661],[36.859045,48.703662],[36.859193,48.703696],[36.859217,48.703659],[36.859233,48.703634],[36.859286,48.703527],[36.859353,48.703408],[36.859663,48.702822],[36.859332,48.702738],[36.859217,48.702985],[36.85904,48.703364],[36.858918,48.703631]]]}},{"type":"Feature","properties":{"cadnum":"1420355113:00:000:0039"},"geometry":{"type":"Polygon","coordinates":[[[36.862215,48.70447],[36.862556,48.704553],[36.862992,48.703764],[36.862651,48.703681],[36.862215,48.70447]]]}},{"type":"Feature","properties":{"cadnum":"1420355113:00:000:0033"},"geometry":{"type":"Polygon","coordinates":[[[36.859547,48.703794],[36.859893,48.70388],[36.860306,48.703103],[36.859969,48.703008],[36.859547,48.703794]]]}},{"type":"Feature","properties":{"cadnum":"1420355113:00:000:0053"},"geometry":{"type":"Polygon","coordinates":[[[36.871988,48.705688],[36.873175,48.705999],[36.873575,48.70562],[36.873727,48.705472],[36.872842,48.705148],[36.87255,48.70517],[36.87242,48.705252],[36.872361,48.705311],[36.872222,48.705451],[36.872221,48.705451],[36.871988,48.705688]]]}},{"type":"Feature","properties":{"cadnum":"1420355113:00:000:0041"},"geometry":{"type":"Polygon","coordinates":[[[36.870139,48.704944],[36.871148,48.705318],[36.871149,48.705318],[36.871351,48.705412],[36.871317,48.705451],[36.871316,48.705451],[36.871242,48.705537],[36.871218,48.705564],[36.871218,48.705565],[36.871005,48.705812],[36.871328,48.705928],[36.871562,48.705685],[36.871881,48.705798],[36.871988,48.705688],[36.872223,48.705451],[36.87242,48.705252],[36.870646,48.704393],[36.870139,48.704944]]]}},{"type":"Feature","properties":{"cadnum":"1420355113:00:000:0013"},"geometry":{"type":"Polygon","coordinates":[[[36.855006,48.704245],[36.855518,48.704369],[36.855927,48.703685],[36.855411,48.703557],[36.855006,48.704245]]]}},{"type":"Feature","properties":{"cadnum":"1420355113:00:000:0018"},"geometry":{"type":"Polygon","coordinates":[[[36.858055,48.703358],[36.858091,48.703364],[36.858069,48.703406],[36.858361,48.703468],[36.858694,48.702866],[36.858361,48.702795],[36.858055,48.703358]]]}},{"type":"Feature","properties":{"cadnum":"1420355113:00:000:0015"},"geometry":{"type":"Polygon","coordinates":[[[36.855411,48.703557],[36.855927,48.703685],[36.856233,48.703169],[36.855715,48.703041],[36.855411,48.703557]]]}},{"type":"Feature","properties":{"cadnum":"1420355113:00:000:0045"},"geometry":{"type":"Polygon","coordinates":[[[36.857642,48.703316],[36.858007,48.703408],[36.858298,48.702641],[36.857939,48.702546],[36.857642,48.703316]]]}},{"type":"Feature","properties":{"cadnum":"1420355113:00:000:0044"},"geometry":{"type":"Polygon","coordinates":[[[36.857369,48.7045],[36.857719,48.704568],[36.858055,48.703678],[36.857778,48.70361],[36.857369,48.7045]]]}},{"type":"Feature","properties":{"cadnum":"1420355113:00:000:0048"},"geometry":{"type":"Polygon","coordinates":[[[36.855841,48.702875],[36.856183,48.702955],[36.85652,48.702131],[36.856357,48.702045],[36.856227,48.702018],[36.855841,48.702875]]]}},{"type":"Feature","properties":{"cadnum":"1420355113:00:000:0035"},"geometry":{"type":"Polygon","coordinates":[[[36.854768,48.702608],[36.855482,48.702786],[36.855698,48.70241],[36.854961,48.702241],[36.854768,48.702608]]]}},{"type":"Feature","properties":{"cadnum":"1420355113:00:000:0017"},"geometry":{"type":"Polygon","coordinates":[[[36.853151,48.70337],[36.85347,48.703447],[36.853552,48.703308],[36.853708,48.703041],[36.853724,48.703015],[36.853964,48.702606],[36.85365,48.702525],[36.853151,48.70337]]]}},{"type":"Feature","properties":{"cadnum":"1420355113:00:000:0023"},"geometry":{"type":"Polygon","coordinates":[[[36.871194,48.706987],[36.871562,48.707081],[36.87176,48.706749],[36.871382,48.706664],[36.871194,48.706987]]]}},{"type":"Feature","properties":{"cadnum":"1420355113:00:000:0020"},"geometry":{"type":"Polygon","coordinates":[[[36.870988,48.706005],[36.871347,48.706133],[36.87167,48.705649],[36.871338,48.705555],[36.870988,48.706005]]]}},{"type":"Feature","properties":{"cadnum":"1420355113:00:000:0021"},"geometry":{"type":"Polygon","coordinates":[[[36.870483,48.706651],[36.870753,48.706749],[36.871009,48.706627],[36.871347,48.706133],[36.870988,48.706005],[36.870623,48.706462],[36.870483,48.706651]]]}},{"type":"Feature","properties":{"cadnum":"1420355113:00:000:0042"},"geometry":{"type":"Polygon","coordinates":[[[36.872913,48.708604],[36.873223,48.708664],[36.873506,48.708018],[36.873646,48.707757],[36.873345,48.707692],[36.873125,48.70811],[36.872913,48.708604]]]}},{"type":"Feature","properties":{"cadnum":"1420355113:00:000:0030"},"geometry":{"type":"Polygon","coordinates":[[[36.874638,48.707013],[36.87502,48.707111],[36.875343,48.706518],[36.874971,48.706426],[36.874894,48.706559],[36.874638,48.707013]]]}},{"type":"Feature","properties":{"cadnum":"1420355113:00:000:0043"},"geometry":{"type":"Polygon","coordinates":[[[36.872756,48.708958],[36.873062,48.709026],[36.873223,48.708664],[36.872913,48.708604],[36.872756,48.708958]]]}},{"type":"Feature","properties":{"cadnum":"1420355113:00:000:0038"},"geometry":{"type":"Polygon","coordinates":[[[36.873475,48.708821],[36.873735,48.708881],[36.873894,48.708534],[36.874114,48.708077],[36.874198,48.707879],[36.873934,48.707819],[36.873745,48.708166],[36.873475,48.708821]]]}},{"type":"Feature","properties":{"cadnum":"1420355113:00:000:0029"},"geometry":{"type":"Polygon","coordinates":[[[36.874248,48.707707],[36.874643,48.707802],[36.87502,48.707111],[36.874638,48.707013],[36.874248,48.707707]]]}},{"type":"Feature","properties":{"cadnum":"1420355113:00:000:0022"},"geometry":{"type":"Polygon","coordinates":[[[36.871171,48.706388],[36.871558,48.706486],[36.871858,48.705697],[36.87167,48.705649],[36.871347,48.706133],[36.871171,48.706388]]]}},{"type":"Feature","properties":{"cadnum":"1420355113:00:000:0016"},"geometry":{"type":"Polygon","coordinates":[[[36.853048,48.703548],[36.853361,48.703625],[36.85347,48.703447],[36.853151,48.70337],[36.853048,48.703548]]]}}]}