{"type":"FeatureCollection","features":[{"type":"Feature","properties":{"cadnum":"1420388001:00:000:0158"},"geometry":{"type":"Polygon","coordinates":[[[37.229909,48.670993],[37.230201,48.671313],[37.23258,48.670455],[37.23258,48.670456],[37.232586,48.670454],[37.232586,48.670453],[37.232734,48.670399],[37.232631,48.670159],[37.232446,48.669988],[37.230115,48.67091],[37.229909,48.670993]]]}},{"type":"Feature","properties":{"cadnum":"1420388001:00:000:0129"},"geometry":{"type":"Polygon","coordinates":[[[37.237069,48.67183],[37.237203,48.672141],[37.237765,48.672049],[37.23767,48.671734],[37.237069,48.67183]]]}},{"type":"Feature","properties":{"cadnum":"1420388001:00:000:0128"},"geometry":{"type":"Polygon","coordinates":[[[37.236134,48.67199],[37.236354,48.672292],[37.236836,48.672204],[37.237203,48.672141],[37.237069,48.67183],[37.236511,48.671916],[37.236134,48.67199]]]}},{"type":"Feature","properties":{"cadnum":"1420388001:00:000:0041"},"geometry":{"type":"Polygon","coordinates":[[[37.219685,48.676854],[37.219704,48.677162],[37.219775,48.677687],[37.22009,48.677726],[37.219991,48.67683],[37.219685,48.676854]]]}},{"type":"Feature","properties":{"cadnum":"1420388001:00:000:0124"},"geometry":{"type":"Polygon","coordinates":[[[37.219341,48.676005],[37.219457,48.676361],[37.219478,48.676442],[37.2195,48.676529],[37.219507,48.676555],[37.219547,48.676708],[37.219915,48.676658],[37.219891,48.676442],[37.219884,48.676379],[37.219857,48.675973],[37.219341,48.676005]]]}},{"type":"Feature","properties":{"cadnum":"1420388001:00:000:0148"},"geometry":{"type":"Polygon","coordinates":[[[37.221452,48.676608],[37.221456,48.676851],[37.22155,48.677414],[37.221594,48.677501],[37.221689,48.677687],[37.221766,48.677671],[37.221766,48.67767],[37.221945,48.677631],[37.221806,48.677403],[37.221756,48.676824],[37.221743,48.676575],[37.221618,48.676587],[37.221452,48.676608]]]}},{"type":"Feature","properties":{"cadnum":"1420388001:00:000:0170"},"geometry":{"type":"Polygon","coordinates":[[[37.222314,48.67382],[37.222462,48.67411],[37.222893,48.674075],[37.223427,48.674084],[37.223369,48.673906],[37.223284,48.673743],[37.222804,48.673781],[37.222314,48.67382]]]}},{"type":"Feature","properties":{"cadnum":"1420388001:00:000:0119"},"geometry":{"type":"Polygon","coordinates":[[[37.223203,48.673179],[37.223213,48.67344],[37.22371,48.673428],[37.223813,48.673164],[37.223203,48.673179]]]}},{"type":"Feature","properties":{"cadnum":"1420388001:00:000:0118"},"geometry":{"type":"Polygon","coordinates":[[[37.222004,48.673241],[37.222129,48.673488],[37.222605,48.673466],[37.223213,48.67344],[37.223203,48.673179],[37.222543,48.673194],[37.222004,48.673241]]]}},{"type":"Feature","properties":{"cadnum":"1420388001:00:000:0147"},"geometry":{"type":"Polygon","coordinates":[[[37.225907,48.675029],[37.226199,48.675225],[37.22698,48.675047],[37.226895,48.674837],[37.225907,48.675029]]]}},{"type":"Feature","properties":{"cadnum":"1420388001:00:000:0083"},"geometry":{"type":"Polygon","coordinates":[[[37.22623,48.675273],[37.226406,48.67546],[37.227259,48.675284],[37.227259,48.675283],[37.227794,48.675172],[37.227618,48.674935],[37.227605,48.674935],[37.227087,48.675062],[37.227087,48.675063],[37.22623,48.675273]]]}},{"type":"Feature","properties":{"cadnum":"1420388001:00:000:0146"},"geometry":{"type":"Polygon","coordinates":[[[37.226895,48.674837],[37.22698,48.675047],[37.227043,48.675036],[37.227087,48.675026],[37.227101,48.675023],[37.227259,48.674988],[37.227259,48.674987],[37.227295,48.674979],[37.227282,48.674938],[37.227568,48.674888],[37.228526,48.674748],[37.2284,48.674549],[37.227181,48.674783],[37.226895,48.674837]]]}},{"type":"Feature","properties":{"cadnum":"1420388001:00:000:0162"},"geometry":{"type":"Polygon","coordinates":[[[37.223603,48.676302],[37.223649,48.676442],[37.223648,48.676442],[37.223702,48.676599],[37.223863,48.677005],[37.224218,48.676937],[37.224033,48.676539],[37.22393,48.676317],[37.223957,48.676314],[37.223939,48.676273],[37.22389,48.676282],[37.223809,48.676273],[37.223603,48.676302]]]}},{"type":"Feature","properties":{"cadnum":"1420388001:00:000:0132"},"geometry":{"type":"Polygon","coordinates":[[[37.222462,48.67411],[37.222565,48.674321],[37.22301,48.674318],[37.223634,48.674324],[37.223549,48.674084],[37.222893,48.674075],[37.222462,48.67411]]]}},{"type":"Feature","properties":{"cadnum":"1420388001:00:000:0171"},"geometry":{"type":"Polygon","coordinates":[[[37.223369,48.673906],[37.223427,48.674084],[37.223549,48.674084],[37.223369,48.673906]]]}},{"type":"Feature","properties":{"cadnum":"1420388001:00:000:0105"},"geometry":{"type":"Polygon","coordinates":[[[37.225773,48.674935],[37.225907,48.675029],[37.227259,48.67477],[37.2284,48.674549],[37.228391,48.674532],[37.228337,48.674442],[37.227471,48.674611],[37.227087,48.67468],[37.226787,48.674733],[37.225773,48.674935]]]}},{"type":"Feature","properties":{"cadnum":"1420388001:00:000:0113"},"geometry":{"type":"Polygon","coordinates":[[[37.226406,48.67546],[37.226746,48.675697],[37.227087,48.675629],[37.227087,48.67563],[37.22827,48.675394],[37.22813,48.675101],[37.227259,48.675283],[37.226522,48.675436],[37.226406,48.67546]]]}},{"type":"Feature","properties":{"cadnum":"1420388001:00:000:0163"},"geometry":{"type":"Polygon","coordinates":[[[37.22393,48.676317],[37.223988,48.676442],[37.224033,48.676539],[37.224137,48.676519],[37.224033,48.676302],[37.223957,48.676314],[37.22393,48.676317]]]}},{"type":"Feature","properties":{"cadnum":"1420388001:00:000:0060"},"geometry":{"type":"Polygon","coordinates":[[[37.222538,48.676483],[37.222557,48.676555],[37.222558,48.676555],[37.222647,48.676875],[37.22288,48.677544],[37.22318,48.6775],[37.223127,48.67739],[37.222875,48.676711],[37.222798,48.676448],[37.222798,48.676447],[37.222538,48.676483]]]}},{"type":"Feature","properties":{"cadnum":"1420388001:00:000:0164"},"geometry":{"type":"Polygon","coordinates":[[[37.223553,48.676051],[37.223589,48.676183],[37.223819,48.676154],[37.223779,48.67602],[37.223553,48.676051]]]}},{"type":"Feature","properties":{"cadnum":"1420388001:00:000:0107"},"geometry":{"type":"Polygon","coordinates":[[[37.225853,48.686219],[37.226006,48.686453],[37.226949,48.686169],[37.226994,48.686156],[37.226863,48.685923],[37.226842,48.685931],[37.225853,48.686219]]]}},{"type":"Feature","properties":{"cadnum":"1420388001:00:000:0155"},"geometry":{"type":"Polygon","coordinates":[[[37.22571,48.686032],[37.225853,48.686219],[37.226742,48.685958],[37.226589,48.685765],[37.22571,48.686032]]]}},{"type":"Feature","properties":{"cadnum":"1420388001:00:000:0106"},"geometry":{"type":"Polygon","coordinates":[[[37.226863,48.685923],[37.226994,48.686156],[37.227087,48.686128],[37.227222,48.686085],[37.227259,48.686075],[37.227717,48.685938],[37.228144,48.685807],[37.227987,48.685584],[37.227456,48.685751],[37.227115,48.685848],[37.226863,48.685923]]]}},{"type":"Feature","properties":{"cadnum":"1420388001:00:000:0154"},"geometry":{"type":"Polygon","coordinates":[[[37.226589,48.685765],[37.226742,48.685958],[37.226842,48.685931],[37.226863,48.685923],[37.227087,48.685857],[37.227115,48.685848],[37.227259,48.685807],[37.227456,48.685751],[37.227987,48.685584],[37.227834,48.685386],[37.227339,48.685537],[37.227184,48.685584],[37.227016,48.685635],[37.226742,48.685718],[37.226589,48.685765]]]}},{"type":"Feature","properties":{"cadnum":"1420388001:00:000:0102"},"geometry":{"type":"Polygon","coordinates":[[[37.237257,48.689018],[37.237603,48.689158],[37.237967,48.689428],[37.238073,48.689478],[37.238161,48.689519],[37.238245,48.689554],[37.238411,48.689623],[37.238631,48.689496],[37.238851,48.689184],[37.238914,48.688861],[37.238861,48.68876],[37.23874,48.688606],[37.238658,48.688526],[37.238511,48.688455],[37.238073,48.688651],[37.237257,48.689018]]]}},{"type":"Feature","properties":{"cadnum":"1420388001:00:000:0104"},"geometry":{"type":"Polygon","coordinates":[[[37.236996,48.688485],[37.237513,48.688903],[37.238073,48.688651],[37.238223,48.688583],[37.238245,48.688573],[37.238258,48.688567],[37.238073,48.688422],[37.237675,48.688108],[37.236996,48.688485]]]}},{"type":"Feature","properties":{"cadnum":"1420388001:00:000:0117"},"geometry":{"type":"Polygon","coordinates":[[[37.238362,48.66738],[37.238694,48.667466],[37.238748,48.667312],[37.23896,48.667339],[37.239031,48.667143],[37.238519,48.66706],[37.238362,48.66738]]]}},{"type":"Feature","properties":{"cadnum":"1420388001:00:000:0116"},"geometry":{"type":"Polygon","coordinates":[[[37.238519,48.66706],[37.239031,48.667143],[37.239081,48.667013],[37.239287,48.666597],[37.23904,48.666514],[37.238897,48.666416],[37.238595,48.666903],[37.238519,48.66706]]]}},{"type":"Feature","properties":{"cadnum":"1420388001:00:000:0133"},"geometry":{"type":"Polygon","coordinates":[[[37.220706,48.672108],[37.220993,48.672551],[37.221043,48.672589],[37.221119,48.672817],[37.221429,48.672796],[37.221352,48.672568],[37.221272,48.672547],[37.22097,48.672292],[37.220706,48.672108]]]}},{"type":"Feature","properties":{"cadnum":"1420388001:00:000:0150"},"geometry":{"type":"Polygon","coordinates":[[[37.227259,48.681907],[37.227412,48.6821],[37.227658,48.682011],[37.227505,48.681819],[37.227259,48.681907]]]}},{"type":"Feature","properties":{"cadnum":"1420388001:00:000:0156"},"geometry":{"type":"Polygon","coordinates":[[[37.227798,48.680315],[37.227914,48.680511],[37.228319,48.680395],[37.229258,48.680113],[37.229132,48.679926],[37.228644,48.680069],[37.228643,48.680069],[37.228319,48.680164],[37.228317,48.680164],[37.228255,48.680182],[37.227798,48.680315]]]}},{"type":"Feature","properties":{"cadnum":"1420388001:00:000:0085"},"geometry":{"type":"Polygon","coordinates":[[[37.227914,48.680511],[37.228022,48.680698],[37.228463,48.680567],[37.229375,48.680324],[37.229258,48.680113],[37.229028,48.680182],[37.228319,48.680395],[37.227914,48.680511]]]}},{"type":"Feature","properties":{"cadnum":"1420388001:00:000:0072"},"geometry":{"type":"Polygon","coordinates":[[[37.229289,48.680514],[37.229437,48.680742],[37.229989,48.680612],[37.230092,48.6803],[37.229289,48.680514]]]}},{"type":"Feature","properties":{"cadnum":"1420388001:00:000:0168"},"geometry":{"type":"Polygon","coordinates":[[[37.229159,48.68247],[37.22928,48.682661],[37.229649,48.682539],[37.230687,48.68223],[37.230555,48.682047],[37.229549,48.682361],[37.229159,48.68247]]]}},{"type":"Feature","properties":{"cadnum":"1420388001:00:000:0169"},"geometry":{"type":"Polygon","coordinates":[[[37.230555,48.682047],[37.230687,48.68223],[37.2317,48.681928],[37.23158,48.681727],[37.230555,48.682047]]]}},{"type":"Feature","properties":{"cadnum":"1420388001:00:000:0046"},"geometry":{"type":"Polygon","coordinates":[[[37.229995,48.683589],[37.230093,48.683696],[37.230092,48.683696],[37.230165,48.683773],[37.230776,48.683538],[37.231423,48.683322],[37.231293,48.683138],[37.230555,48.683373],[37.229995,48.683589]]]}},{"type":"Feature","properties":{"cadnum":"1420388001:00:000:0090"},"geometry":{"type":"Polygon","coordinates":[[[37.230794,48.68267],[37.230933,48.682856],[37.232101,48.682479],[37.231957,48.682311],[37.230794,48.68267]]]}},{"type":"Feature","properties":{"cadnum":"1420388001:00:000:0057"},"geometry":{"type":"Polygon","coordinates":[[[37.230547,48.684179],[37.230735,48.684363],[37.231266,48.684138],[37.231979,48.683883],[37.231832,48.683705],[37.231535,48.683809],[37.231077,48.683971],[37.230547,48.684179]]]}},{"type":"Feature","properties":{"cadnum":"1420388001:00:000:0058"},"geometry":{"type":"Polygon","coordinates":[[[37.231832,48.683705],[37.231918,48.683809],[37.231979,48.683883],[37.232454,48.683706],[37.23258,48.683659],[37.23258,48.68366],[37.232681,48.683621],[37.232545,48.683452],[37.231857,48.683696],[37.231856,48.683696],[37.231832,48.683705]]]}},{"type":"Feature","properties":{"cadnum":"1420388001:00:000:0160"},"geometry":{"type":"Polygon","coordinates":[[[37.230092,48.681474],[37.230218,48.68167],[37.230219,48.68167],[37.231149,48.681403],[37.230847,48.681258],[37.230092,48.681474]]]}},{"type":"Feature","properties":{"cadnum":"1420388001:00:000:0082"},"geometry":{"type":"Polygon","coordinates":[[[37.230147,48.681854],[37.230286,48.682067],[37.23157,48.681667],[37.231224,48.681522],[37.230147,48.681854]]]}},{"type":"Feature","properties":{"cadnum":"1420388001:00:000:0114"},"geometry":{"type":"Polygon","coordinates":[[[37.227857,48.682714],[37.228094,48.683037],[37.228341,48.68296],[37.228098,48.682637],[37.227857,48.682714]]]}},{"type":"Feature","properties":{"cadnum":"1420388001:00:000:0089"},"geometry":{"type":"Polygon","coordinates":[[[37.229522,48.683067],[37.229675,48.683263],[37.230251,48.683085],[37.230933,48.682856],[37.230794,48.68267],[37.229981,48.682925],[37.229522,48.683067]]]}},{"type":"Feature","properties":{"cadnum":"1420388001:00:000:0047"},"geometry":{"type":"Polygon","coordinates":[[[37.231293,48.683138],[37.231423,48.683322],[37.232509,48.68296],[37.23237,48.682794],[37.231293,48.683138]]]}},{"type":"Feature","properties":{"cadnum":"1420388001:00:000:0081"},"geometry":{"type":"Polygon","coordinates":[[[37.228983,48.682192],[37.229132,48.682421],[37.2295,48.682314],[37.230286,48.682067],[37.230147,48.681854],[37.22941,48.682076],[37.228983,48.682192]]]}},{"type":"Feature","properties":{"cadnum":"1420388001:00:000:0136"},"geometry":{"type":"Polygon","coordinates":[[[37.227084,48.681632],[37.227087,48.681635],[37.227173,48.681747],[37.227259,48.681718],[37.227398,48.68167],[37.227308,48.681555],[37.227094,48.681629],[37.227084,48.681632]]]}},{"type":"Feature","properties":{"cadnum":"1420388001:00:000:0086"},"geometry":{"type":"Polygon","coordinates":[[[37.229258,48.680113],[37.229296,48.680182],[37.229297,48.680182],[37.229375,48.680324],[37.230034,48.680149],[37.230035,48.680149],[37.230241,48.679817],[37.229895,48.67992],[37.229404,48.680069],[37.229403,48.680069],[37.229259,48.680113],[37.229258,48.680113]]]}},{"type":"Feature","properties":{"cadnum":"1420388001:00:000:0071"},"geometry":{"type":"Polygon","coordinates":[[[37.228081,48.680848],[37.22822,48.681056],[37.228723,48.680911],[37.229437,48.680742],[37.229289,48.680514],[37.228526,48.680718],[37.228081,48.680848]]]}},{"type":"Feature","properties":{"cadnum":"1420388001:00:000:0159"},"geometry":{"type":"Polygon","coordinates":[[[37.228767,48.68186],[37.2288,48.681905],[37.228885,48.682041],[37.229316,48.681931],[37.230218,48.68167],[37.230092,48.681474],[37.229213,48.681727],[37.228867,48.68183],[37.228767,48.68186]]]}},{"type":"Feature","properties":{"cadnum":"1420388001:00:000:0088"},"geometry":{"type":"Polygon","coordinates":[[[37.225089,48.679725],[37.225238,48.679988],[37.225651,48.679887],[37.225521,48.679671],[37.225089,48.679725]]]}},{"type":"Feature","properties":{"cadnum":"1420388001:00:000:0059"},"geometry":{"type":"Polygon","coordinates":[[[37.22288,48.677544],[37.222915,48.677654],[37.223077,48.67759],[37.223226,48.67759],[37.22318,48.6775],[37.22288,48.677544]]]}},{"type":"Feature","properties":{"cadnum":"1420388001:00:000:0110"},"geometry":{"type":"Polygon","coordinates":[[[37.223567,48.678414],[37.223895,48.678803],[37.224056,48.67903],[37.224056,48.679037],[37.224492,48.678983],[37.224213,48.678627],[37.223939,48.678292],[37.223567,48.678414]]]}},{"type":"Feature","properties":{"cadnum":"1420388001:00:000:0051"},"geometry":{"type":"Polygon","coordinates":[[[37.225857,48.6781],[37.226056,48.67831],[37.226406,48.678236],[37.227087,48.67811],[37.227147,48.678099],[37.227259,48.678078],[37.227286,48.678073],[37.227106,48.677862],[37.226374,48.677996],[37.225857,48.6781]]]}},{"type":"Feature","properties":{"cadnum":"1420388001:00:000:0149"},"geometry":{"type":"Polygon","coordinates":[[[37.221689,48.677687],[37.221909,48.678117],[37.222161,48.677999],[37.221945,48.677631],[37.221689,48.677687]]]}},{"type":"Feature","properties":{"cadnum":"1420388001:00:000:0063"},"geometry":{"type":"Polygon","coordinates":[[[37.225727,48.67796],[37.225857,48.6781],[37.226374,48.677996],[37.227087,48.677866],[37.227106,48.677862],[37.227232,48.677841],[37.227259,48.677836],[37.227362,48.677814],[37.227263,48.677773],[37.227176,48.677784],[37.225727,48.67796]]]}},{"type":"Feature","properties":{"cadnum":"1420388001:00:000:0111"},"geometry":{"type":"Polygon","coordinates":[[[37.223419,48.678239],[37.223567,48.678414],[37.223939,48.678292],[37.223764,48.678078],[37.223419,48.678239]]]}},{"type":"Feature","properties":{"cadnum":"1420388001:00:000:0092"},"geometry":{"type":"Polygon","coordinates":[[[37.223742,48.679632],[37.223836,48.679843],[37.224159,48.679956],[37.224268,48.680098],[37.224681,48.680042],[37.224429,48.679529],[37.223742,48.679632]]]}},{"type":"Feature","properties":{"cadnum":"1420388001:00:000:0087"},"geometry":{"type":"Polygon","coordinates":[[[37.224725,48.679037],[37.224874,48.679333],[37.225089,48.679725],[37.225521,48.679671],[37.22531,48.679322],[37.225134,48.678983],[37.224725,48.679037]]]}},{"type":"Feature","properties":{"cadnum":"1420388001:00:000:0052"},"geometry":{"type":"Polygon","coordinates":[[[37.227106,48.677862],[37.227259,48.678042],[37.227286,48.678073],[37.227475,48.678037],[37.227232,48.677841],[37.227106,48.677862]]]}},{"type":"Feature","properties":{"cadnum":"1420388001:00:000:0091"},"geometry":{"type":"Polygon","coordinates":[[[37.223599,48.679309],[37.223742,48.679632],[37.224429,48.679529],[37.224358,48.679386],[37.224213,48.679084],[37.223792,48.679153],[37.223764,48.679182],[37.223599,48.679309]]]}},{"type":"Feature","properties":{"cadnum":"1420388001:00:000:0165"},"geometry":{"type":"Polygon","coordinates":[[[37.224066,48.677322],[37.224222,48.677513],[37.22442,48.677399],[37.224371,48.677227],[37.224066,48.677322]]]}},{"type":"Feature","properties":{"cadnum":"1420388001:00:000:0103"},"geometry":{"type":"Polygon","coordinates":[[[37.23653,48.688852],[37.237123,48.689089],[37.237257,48.689018],[37.237513,48.688903],[37.236996,48.688485],[37.236799,48.688594],[37.23653,48.688852]]]}},{"type":"Feature","properties":{"cadnum":"1420388001:00:000:0056"},"geometry":{"type":"Polygon","coordinates":[[[37.236772,48.687945],[37.236992,48.688116],[37.237635,48.6878],[37.237423,48.687613],[37.236772,48.687945]]]}},{"type":"Feature","properties":{"cadnum":"1420388001:00:000:0077"},"geometry":{"type":"Polygon","coordinates":[[[37.234212,48.687497],[37.234419,48.687654],[37.2348,48.687453],[37.234951,48.687381],[37.235568,48.68709],[37.235352,48.686916],[37.234607,48.687292],[37.234548,48.687322],[37.234439,48.687379],[37.234329,48.687436],[37.234212,48.687497]]]}},{"type":"Feature","properties":{"cadnum":"1420388001:00:000:0055"},"geometry":{"type":"Polygon","coordinates":[[[37.235738,48.688549],[37.236035,48.688686],[37.236404,48.688404],[37.236992,48.688117],[37.236992,48.688116],[37.236772,48.687945],[37.23604,48.688318],[37.235738,48.688549]]]}},{"type":"Feature","properties":{"cadnum":"1420388001:00:000:0043"},"geometry":{"type":"Polygon","coordinates":[[[37.227632,48.672883],[37.22764,48.672928],[37.22765,48.672978],[37.227672,48.673087],[37.228121,48.673022],[37.228081,48.672829],[37.227727,48.672871],[37.227632,48.672883]]]}},{"type":"Feature","properties":{"cadnum":"1420388001:00:000:0084"},"geometry":{"type":"Polygon","coordinates":[[[37.227618,48.674935],[37.227794,48.675172],[37.228494,48.675027],[37.22901,48.67492],[37.228857,48.674719],[37.22844,48.674792],[37.227618,48.674935]]]}},{"type":"Feature","properties":{"cadnum":"1420388001:00:000:0112"},"geometry":{"type":"Polygon","coordinates":[[[37.22813,48.675101],[37.22827,48.675394],[37.228746,48.675297],[37.228754,48.675321],[37.229253,48.675166],[37.22902,48.674917],[37.22901,48.67492],[37.228494,48.675027],[37.22813,48.675101]]]}},{"type":"Feature","properties":{"cadnum":"1420388001:00:000:0153"},"geometry":{"type":"Polygon","coordinates":[[[37.227712,48.673152],[37.227784,48.67333],[37.227794,48.673351],[37.228234,48.673303],[37.228171,48.673102],[37.227712,48.673152]]]}},{"type":"Feature","properties":{"cadnum":"1420388001:00:000:0138"},"geometry":{"type":"Polygon","coordinates":[[[37.228759,48.676658],[37.229195,48.676919],[37.229832,48.676762],[37.229899,48.676747],[37.229786,48.676555],[37.229787,48.676555],[37.229716,48.676433],[37.229678,48.676442],[37.229677,48.676442],[37.229273,48.676537],[37.229195,48.676555],[37.228759,48.676658]]]}},{"type":"Feature","properties":{"cadnum":"1420388001:00:000:0137"},"geometry":{"type":"Polygon","coordinates":[[[37.229716,48.676433],[37.229721,48.676442],[37.22972,48.676442],[37.229899,48.676747],[37.230457,48.676623],[37.230794,48.676492],[37.230488,48.676237],[37.230125,48.676337],[37.229716,48.676433]]]}},{"type":"Feature","properties":{"cadnum":"1420388001:00:000:0115"},"geometry":{"type":"Polygon","coordinates":[[[37.23096,48.675899],[37.231287,48.676151],[37.231486,48.676038],[37.231157,48.675786],[37.23096,48.675899]]]}},{"type":"Feature","properties":{"cadnum":"1420388001:00:000:0126"},"geometry":{"type":"Polygon","coordinates":[[[37.228328,48.673084],[37.228413,48.67328],[37.229016,48.673197],[37.229936,48.673048],[37.229878,48.672862],[37.229821,48.672871],[37.229805,48.672874],[37.229792,48.672876],[37.229473,48.672928],[37.228966,48.67301],[37.228328,48.673084]]]}},{"type":"Feature","properties":{"cadnum":"1420388001:00:000:0044"},"geometry":{"type":"Polygon","coordinates":[[[37.22831,48.673013],[37.228373,48.673206],[37.229016,48.673141],[37.229859,48.673019],[37.229812,48.672836],[37.229805,48.672808],[37.229768,48.672815],[37.229385,48.672879],[37.229089,48.672928],[37.228899,48.67296],[37.22831,48.673013]]]}},{"type":"Feature","properties":{"cadnum":"1420388001:00:000:0142"},"geometry":{"type":"Polygon","coordinates":[[[37.229958,48.676735],[37.230129,48.677032],[37.231121,48.67675],[37.230794,48.676492],[37.23063,48.676555],[37.230631,48.676555],[37.230457,48.676623],[37.229958,48.676735]]]}},{"type":"Feature","properties":{"cadnum":"1420388001:00:000:0040"},"geometry":{"type":"Polygon","coordinates":[[[37.229805,48.672808],[37.229807,48.672814],[37.229807,48.672815],[37.229812,48.672836],[37.229835,48.672928],[37.229836,48.672928],[37.229859,48.673019],[37.23063,48.672909],[37.230776,48.672888],[37.230776,48.672886],[37.230717,48.672657],[37.229805,48.672808]]]}},{"type":"Feature","properties":{"cadnum":"1420388001:00:000:0076"},"geometry":{"type":"Polygon","coordinates":[[[37.229329,48.685813],[37.229492,48.686017],[37.229693,48.685949],[37.229509,48.685753],[37.229329,48.685813]]]}},{"type":"Feature","properties":{"cadnum":"1420388001:00:000:0145"},"geometry":{"type":"Polygon","coordinates":[[[37.232518,48.684398],[37.23258,48.684477],[37.23258,48.684478],[37.232662,48.684582],[37.232752,48.684548],[37.232851,48.684511],[37.232734,48.684316],[37.232518,48.684398]]]}},{"type":"Feature","properties":{"cadnum":"1420388001:00:000:0166"},"geometry":{"type":"Polygon","coordinates":[[[37.232123,48.685783],[37.232303,48.685976],[37.23258,48.685857],[37.232619,48.68584],[37.232752,48.685784],[37.232752,48.685783],[37.232945,48.6857],[37.233507,48.685468],[37.233337,48.685288],[37.232685,48.685564],[37.232123,48.685783]]]}},{"type":"Feature","properties":{"cadnum":"1420388001:00:000:0144"},"geometry":{"type":"Polygon","coordinates":[[[37.231252,48.684899],[37.231423,48.685066],[37.23188,48.684885],[37.232662,48.684582],[37.232518,48.684398],[37.231773,48.68468],[37.231252,48.684899]]]}},{"type":"Feature","properties":{"cadnum":"1420388001:00:000:0075"},"geometry":{"type":"Polygon","coordinates":[[[37.229509,48.685753],[37.229693,48.685949],[37.230412,48.685703],[37.230897,48.685519],[37.230727,48.685341],[37.230278,48.685498],[37.229509,48.685753]]]}},{"type":"Feature","properties":{"cadnum":"1420388001:00:000:0100"},"geometry":{"type":"Polygon","coordinates":[[[37.237446,48.676228],[37.237644,48.676555],[37.237645,48.676555],[37.238034,48.677195],[37.238073,48.677265],[37.238236,48.677557],[37.238245,48.677556],[37.238245,48.677555],[37.23873,48.677476],[37.238438,48.676803],[37.238293,48.676525],[37.238245,48.676432],[37.238222,48.676388],[37.237782,48.67602],[37.237446,48.676228]]]}},{"type":"Feature","properties":{"cadnum":"1420388001:00:000:0157"},"geometry":{"type":"Polygon","coordinates":[[[37.229132,48.679926],[37.229258,48.680113],[37.229895,48.67992],[37.230241,48.679817],[37.229936,48.679674],[37.229132,48.679926]]]}},{"type":"Feature","properties":{"cadnum":"1420388001:00:000:0050"},"geometry":{"type":"Polygon","coordinates":[[[37.230834,48.677586],[37.231067,48.677871],[37.231171,48.677845],[37.231908,48.677637],[37.231769,48.677474],[37.23167,48.677326],[37.230834,48.677586]]]}},{"type":"Feature","properties":{"cadnum":"1420388001:00:000:0074"},"geometry":{"type":"Polygon","coordinates":[[[37.231171,48.677845],[37.231544,48.678049],[37.232136,48.677874],[37.23197,48.677687],[37.231939,48.677675],[37.231908,48.677637],[37.231171,48.677845]]]}},{"type":"Feature","properties":{"cadnum":"1420388001:00:000:0045"},"geometry":{"type":"Polygon","coordinates":[[[37.230767,48.677607],[37.230915,48.67775],[37.231059,48.677874],[37.231067,48.677871],[37.230834,48.677586],[37.230767,48.677607]]]}},{"type":"Feature","properties":{"cadnum":"1420388001:00:000:0143"},"geometry":{"type":"Polygon","coordinates":[[[37.229832,48.676762],[37.229999,48.677067],[37.230129,48.677032],[37.229958,48.676735],[37.229899,48.676747],[37.229832,48.676762]]]}},{"type":"Feature","properties":{"cadnum":"1420388001:00:000:0053"},"geometry":{"type":"Polygon","coordinates":[[[37.237123,48.673319],[37.237373,48.673615],[37.237459,48.673648],[37.238016,48.673532],[37.238038,48.673241],[37.237513,48.673257],[37.237123,48.673319]]]}},{"type":"Feature","properties":{"cadnum":"1420388001:00:000:0101"},"geometry":{"type":"Polygon","coordinates":[[[37.236732,48.676438],[37.236734,48.676442],[37.236773,48.676501],[37.236809,48.676555],[37.23681,48.676555],[37.236853,48.67662],[37.237073,48.677088],[37.237199,48.677352],[37.237338,48.677696],[37.237855,48.677628],[37.237648,48.677275],[37.237198,48.676442],[37.237197,48.676442],[37.23714,48.676335],[37.236732,48.676438]]]}},{"type":"Feature","properties":{"cadnum":"1420388001:00:000:0167"},"geometry":{"type":"Polygon","coordinates":[[[37.233337,48.685288],[37.233507,48.685468],[37.234306,48.685136],[37.233974,48.685015],[37.233337,48.685288]]]}},{"type":"Feature","properties":{"cadnum":"1420388001:00:000:0120"},"geometry":{"type":"Polygon","coordinates":[[[37.232675,48.686332],[37.232878,48.686512],[37.233381,48.686281],[37.234059,48.685979],[37.233897,48.685807],[37.233215,48.686107],[37.232675,48.686332]]]}},{"type":"Feature","properties":{"cadnum":"1420388001:00:000:0078"},"geometry":{"type":"Polygon","coordinates":[[[37.235352,48.686916],[37.235568,48.68709],[37.235905,48.686934],[37.235681,48.686747],[37.235352,48.686916]]]}},{"type":"Feature","properties":{"cadnum":"1420388001:00:000:0134"},"geometry":{"type":"Polygon","coordinates":[[[37.233075,48.686676],[37.233291,48.686844],[37.233691,48.686655],[37.23444,48.686323],[37.234266,48.686142],[37.233502,48.686477],[37.233075,48.686676]]]}},{"type":"Feature","properties":{"cadnum":"1420388001:00:000:0121"},"geometry":{"type":"Polygon","coordinates":[[[37.233897,48.685807],[37.234059,48.685979],[37.234945,48.685587],[37.234778,48.685421],[37.233897,48.685807]]]}},{"type":"Feature","properties":{"cadnum":"1420388001:00:000:0135"},"geometry":{"type":"Polygon","coordinates":[[[37.234266,48.686142],[37.23444,48.686323],[37.235173,48.685997],[37.235138,48.68591],[37.235025,48.685807],[37.234266,48.686142]]]}},{"type":"Feature","properties":{"cadnum":"1420388001:00:000:0161"},"geometry":{"type":"Polygon","coordinates":[[[37.233763,48.687174],[37.233794,48.6872],[37.233996,48.687345],[37.235061,48.686804],[37.234855,48.68664],[37.234212,48.686949],[37.233839,48.687129],[37.233763,48.687174]]]}},{"type":"Feature","properties":{"cadnum":"1420388001:00:000:0099"},"geometry":{"type":"Polygon","coordinates":[[[37.235016,48.678814],[37.235295,48.679217],[37.235797,48.678959],[37.235532,48.678601],[37.235016,48.678814]]]}},{"type":"Feature","properties":{"cadnum":"1420388001:00:000:0098"},"geometry":{"type":"Polygon","coordinates":[[[37.234719,48.678313],[37.234935,48.678696],[37.235016,48.678814],[37.235532,48.678601],[37.235411,48.678438],[37.235173,48.678141],[37.235138,48.678138],[37.235101,48.678147],[37.234719,48.678313]]]}},{"type":"Feature","properties":{"cadnum":"1420388001:00:000:0131"},"geometry":{"type":"Polygon","coordinates":[[[37.235784,48.6771],[37.235869,48.677313],[37.236278,48.67724],[37.236117,48.676848],[37.235784,48.6771]]]}},{"type":"Feature","properties":{"cadnum":"1420388001:00:000:0096"},"geometry":{"type":"Polygon","coordinates":[[[37.235631,48.677465],[37.235675,48.677557],[37.235897,48.677895],[37.235964,48.677886],[37.235794,48.677542],[37.23591,48.677414],[37.235784,48.6771],[37.236117,48.676848],[37.235645,48.67694],[37.235631,48.677465]]]}},{"type":"Feature","properties":{"cadnum":"1420388001:00:000:0097"},"geometry":{"type":"Polygon","coordinates":[[[37.235218,48.677865],[37.235268,48.677948],[37.235312,48.678019],[37.235667,48.677948],[37.235734,48.677933],[37.235897,48.677895],[37.235828,48.677791],[37.235797,48.677744],[37.235784,48.677726],[37.235218,48.677865]],[[37.235735,48.677909],[37.235734,48.677909],[37.235712,48.677898],[37.23573,48.677883],[37.235731,48.677883],[37.235748,48.677895],[37.235735,48.677909]]]}},{"type":"Feature","properties":{"cadnum":"1420388001:00:000:0048"},"geometry":{"type":"Polygon","coordinates":[[[37.236614,48.677144],[37.236713,48.677385],[37.236853,48.677764],[37.237338,48.677696],[37.237199,48.677352],[37.237073,48.677088],[37.236614,48.677144]]]}},{"type":"Feature","properties":{"cadnum":"1420388001:00:000:0130"},"geometry":{"type":"Polygon","coordinates":[[[37.235793,48.677542],[37.235964,48.677886],[37.236494,48.677812],[37.236318,48.677335],[37.236278,48.67724],[37.235869,48.677313],[37.23591,48.677414],[37.235793,48.677542]]]}},{"type":"Feature","properties":{"cadnum":"1420388001:00:000:0049"},"geometry":{"type":"Polygon","coordinates":[[[37.236444,48.676726],[37.236614,48.677144],[37.237073,48.677088],[37.236853,48.67662],[37.236444,48.676726]]]}},{"type":"Feature","properties":{"cadnum":"1420388001:00:000:0151"},"geometry":{"type":"Polygon","coordinates":[[[37.217697,48.672892],[37.217723,48.67312],[37.217714,48.673393],[37.218343,48.673398],[37.218343,48.673147],[37.218299,48.672909],[37.217697,48.672892]]]}},{"type":"Feature","properties":{"cadnum":"1420388001:00:000:0038"},"geometry":{"type":"Polygon","coordinates":[[[37.219385,48.67293],[37.219462,48.67379],[37.219915,48.673769],[37.219852,48.673571],[37.219641,48.672921],[37.219385,48.67293]]]}},{"type":"Feature","properties":{"cadnum":"1420388001:00:000:0080"},"geometry":{"type":"Polygon","coordinates":[[[37.218204,48.674374],[37.218568,48.674383],[37.218693,48.673985],[37.218312,48.673976],[37.218312,48.673977],[37.218204,48.674374]]]}},{"type":"Feature","properties":{"cadnum":"1420388001:00:000:0152"},"geometry":{"type":"Polygon","coordinates":[[[37.217697,48.673802],[37.218339,48.673849],[37.218343,48.673398],[37.217714,48.673393],[37.217697,48.673802]]]}},{"type":"Feature","properties":{"cadnum":"1420388001:00:000:0125"},"geometry":{"type":"Polygon","coordinates":[[[37.219309,48.675896],[37.219341,48.676005],[37.219857,48.675973],[37.219852,48.675873],[37.219309,48.675896]]]}},{"type":"Feature","properties":{"cadnum":"1420388001:00:000:0109"},"geometry":{"type":"Polygon","coordinates":[[[37.217664,48.674371],[37.218064,48.67438],[37.218204,48.673927],[37.217781,48.673908],[37.217664,48.674371]]]}},{"type":"Feature","properties":{"cadnum":"1420388001:00:000:0061"},"geometry":{"type":"Polygon","coordinates":[[[37.219506,48.672945],[37.219695,48.673597],[37.22018,48.673615],[37.220054,48.673257],[37.219974,48.672956],[37.219506,48.672945]]]}},{"type":"Feature","properties":{"cadnum":"1420388001:00:000:0139"},"geometry":{"type":"Polygon","coordinates":[[[37.2185,48.67522],[37.218892,48.675234],[37.218936,48.674938],[37.219093,48.674383],[37.218765,48.674378],[37.218559,48.674961],[37.2185,48.67522]]]}},{"type":"Feature","properties":{"cadnum":"1420388001:00:000:0108"},"geometry":{"type":"Polygon","coordinates":[[[37.217458,48.675176],[37.217817,48.675176],[37.217903,48.674914],[37.218064,48.67438],[37.217664,48.674371],[37.21754,48.674875],[37.217458,48.675176]]]}},{"type":"Feature","properties":{"cadnum":"1420388001:00:000:0140"},"geometry":{"type":"Polygon","coordinates":[[[37.218765,48.674378],[37.219093,48.674383],[37.219215,48.673968],[37.218913,48.67395],[37.218765,48.674378]]]}},{"type":"Feature","properties":{"cadnum":"1420388001:00:000:0079"},"geometry":{"type":"Polygon","coordinates":[[[37.217953,48.675246],[37.218271,48.675255],[37.21837,48.675006],[37.218568,48.674383],[37.218204,48.674374],[37.218037,48.67497],[37.217953,48.675246]]]}},{"type":"Feature","properties":{"cadnum":"1420388001:00:000:0062"},"geometry":{"type":"Polygon","coordinates":[[[37.219695,48.673597],[37.219754,48.673796],[37.219794,48.673947],[37.220306,48.673974],[37.22018,48.673615],[37.219695,48.673597]]]}},{"type":"Feature","properties":{"cadnum":"1420388001:00:000:0068"},"geometry":{"type":"Polygon","coordinates":[[[37.216691,48.675214],[37.217148,48.675223],[37.217207,48.674938],[37.217292,48.674534],[37.216816,48.674508],[37.216766,48.674888],[37.216691,48.675214]]]}},{"type":"Feature","properties":{"cadnum":"1420388001:00:000:0073"},"geometry":{"type":"Polygon","coordinates":[[[37.216816,48.674508],[37.217292,48.674534],[37.217418,48.673932],[37.216888,48.673906],[37.216816,48.674508]]]}},{"type":"Feature","properties":{"cadnum":"1420388001:00:000:0141"},"geometry":{"type":"Polygon","coordinates":[[[37.225655,48.68089],[37.225718,48.680967],[37.225834,48.681116],[37.225844,48.681127],[37.225916,48.681103],[37.225907,48.681089],[37.22579,48.680944],[37.225727,48.680863],[37.225655,48.68089]]]}}]}