{"type":"FeatureCollection","features":[{"type":"Feature","properties":{"cadnum":"1420386901:00:000:0148"},"geometry":{"type":"Polygon","coordinates":[[[37.107621,48.741864],[37.108075,48.741915],[37.108112,48.741802],[37.10838,48.741008],[37.107945,48.740958],[37.107683,48.741689],[37.107668,48.741731],[37.107643,48.741802],[37.107643,48.741803],[37.107621,48.741864]]]}},{"type":"Feature","properties":{"cadnum":"1420386901:00:000:0101"},"geometry":{"type":"Polygon","coordinates":[[[37.108421,48.741902],[37.108906,48.741974],[37.108966,48.741802],[37.108967,48.741802],[37.109243,48.74102],[37.10878,48.740975],[37.108458,48.741802],[37.108459,48.741802],[37.108459,48.741803],[37.108421,48.741902]]]}},{"type":"Feature","properties":{"cadnum":"1420386901:00:000:0121"},"geometry":{"type":"Polygon","coordinates":[[[37.129823,48.742302],[37.130124,48.742388],[37.130129,48.742391],[37.130506,48.741891],[37.130191,48.741793],[37.129823,48.742302]]]}},{"type":"Feature","properties":{"cadnum":"1420386901:00:000:0206"},"geometry":{"type":"Polygon","coordinates":[[[37.128215,48.741924],[37.128382,48.741975],[37.128382,48.741974],[37.128606,48.742042],[37.128673,48.741944],[37.128596,48.74192],[37.128278,48.741825],[37.128215,48.741924]]]}},{"type":"Feature","properties":{"cadnum":"1420386901:00:000:0205"},"geometry":{"type":"Polygon","coordinates":[[[37.127784,48.742584],[37.128162,48.742702],[37.12821,48.74263],[37.128382,48.742375],[37.128606,48.742042],[37.128215,48.741924],[37.127784,48.742584]]]}},{"type":"Feature","properties":{"cadnum":"1420386901:00:000:0040"},"geometry":{"type":"Polygon","coordinates":[[[37.128789,48.744177],[37.129158,48.744304],[37.129347,48.74402],[37.129266,48.743994],[37.129172,48.743964],[37.129162,48.743976],[37.129145,48.74397],[37.129154,48.743958],[37.128969,48.743902],[37.128789,48.744177]]]}},{"type":"Feature","properties":{"cadnum":"1420386901:00:000:0188"},"geometry":{"type":"Polygon","coordinates":[[[37.129585,48.744088],[37.12989,48.744192],[37.130357,48.743603],[37.130025,48.743493],[37.129585,48.744088]]]}},{"type":"Feature","properties":{"cadnum":"1420386901:00:000:0064"},"geometry":{"type":"Polygon","coordinates":[[[37.129334,48.74219],[37.129638,48.742282],[37.130017,48.741764],[37.130017,48.741763],[37.130015,48.741763],[37.129707,48.741669],[37.129692,48.741689],[37.129688,48.741695],[37.12961,48.741802],[37.129611,48.741802],[37.129611,48.741803],[37.129334,48.74219]]]}},{"type":"Feature","properties":{"cadnum":"1420386901:00:000:0122"},"geometry":{"type":"Polygon","coordinates":[[[37.128089,48.743632],[37.12821,48.74367],[37.128346,48.743713],[37.128382,48.743665],[37.128382,48.743664],[37.128808,48.743094],[37.128449,48.742969],[37.128382,48.743093],[37.128089,48.743632]]]}},{"type":"Feature","properties":{"cadnum":"1420386901:00:000:0155"},"geometry":{"type":"Polygon","coordinates":[[[37.130511,48.742511],[37.130804,48.742612],[37.130961,48.742425],[37.130987,48.742387],[37.131181,48.742115],[37.130861,48.742019],[37.130511,48.742511]]]}},{"type":"Feature","properties":{"cadnum":"1420386901:00:000:0159"},"geometry":{"type":"Polygon","coordinates":[[[37.127613,48.743369],[37.128099,48.743538],[37.128382,48.743052],[37.128382,48.743051],[37.128431,48.742966],[37.128267,48.74291],[37.128026,48.742826],[37.127613,48.743369]]]}},{"type":"Feature","properties":{"cadnum":"1420386901:00:000:0118"},"geometry":{"type":"Polygon","coordinates":[[[37.128368,48.743715],[37.128548,48.743775],[37.128678,48.743807],[37.129118,48.743191],[37.128818,48.74309],[37.128368,48.743715]]]}},{"type":"Feature","properties":{"cadnum":"1420386901:00:000:0005"},"geometry":{"type":"Polygon","coordinates":[[[37.130743,48.742596],[37.131095,48.742705],[37.131588,48.742865],[37.131655,48.742664],[37.131764,48.742329],[37.131728,48.742302],[37.131539,48.74224],[37.131122,48.742098],[37.130928,48.74237],[37.130902,48.742409],[37.130743,48.742596]]]}},{"type":"Feature","properties":{"cadnum":"1420386901:00:000:0161"},"geometry":{"type":"Polygon","coordinates":[[[37.128969,48.743902],[37.129154,48.743958],[37.129266,48.743994],[37.129715,48.74338],[37.12941,48.743285],[37.128969,48.743902]]]}},{"type":"Feature","properties":{"cadnum":"1420386901:00:000:0029"},"geometry":{"type":"Polygon","coordinates":[[[37.128382,48.744873],[37.128741,48.744998],[37.128952,48.744636],[37.129158,48.744304],[37.128789,48.744177],[37.128556,48.744556],[37.128382,48.744873]]]}},{"type":"Feature","properties":{"cadnum":"1420386901:00:000:0107"},"geometry":{"type":"Polygon","coordinates":[[[37.128678,48.743807],[37.128969,48.743902],[37.12941,48.743285],[37.129118,48.743191],[37.128678,48.743807]]]}},{"type":"Feature","properties":{"cadnum":"1420386901:00:000:0061"},"geometry":{"type":"Polygon","coordinates":[[[37.130411,48.744319],[37.130483,48.744341],[37.130497,48.744319],[37.130556,48.744337],[37.130542,48.744358],[37.131053,48.744524],[37.131135,48.744361],[37.130519,48.744145],[37.130411,48.744319]]]}},{"type":"Feature","properties":{"cadnum":"1420386901:00:000:0062"},"geometry":{"type":"Polygon","coordinates":[[[37.130519,48.744145],[37.131135,48.744361],[37.13135,48.743917],[37.130784,48.743721],[37.130519,48.744145]]]}},{"type":"Feature","properties":{"cadnum":"1420386901:00:000:0192"},"geometry":{"type":"Polygon","coordinates":[[[37.126512,48.747649],[37.127128,48.747687],[37.127631,48.746843],[37.127101,48.746703],[37.126512,48.747649]]]}},{"type":"Feature","properties":{"cadnum":"1420386901:00:000:0191"},"geometry":{"type":"Polygon","coordinates":[[[37.127101,48.746703],[37.127631,48.746843],[37.127923,48.746348],[37.127424,48.746191],[37.127101,48.746703]]]}},{"type":"Feature","properties":{"cadnum":"1420386901:00:000:0207"},"geometry":{"type":"Polygon","coordinates":[[[37.128116,48.747239],[37.12821,48.747265],[37.12821,48.747266],[37.128329,48.747298],[37.128382,48.747313],[37.128506,48.747346],[37.128925,48.746695],[37.128552,48.746561],[37.128272,48.746998],[37.128116,48.747239]]]}},{"type":"Feature","properties":{"cadnum":"1420386901:00:000:0208"},"geometry":{"type":"Polygon","coordinates":[[[37.127927,48.747566],[37.128382,48.747502],[37.128382,48.747501],[37.128409,48.747498],[37.128506,48.747346],[37.128329,48.747298],[37.128116,48.747239],[37.127927,48.747566]]]}},{"type":"Feature","properties":{"cadnum":"1420386901:00:000:0119"},"geometry":{"type":"Polygon","coordinates":[[[37.12478,48.745495],[37.12547,48.74575],[37.125682,48.745397],[37.12568,48.745397],[37.124959,48.745134],[37.124871,48.745312],[37.124865,48.745323],[37.124814,48.745425],[37.124815,48.745425],[37.12478,48.745495]]]}},{"type":"Feature","properties":{"cadnum":"1420386901:00:000:0120"},"geometry":{"type":"Polygon","coordinates":[[[37.124214,48.746642],[37.12478,48.746908],[37.12547,48.74575],[37.12478,48.745495],[37.124214,48.746642]]]}},{"type":"Feature","properties":{"cadnum":"1420386901:00:000:0074"},"geometry":{"type":"Polygon","coordinates":[[[37.126378,48.745667],[37.126818,48.745862],[37.127017,48.745425],[37.127018,48.745425],[37.127078,48.745294],[37.126625,48.74514],[37.126491,48.745425],[37.126378,48.745667]]]}},{"type":"Feature","properties":{"cadnum":"1420386901:00:000:0144"},"geometry":{"type":"Polygon","coordinates":[[[37.113151,48.739388],[37.113461,48.739412],[37.113524,48.739107],[37.1132,48.739098],[37.113151,48.739388]]]}},{"type":"Feature","properties":{"cadnum":"1420386901:00:000:0187"},"geometry":{"type":"Polygon","coordinates":[[[37.115086,48.739553],[37.115553,48.739583],[37.115679,48.738938],[37.115208,48.738908],[37.115086,48.739553]]]}},{"type":"Feature","properties":{"cadnum":"1420386901:00:000:0134"},"geometry":{"type":"Polygon","coordinates":[[[37.112516,48.739228],[37.112719,48.739284],[37.112719,48.739285],[37.11271,48.739307],[37.112841,48.739329],[37.112889,48.739053],[37.112553,48.739032],[37.112516,48.739228]]]}},{"type":"Feature","properties":{"cadnum":"1420386901:00:000:0128"},"geometry":{"type":"Polygon","coordinates":[[[37.11625,48.741929],[37.116685,48.741992],[37.116744,48.741802],[37.116745,48.741802],[37.116897,48.741327],[37.116461,48.741254],[37.116324,48.741689],[37.116291,48.741797],[37.116289,48.741802],[37.11625,48.741929]]]}},{"type":"Feature","properties":{"cadnum":"1420386901:00:000:0123"},"geometry":{"type":"Polygon","coordinates":[[[37.11536,48.741775],[37.115558,48.741802],[37.115814,48.741838],[37.115833,48.741776],[37.116015,48.741191],[37.115567,48.741129],[37.115387,48.741689],[37.115386,48.741689],[37.11536,48.741775]]]}},{"type":"Feature","properties":{"cadnum":"1420386901:00:000:0133"},"geometry":{"type":"Polygon","coordinates":[[[37.112553,48.739032],[37.112889,48.739053],[37.112989,48.738481],[37.113038,48.73815],[37.112706,48.738132],[37.112652,48.73846],[37.112553,48.739032]]]}},{"type":"Feature","properties":{"cadnum":"1420386901:00:000:0143"},"geometry":{"type":"Polygon","coordinates":[[[37.1132,48.739098],[37.113524,48.739107],[37.113707,48.738197],[37.113365,48.738176],[37.1132,48.739098]]]}},{"type":"Feature","properties":{"cadnum":"1420386901:00:000:0098"},"geometry":{"type":"Polygon","coordinates":[[[37.113945,48.741568],[37.11439,48.741624],[37.114579,48.74096],[37.114138,48.740895],[37.113945,48.741568]]]}},{"type":"Feature","properties":{"cadnum":"1420386901:00:000:0199"},"geometry":{"type":"Polygon","coordinates":[[[37.113164,48.741496],[37.1136,48.741541],[37.113833,48.740872],[37.113394,48.740822],[37.113164,48.741496]]]}},{"type":"Feature","properties":{"cadnum":"1420386901:00:000:0139"},"geometry":{"type":"Polygon","coordinates":[[[37.112199,48.739184],[37.112516,48.739228],[37.112553,48.739032],[37.112558,48.739008],[37.112225,48.738991],[37.112199,48.739184]]]}},{"type":"Feature","properties":{"cadnum":"1420386901:00:000:0186"},"geometry":{"type":"Polygon","coordinates":[[[37.115208,48.738908],[37.115679,48.738938],[37.115805,48.738297],[37.115329,48.738274],[37.115208,48.738908]]]}},{"type":"Feature","properties":{"cadnum":"1420386901:00:000:0058"},"geometry":{"type":"Polygon","coordinates":[[[37.114174,48.74267],[37.114606,48.742702],[37.114912,48.74176],[37.114789,48.741746],[37.114484,48.74171],[37.114453,48.741802],[37.114454,48.741802],[37.114454,48.741803],[37.114174,48.74267]]]}},{"type":"Feature","properties":{"cadnum":"1420386901:00:000:0200"},"geometry":{"type":"Polygon","coordinates":[[[37.112818,48.742495],[37.113249,48.742545],[37.113548,48.741689],[37.1136,48.741541],[37.113164,48.741496],[37.113057,48.741802],[37.113058,48.741802],[37.113058,48.741803],[37.112818,48.742495]]]}},{"type":"Feature","properties":{"cadnum":"1420386901:00:000:0069"},"geometry":{"type":"Polygon","coordinates":[[[37.11704,48.742359],[37.117224,48.742403],[37.117224,48.742404],[37.11731,48.742424],[37.117395,48.742226],[37.117575,48.74181],[37.117593,48.741745],[37.117623,48.741641],[37.117583,48.741633],[37.117583,48.741632],[37.117642,48.74147],[37.117369,48.741402],[37.117269,48.741689],[37.117248,48.741751],[37.11723,48.741802],[37.117231,48.741802],[37.117231,48.741803],[37.11704,48.742359]]]}},{"type":"Feature","properties":{"cadnum":"1420386901:00:000:0138"},"geometry":{"type":"Polygon","coordinates":[[[37.112225,48.738991],[37.112558,48.739008],[37.112652,48.73846],[37.112706,48.738132],[37.1125,48.738123],[37.112356,48.738117],[37.112343,48.73818],[37.112344,48.73818],[37.112297,48.73844],[37.112225,48.738991]]]}},{"type":"Feature","properties":{"cadnum":"1420386901:00:000:0170"},"geometry":{"type":"Polygon","coordinates":[[[37.113469,48.739364],[37.11377,48.739382],[37.113833,48.739136],[37.113518,48.739121],[37.113469,48.739364]]]}},{"type":"Feature","properties":{"cadnum":"1420386901:00:000:0169"},"geometry":{"type":"Polygon","coordinates":[[[37.113518,48.739121],[37.113833,48.739136],[37.113977,48.738549],[37.114027,48.738218],[37.113707,48.738197],[37.113524,48.739107],[37.113518,48.739121]]]}},{"type":"Feature","properties":{"cadnum":"1420386901:00:000:0050"},"geometry":{"type":"Polygon","coordinates":[[[37.114484,48.74171],[37.114789,48.741746],[37.114912,48.74176],[37.115136,48.741064],[37.114704,48.741022],[37.114491,48.741689],[37.114484,48.74171]]]}},{"type":"Feature","properties":{"cadnum":"1420386901:00:000:0097"},"geometry":{"type":"Polygon","coordinates":[[[37.114124,48.740031],[37.114566,48.740095],[37.114749,48.739566],[37.114556,48.739557],[37.11426,48.739544],[37.114124,48.740031]]]}},{"type":"Feature","properties":{"cadnum":"1420386901:00:000:0099"},"geometry":{"type":"Polygon","coordinates":[[[37.113662,48.742572],[37.114107,48.742616],[37.114339,48.741802],[37.11439,48.741624],[37.113945,48.741568],[37.11391,48.741689],[37.113899,48.741729],[37.113878,48.741802],[37.113878,48.741803],[37.113662,48.742572]]]}},{"type":"Feature","properties":{"cadnum":"1420386901:00:000:0096"},"geometry":{"type":"Polygon","coordinates":[[[37.113931,48.740732],[37.114327,48.740789],[37.114566,48.740095],[37.114124,48.740031],[37.113931,48.740732]]]}},{"type":"Feature","properties":{"cadnum":"1420386901:00:000:0048"},"geometry":{"type":"Polygon","coordinates":[[[37.119384,48.741817],[37.119879,48.741979],[37.120009,48.741802],[37.120273,48.741443],[37.119843,48.741307],[37.119498,48.741689],[37.119478,48.741712],[37.119396,48.741802],[37.119397,48.741802],[37.119397,48.741803],[37.119384,48.741817]]]}},{"type":"Feature","properties":{"cadnum":"1420386901:00:000:0195"},"geometry":{"type":"Polygon","coordinates":[[[37.119147,48.742616],[37.119573,48.742729],[37.119623,48.742646],[37.119897,48.742152],[37.11947,48.742012],[37.119277,48.742297],[37.11916,48.742598],[37.119147,48.742616]]]}},{"type":"Feature","properties":{"cadnum":"1420386901:00:000:0077"},"geometry":{"type":"Polygon","coordinates":[[[37.121185,48.742433],[37.121527,48.742551],[37.122021,48.741832],[37.121667,48.741727],[37.121657,48.741725],[37.121605,48.741802],[37.121605,48.741803],[37.121185,48.742433]]]}},{"type":"Feature","properties":{"cadnum":"1420386901:00:000:0158"},"geometry":{"type":"Polygon","coordinates":[[[37.119304,48.743217],[37.119964,48.743408],[37.120302,48.742826],[37.119623,48.742646],[37.119304,48.743217]]]}},{"type":"Feature","properties":{"cadnum":"1420386901:00:000:0141"},"geometry":{"type":"Polygon","coordinates":[[[37.12239,48.742157],[37.122717,48.742259],[37.122717,48.74226],[37.122826,48.742293],[37.122889,48.742205],[37.122889,48.742204],[37.123045,48.741983],[37.122906,48.741938],[37.122856,48.741922],[37.122619,48.741847],[37.12239,48.742157]]]}},{"type":"Feature","properties":{"cadnum":"1420386901:00:000:0131"},"geometry":{"type":"Polygon","coordinates":[[[37.118352,48.74469],[37.118742,48.744855],[37.118935,48.744725],[37.119084,48.744734],[37.119264,48.743786],[37.118572,48.74373],[37.118352,48.74469]]]}},{"type":"Feature","properties":{"cadnum":"1420386901:00:000:0136"},"geometry":{"type":"Polygon","coordinates":[[[37.119231,48.743952],[37.119753,48.744038],[37.119937,48.743564],[37.11934,48.743399],[37.119231,48.743952]]]}},{"type":"Feature","properties":{"cadnum":"1420386901:00:000:0140"},"geometry":{"type":"Polygon","coordinates":[[[37.121999,48.742705],[37.122447,48.742859],[37.122619,48.742584],[37.122717,48.742447],[37.122826,48.742293],[37.12239,48.742157],[37.122156,48.742442],[37.121999,48.742705]]]}},{"type":"Feature","properties":{"cadnum":"1420386901:00:000:0157"},"geometry":{"type":"Polygon","coordinates":[[[37.119623,48.742646],[37.120302,48.742826],[37.120405,48.742646],[37.120184,48.74259],[37.120184,48.742589],[37.120369,48.742302],[37.119897,48.742152],[37.119623,48.742646]]]}},{"type":"Feature","properties":{"cadnum":"1420386901:00:000:0137"},"geometry":{"type":"Polygon","coordinates":[[[37.119074,48.744784],[37.119416,48.7449],[37.119753,48.744038],[37.119231,48.743952],[37.119084,48.744734],[37.119074,48.744784]]]}},{"type":"Feature","properties":{"cadnum":"1420386901:00:000:0203"},"geometry":{"type":"Polygon","coordinates":[[[37.120772,48.742291],[37.121185,48.742433],[37.121604,48.741802],[37.121599,48.7418],[37.121208,48.741687],[37.121206,48.741689],[37.121205,48.741689],[37.121145,48.741773],[37.121124,48.741802],[37.121124,48.741803],[37.120772,48.742291]]]}},{"type":"Feature","properties":{"cadnum":"1420386901:00:000:0152"},"geometry":{"type":"Polygon","coordinates":[[[37.121724,48.744616],[37.122376,48.74474],[37.122565,48.744352],[37.121923,48.744154],[37.121724,48.744616]]]}},{"type":"Feature","properties":{"cadnum":"1420386901:00:000:0153"},"geometry":{"type":"Polygon","coordinates":[[[37.121352,48.745501],[37.121954,48.745619],[37.122101,48.745312],[37.122101,48.745311],[37.122376,48.74474],[37.121724,48.744616],[37.121383,48.745425],[37.121352,48.745501]]]}},{"type":"Feature","properties":{"cadnum":"1420386901:00:000:0112"},"geometry":{"type":"Polygon","coordinates":[[[37.120206,48.74424],[37.120705,48.744394],[37.120939,48.74386],[37.120418,48.743706],[37.120206,48.74424]]]}},{"type":"Feature","properties":{"cadnum":"1420386901:00:000:0092"},"geometry":{"type":"Polygon","coordinates":[[[37.121661,48.743516],[37.122066,48.743641],[37.122466,48.74301],[37.122066,48.74288],[37.121661,48.743516]]]}},{"type":"Feature","properties":{"cadnum":"1420386901:00:000:0130"},"geometry":{"type":"Polygon","coordinates":[[[37.118572,48.74373],[37.119264,48.743786],[37.11934,48.743399],[37.118684,48.743244],[37.118572,48.74373]]]}},{"type":"Feature","properties":{"cadnum":"1420386901:00:000:0113"},"geometry":{"type":"Polygon","coordinates":[[[37.119834,48.745184],[37.120063,48.745311],[37.120063,48.745312],[37.120251,48.745416],[37.120256,48.745419],[37.120705,48.744394],[37.120206,48.74424],[37.119834,48.745184]]]}},{"type":"Feature","properties":{"cadnum":"1420386901:00:000:0093"},"geometry":{"type":"Polygon","coordinates":[[[37.118948,48.742308],[37.119021,48.742332],[37.119048,48.742291],[37.118977,48.742269],[37.118948,48.742308]]]}},{"type":"Feature","properties":{"cadnum":"1420386901:00:000:0196"},"geometry":{"type":"Polygon","coordinates":[[[37.118818,48.743153],[37.119273,48.743274],[37.119304,48.743217],[37.119573,48.742729],[37.119147,48.742616],[37.118818,48.743153]]]}},{"type":"Feature","properties":{"cadnum":"1420386901:00:000:0108"},"geometry":{"type":"Polygon","coordinates":[[[37.121977,48.741669],[37.122037,48.741689],[37.122284,48.741771],[37.122286,48.741772],[37.122785,48.741085],[37.122476,48.740984],[37.121977,48.741669]]]}},{"type":"Feature","properties":{"cadnum":"1420386901:00:000:0204"},"geometry":{"type":"Polygon","coordinates":[[[37.121208,48.741687],[37.121217,48.741689],[37.121216,48.741689],[37.121599,48.7418],[37.121604,48.741802],[37.121643,48.741746],[37.121657,48.741725],[37.121659,48.741722],[37.121707,48.741648],[37.121289,48.741573],[37.121208,48.741687]]]}},{"type":"Feature","properties":{"cadnum":"1420386901:00:000:0132"},"geometry":{"type":"Polygon","coordinates":[[[37.122254,48.741731],[37.122255,48.741731],[37.122481,48.741802],[37.122482,48.741802],[37.122547,48.741823],[37.122562,48.741802],[37.122563,48.741802],[37.122717,48.741608],[37.122812,48.741488],[37.122889,48.741408],[37.123099,48.741189],[37.122776,48.741079],[37.122529,48.74136],[37.122285,48.741689],[37.122284,48.741689],[37.122254,48.741731]]]}},{"type":"Feature","properties":{"cadnum":"1420386901:00:000:0078"},"geometry":{"type":"Polygon","coordinates":[[[37.121657,48.741725],[37.121667,48.741727],[37.121922,48.741802],[37.122021,48.741832],[37.122093,48.741719],[37.121944,48.741692],[37.121707,48.741648],[37.12168,48.741689],[37.121659,48.741722],[37.121657,48.741725]]]}},{"type":"Feature","properties":{"cadnum":"1420386901:00:000:0189"},"geometry":{"type":"Polygon","coordinates":[[[37.109121,48.738804],[37.10948,48.738828],[37.109559,48.738157],[37.109583,48.737957],[37.109243,48.737939],[37.109224,48.738066],[37.109224,48.738067],[37.109215,48.73813],[37.109208,48.73818],[37.109121,48.738804]]]}},{"type":"Feature","properties":{"cadnum":"1420386901:00:000:0094"},"geometry":{"type":"Polygon","coordinates":[[[37.110006,48.738929],[37.110348,48.738947],[37.110432,48.73818],[37.110446,48.73806],[37.110101,48.738046],[37.110099,48.738066],[37.110099,48.738067],[37.110098,48.738067],[37.110006,48.738929]]]}},{"type":"Feature","properties":{"cadnum":"1420386901:00:000:0162"},"geometry":{"type":"Polygon","coordinates":[[[37.111183,48.738982],[37.111507,48.739],[37.111614,48.738075],[37.111281,48.738058],[37.11128,48.738066],[37.11128,48.738067],[37.111271,48.738151],[37.111268,48.73818],[37.111183,48.738982]]]}},{"type":"Feature","properties":{"cadnum":"1420386901:00:000:0114"},"geometry":{"type":"Polygon","coordinates":[[[37.108448,48.738739],[37.108677,48.738756],[37.108784,48.738765],[37.108871,48.73818],[37.10891,48.737922],[37.10857,48.73791],[37.108546,48.738066],[37.108546,48.738067],[37.108545,48.738067],[37.108448,48.738739]]]}},{"type":"Feature","properties":{"cadnum":"1420386901:00:000:0016"},"geometry":{"type":"Polygon","coordinates":[[[37.109832,48.73887],[37.110056,48.73889],[37.110172,48.738901],[37.110269,48.738067],[37.110275,48.73801],[37.109939,48.737992],[37.109915,48.73818],[37.109916,48.73818],[37.109832,48.73887]]]}},{"type":"Feature","properties":{"cadnum":"1420386901:00:000:0177"},"geometry":{"type":"Polygon","coordinates":[[[37.10662,48.738174],[37.106809,48.73818],[37.10681,48.73818],[37.107788,48.738212],[37.10781,48.738139],[37.107891,48.73788],[37.107176,48.737874],[37.106818,48.738067],[37.10662,48.738174]]]}},{"type":"Feature","properties":{"cadnum":"1420386901:00:000:0184"},"geometry":{"type":"Polygon","coordinates":[[[37.110509,48.73892],[37.110847,48.738934],[37.110937,48.73818],[37.110954,48.738037],[37.110608,48.738022],[37.110603,48.738066],[37.110603,48.738067],[37.110509,48.73892]]]}},{"type":"Feature","properties":{"cadnum":"1420386901:00:000:0014"},"geometry":{"type":"Polygon","coordinates":[[[37.108784,48.738765],[37.109121,48.738804],[37.109215,48.73813],[37.109243,48.737939],[37.10891,48.737922],[37.108888,48.738066],[37.108888,48.738067],[37.108887,48.738067],[37.108784,48.738765]]]}},{"type":"Feature","properties":{"cadnum":"1420386901:00:000:0010"},"geometry":{"type":"Polygon","coordinates":[[[37.108061,48.738706],[37.108169,48.738718],[37.108448,48.738736],[37.108529,48.73818],[37.10857,48.73791],[37.108232,48.737895],[37.108171,48.73818],[37.108172,48.73818],[37.108061,48.738706]]]}},{"type":"Feature","properties":{"cadnum":"1420386901:00:000:0176"},"geometry":{"type":"Polygon","coordinates":[[[37.125237,48.739826],[37.126333,48.740214],[37.126495,48.740016],[37.126805,48.740128],[37.126823,48.740104],[37.12685,48.740072],[37.127533,48.739177],[37.126086,48.738718],[37.125435,48.739571],[37.125409,48.739604],[37.125408,48.739604],[37.125237,48.739826]],[[37.126575,48.739992],[37.126602,48.739992],[37.126602,48.74001],[37.126575,48.74001],[37.126575,48.739992]]]}},{"type":"Feature","properties":{"cadnum":"1420386901:00:000:0111"},"geometry":{"type":"Polygon","coordinates":[[[37.126801,48.741346],[37.12707,48.741432],[37.127303,48.741509],[37.127326,48.741476],[37.126827,48.74131],[37.126801,48.741346]]]}},{"type":"Feature","properties":{"cadnum":"1420386901:00:000:0190"},"geometry":{"type":"Polygon","coordinates":[[[37.124145,48.742314],[37.124338,48.742376],[37.12438,48.742315],[37.12438,48.742314],[37.124434,48.742332],[37.124491,48.74235],[37.12494,48.741799],[37.124784,48.741746],[37.124635,48.741695],[37.124549,48.741802],[37.12455,48.741802],[37.12455,48.741803],[37.124145,48.742314]]]}},{"type":"Feature","properties":{"cadnum":"1420386901:00:000:0194"},"geometry":{"type":"Polygon","coordinates":[[[37.127137,48.742385],[37.127451,48.742489],[37.12799,48.74174],[37.12768,48.741648],[37.12765,48.741689],[37.127649,48.741689],[37.127137,48.742385]]]}},{"type":"Feature","properties":{"cadnum":"1420386901:00:000:0193"},"geometry":{"type":"Polygon","coordinates":[[[37.123809,48.742231],[37.124141,48.74232],[37.124145,48.742314],[37.124635,48.741695],[37.12433,48.741592],[37.12425,48.741689],[37.124199,48.741752],[37.124157,48.741802],[37.124158,48.741802],[37.124158,48.741803],[37.123809,48.742231]]]}},{"type":"Feature","properties":{"cadnum":"1420386901:00:000:0110"},"geometry":{"type":"Polygon","coordinates":[[[37.126827,48.74131],[37.127326,48.741476],[37.127686,48.740982],[37.127187,48.740818],[37.126827,48.74131]]]}},{"type":"Feature","properties":{"cadnum":"1420386901:00:000:0197"},"geometry":{"type":"Polygon","coordinates":[[[37.123795,48.741266],[37.124411,48.741491],[37.124694,48.741097],[37.124015,48.740877],[37.123925,48.74102],[37.123961,48.741032],[37.123795,48.741266]]]}},{"type":"Feature","properties":{"cadnum":"1420386901:00:000:0198"},"geometry":{"type":"Polygon","coordinates":[[[37.124015,48.740877],[37.124694,48.741097],[37.12495,48.740738],[37.124878,48.740715],[37.124877,48.740715],[37.124877,48.740714],[37.125044,48.740466],[37.124434,48.740258],[37.124277,48.740484],[37.124061,48.740813],[37.124015,48.740877]]]}},{"type":"Feature","properties":{"cadnum":"1420386901:00:000:0135"},"geometry":{"type":"Polygon","coordinates":[[[37.122241,48.740655],[37.122327,48.740679],[37.122336,48.740664],[37.122349,48.74067],[37.122282,48.740768],[37.122889,48.740974],[37.122889,48.740973],[37.12322,48.741085],[37.123499,48.74065],[37.123562,48.740668],[37.123575,48.740655],[37.123669,48.74051],[37.123575,48.740484],[37.122762,48.740247],[37.122663,48.740218],[37.122367,48.74065],[37.12235,48.740644],[37.122367,48.74062],[37.122282,48.740596],[37.122241,48.740655]]]}},{"type":"Feature","properties":{"cadnum":"1420386901:00:000:0115"},"geometry":{"type":"Polygon","coordinates":[[[37.12322,48.741085],[37.123795,48.741266],[37.123961,48.741032],[37.123925,48.74102],[37.124061,48.740813],[37.123575,48.740655],[37.123562,48.740668],[37.123499,48.74065],[37.12322,48.741085]]]}},{"type":"Feature","properties":{"cadnum":"1420386901:00:000:0116"},"geometry":{"type":"Polygon","coordinates":[[[37.123575,48.740655],[37.124061,48.740813],[37.124277,48.740484],[37.123711,48.740306],[37.123575,48.740484],[37.123669,48.74051],[37.123575,48.740655]]]}},{"type":"Feature","properties":{"cadnum":"1420386901:00:000:0004"},"geometry":{"type":"Polygon","coordinates":[[[37.082393,48.716154],[37.082433,48.716177],[37.082446,48.716163],[37.082446,48.716162],[37.082406,48.716139],[37.082393,48.716154]]]}},{"type":"Feature","properties":{"cadnum":"1420386901:00:000:0174"},"geometry":{"type":"Polygon","coordinates":[[[37.105178,48.7407],[37.10556,48.740747],[37.105824,48.73998],[37.105438,48.739935],[37.105178,48.7407]]]}},{"type":"Feature","properties":{"cadnum":"1420386901:00:000:0009"},"geometry":{"type":"Polygon","coordinates":[[[37.103211,48.740563],[37.103358,48.740668],[37.10374,48.740765],[37.103884,48.740833],[37.104033,48.740756],[37.103983,48.740661],[37.10384,48.74024],[37.103211,48.740563]]]}},{"type":"Feature","properties":{"cadnum":"1420386901:00:000:0175"},"geometry":{"type":"Polygon","coordinates":[[[37.104886,48.741541],[37.105268,48.741586],[37.10556,48.740747],[37.105178,48.7407],[37.104886,48.741541]]]}},{"type":"Feature","properties":{"cadnum":"1420386901:00:000:0178"},"geometry":{"type":"Polygon","coordinates":[[[37.106323,48.738484],[37.106409,48.738494],[37.107662,48.738633],[37.107788,48.738212],[37.10662,48.738174],[37.106543,48.738212],[37.106323,48.738484]]]}},{"type":"Feature","properties":{"cadnum":"1420386901:00:000:0181"},"geometry":{"type":"Polygon","coordinates":[[[37.128409,48.747498],[37.129397,48.747257],[37.129724,48.747139],[37.129841,48.747032],[37.12941,48.74687],[37.128925,48.746695],[37.128409,48.747498]]]}},{"type":"Feature","properties":{"cadnum":"1420386901:00:000:0084"},"geometry":{"type":"Polygon","coordinates":[[[37.128732,48.746552],[37.129172,48.746718],[37.129571,48.746115],[37.129118,48.745969],[37.128732,48.746552]]]}},{"type":"Feature","properties":{"cadnum":"1420386901:00:000:0083"},"geometry":{"type":"Polygon","coordinates":[[[37.129118,48.745969],[37.129571,48.746115],[37.129688,48.745937],[37.12994,48.745555],[37.129491,48.745412],[37.129118,48.745969]]]}},{"type":"Feature","properties":{"cadnum":"1420386901:00:000:0142"},"geometry":{"type":"Polygon","coordinates":[[[37.129688,48.745937],[37.130389,48.746135],[37.130613,48.745771],[37.12994,48.745555],[37.129688,48.745937]]]}},{"type":"Feature","properties":{"cadnum":"1420386901:00:000:0124"},"geometry":{"type":"Polygon","coordinates":[[[37.11505,48.742743],[37.115522,48.742782],[37.115814,48.741838],[37.11536,48.741775],[37.11505,48.742743]]]}},{"type":"Feature","properties":{"cadnum":"1420386901:00:000:0129"},"geometry":{"type":"Polygon","coordinates":[[[37.115962,48.742835],[37.116402,48.742868],[37.116685,48.741992],[37.11625,48.741929],[37.115962,48.742835]]]}},{"type":"Feature","properties":{"cadnum":"1420386901:00:000:0150"},"geometry":{"type":"Polygon","coordinates":[[[37.107581,48.739257],[37.108017,48.739305],[37.108021,48.739278],[37.108169,48.738718],[37.108052,48.738712],[37.107734,48.738688],[37.107581,48.739257]]]}},{"type":"Feature","properties":{"cadnum":"1420386901:00:000:0149"},"geometry":{"type":"Polygon","coordinates":[[[37.107396,48.739935],[37.107841,48.739983],[37.107931,48.739628],[37.108017,48.739305],[37.107581,48.739257],[37.107396,48.739935]]]}},{"type":"Feature","properties":{"cadnum":"1420386901:00:000:0146"},"geometry":{"type":"Polygon","coordinates":[[[37.108021,48.739278],[37.108461,48.739325],[37.108641,48.738774],[37.10843,48.738742],[37.108169,48.738718],[37.108021,48.739278]]]}},{"type":"Feature","properties":{"cadnum":"1420386901:00:000:0095"},"geometry":{"type":"Polygon","coordinates":[[[37.110002,48.738938],[37.110348,48.738967],[37.110348,48.738947],[37.110006,48.738929],[37.110002,48.738938]]]}},{"type":"Feature","properties":{"cadnum":"1420386901:00:000:0080"},"geometry":{"type":"Polygon","coordinates":[[[37.110258,48.739571],[37.110654,48.739616],[37.110788,48.739154],[37.110667,48.739145],[37.11068,48.739024],[37.110438,48.739006],[37.110258,48.739571]]]}},{"type":"Feature","properties":{"cadnum":"1420386901:00:000:0145"},"geometry":{"type":"Polygon","coordinates":[[[37.107841,48.739983],[37.108237,48.740031],[37.108461,48.739325],[37.108021,48.739278],[37.107931,48.739628],[37.107841,48.739983]]]}},{"type":"Feature","properties":{"cadnum":"1420386901:00:000:0086"},"geometry":{"type":"Polygon","coordinates":[[[37.10878,48.740975],[37.109243,48.74102],[37.109476,48.740363],[37.109036,48.740321],[37.10878,48.740975]]]}},{"type":"Feature","properties":{"cadnum":"1420386901:00:000:0091"},"geometry":{"type":"Polygon","coordinates":[[[37.108654,48.739512],[37.109144,48.73959],[37.109386,48.738908],[37.109247,48.738893],[37.10887,48.738857],[37.108654,48.739512]]]}},{"type":"Feature","properties":{"cadnum":"1420386901:00:000:0090"},"geometry":{"type":"Polygon","coordinates":[[[37.108448,48.740128],[37.108933,48.740176],[37.109144,48.73959],[37.108654,48.739512],[37.108448,48.740128]]]}},{"type":"Feature","properties":{"cadnum":"1420386901:00:000:0163"},"geometry":{"type":"Polygon","coordinates":[[[37.111174,48.739059],[37.111358,48.739085],[37.111497,48.739107],[37.111507,48.739],[37.111183,48.738982],[37.111174,48.739059]]]}},{"type":"Feature","properties":{"cadnum":"1420386901:00:000:0185"},"geometry":{"type":"Polygon","coordinates":[[[37.110509,48.738932],[37.110847,48.738947],[37.110847,48.738934],[37.110509,48.73892],[37.110509,48.738932]]]}},{"type":"Feature","properties":{"cadnum":"1420386901:00:000:0147"},"geometry":{"type":"Polygon","coordinates":[[[37.107945,48.740958],[37.10838,48.741008],[37.10861,48.740326],[37.108191,48.740267],[37.107945,48.740958]]]}},{"type":"Feature","properties":{"cadnum":"1420386901:00:000:0079"},"geometry":{"type":"Polygon","coordinates":[[[37.110025,48.740306],[37.110438,48.740354],[37.110654,48.739616],[37.110258,48.739571],[37.110025,48.740306]]]}},{"type":"Feature","properties":{"cadnum":"1420386901:00:000:0007"},"geometry":{"type":"Polygon","coordinates":[[[37.121963,48.73828],[37.122066,48.738312],[37.122129,48.738238],[37.12207,48.738224],[37.12204,48.738265],[37.121994,48.738247],[37.121963,48.73828]]]}},{"type":"Feature","properties":{"cadnum":"1420386901:00:000:0179"},"geometry":{"type":"Polygon","coordinates":[[[37.117314,48.741195],[37.117678,48.741242],[37.118141,48.740567],[37.117741,48.740457],[37.117314,48.741195]]]}},{"type":"Feature","properties":{"cadnum":"1420386901:00:000:0151"},"geometry":{"type":"Polygon","coordinates":[[[37.118702,48.739865],[37.1189,48.7399],[37.118958,48.739755],[37.118755,48.739722],[37.118702,48.739865]]]}},{"type":"Feature","properties":{"cadnum":"1420386901:00:000:0008"},"geometry":{"type":"Polygon","coordinates":[[[37.118805,48.738265],[37.118837,48.738268],[37.118841,48.738247],[37.11881,48.738244],[37.118805,48.738265]]]}},{"type":"Feature","properties":{"cadnum":"1420386901:00:000:0166"},"geometry":{"type":"Polygon","coordinates":[[[37.118635,48.738511],[37.119632,48.73873],[37.119776,48.738378],[37.118715,48.738262],[37.118635,48.738511]]]}},{"type":"Feature","properties":{"cadnum":"1420386901:00:000:0006"},"geometry":{"type":"Polygon","coordinates":[[[37.12164,48.738464],[37.121716,48.73849],[37.121738,48.738466],[37.121661,48.73844],[37.12164,48.738464]]]}},{"type":"Feature","properties":{"cadnum":"1420386901:00:000:0056"},"geometry":{"type":"Polygon","coordinates":[[[37.119843,48.741307],[37.120273,48.741443],[37.120373,48.741298],[37.11995,48.74118],[37.119843,48.741307]]]}},{"type":"Feature","properties":{"cadnum":"1420386901:00:000:0180"},"geometry":{"type":"Polygon","coordinates":[[[37.117741,48.740457],[37.118141,48.740567],[37.118248,48.740413],[37.118411,48.740172],[37.117988,48.740036],[37.117741,48.740457]]]}},{"type":"Feature","properties":{"cadnum":"1420386901:00:000:0102"},"geometry":{"type":"Polygon","coordinates":[[[37.120036,48.740042],[37.120382,48.74014],[37.120575,48.739838],[37.120229,48.73974],[37.120036,48.740042]]]}},{"type":"Feature","properties":{"cadnum":"1420386901:00:000:0031"},"geometry":{"type":"Polygon","coordinates":[[[37.117889,48.739915],[37.118374,48.740007],[37.118415,48.739897],[37.118437,48.739832],[37.118438,48.739832],[37.118518,48.739847],[37.118549,48.739764],[37.117979,48.739672],[37.117956,48.739731],[37.117889,48.739915]]]}},{"type":"Feature","properties":{"cadnum":"1420386901:00:000:0126"},"geometry":{"type":"Polygon","coordinates":[[[37.118549,48.740348],[37.118824,48.740427],[37.119003,48.740164],[37.118724,48.740084],[37.118549,48.740348]]]}},{"type":"Feature","properties":{"cadnum":"1420386901:00:000:0154"},"geometry":{"type":"Polygon","coordinates":[[[37.120935,48.741465],[37.121275,48.741547],[37.121841,48.740774],[37.121545,48.740673],[37.120935,48.741465]]]}},{"type":"Feature","properties":{"cadnum":"1420386901:00:000:0127"},"geometry":{"type":"Polygon","coordinates":[[[37.120728,48.740256],[37.121208,48.740404],[37.121541,48.740104],[37.121275,48.739977],[37.121212,48.740036],[37.121061,48.739959],[37.120728,48.740256]]]}},{"type":"Feature","properties":{"cadnum":"1420386901:00:000:0125"},"geometry":{"type":"Polygon","coordinates":[[[37.119025,48.739726],[37.11925,48.739794],[37.119376,48.739616],[37.119155,48.739548],[37.119025,48.739726]]]}},{"type":"Feature","properties":{"cadnum":"1420386901:00:000:0173"},"geometry":{"type":"Polygon","coordinates":[[[37.121621,48.74163],[37.121977,48.741669],[37.122476,48.740984],[37.122174,48.740881],[37.121621,48.74163]]]}},{"type":"Feature","properties":{"cadnum":"1420386901:00:000:0003"},"geometry":{"type":"Polygon","coordinates":[[[37.084584,48.714396],[37.08462,48.714414],[37.084664,48.714378],[37.084628,48.71436],[37.084584,48.714396]]]}},{"type":"Feature","properties":{"cadnum":"1420386901:00:000:0081"},"geometry":{"type":"Polygon","coordinates":[[[37.125134,48.744631],[37.125583,48.744769],[37.125965,48.744231],[37.125512,48.744071],[37.125134,48.744631]]]}},{"type":"Feature","properties":{"cadnum":"1420386901:00:000:0073"},"geometry":{"type":"Polygon","coordinates":[[[37.126625,48.74514],[37.127078,48.745294],[37.127348,48.744708],[37.126898,48.744554],[37.126625,48.74514]]]}},{"type":"Feature","properties":{"cadnum":"1420386901:00:000:0201"},"geometry":{"type":"Polygon","coordinates":[[[37.123795,48.744154],[37.124262,48.744287],[37.124407,48.744041],[37.124617,48.743744],[37.124141,48.743588],[37.124118,48.743623],[37.123979,48.743845],[37.123939,48.743926],[37.123795,48.744154]]]}},{"type":"Feature","properties":{"cadnum":"1420386901:00:000:0164"},"geometry":{"type":"Polygon","coordinates":[[[37.123715,48.743285],[37.124105,48.743419],[37.124348,48.743108],[37.12456,48.742826],[37.124128,48.742684],[37.123715,48.743285]]]}},{"type":"Feature","properties":{"cadnum":"1420386901:00:000:0183"},"geometry":{"type":"Polygon","coordinates":[[[37.125925,48.743499],[37.126086,48.743549],[37.126499,48.743676],[37.126644,48.743484],[37.126841,48.7432],[37.126581,48.743117],[37.126436,48.74307],[37.126257,48.743013],[37.125969,48.743431],[37.125925,48.743499]],[[37.126015,48.743443],[37.126001,48.743439],[37.126009,48.743431],[37.126019,48.743434],[37.126015,48.743443]]]}},{"type":"Feature","properties":{"cadnum":"1420386901:00:000:0087"},"geometry":{"type":"Polygon","coordinates":[[[37.126181,48.744127],[37.126558,48.744254],[37.127025,48.743599],[37.126644,48.743484],[37.126338,48.743899],[37.126181,48.744127]]]}},{"type":"Feature","properties":{"cadnum":"1420386901:00:000:0076"},"geometry":{"type":"Polygon","coordinates":[[[37.123818,48.742456],[37.124151,48.742574],[37.12429,48.742388],[37.124124,48.742344],[37.123935,48.742297],[37.12389,48.742356],[37.123818,48.742456]]]}},{"type":"Feature","properties":{"cadnum":"1420386901:00:000:0165"},"geometry":{"type":"Polygon","coordinates":[[[37.124128,48.742684],[37.12456,48.742826],[37.124837,48.742466],[37.124434,48.742332],[37.12438,48.742314],[37.124128,48.742684]]]}},{"type":"Feature","properties":{"cadnum":"1420386901:00:000:0082"},"geometry":{"type":"Polygon","coordinates":[[[37.124864,48.74503],[37.125282,48.745196],[37.125583,48.744769],[37.125134,48.744631],[37.124864,48.74503]]]}},{"type":"Feature","properties":{"cadnum":"1420386901:00:000:0160"},"geometry":{"type":"Polygon","coordinates":[[[37.12756,48.743443],[37.127613,48.743463],[37.128049,48.743626],[37.128099,48.743538],[37.127613,48.743369],[37.12756,48.743443]]]}},{"type":"Feature","properties":{"cadnum":"1420386901:00:000:0172"},"geometry":{"type":"Polygon","coordinates":[[[37.125476,48.74328],[37.125969,48.743431],[37.126257,48.743013],[37.125933,48.742912],[37.125781,48.742865],[37.125476,48.74328]]]}},{"type":"Feature","properties":{"cadnum":"1420386901:00:000:0089"},"geometry":{"type":"Polygon","coordinates":[[[37.125573,48.742803],[37.12596,48.742912],[37.126198,48.742593],[37.126432,48.742299],[37.126131,48.742201],[37.125573,48.742803]]]}},{"type":"Feature","properties":{"cadnum":"1420386901:00:000:0103"},"geometry":{"type":"Polygon","coordinates":[[[37.126854,48.743202],[37.127061,48.743271],[37.127214,48.743321],[37.127649,48.742696],[37.127344,48.742605],[37.126854,48.743202]]]}},{"type":"Feature","properties":{"cadnum":"1420386901:00:000:0202"},"geometry":{"type":"Polygon","coordinates":[[[37.123544,48.744565],[37.12402,48.744708],[37.124262,48.744287],[37.123795,48.744154],[37.123544,48.744565]]]}},{"type":"Feature","properties":{"cadnum":"1420386901:00:000:0063"},"geometry":{"type":"Polygon","coordinates":[[[37.12596,48.742912],[37.126288,48.743007],[37.126544,48.74267],[37.126747,48.742394],[37.126432,48.742299],[37.126198,48.742593],[37.12596,48.742912]]]}},{"type":"Feature","properties":{"cadnum":"1420386901:00:000:0182"},"geometry":{"type":"Polygon","coordinates":[[[37.125655,48.743889],[37.125718,48.743911],[37.125686,48.743961],[37.125767,48.743988],[37.126181,48.744127],[37.126338,48.743899],[37.126499,48.743676],[37.126086,48.743549],[37.125925,48.743499],[37.125655,48.743889]]]}},{"type":"Feature","properties":{"cadnum":"1420386901:00:000:0171"},"geometry":{"type":"Polygon","coordinates":[[[37.125116,48.743766],[37.125623,48.743935],[37.125969,48.743431],[37.125476,48.74328],[37.125116,48.743766]]]}},{"type":"Feature","properties":{"cadnum":"1420386901:00:000:0088"},"geometry":{"type":"Polygon","coordinates":[[[37.126644,48.743484],[37.127025,48.743599],[37.127214,48.743321],[37.127061,48.743271],[37.126854,48.743202],[37.126841,48.7432],[37.126644,48.743484]]]}},{"type":"Feature","properties":{"cadnum":"1420386901:00:000:0075"},"geometry":{"type":"Polygon","coordinates":[[[37.123275,48.743182],[37.123611,48.743298],[37.124151,48.742574],[37.123818,48.742456],[37.123665,48.742661],[37.123275,48.743182]]]}},{"type":"Feature","properties":{"cadnum":"1420386901:00:000:0068"},"geometry":{"type":"Polygon","coordinates":[[[37.123193,48.742495],[37.123665,48.742661],[37.12389,48.742356],[37.123414,48.742187],[37.123193,48.742495]]]}},{"type":"Feature","properties":{"cadnum":"1420386901:00:000:0067"},"geometry":{"type":"Polygon","coordinates":[[[37.122816,48.743022],[37.123275,48.743182],[37.123665,48.742661],[37.123193,48.742495],[37.122816,48.743022]]]}},{"type":"Feature","properties":{"cadnum":"1420386901:00:000:0167"},"geometry":{"type":"Polygon","coordinates":[[[37.123338,48.744254],[37.123669,48.744361],[37.123939,48.743922],[37.123979,48.743845],[37.124118,48.743623],[37.124141,48.743588],[37.123809,48.743478],[37.123791,48.743505],[37.123642,48.743766],[37.123338,48.744254]]]}},{"type":"Feature","properties":{"cadnum":"1420386901:00:000:0168"},"geometry":{"type":"Polygon","coordinates":[[[37.123212,48.744459],[37.123544,48.744565],[37.123669,48.744361],[37.123338,48.744254],[37.123212,48.744459]]]}}]}