{"type":"FeatureCollection","features":[{"type":"Feature","properties":{"cadnum":"1420384411:00:000:0027"},"geometry":{"type":"Polygon","coordinates":[[[36.833895,48.603726],[36.834,48.603846],[36.834006,48.603853],[36.834099,48.603959],[36.8341,48.603959],[36.834547,48.604468],[36.834853,48.604356],[36.834483,48.603927],[36.83421,48.603611],[36.833895,48.603726]]]}},{"type":"Feature","properties":{"cadnum":"1420384411:00:000:0015"},"geometry":{"type":"Polygon","coordinates":[[[36.83765,48.602387],[36.838041,48.602707],[36.838499,48.602506],[36.838122,48.602196],[36.83765,48.602387]]]}},{"type":"Feature","properties":{"cadnum":"1420384411:00:000:0014"},"geometry":{"type":"Polygon","coordinates":[[[36.838041,48.602707],[36.838562,48.603135],[36.839038,48.602945],[36.838499,48.602506],[36.838041,48.602707]]]}},{"type":"Feature","properties":{"cadnum":"1420384411:00:000:0044"},"geometry":{"type":"Polygon","coordinates":[[[36.814335,48.610165],[36.815271,48.611033],[36.815271,48.611032],[36.815272,48.611032],[36.815355,48.61111],[36.815668,48.6114],[36.81584,48.611561],[36.815861,48.611582],[36.816851,48.611193],[36.816859,48.61119],[36.816837,48.611167],[36.816836,48.611166],[36.816666,48.611005],[36.815309,48.609713],[36.815196,48.609766],[36.814335,48.610165]],[[36.816653,48.611115],[36.816675,48.611109],[36.816676,48.611109],[36.816676,48.61111],[36.816689,48.611122],[36.816666,48.61113],[36.816653,48.611116],[36.816653,48.611115]],[[36.81593,48.611404],[36.815943,48.611415],[36.815921,48.611424],[36.81592,48.611424],[36.815911,48.611409],[36.81593,48.611404]]]}},{"type":"Feature","properties":{"cadnum":"1420384411:00:000:0046"},"geometry":{"type":"Polygon","coordinates":[[[36.815794,48.609467],[36.817182,48.610797],[36.817353,48.610961],[36.817366,48.610975],[36.817748,48.610807],[36.818498,48.610471],[36.818345,48.610334],[36.816823,48.608989],[36.815794,48.609467]],[[36.818125,48.610548],[36.818117,48.610533],[36.818139,48.610524],[36.818152,48.610539],[36.818125,48.610548]],[[36.817429,48.610833],[36.817416,48.610818],[36.817439,48.61081],[36.817452,48.610824],[36.817452,48.610825],[36.817429,48.610833]]]}},{"type":"Feature","properties":{"cadnum":"1420384411:00:000:0021"},"geometry":{"type":"Polygon","coordinates":[[[36.820138,48.608567],[36.820593,48.609045],[36.820593,48.609046],[36.820672,48.609128],[36.820765,48.609095],[36.820765,48.609094],[36.821077,48.60898],[36.820722,48.608608],[36.820542,48.608419],[36.820138,48.608567]]]}},{"type":"Feature","properties":{"cadnum":"1420384411:00:000:0016"},"geometry":{"type":"Polygon","coordinates":[[[36.816814,48.608187],[36.81725,48.608665],[36.817722,48.608487],[36.817282,48.608006],[36.816814,48.608187]]]}},{"type":"Feature","properties":{"cadnum":"1420384411:00:000:0010"},"geometry":{"type":"Polygon","coordinates":[[[36.818395,48.607186],[36.818722,48.607592],[36.818723,48.607592],[36.819037,48.607979],[36.819352,48.607869],[36.819016,48.607478],[36.819015,48.607478],[36.818678,48.607085],[36.818395,48.607186]]]}},{"type":"Feature","properties":{"cadnum":"1420384411:00:000:0017"},"geometry":{"type":"Polygon","coordinates":[[[36.816634,48.607994],[36.816814,48.608187],[36.817282,48.608006],[36.81711,48.607816],[36.816634,48.607994]]]}},{"type":"Feature","properties":{"cadnum":"1420384411:00:000:0043"},"geometry":{"type":"Polygon","coordinates":[[[36.820196,48.607783],[36.820593,48.60821],[36.820656,48.608278],[36.820765,48.608395],[36.820798,48.60843],[36.820614,48.608496],[36.820765,48.608654],[36.820765,48.608653],[36.821077,48.60898],[36.821247,48.609167],[36.822195,48.608793],[36.821041,48.607502],[36.821009,48.607466],[36.820977,48.607478],[36.820976,48.607478],[36.820941,48.607492],[36.820685,48.607592],[36.820687,48.607592],[36.820196,48.607783]]]}},{"type":"Feature","properties":{"cadnum":"1420384411:00:000:0025"},"geometry":{"type":"Polygon","coordinates":[[[36.818081,48.6071],[36.818477,48.607592],[36.818849,48.608054],[36.819037,48.607979],[36.818631,48.607478],[36.81863,48.607478],[36.818395,48.607186],[36.818265,48.607028],[36.818081,48.6071]]]}},{"type":"Feature","properties":{"cadnum":"1420384411:00:000:0036"},"geometry":{"type":"Polygon","coordinates":[[[36.815232,48.609031],[36.815628,48.609392],[36.816171,48.609134],[36.815758,48.60876],[36.815232,48.609031]]]}},{"type":"Feature","properties":{"cadnum":"1420384411:00:000:0037"},"geometry":{"type":"Polygon","coordinates":[[[36.814685,48.609313],[36.815068,48.60966],[36.8151,48.609645],[36.815145,48.609624],[36.815271,48.609564],[36.815271,48.609563],[36.815628,48.609393],[36.815628,48.609392],[36.815232,48.609031],[36.814685,48.609313]]]}},{"type":"Feature","properties":{"cadnum":"1420384411:00:000:0020"},"geometry":{"type":"Polygon","coordinates":[[[36.819603,48.608012],[36.820138,48.608567],[36.820542,48.608419],[36.820008,48.60786],[36.819603,48.608012]]]}},{"type":"Feature","properties":{"cadnum":"1420384411:00:000:0038"},"geometry":{"type":"Polygon","coordinates":[[[36.817798,48.607783],[36.818341,48.608256],[36.818601,48.608155],[36.81844,48.608009],[36.818068,48.607667],[36.817798,48.607783]]]}},{"type":"Feature","properties":{"cadnum":"1420384411:00:000:0050"},"geometry":{"type":"Polygon","coordinates":[[[36.82807,48.606396],[36.828106,48.606441],[36.828888,48.607388],[36.828888,48.607389],[36.828887,48.607389],[36.828641,48.607478],[36.828579,48.607501],[36.828578,48.607501],[36.828411,48.607535],[36.828358,48.607545],[36.828165,48.607584],[36.828169,48.607592],[36.82817,48.607592],[36.828564,48.608157],[36.828627,48.60825],[36.829849,48.607822],[36.829549,48.607478],[36.829548,48.607478],[36.828524,48.606304],[36.828483,48.606262],[36.82807,48.606396]]]}},{"type":"Feature","properties":{"cadnum":"1420384411:00:000:0048"},"geometry":{"type":"Polygon","coordinates":[[[36.825622,48.607941],[36.825819,48.60814],[36.826086,48.608427],[36.82639,48.608754],[36.826538,48.608917],[36.826561,48.608941],[36.826924,48.608796],[36.82692,48.608787],[36.826844,48.608689],[36.826785,48.608621],[36.826258,48.608014],[36.826058,48.607783],[36.825622,48.607941]],[[36.8268,48.608719],[36.826807,48.608712],[36.826808,48.608712],[36.826817,48.608721],[36.826804,48.608725],[36.826803,48.608725],[36.8268,48.608719]]]}},{"type":"Feature","properties":{"cadnum":"1420384411:00:000:0040"},"geometry":{"type":"Polygon","coordinates":[[[36.82392,48.606645],[36.82449,48.607373],[36.824513,48.6074],[36.82485,48.60729],[36.824526,48.606907],[36.824198,48.606535],[36.82392,48.606645]]]}},{"type":"Feature","properties":{"cadnum":"1420384411:00:000:0054"},"geometry":{"type":"Polygon","coordinates":[[[36.826134,48.605413],[36.826258,48.60554],[36.826337,48.605621],[36.826557,48.605529],[36.826358,48.60536],[36.826134,48.605413]]]}},{"type":"Feature","properties":{"cadnum":"1420384411:00:000:0045"},"geometry":{"type":"Polygon","coordinates":[[[36.823295,48.607059],[36.823561,48.607347],[36.823702,48.607478],[36.823745,48.607518],[36.823824,48.607592],[36.823848,48.607614],[36.824225,48.607486],[36.823731,48.606918],[36.823295,48.607059]]]}},{"type":"Feature","properties":{"cadnum":"1420384411:00:000:0047"},"geometry":{"type":"Polygon","coordinates":[[[36.825083,48.607394],[36.825092,48.607406],[36.825275,48.607592],[36.825276,48.607592],[36.825622,48.607941],[36.826058,48.607783],[36.826026,48.607745],[36.825845,48.607592],[36.825452,48.607257],[36.825083,48.607394]]]}},{"type":"Feature","properties":{"cadnum":"1420384411:00:000:0032"},"geometry":{"type":"Polygon","coordinates":[[[36.822672,48.607142],[36.822846,48.607266],[36.823272,48.607037],[36.823066,48.606818],[36.822712,48.606928],[36.822815,48.607043],[36.822815,48.607044],[36.822672,48.607142]]]}},{"type":"Feature","properties":{"cadnum":"1420384411:00:000:0031"},"geometry":{"type":"Polygon","coordinates":[[[36.822846,48.607266],[36.823129,48.607468],[36.823142,48.607478],[36.82318,48.607505],[36.823301,48.607592],[36.823507,48.607739],[36.823848,48.607614],[36.823745,48.607518],[36.823561,48.607347],[36.823272,48.607037],[36.822846,48.607266]]]}},{"type":"Feature","properties":{"cadnum":"1420384411:00:000:0028"},"geometry":{"type":"Polygon","coordinates":[[[36.833545,48.603328],[36.833895,48.603726],[36.83421,48.603611],[36.833864,48.603209],[36.833545,48.603328]]]}},{"type":"Feature","properties":{"cadnum":"1420384411:00:000:0022"},"geometry":{"type":"Polygon","coordinates":[[[36.813464,48.609865],[36.813903,48.610224],[36.814429,48.60996],[36.813989,48.609601],[36.813464,48.609865]]]}},{"type":"Feature","properties":{"cadnum":"1420384411:00:000:0030"},"geometry":{"type":"Polygon","coordinates":[[[36.81181,48.610634],[36.812345,48.610964],[36.812821,48.610747],[36.812341,48.610402],[36.812265,48.610349],[36.81181,48.610634]]]}},{"type":"Feature","properties":{"cadnum":"1420384411:00:000:0013"},"geometry":{"type":"Polygon","coordinates":[[[36.812112,48.610239],[36.812265,48.610349],[36.812341,48.610402],[36.812798,48.610138],[36.812515,48.609948],[36.812112,48.610239]]]}},{"type":"Feature","properties":{"cadnum":"1420384411:00:000:0039"},"geometry":{"type":"Polygon","coordinates":[[[36.813989,48.609601],[36.814429,48.60996],[36.814991,48.609707],[36.814609,48.609369],[36.813989,48.609601]]]}},{"type":"Feature","properties":{"cadnum":"1420384411:00:000:0023"},"geometry":{"type":"Polygon","coordinates":[[[36.813167,48.609621],[36.813464,48.609865],[36.813989,48.609601],[36.813693,48.609357],[36.813167,48.609621]]]}},{"type":"Feature","properties":{"cadnum":"1420384411:00:000:0026"},"geometry":{"type":"Polygon","coordinates":[[[36.811779,48.610741],[36.812291,48.611136],[36.812678,48.610895],[36.812206,48.610539],[36.812035,48.610411],[36.811779,48.610741]]]}},{"type":"Feature","properties":{"cadnum":"1420384411:00:000:0052"},"geometry":{"type":"Polygon","coordinates":[[[36.812582,48.609993],[36.812798,48.610138],[36.813342,48.610497],[36.813657,48.610346],[36.813198,48.609987],[36.812978,48.609815],[36.812974,48.609808],[36.812582,48.609993]]]}},{"type":"Feature","properties":{"cadnum":"1420384411:00:000:0012"},"geometry":{"type":"Polygon","coordinates":[[[36.812341,48.610402],[36.812821,48.610747],[36.813342,48.610497],[36.812798,48.610138],[36.812341,48.610402]]]}},{"type":"Feature","properties":{"cadnum":"1420384411:00:000:0029"},"geometry":{"type":"Polygon","coordinates":[[[36.812974,48.609808],[36.812978,48.609815],[36.813198,48.609987],[36.813657,48.610346],[36.813903,48.610224],[36.813464,48.609865],[36.813217,48.609663],[36.812974,48.609808]]]}},{"type":"Feature","properties":{"cadnum":"1420384411:00:000:0049"},"geometry":{"type":"Polygon","coordinates":[[[36.819666,48.606797],[36.819967,48.607112],[36.820358,48.607513],[36.820651,48.6074],[36.820268,48.606997],[36.819972,48.606682],[36.819666,48.606797]]]}},{"type":"Feature","properties":{"cadnum":"1420384411:00:000:0011"},"geometry":{"type":"Polygon","coordinates":[[[36.818234,48.60699],[36.818395,48.607186],[36.818678,48.607085],[36.818511,48.606892],[36.818234,48.60699]]]}},{"type":"Feature","properties":{"cadnum":"1420384411:00:000:0035"},"geometry":{"type":"Polygon","coordinates":[[[36.823825,48.607807],[36.824396,48.608567],[36.824719,48.608466],[36.824149,48.607706],[36.823825,48.607807]]]}},{"type":"Feature","properties":{"cadnum":"1420384411:00:000:0053"},"geometry":{"type":"Polygon","coordinates":[[[36.826337,48.605621],[36.827172,48.606488],[36.827463,48.60639],[36.826557,48.605529],[36.826337,48.605621]]]}},{"type":"Feature","properties":{"cadnum":"1420384411:00:000:0042"},"geometry":{"type":"Polygon","coordinates":[[[36.830635,48.604855],[36.830689,48.60492],[36.831111,48.604798],[36.831052,48.604733],[36.830635,48.604855]]]}},{"type":"Feature","properties":{"cadnum":"1420384411:00:000:0033"},"geometry":{"type":"Polygon","coordinates":[[[36.827553,48.60533],[36.827953,48.60574],[36.828102,48.605861],[36.828326,48.606093],[36.828618,48.605983],[36.828398,48.60576],[36.828061,48.60544],[36.827939,48.605321],[36.827895,48.605276],[36.827855,48.605238],[36.827553,48.60533]]]}},{"type":"Feature","properties":{"cadnum":"1420384411:00:000:0009"},"geometry":{"type":"Polygon","coordinates":[[[36.829138,48.60467],[36.829278,48.604882],[36.829633,48.604778],[36.829494,48.604569],[36.829138,48.60467]]]}},{"type":"Feature","properties":{"cadnum":"1420384411:00:000:0018"},"geometry":{"type":"Polygon","coordinates":[[[36.828146,48.605511],[36.828622,48.605983],[36.829228,48.605835],[36.828546,48.605395],[36.828146,48.605511]]]}},{"type":"Feature","properties":{"cadnum":"1420384411:00:000:0008"},"geometry":{"type":"Polygon","coordinates":[[[36.827796,48.606554],[36.828578,48.607501],[36.828888,48.607388],[36.828106,48.606441],[36.827796,48.606554]]]}},{"type":"Feature","properties":{"cadnum":"1420384411:00:000:0034"},"geometry":{"type":"Polygon","coordinates":[[[36.827064,48.605089],[36.827257,48.605285],[36.827432,48.605208],[36.827433,48.605208],[36.827553,48.60533],[36.827855,48.605238],[36.827666,48.605054],[36.827593,48.604983],[36.827064,48.605089]]]}},{"type":"Feature","properties":{"cadnum":"1420384411:00:000:0007"},"geometry":{"type":"Polygon","coordinates":[[[36.829278,48.604882],[36.829341,48.604976],[36.829557,48.604914],[36.830087,48.605716],[36.830352,48.605639],[36.829763,48.604754],[36.829643,48.604789],[36.829633,48.604778],[36.829278,48.604882]]]}},{"type":"Feature","properties":{"cadnum":"1420384411:00:000:0019"},"geometry":{"type":"Polygon","coordinates":[[[36.827689,48.605054],[36.828146,48.605511],[36.828546,48.605395],[36.827926,48.604994],[36.827689,48.605054]]]}},{"type":"Feature","properties":{"cadnum":"1420384411:00:000:0041"},"geometry":{"type":"Polygon","coordinates":[[[36.830689,48.60492],[36.831169,48.605517],[36.831578,48.605383],[36.831111,48.604798],[36.830689,48.60492]]]}},{"type":"Feature","properties":{"cadnum":"1420384411:00:000:0051"},"geometry":{"type":"Polygon","coordinates":[[[36.827257,48.605285],[36.82785,48.605906],[36.828083,48.60617],[36.828326,48.606093],[36.828102,48.605861],[36.827953,48.60574],[36.827553,48.60533],[36.827433,48.605208],[36.827257,48.605285]]]}}]}