{"type":"FeatureCollection","features":[{"type":"Feature","properties":{"cadnum":"1420688201:07:000:1494"},"geometry":{"type":"Polygon","coordinates":[[[38.732296,47.752798],[38.732386,47.752805],[38.734106,47.752923],[38.734462,47.75057],[38.73389,47.750524],[38.733869,47.750415],[38.733846,47.750289],[38.733864,47.750259],[38.73355,47.75013],[38.732854,47.750099],[38.732705,47.750093],[38.732659,47.750392],[38.732642,47.750503],[38.732642,47.750507],[38.732296,47.752798]]]}},{"type":"Feature","properties":{"cadnum":"1420688201:07:000:1495"},"geometry":{"type":"Polygon","coordinates":[[[38.742276,47.717805],[38.743372,47.717787],[38.746018,47.717742],[38.746064,47.71737],[38.743266,47.717416],[38.742317,47.71743],[38.742276,47.717805]]]}}]}