{"type":"FeatureCollection","features":[{"type":"Feature","properties":{"cadnum":"1420382201:00:000:0072"},"geometry":{"type":"Polygon","coordinates":[[[37.06647,48.774566],[37.066973,48.774544],[37.066981,48.774281],[37.06698,48.774281],[37.067003,48.773603],[37.066519,48.773598],[37.0665,48.773917],[37.066483,48.774281],[37.06648,48.774343],[37.066478,48.774394],[37.06647,48.774566]]]}},{"type":"Feature","properties":{"cadnum":"1420382201:00:000:0071"},"geometry":{"type":"Polygon","coordinates":[[[37.066519,48.773598],[37.067003,48.773603],[37.067026,48.772938],[37.066554,48.772979],[37.066519,48.773598]]]}},{"type":"Feature","properties":{"cadnum":"1420382201:00:000:0062"},"geometry":{"type":"Polygon","coordinates":[[[37.073175,48.773372],[37.073278,48.773919],[37.073278,48.77392],[37.073324,48.77416],[37.07345,48.77415],[37.073624,48.774136],[37.073615,48.774095],[37.073477,48.773349],[37.073283,48.773364],[37.073175,48.773372]]]}},{"type":"Feature","properties":{"cadnum":"1420382201:00:000:0044"},"geometry":{"type":"Polygon","coordinates":[[[37.074464,48.773074],[37.074603,48.774009],[37.074919,48.774],[37.074815,48.773047],[37.074464,48.773074]]]}},{"type":"Feature","properties":{"cadnum":"1420382201:00:000:0043"},"geometry":{"type":"Polygon","coordinates":[[[37.074339,48.772251],[37.074464,48.773074],[37.074815,48.773047],[37.074725,48.772221],[37.074339,48.772251]]]}},{"type":"Feature","properties":{"cadnum":"1420382201:00:000:0067"},"geometry":{"type":"Polygon","coordinates":[[[37.078592,48.772567],[37.078771,48.772561],[37.078772,48.772561],[37.078847,48.772558],[37.078943,48.772555],[37.079081,48.77255],[37.079064,48.771898],[37.078836,48.771914],[37.078619,48.771928],[37.078588,48.772352],[37.078592,48.772567]]]}},{"type":"Feature","properties":{"cadnum":"1420382201:00:000:0051"},"geometry":{"type":"Polygon","coordinates":[[[37.073458,48.773251],[37.073615,48.774095],[37.073903,48.774068],[37.073773,48.773225],[37.073458,48.773251]]]}},{"type":"Feature","properties":{"cadnum":"1420382201:00:000:0068"},"geometry":{"type":"Polygon","coordinates":[[[37.078592,48.772567],[37.078611,48.773355],[37.078771,48.773348],[37.078772,48.773348],[37.078772,48.773349],[37.078889,48.773343],[37.078943,48.773341],[37.078943,48.77334],[37.078955,48.77334],[37.0791,48.773334],[37.079095,48.773151],[37.079081,48.772609],[37.079081,48.77255],[37.078847,48.772558],[37.078592,48.772567]]]}},{"type":"Feature","properties":{"cadnum":"1420382201:00:000:0061"},"geometry":{"type":"Polygon","coordinates":[[[37.072986,48.772372],[37.073175,48.773372],[37.073278,48.773365],[37.073283,48.773364],[37.07345,48.773351],[37.073477,48.773349],[37.073458,48.773251],[37.073288,48.772348],[37.072986,48.772372]]]}},{"type":"Feature","properties":{"cadnum":"1420382201:00:000:0050"},"geometry":{"type":"Polygon","coordinates":[[[37.073288,48.772348],[37.07345,48.773209],[37.073458,48.773251],[37.073773,48.773225],[37.073638,48.772313],[37.073288,48.772348]]]}},{"type":"Feature","properties":{"cadnum":"1420382201:00:000:0073"},"geometry":{"type":"Polygon","coordinates":[[[37.064713,48.766309],[37.06495,48.767153],[37.064951,48.767153],[37.065091,48.767648],[37.065481,48.767781],[37.066783,48.767736],[37.066779,48.767716],[37.066573,48.76704],[37.066572,48.76704],[37.066357,48.766333],[37.066181,48.766345],[37.065831,48.766208],[37.065229,48.766259],[37.064713,48.766309]]]}},{"type":"Feature","properties":{"cadnum":"1420382201:00:000:0036"},"geometry":{"type":"Polygon","coordinates":[[[37.076714,48.767008],[37.076721,48.76704],[37.076724,48.767053],[37.076736,48.767097],[37.076747,48.767132],[37.076903,48.767115],[37.076886,48.767035],[37.076871,48.76699],[37.076714,48.767008]]]}},{"type":"Feature","properties":{"cadnum":"1420382201:00:000:0045"},"geometry":{"type":"Polygon","coordinates":[[[37.077542,48.766919],[37.07755,48.766946],[37.077573,48.767044],[37.077735,48.767025],[37.077712,48.766931],[37.077703,48.766901],[37.077542,48.766919]]]}},{"type":"Feature","properties":{"cadnum":"1420382201:00:000:0041"},"geometry":{"type":"Polygon","coordinates":[[[37.076877,48.767005],[37.076886,48.767035],[37.076887,48.76704],[37.076886,48.76704],[37.076903,48.767115],[37.077011,48.767103],[37.076993,48.767025],[37.076984,48.766993],[37.076877,48.767005]]]}},{"type":"Feature","properties":{"cadnum":"1420382201:00:000:0048"},"geometry":{"type":"Polygon","coordinates":[[[37.077707,48.766898],[37.077919,48.766895],[37.077919,48.766825],[37.077707,48.766827],[37.077707,48.766898]]]}},{"type":"Feature","properties":{"cadnum":"1420382201:00:000:0047"},"geometry":{"type":"Polygon","coordinates":[[[37.076603,48.76702],[37.076607,48.76704],[37.076606,48.76704],[37.076611,48.767064],[37.07662,48.767097],[37.076634,48.767144],[37.076688,48.767138],[37.076679,48.767097],[37.07667,48.767058],[37.076657,48.767014],[37.076603,48.76702]]]}},{"type":"Feature","properties":{"cadnum":"1420382201:00:000:0046"},"geometry":{"type":"Polygon","coordinates":[[[37.076657,48.767014],[37.076665,48.76704],[37.07667,48.767058],[37.076679,48.767097],[37.076688,48.767138],[37.076747,48.767132],[37.076736,48.767097],[37.076724,48.767053],[37.076714,48.767008],[37.076657,48.767014]]]}},{"type":"Feature","properties":{"cadnum":"1420382201:00:000:0042"},"geometry":{"type":"Polygon","coordinates":[[[37.076984,48.766993],[37.076993,48.767025],[37.076997,48.76704],[37.076996,48.76704],[37.077011,48.767103],[37.077083,48.767097],[37.077114,48.767094],[37.077097,48.767014],[37.077087,48.766981],[37.076984,48.766993]]]}},{"type":"Feature","properties":{"cadnum":"1420382201:00:000:0049"},"geometry":{"type":"Polygon","coordinates":[[[37.07741,48.766934],[37.077424,48.766981],[37.077443,48.767058],[37.077573,48.767044],[37.07755,48.766946],[37.077542,48.766919],[37.07741,48.766934]]]}},{"type":"Feature","properties":{"cadnum":"1420382201:00:000:0059"},"geometry":{"type":"Polygon","coordinates":[[[37.079391,48.766312],[37.079403,48.767153],[37.079404,48.767153],[37.079404,48.767154],[37.079405,48.767185],[37.079751,48.76718],[37.079751,48.766312],[37.079391,48.766312]]]}},{"type":"Feature","properties":{"cadnum":"1420382201:00:000:0054"},"geometry":{"type":"Polygon","coordinates":[[[37.081427,48.766239],[37.081452,48.767153],[37.081454,48.767153],[37.081454,48.767154],[37.081454,48.767156],[37.081751,48.767151],[37.081785,48.76715],[37.081758,48.766235],[37.081427,48.766239]]]}},{"type":"Feature","properties":{"cadnum":"1420382201:00:000:0056"},"geometry":{"type":"Polygon","coordinates":[[[37.082454,48.765965],[37.082533,48.76704],[37.082532,48.76704],[37.08254,48.767141],[37.082639,48.767138],[37.082743,48.765963],[37.082454,48.765965]]]}},{"type":"Feature","properties":{"cadnum":"1420382201:00:000:0065"},"geometry":{"type":"Polygon","coordinates":[[[37.080416,48.76627],[37.08042,48.766898],[37.080424,48.76704],[37.080426,48.767093],[37.080428,48.767153],[37.080428,48.767154],[37.080429,48.767174],[37.080762,48.767168],[37.08076,48.76704],[37.080758,48.76627],[37.080416,48.76627]]]}},{"type":"Feature","properties":{"cadnum":"1420382201:00:000:0037"},"geometry":{"type":"Polygon","coordinates":[[[37.081202,48.76776],[37.081305,48.768929],[37.081565,48.768918],[37.081467,48.767751],[37.081202,48.76776]]]}},{"type":"Feature","properties":{"cadnum":"1420382201:00:000:0035"},"geometry":{"type":"Polygon","coordinates":[[[37.03974,48.799637],[37.039767,48.799637],[37.039843,48.79964],[37.039834,48.799729],[37.039834,48.799734],[37.03983,48.799779],[37.040176,48.799797],[37.040189,48.799669],[37.040203,48.799545],[37.039753,48.799525],[37.039743,48.799616],[37.039741,48.799616],[37.03974,48.799637]]]}},{"type":"Feature","properties":{"cadnum":"1420382201:00:000:0034"},"geometry":{"type":"Polygon","coordinates":[[[37.03939,48.79987],[37.039654,48.799883],[37.039664,48.799761],[37.039398,48.799749],[37.03939,48.79987]]]}},{"type":"Feature","properties":{"cadnum":"1420382201:00:000:0053"},"geometry":{"type":"Polygon","coordinates":[[[37.067669,48.768589],[37.067673,48.769359],[37.067957,48.769357],[37.067957,48.769356],[37.068078,48.769355],[37.068059,48.768585],[37.067785,48.768588],[37.067669,48.768589]]]}},{"type":"Feature","properties":{"cadnum":"1420382201:00:000:0031"},"geometry":{"type":"Polygon","coordinates":[[[37.070718,48.772603],[37.070732,48.772902],[37.070827,48.773307],[37.071261,48.773269],[37.071185,48.772861],[37.071074,48.77257],[37.070718,48.772603]]]}},{"type":"Feature","properties":{"cadnum":"1420382201:00:000:0064"},"geometry":{"type":"Polygon","coordinates":[[[37.072718,48.772763],[37.072986,48.774237],[37.073332,48.774204],[37.073324,48.77416],[37.073175,48.773372],[37.073054,48.772718],[37.072718,48.772763]]]}},{"type":"Feature","properties":{"cadnum":"1420382201:00:000:0028"},"geometry":{"type":"Polygon","coordinates":[[[37.072007,48.770323],[37.072022,48.770661],[37.072024,48.770713],[37.072027,48.770774],[37.072028,48.770774],[37.072043,48.771084],[37.072358,48.771082],[37.072366,48.771075],[37.072372,48.771067],[37.072362,48.770687],[37.072353,48.770305],[37.072007,48.770323]]]}},{"type":"Feature","properties":{"cadnum":"1420382201:00:000:0032"},"geometry":{"type":"Polygon","coordinates":[[[37.070827,48.773307],[37.071058,48.774281],[37.071058,48.774284],[37.071084,48.774394],[37.071085,48.774394],[37.071091,48.774417],[37.07146,48.774386],[37.071464,48.774385],[37.071261,48.773269],[37.070827,48.773307]]]}},{"type":"Feature","properties":{"cadnum":"1420382201:00:000:0030"},"geometry":{"type":"Polygon","coordinates":[[[37.069515,48.77043],[37.069523,48.770661],[37.069524,48.770671],[37.069527,48.770774],[37.069528,48.770774],[37.069542,48.771126],[37.069923,48.771105],[37.069879,48.770661],[37.069878,48.770661],[37.069856,48.770427],[37.069515,48.77043]]]}},{"type":"Feature","properties":{"cadnum":"1420382201:00:000:0060"},"geometry":{"type":"Polygon","coordinates":[[[37.07755,48.769293],[37.077559,48.769397],[37.077569,48.769468],[37.077582,48.76959],[37.077949,48.769574],[37.077945,48.769536],[37.077913,48.769536],[37.077913,48.769495],[37.077936,48.769468],[37.077932,48.769421],[37.077919,48.769278],[37.077905,48.769278],[37.07755,48.769293]]]}},{"type":"Feature","properties":{"cadnum":"1420382201:00:000:0069"},"geometry":{"type":"Polygon","coordinates":[[[37.079064,48.771898],[37.079081,48.77255],[37.079081,48.772609],[37.079494,48.772603],[37.0795,48.772236],[37.0795,48.771872],[37.079064,48.771898]]]}},{"type":"Feature","properties":{"cadnum":"1420382201:00:000:0070"},"geometry":{"type":"Polygon","coordinates":[[[37.079081,48.772609],[37.079095,48.773151],[37.0791,48.773334],[37.079248,48.773328],[37.07949,48.773044],[37.079494,48.772624],[37.079494,48.772603],[37.079081,48.772609]]]}},{"type":"Feature","properties":{"cadnum":"1420382201:00:000:0055"},"geometry":{"type":"Polygon","coordinates":[[[37.081418,48.765978],[37.081427,48.766238],[37.081427,48.766239],[37.081758,48.766235],[37.081754,48.765972],[37.081418,48.765978]]]}},{"type":"Feature","properties":{"cadnum":"1420382201:00:000:0066"},"geometry":{"type":"Polygon","coordinates":[[[37.080416,48.76627],[37.080758,48.76627],[37.080752,48.766016],[37.080416,48.766013],[37.080416,48.76627]]]}},{"type":"Feature","properties":{"cadnum":"1420382201:00:000:0052"},"geometry":{"type":"Polygon","coordinates":[[[37.069856,48.769285],[37.070225,48.769285],[37.070198,48.768455],[37.069873,48.768458],[37.069856,48.769285]]]}},{"type":"Feature","properties":{"cadnum":"1420382201:00:000:0027"},"geometry":{"type":"Polygon","coordinates":[[[37.071972,48.769468],[37.072007,48.770323],[37.072353,48.770305],[37.07234,48.76945],[37.071972,48.769468]]]}},{"type":"Feature","properties":{"cadnum":"1420382201:00:000:0029"},"geometry":{"type":"Polygon","coordinates":[[[37.069447,48.769504],[37.069447,48.769886],[37.069496,48.769886],[37.069497,48.769886],[37.069515,48.77043],[37.069856,48.770427],[37.069766,48.7695],[37.069447,48.769504]]]}},{"type":"Feature","properties":{"cadnum":"1420382201:00:000:0033"},"geometry":{"type":"Polygon","coordinates":[[[37.070202,48.768438],[37.070265,48.769263],[37.070628,48.769261],[37.070539,48.768506],[37.070202,48.768438]]]}}]}