{"type":"FeatureCollection","features":[{"type":"Feature","properties":{"cadnum":"1420387304:00:000:0023"},"geometry":{"type":"Polygon","coordinates":[[[36.990459,48.564377],[36.990642,48.564401],[36.990751,48.563873],[36.99075,48.563873],[36.990881,48.563243],[36.990881,48.563244],[36.990979,48.562769],[36.990805,48.562745],[36.990589,48.563736],[36.990561,48.563873],[36.99056,48.563873],[36.990459,48.564377]]]}},{"type":"Feature","properties":{"cadnum":"1420387304:00:000:0024"},"geometry":{"type":"Polygon","coordinates":[[[36.990365,48.564853],[36.990552,48.564844],[36.990642,48.564401],[36.990459,48.564377],[36.990365,48.564853]]]}},{"type":"Feature","properties":{"cadnum":"1420387304:00:000:0008"},"geometry":{"type":"Polygon","coordinates":[[[36.989138,48.56458],[36.98948,48.564618],[36.989661,48.563873],[36.98966,48.563873],[36.989713,48.563661],[36.989394,48.563628],[36.989328,48.563873],[36.989327,48.563873],[36.989138,48.56458]]]}},{"type":"Feature","properties":{"cadnum":"1420387304:00:000:0018"},"geometry":{"type":"Polygon","coordinates":[[[36.988644,48.564306],[36.98912,48.564637],[36.989138,48.56458],[36.989328,48.563873],[36.98951,48.563201],[36.988977,48.563138],[36.988766,48.563873],[36.988745,48.563946],[36.988734,48.563987],[36.988644,48.564306]]]}},{"type":"Feature","properties":{"cadnum":"1420387304:00:000:0027"},"geometry":{"type":"Polygon","coordinates":[[[36.990149,48.56474],[36.990386,48.564746],[36.990459,48.564377],[36.990537,48.563987],[36.990538,48.563987],[36.990562,48.563869],[36.99031,48.563848],[36.990305,48.563873],[36.990304,48.563873],[36.990149,48.56474]]]}},{"type":"Feature","properties":{"cadnum":"1420387304:00:000:0025"},"geometry":{"type":"Polygon","coordinates":[[[37.000385,48.565344],[37.000668,48.565364],[37.000735,48.565064],[37.000456,48.565038],[37.000385,48.565344]]]}},{"type":"Feature","properties":{"cadnum":"1420387304:00:000:0032"},"geometry":{"type":"Polygon","coordinates":[[[36.999384,48.564565],[36.999778,48.564604],[36.999947,48.563894],[36.999954,48.563869],[36.999567,48.563822],[36.99955,48.563873],[36.999541,48.5639],[36.999512,48.563987],[36.999513,48.563987],[36.999464,48.56414],[36.999384,48.564565]]]}},{"type":"Feature","properties":{"cadnum":"1420387304:00:000:0029"},"geometry":{"type":"Polygon","coordinates":[[[36.996751,48.565076],[36.997038,48.565064],[36.99725,48.564511],[36.996953,48.564467],[36.996751,48.565076]]]}},{"type":"Feature","properties":{"cadnum":"1420387304:00:000:0028"},"geometry":{"type":"Polygon","coordinates":[[[36.996953,48.564467],[36.99725,48.564511],[36.997463,48.563944],[36.997596,48.563596],[36.997487,48.563581],[36.997259,48.563554],[36.997113,48.563987],[36.997114,48.563987],[36.996953,48.564467]]]}},{"type":"Feature","properties":{"cadnum":"1420387304:00:000:0033"},"geometry":{"type":"Polygon","coordinates":[[[36.999244,48.565293],[36.999613,48.565323],[36.999778,48.564604],[36.999384,48.564565],[36.999244,48.565293]]]}},{"type":"Feature","properties":{"cadnum":"1420387304:00:000:0022"},"geometry":{"type":"Polygon","coordinates":[[[37.000456,48.565038],[37.000735,48.565064],[37.000739,48.565052],[37.000978,48.564012],[37.000703,48.56397],[37.000456,48.565038]]]}},{"type":"Feature","properties":{"cadnum":"1420387304:00:000:0021"},"geometry":{"type":"Polygon","coordinates":[[[37.000739,48.565052],[37.001045,48.565071],[37.001252,48.564047],[37.000978,48.564012],[37.000739,48.565052]]]}},{"type":"Feature","properties":{"cadnum":"1420387304:00:000:0012"},"geometry":{"type":"Polygon","coordinates":[[[36.993742,48.564134],[36.993988,48.564164],[36.994049,48.563987],[36.99405,48.563987],[36.994191,48.563587],[36.99416,48.563575],[36.994223,48.563399],[36.994254,48.563408],[36.994353,48.563156],[36.994025,48.563117],[36.993935,48.563352],[36.993967,48.563364],[36.99394,48.563435],[36.993912,48.563423],[36.993804,48.563873],[36.993803,48.563873],[36.993742,48.564134]]]}},{"type":"Feature","properties":{"cadnum":"1420387304:00:000:0010"},"geometry":{"type":"Polygon","coordinates":[[[36.995831,48.564342],[36.996131,48.564377],[36.996176,48.564243],[36.996304,48.563888],[36.996374,48.563698],[36.996374,48.563699],[36.996487,48.56339],[36.996189,48.563355],[36.996001,48.563873],[36.996,48.563873],[36.995831,48.564342]]]}},{"type":"Feature","properties":{"cadnum":"1420387304:00:000:0011"},"geometry":{"type":"Polygon","coordinates":[[[36.99561,48.564945],[36.995921,48.565014],[36.996131,48.564377],[36.995831,48.564342],[36.99561,48.564945]]]}},{"type":"Feature","properties":{"cadnum":"1420387304:00:000:0013"},"geometry":{"type":"Polygon","coordinates":[[[36.993598,48.564723],[36.993787,48.56474],[36.993988,48.564164],[36.993742,48.564134],[36.993598,48.564723]]]}},{"type":"Feature","properties":{"cadnum":"1420387304:00:000:0026"},"geometry":{"type":"Polygon","coordinates":[[[36.99031,48.563848],[36.990562,48.563869],[36.990589,48.563736],[36.990805,48.562745],[36.990539,48.562719],[36.990432,48.56317],[36.99031,48.563848]]]}},{"type":"Feature","properties":{"cadnum":"1420387304:00:000:0007"},"geometry":{"type":"Polygon","coordinates":[[[36.989394,48.563628],[36.989713,48.563661],[36.989952,48.562677],[36.989942,48.562677],[36.989682,48.56265],[36.989659,48.56265],[36.989394,48.563628]]]}},{"type":"Feature","properties":{"cadnum":"1420387304:00:000:0017"},"geometry":{"type":"Polygon","coordinates":[[[36.988977,48.563138],[36.98951,48.563201],[36.989659,48.56265],[36.989156,48.562582],[36.989129,48.562609],[36.988977,48.563138]]]}},{"type":"Feature","properties":{"cadnum":"1420387304:00:000:0014"},"geometry":{"type":"Polygon","coordinates":[[[36.997124,48.563611],[36.997214,48.563622],[36.997227,48.563581],[36.997231,48.563554],[36.997147,48.563542],[36.997137,48.563569],[36.997124,48.563611]]]}},{"type":"Feature","properties":{"cadnum":"1420387304:00:000:0035"},"geometry":{"type":"Polygon","coordinates":[[[37.004234,48.565813],[37.004508,48.565745],[37.004548,48.565472],[37.004271,48.565465],[37.004234,48.565813]]]}},{"type":"Feature","properties":{"cadnum":"1420387304:00:000:0015"},"geometry":{"type":"Polygon","coordinates":[[[37.005038,48.564972],[37.005676,48.565049],[37.005756,48.564589],[37.005106,48.564509],[37.005038,48.564972]]]}},{"type":"Feature","properties":{"cadnum":"1420387304:00:000:0034"},"geometry":{"type":"Polygon","coordinates":[[[37.004271,48.565465],[37.004548,48.565472],[37.004684,48.564613],[37.004697,48.564452],[37.004414,48.564422],[37.004319,48.564999],[37.004271,48.565465]]]}},{"type":"Feature","properties":{"cadnum":"1420387304:00:000:0020"},"geometry":{"type":"Polygon","coordinates":[[[37.003781,48.564954],[37.003785,48.565929],[37.004234,48.565822],[37.004234,48.565813],[37.004271,48.565465],[37.004319,48.564999],[37.003781,48.564954]]]}},{"type":"Feature","properties":{"cadnum":"1420387304:00:000:0019"},"geometry":{"type":"Polygon","coordinates":[[[37.003781,48.564954],[37.004319,48.564999],[37.004414,48.564422],[37.003929,48.564369],[37.003785,48.564939],[37.003781,48.564954]]]}},{"type":"Feature","properties":{"cadnum":"1420387304:00:000:0016"},"geometry":{"type":"Polygon","coordinates":[[[37.004926,48.565763],[37.00555,48.565796],[37.005676,48.565049],[37.005038,48.564972],[37.004926,48.565763]]]}}]}