{"type":"FeatureCollection","features":[{"type":"Feature","properties":{"cadnum":"1420687101:05:000:0928"},"geometry":{"type":"Polygon","coordinates":[[[38.327965,47.940161],[38.328495,47.941225],[38.330368,47.940395],[38.329824,47.939405],[38.329793,47.939348],[38.327965,47.940161]]]}},{"type":"Feature","properties":{"cadnum":"1420687101:01:000:0294"},"geometry":{"type":"Polygon","coordinates":[[[38.337154,47.918013],[38.337581,47.918086],[38.337666,47.917369],[38.337235,47.917345],[38.337154,47.918013]]]}},{"type":"Feature","properties":{"cadnum":"1420687101:01:000:0295"},"geometry":{"type":"Polygon","coordinates":[[[38.337141,47.91816],[38.337554,47.918332],[38.337581,47.918086],[38.337154,47.918013],[38.337141,47.91816]]]}}]}