{"type":"FeatureCollection","features":[{"type":"Feature","properties":{"cadnum":"1420355109:00:000:0067"},"geometry":{"type":"Polygon","coordinates":[[[36.866253,48.691028],[36.866433,48.691062],[36.866434,48.691062],[36.867592,48.691277],[36.867385,48.69169],[36.868242,48.691888],[36.86865,48.690972],[36.86871,48.690839],[36.868787,48.69067],[36.867955,48.690456],[36.866854,48.69013],[36.866688,48.690112],[36.866603,48.690154],[36.866508,48.690349],[36.866414,48.690599],[36.866283,48.690949],[36.866253,48.691028]],[[36.868521,48.690694],[36.868531,48.690679],[36.868557,48.690685],[36.868548,48.690699],[36.868521,48.690694]],[[36.866999,48.690296],[36.867007,48.690281],[36.867034,48.690287],[36.867026,48.690302],[36.866999,48.690296]]]}},{"type":"Feature","properties":{"cadnum":"1420355109:00:000:0100"},"geometry":{"type":"Polygon","coordinates":[[[36.87224,48.694551],[36.87231,48.694574],[36.87231,48.694575],[36.87252,48.694645],[36.872645,48.694688],[36.872646,48.694688],[36.872905,48.694776],[36.873015,48.694575],[36.874261,48.692312],[36.874378,48.692102],[36.873678,48.691953],[36.873561,48.692155],[36.87224,48.694551]]]}},{"type":"Feature","properties":{"cadnum":"1420355109:00:000:0099"},"geometry":{"type":"Polygon","coordinates":[[[36.873341,48.694924],[36.874221,48.695227],[36.874317,48.694688],[36.874318,48.694688],[36.874441,48.694008],[36.874508,48.693463],[36.874576,48.693127],[36.874351,48.693068],[36.874257,48.693258],[36.873624,48.694399],[36.87353,48.694575],[36.873529,48.694575],[36.873341,48.694924]]]}},{"type":"Feature","properties":{"cadnum":"1420355109:00:000:0104"},"geometry":{"type":"Polygon","coordinates":[[[36.869338,48.693676],[36.869604,48.693753],[36.870203,48.692736],[36.871072,48.691259],[36.870745,48.691171],[36.870203,48.692136],[36.869338,48.693676]]]}},{"type":"Feature","properties":{"cadnum":"1420355109:00:000:0096"},"geometry":{"type":"Polygon","coordinates":[[[36.871454,48.694281],[36.87224,48.694551],[36.873561,48.692155],[36.873678,48.691953],[36.872824,48.691734],[36.872699,48.691965],[36.871454,48.694281]],[[36.873611,48.691992],[36.873592,48.69198],[36.873611,48.691965],[36.873628,48.691977],[36.873611,48.691992]]]}},{"type":"Feature","properties":{"cadnum":"1420355109:00:000:0097"},"geometry":{"type":"Polygon","coordinates":[[[36.870609,48.694038],[36.871382,48.694257],[36.871454,48.694281],[36.872699,48.691965],[36.872824,48.691734],[36.872649,48.691692],[36.872011,48.691494],[36.870609,48.694038]]]}},{"type":"Feature","properties":{"cadnum":"1420355109:00:000:0103"},"geometry":{"type":"Polygon","coordinates":[[[36.854462,48.69169],[36.854786,48.691769],[36.854969,48.691228],[36.855008,48.69102],[36.855032,48.690895],[36.854701,48.690865],[36.854644,48.691062],[36.854462,48.69169]]]}},{"type":"Feature","properties":{"cadnum":"1420355109:00:000:0026"},"geometry":{"type":"Polygon","coordinates":[[[36.857176,48.694346],[36.857585,48.694423],[36.857606,48.694346],[36.857841,48.693542],[36.857854,48.693501],[36.857436,48.693436],[36.857378,48.693641],[36.857176,48.694346]]]}},{"type":"Feature","properties":{"cadnum":"1420355109:00:000:0079"},"geometry":{"type":"Polygon","coordinates":[[[36.856529,48.692202],[36.857405,48.692431],[36.857638,48.69203],[36.856749,48.691808],[36.856713,48.691841],[36.856699,48.691865],[36.856529,48.692202]]]}},{"type":"Feature","properties":{"cadnum":"1420355109:00:000:0025"},"geometry":{"type":"Polygon","coordinates":[[[36.857436,48.693436],[36.857854,48.693501],[36.858038,48.692808],[36.857638,48.692712],[36.857436,48.693436]]]}},{"type":"Feature","properties":{"cadnum":"1420355109:00:000:0080"},"geometry":{"type":"Polygon","coordinates":[[[36.855374,48.694707],[36.855698,48.694753],[36.855723,48.694659],[36.856093,48.693311],[36.855774,48.693252],[36.855378,48.694688],[36.85538,48.694688],[36.855374,48.694707]]]}},{"type":"Feature","properties":{"cadnum":"1420355109:00:000:0012"},"geometry":{"type":"Polygon","coordinates":[[[36.855778,48.690996],[36.855809,48.691005],[36.855891,48.691031],[36.856017,48.690857],[36.855904,48.690821],[36.855812,48.690949],[36.855778,48.690996]]]}},{"type":"Feature","properties":{"cadnum":"1420355109:00:000:0095"},"geometry":{"type":"Polygon","coordinates":[[[36.854956,48.692694],[36.855455,48.692778],[36.855621,48.692202],[36.855159,48.692081],[36.854956,48.692694]]]}},{"type":"Feature","properties":{"cadnum":"1420355109:00:000:0039"},"geometry":{"type":"Polygon","coordinates":[[[36.855891,48.693142],[36.856227,48.693228],[36.85669,48.692425],[36.856367,48.692339],[36.855891,48.693142]]]}},{"type":"Feature","properties":{"cadnum":"1420355109:00:000:0087"},"geometry":{"type":"Polygon","coordinates":[[[36.858082,48.6951],[36.859217,48.695272],[36.85925,48.695277],[36.859407,48.694684],[36.859217,48.694652],[36.859004,48.694616],[36.859045,48.694488],[36.859166,48.694115],[36.858841,48.694065],[36.85873,48.694402],[36.858275,48.694337],[36.858185,48.694688],[36.858186,48.694688],[36.858082,48.6951]]]}},{"type":"Feature","properties":{"cadnum":"1420355109:00:000:0038"},"geometry":{"type":"Polygon","coordinates":[[[36.857606,48.694346],[36.85802,48.694408],[36.858262,48.693593],[36.857841,48.693542],[36.857606,48.694346]]]}},{"type":"Feature","properties":{"cadnum":"1420355109:00:000:0040"},"geometry":{"type":"Polygon","coordinates":[[[36.855478,48.693842],[36.855818,48.693937],[36.856227,48.693228],[36.855891,48.693142],[36.855478,48.693842]]]}},{"type":"Feature","properties":{"cadnum":"1420355109:00:000:0065"},"geometry":{"type":"Polygon","coordinates":[[[36.855774,48.693252],[36.856093,48.693311],[36.856241,48.69278],[36.856367,48.692413],[36.856053,48.692324],[36.855774,48.693252]]]}},{"type":"Feature","properties":{"cadnum":"1420355109:00:000:0091"},"geometry":{"type":"Polygon","coordinates":[[[36.856736,48.693584],[36.857045,48.693614],[36.857275,48.692641],[36.856992,48.692573],[36.856736,48.693584]]]}},{"type":"Feature","properties":{"cadnum":"1420355109:00:000:0081"},"geometry":{"type":"Polygon","coordinates":[[[36.858491,48.69378],[36.858883,48.693833],[36.859007,48.693442],[36.859045,48.693366],[36.859187,48.69308],[36.858914,48.693012],[36.858801,48.693314],[36.858558,48.693281],[36.858531,48.693424],[36.858491,48.69378]]]}},{"type":"Feature","properties":{"cadnum":"1420355109:00:000:0043"},"geometry":{"type":"Polygon","coordinates":[[[36.857508,48.694729],[36.85802,48.694803],[36.858077,48.694581],[36.858118,48.694421],[36.85802,48.694408],[36.857606,48.694346],[36.857585,48.694423],[36.857546,48.694575],[36.857532,48.694631],[36.857518,48.694688],[36.857508,48.694729]]]}},{"type":"Feature","properties":{"cadnum":"1420355109:00:000:0037"},"geometry":{"type":"Polygon","coordinates":[[[36.857841,48.693542],[36.858262,48.693593],[36.858438,48.692902],[36.858038,48.692808],[36.857854,48.693501],[36.857841,48.693542]]]}},{"type":"Feature","properties":{"cadnum":"1420355109:00:000:0090"},"geometry":{"type":"Polygon","coordinates":[[[36.856394,48.694951],[36.857413,48.695096],[36.857508,48.694729],[36.857532,48.694631],[36.857585,48.694423],[36.857176,48.694346],[36.857378,48.693641],[36.857045,48.693614],[36.856736,48.693584],[36.856488,48.694575],[36.856394,48.694951]]]}},{"type":"Feature","properties":{"cadnum":"1420355109:00:000:0094"},"geometry":{"type":"Polygon","coordinates":[[[36.85448,48.694162],[36.854876,48.694221],[36.855163,48.693872],[36.855455,48.692778],[36.854956,48.692694],[36.85448,48.694162]]]}},{"type":"Feature","properties":{"cadnum":"1420355109:00:000:0023"},"geometry":{"type":"Polygon","coordinates":[[[36.85343,48.693703],[36.853724,48.693758],[36.853824,48.693777],[36.854409,48.692609],[36.854027,48.692505],[36.853626,48.693309],[36.85343,48.693703]]]}},{"type":"Feature","properties":{"cadnum":"1420355109:00:000:0024"},"geometry":{"type":"Polygon","coordinates":[[[36.854027,48.692505],[36.854409,48.692609],[36.854763,48.691903],[36.854377,48.691806],[36.854027,48.692505]]]}},{"type":"Feature","properties":{"cadnum":"1420355109:00:000:0046"},"geometry":{"type":"Polygon","coordinates":[[[36.854399,48.692624],[36.854786,48.692709],[36.855141,48.692007],[36.854763,48.691903],[36.854399,48.692624]]]}},{"type":"Feature","properties":{"cadnum":"1420355109:00:000:0106"},"geometry":{"type":"Polygon","coordinates":[[[36.867542,48.694676],[36.8676,48.694688],[36.867601,48.694688],[36.868202,48.694815],[36.868238,48.694622],[36.868468,48.694035],[36.868485,48.693988],[36.867825,48.693797],[36.867816,48.693833],[36.867592,48.694518],[36.867574,48.694575],[36.867573,48.694575],[36.867542,48.694676]]]}},{"type":"Feature","properties":{"cadnum":"1420355109:00:000:0020"},"geometry":{"type":"Polygon","coordinates":[[[36.867057,48.694373],[36.867592,48.694518],[36.867825,48.693797],[36.867273,48.693655],[36.867057,48.694373]]]}},{"type":"Feature","properties":{"cadnum":"1420355109:00:000:0107"},"geometry":{"type":"Polygon","coordinates":[[[36.867663,48.693635],[36.868072,48.69375],[36.868283,48.693412],[36.868468,48.693118],[36.868059,48.693],[36.868026,48.693048],[36.867663,48.693635]]]}},{"type":"Feature","properties":{"cadnum":"1420355109:00:000:0029"},"geometry":{"type":"Polygon","coordinates":[[[36.866797,48.693403],[36.867227,48.693516],[36.867587,48.692911],[36.867143,48.692793],[36.866797,48.693403]]]}},{"type":"Feature","properties":{"cadnum":"1420355109:00:000:0048"},"geometry":{"type":"Polygon","coordinates":[[[36.86443,48.692709],[36.864538,48.692741],[36.864695,48.692787],[36.86471,48.692791],[36.864869,48.692837],[36.86504,48.692553],[36.865179,48.692593],[36.865301,48.692348],[36.864739,48.692188],[36.864569,48.692475],[36.86443,48.692709]]]}},{"type":"Feature","properties":{"cadnum":"1420355109:00:000:0030"},"geometry":{"type":"Polygon","coordinates":[[[36.867143,48.692793],[36.867587,48.692911],[36.868068,48.692102],[36.867609,48.691975],[36.867143,48.692793]]]}},{"type":"Feature","properties":{"cadnum":"1420355109:00:000:0083"},"geometry":{"type":"Polygon","coordinates":[[[36.867227,48.693516],[36.867663,48.693635],[36.868026,48.693048],[36.867578,48.692926],[36.867227,48.693516]]]}},{"type":"Feature","properties":{"cadnum":"1420355109:00:000:0108"},"geometry":{"type":"Polygon","coordinates":[[[36.868059,48.693],[36.868468,48.693118],[36.868745,48.692677],[36.869097,48.692116],[36.869195,48.691953],[36.868755,48.691847],[36.868059,48.693]]]}},{"type":"Feature","properties":{"cadnum":"1420355109:00:000:0082"},"geometry":{"type":"Polygon","coordinates":[[[36.864713,48.696131],[36.864749,48.69614],[36.86495,48.696181],[36.864896,48.695787],[36.864887,48.695597],[36.864996,48.694613],[36.864816,48.694562],[36.86477,48.694548],[36.864767,48.694575],[36.864766,48.694575],[36.864756,48.694673],[36.864754,48.694688],[36.864659,48.695594],[36.864672,48.695796],[36.864713,48.696131]],[[36.864932,48.6948],[36.864932,48.694814],[36.864932,48.694815],[36.864906,48.694815],[36.864906,48.694814],[36.86491,48.6948],[36.864932,48.6948]],[[36.86486,48.696081],[36.86486,48.69608],[36.864887,48.696078],[36.864887,48.696093],[36.864866,48.696095],[36.864865,48.696095],[36.86486,48.696081]],[[36.864887,48.695188],[36.864887,48.695203],[36.864866,48.695203],[36.864865,48.695203],[36.864865,48.695188],[36.864866,48.695188],[36.864887,48.695188]],[[36.864816,48.695687],[36.864816,48.695686],[36.864833,48.695674],[36.864879,48.695713],[36.86486,48.695722],[36.864816,48.695687]]]}},{"type":"Feature","properties":{"cadnum":"1420355109:00:000:0019"},"geometry":{"type":"Polygon","coordinates":[[[36.866896,48.694907],[36.86742,48.695049],[36.867537,48.694688],[36.867592,48.694518],[36.867057,48.694373],[36.866996,48.694575],[36.866995,48.694575],[36.866896,48.694907]]]}},{"type":"Feature","properties":{"cadnum":"1420355109:00:000:0051"},"geometry":{"type":"Polygon","coordinates":[[[36.850591,48.691784],[36.850937,48.69182],[36.851,48.691399],[36.851084,48.691402],[36.85109,48.691375],[36.85104,48.691367],[36.85104,48.691366],[36.85104,48.691351],[36.851017,48.691351],[36.851017,48.691298],[36.851044,48.691298],[36.85113,48.691037],[36.850978,48.691005],[36.850734,48.690954],[36.85071,48.691062],[36.850711,48.691062],[36.85064,48.691393],[36.850591,48.691784]]]}},{"type":"Feature","properties":{"cadnum":"1420355109:00:000:0070"},"geometry":{"type":"Polygon","coordinates":[[[36.847807,48.691144],[36.848059,48.691185],[36.848059,48.691186],[36.848206,48.691209],[36.84823,48.691137],[36.848293,48.690949],[36.848336,48.690821],[36.848444,48.690501],[36.848173,48.69045],[36.84804,48.690424],[36.847832,48.691062],[36.847833,48.691062],[36.847807,48.691144]]]}},{"type":"Feature","properties":{"cadnum":"1420355109:00:000:0072"},"geometry":{"type":"Polygon","coordinates":[[[36.852342,48.690681],[36.852396,48.69069],[36.852361,48.690892],[36.852392,48.690925],[36.852385,48.690949],[36.852371,48.691001],[36.852354,48.691062],[36.852352,48.691073],[36.852787,48.691158],[36.852876,48.690949],[36.853025,48.690599],[36.852415,48.690525],[36.852342,48.690681]]]}},{"type":"Feature","properties":{"cadnum":"1420355109:00:000:0054"},"geometry":{"type":"Polygon","coordinates":[[[36.84856,48.691319],[36.848929,48.69139],[36.849044,48.691062],[36.849193,48.69064],[36.848803,48.690566],[36.848696,48.690883],[36.848675,48.690949],[36.848674,48.690949],[36.84856,48.691319]]]}},{"type":"Feature","properties":{"cadnum":"1420355109:00:000:0050"},"geometry":{"type":"Polygon","coordinates":[[[36.848201,48.691248],[36.84856,48.691319],[36.848639,48.691062],[36.848696,48.690883],[36.848803,48.690566],[36.848448,48.690498],[36.848336,48.690821],[36.848296,48.690949],[36.848295,48.690949],[36.848201,48.691248]]]}},{"type":"Feature","properties":{"cadnum":"1420355109:00:000:0101"},"geometry":{"type":"Polygon","coordinates":[[[36.847406,48.691073],[36.847811,48.691123],[36.847867,48.690949],[36.84804,48.690424],[36.84764,48.690347],[36.847501,48.690741],[36.847441,48.690949],[36.84744,48.690949],[36.847422,48.691016],[36.847408,48.691062],[36.847409,48.691062],[36.847406,48.691073]]]}},{"type":"Feature","properties":{"cadnum":"1420355109:00:000:0077"},"geometry":{"type":"Polygon","coordinates":[[[36.843252,48.691654],[36.84335,48.691823],[36.843409,48.691876],[36.843705,48.691936],[36.843999,48.691062],[36.844042,48.690936],[36.844321,48.690079],[36.843822,48.689982],[36.843742,48.69018],[36.843656,48.690525],[36.843463,48.691062],[36.843464,48.691062],[36.843252,48.691654]]]}},{"type":"Feature","properties":{"cadnum":"1420355109:00:000:0015"},"geometry":{"type":"Polygon","coordinates":[[[36.845929,48.689646],[36.846427,48.689738],[36.846642,48.68922],[36.846661,48.689166],[36.846153,48.689083],[36.845929,48.689646]]]}},{"type":"Feature","properties":{"cadnum":"1420355109:00:000:0014"},"geometry":{"type":"Polygon","coordinates":[[[36.846427,48.689738],[36.846979,48.689837],[36.847191,48.689321],[36.846642,48.68922],[36.846427,48.689738]]]}},{"type":"Feature","properties":{"cadnum":"1420355109:00:000:0016"},"geometry":{"type":"Polygon","coordinates":[[[36.846153,48.689083],[36.846661,48.689166],[36.846805,48.688828],[36.846288,48.688749],[36.846153,48.689083]]]}},{"type":"Feature","properties":{"cadnum":"1420355109:00:000:0074"},"geometry":{"type":"Polygon","coordinates":[[[36.846593,48.690931],[36.846998,48.690996],[36.847119,48.69064],[36.847254,48.690272],[36.846858,48.690198],[36.846593,48.690931]]]}},{"type":"Feature","properties":{"cadnum":"1420355109:00:000:0066"},"geometry":{"type":"Polygon","coordinates":[[[36.846998,48.690996],[36.847009,48.690998],[36.847349,48.691062],[36.847406,48.691073],[36.847422,48.691016],[36.847501,48.690741],[36.84764,48.690347],[36.847254,48.690272],[36.847119,48.69064],[36.847014,48.690949],[36.847013,48.690949],[36.846998,48.690996]]]}},{"type":"Feature","properties":{"cadnum":"1420355109:00:000:0075"},"geometry":{"type":"Polygon","coordinates":[[[36.846027,48.692647],[36.846432,48.692716],[36.846998,48.690996],[36.846593,48.690931],[36.846587,48.690949],[36.846586,48.690949],[36.846558,48.691033],[36.846549,48.691062],[36.846027,48.692647]]]}},{"type":"Feature","properties":{"cadnum":"1420355109:00:000:0056"},"geometry":{"type":"Polygon","coordinates":[[[36.850946,48.69176],[36.851377,48.691788],[36.851457,48.691402],[36.851516,48.691105],[36.85113,48.691037],[36.851044,48.691298],[36.851017,48.691298],[36.851017,48.691351],[36.85104,48.691351],[36.85104,48.691352],[36.85104,48.691366],[36.851089,48.691375],[36.85109,48.691375],[36.851084,48.691402],[36.851,48.691399],[36.850946,48.69176]]]}},{"type":"Feature","properties":{"cadnum":"1420355109:00:000:0098"},"geometry":{"type":"Polygon","coordinates":[[[36.850533,48.693442],[36.850977,48.693527],[36.85139,48.693566],[36.851642,48.692516],[36.851843,48.691797],[36.851386,48.69174],[36.851377,48.691788],[36.851188,48.692635],[36.851187,48.692635],[36.850784,48.692582],[36.850533,48.693442]]]}},{"type":"Feature","properties":{"cadnum":"1420355109:00:000:0055"},"geometry":{"type":"Polygon","coordinates":[[[36.848061,48.69281],[36.84823,48.692833],[36.848434,48.692861],[36.848929,48.69139],[36.84856,48.691319],[36.848061,48.69281]]]}},{"type":"Feature","properties":{"cadnum":"1420355109:00:000:0086"},"geometry":{"type":"Polygon","coordinates":[[[36.848434,48.692861],[36.849019,48.692991],[36.849315,48.692994],[36.849608,48.692834],[36.849849,48.692215],[36.850007,48.691835],[36.850128,48.69134],[36.849423,48.691189],[36.849423,48.691188],[36.849445,48.691138],[36.849046,48.691052],[36.848929,48.69139],[36.848434,48.692861]]]}},{"type":"Feature","properties":{"cadnum":"1420355109:00:000:0076"},"geometry":{"type":"Polygon","coordinates":[[[36.847271,48.69284],[36.847689,48.692914],[36.848059,48.691701],[36.848197,48.691248],[36.848206,48.691209],[36.847807,48.691144],[36.847271,48.69284]]]}},{"type":"Feature","properties":{"cadnum":"1420355109:00:000:0073"},"geometry":{"type":"Polygon","coordinates":[[[36.851386,48.69174],[36.851843,48.691797],[36.85201,48.691182],[36.851516,48.691105],[36.851457,48.691402],[36.851386,48.69174]]]}},{"type":"Feature","properties":{"cadnum":"1420355109:00:000:0085"},"geometry":{"type":"Polygon","coordinates":[[[36.852922,48.692593],[36.853183,48.692612],[36.853335,48.691746],[36.853327,48.691746],[36.853344,48.691642],[36.853348,48.691642],[36.853367,48.691536],[36.853093,48.691452],[36.852922,48.692593]]]}},{"type":"Feature","properties":{"cadnum":"1420355109:00:000:0088"},"geometry":{"type":"Polygon","coordinates":[[[36.849279,48.693522],[36.850042,48.693881],[36.851386,48.694109],[36.852141,48.694221],[36.852248,48.693765],[36.85161,48.693646],[36.851269,48.693584],[36.850968,48.693575],[36.849759,48.693332],[36.849338,48.693195],[36.849279,48.693522]]]}},{"type":"Feature","properties":{"cadnum":"1420355109:00:000:0057"},"geometry":{"type":"Polygon","coordinates":[[[36.850784,48.692582],[36.851187,48.692635],[36.851377,48.691788],[36.850946,48.69176],[36.850937,48.69182],[36.850784,48.692582]]]}},{"type":"Feature","properties":{"cadnum":"1420355109:00:000:0089"},"geometry":{"type":"Polygon","coordinates":[[[36.849585,48.693101],[36.849648,48.693199],[36.849926,48.693296],[36.850204,48.69335],[36.850415,48.692377],[36.850564,48.69163],[36.850132,48.691589],[36.849967,48.692232],[36.849669,48.692834],[36.849598,48.692994],[36.849585,48.693101]]]}},{"type":"Feature","properties":{"cadnum":"1420355109:00:000:0052"},"geometry":{"type":"Polygon","coordinates":[[[36.861829,48.694773],[36.862147,48.694788],[36.862209,48.694575],[36.862208,48.694575],[36.862409,48.693889],[36.862099,48.693806],[36.861852,48.694688],[36.861853,48.694688],[36.861829,48.694773]]]}},{"type":"Feature","properties":{"cadnum":"1420355109:00:000:0071"},"geometry":{"type":"Polygon","coordinates":[[[36.861128,48.694296],[36.86129,48.694316],[36.861218,48.694575],[36.861193,48.694665],[36.861187,48.694688],[36.861168,48.694758],[36.861298,48.694773],[36.861345,48.694591],[36.861464,48.694133],[36.861613,48.693665],[36.861317,48.69359],[36.861227,48.694002],[36.861128,48.694296]]]}},{"type":"Feature","properties":{"cadnum":"1420355109:00:000:0059"},"geometry":{"type":"Polygon","coordinates":[[[36.863244,48.695378],[36.863491,48.695443],[36.86372,48.694696],[36.863734,48.694634],[36.863845,48.69429],[36.863603,48.694221],[36.863492,48.694575],[36.863468,48.694652],[36.863456,48.694688],[36.863457,48.694688],[36.863244,48.695378]]]}},{"type":"Feature","properties":{"cadnum":"1420355109:00:000:0084"},"geometry":{"type":"Polygon","coordinates":[[[36.860346,48.69552],[36.86125,48.695645],[36.861321,48.695395],[36.861491,48.694797],[36.861298,48.694773],[36.861168,48.694758],[36.861193,48.694665],[36.86129,48.694316],[36.861128,48.694296],[36.86111,48.694296],[36.86107,48.694441],[36.860742,48.694414],[36.860581,48.694412],[36.860546,48.694575],[36.860543,48.694589],[36.860522,48.694688],[36.860409,48.69523],[36.860346,48.69552]]]}},{"type":"Feature","properties":{"cadnum":"1420355109:00:000:0102"},"geometry":{"type":"Polygon","coordinates":[[[36.846858,48.692825],[36.847254,48.692881],[36.847271,48.69284],[36.847807,48.691144],[36.847811,48.691123],[36.847406,48.691073],[36.846858,48.692825]]]}},{"type":"Feature","properties":{"cadnum":"1420355109:00:000:0001"},"geometry":{"type":"Polygon","coordinates":[[[36.890683,48.701485],[36.890746,48.70163],[36.890979,48.701583],[36.890916,48.70144],[36.890683,48.701485]]]}},{"type":"Feature","properties":{"cadnum":"1420355109:00:000:0060"},"geometry":{"type":"Polygon","coordinates":[[[36.872389,48.69641],[36.873143,48.696608],[36.873265,48.696229],[36.872519,48.696039],[36.872389,48.69641]]]}},{"type":"Feature","properties":{"cadnum":"1420355109:00:000:0061"},"geometry":{"type":"Polygon","coordinates":[[[36.872519,48.696039],[36.873265,48.696229],[36.873381,48.695864],[36.873485,48.695538],[36.873502,48.695487],[36.873439,48.695467],[36.872793,48.69528],[36.87277,48.695333],[36.872519,48.696039]]]}},{"type":"Feature","properties":{"cadnum":"1420355109:00:000:0063"},"geometry":{"type":"Polygon","coordinates":[[[36.872064,48.697459],[36.872294,48.697504],[36.872644,48.696662],[36.872374,48.69659],[36.872064,48.697459]]]}},{"type":"Feature","properties":{"cadnum":"1420355109:00:000:0042"},"geometry":{"type":"Polygon","coordinates":[[[36.869667,48.696913],[36.8699,48.69697],[36.870031,48.696654],[36.87018,48.696295],[36.870203,48.69624],[36.870313,48.695974],[36.870084,48.695911],[36.869877,48.696397],[36.869667,48.696913]]]}},{"type":"Feature","properties":{"cadnum":"1420355109:00:000:0068"},"geometry":{"type":"Polygon","coordinates":[[[36.870745,48.696801],[36.871279,48.696898],[36.871347,48.696641],[36.871422,48.696333],[36.870965,48.696214],[36.870745,48.696801]]]}},{"type":"Feature","properties":{"cadnum":"1420355109:00:000:0069"},"geometry":{"type":"Polygon","coordinates":[[[36.870601,48.697183],[36.871175,48.69729],[36.871279,48.696898],[36.870745,48.696801],[36.870601,48.697183]]]}},{"type":"Feature","properties":{"cadnum":"1420355109:00:000:0062"},"geometry":{"type":"Polygon","coordinates":[[[36.873143,48.696608],[36.873925,48.696801],[36.873947,48.696691],[36.874028,48.696329],[36.874171,48.695665],[36.873502,48.695487],[36.873485,48.695538],[36.873381,48.695864],[36.873265,48.696229],[36.873143,48.696608]],[[36.873894,48.696392],[36.873879,48.696377],[36.873907,48.696371],[36.873915,48.696386],[36.873894,48.696392]],[[36.873556,48.695902],[36.873548,48.695888],[36.873548,48.695887],[36.873569,48.695882],[36.873582,48.695896],[36.873556,48.695902]]]}},{"type":"Feature","properties":{"cadnum":"1420355109:00:000:0017"},"geometry":{"type":"Polygon","coordinates":[[[36.861407,48.691313],[36.862036,48.691485],[36.862246,48.691013],[36.861617,48.690844],[36.861519,48.691062],[36.861407,48.691313]]]}},{"type":"Feature","properties":{"cadnum":"1420355109:00:000:0045"},"geometry":{"type":"Polygon","coordinates":[[[36.865512,48.696161],[36.865741,48.696205],[36.865749,48.696172],[36.865525,48.696119],[36.865512,48.696161]]]}},{"type":"Feature","properties":{"cadnum":"1420355109:00:000:0036"},"geometry":{"type":"Polygon","coordinates":[[[36.866433,48.696362],[36.866833,48.696388],[36.866913,48.695873],[36.866536,48.695787],[36.866433,48.696362]]]}},{"type":"Feature","properties":{"cadnum":"1420355109:00:000:0035"},"geometry":{"type":"Polygon","coordinates":[[[36.866536,48.695787],[36.866913,48.695873],[36.867039,48.695087],[36.866671,48.694999],[36.866536,48.695787]]]}},{"type":"Feature","properties":{"cadnum":"1420355109:00:000:0078"},"geometry":{"type":"Polygon","coordinates":[[[36.865736,48.696214],[36.865979,48.696247],[36.866275,48.694995],[36.866325,48.695008],[36.866334,48.694969],[36.866064,48.694903],[36.865997,48.695221],[36.865736,48.696214]]]}},{"type":"Feature","properties":{"cadnum":"1420355109:00:000:0105"},"geometry":{"type":"Polygon","coordinates":[[[36.867407,48.695087],[36.868045,48.695259],[36.868171,48.694972],[36.868202,48.694815],[36.867542,48.694676],[36.86742,48.695049],[36.867407,48.695087]]]}},{"type":"Feature","properties":{"cadnum":"1420355109:00:000:0044"},"geometry":{"type":"Polygon","coordinates":[[[36.865525,48.696119],[36.865749,48.696172],[36.865997,48.695221],[36.866064,48.694903],[36.865858,48.694854],[36.865728,48.695301],[36.865525,48.696119]]]}},{"type":"Feature","properties":{"cadnum":"1420355109:00:000:0028"},"geometry":{"type":"Polygon","coordinates":[[[36.863976,48.691589],[36.864313,48.691681],[36.864452,48.69139],[36.864101,48.691319],[36.863976,48.691589]]]}},{"type":"Feature","properties":{"cadnum":"1420355109:00:000:0041"},"geometry":{"type":"Polygon","coordinates":[[[36.859623,48.692573],[36.860032,48.692659],[36.860095,48.692529],[36.860063,48.692523],[36.860082,48.692487],[36.860005,48.692472],[36.859992,48.692508],[36.859686,48.692443],[36.859623,48.692573]]]}},{"type":"Feature","properties":{"cadnum":"1420355109:00:000:0092"},"geometry":{"type":"Polygon","coordinates":[[[36.861694,48.693501],[36.86203,48.693599],[36.862063,48.693531],[36.862049,48.69351],[36.862156,48.693187],[36.861824,48.693125],[36.861816,48.693145],[36.861816,48.693261],[36.861694,48.693501]]]}},{"type":"Feature","properties":{"cadnum":"1420355109:00:000:0053"},"geometry":{"type":"Polygon","coordinates":[[[36.860455,48.694408],[36.860742,48.694414],[36.86098,48.693501],[36.860642,48.693419],[36.860455,48.694408]]]}},{"type":"Feature","properties":{"cadnum":"1420355109:00:000:0027"},"geometry":{"type":"Polygon","coordinates":[[[36.863598,48.692393],[36.86394,48.692478],[36.864313,48.691681],[36.863976,48.691589],[36.863598,48.692393]]]}},{"type":"Feature","properties":{"cadnum":"1420355109:00:000:0022"},"geometry":{"type":"Polygon","coordinates":[[[36.860988,48.693204],[36.861397,48.693314],[36.861434,48.693243],[36.861523,48.693021],[36.861663,48.692686],[36.861204,48.692562],[36.860988,48.693204]]]}},{"type":"Feature","properties":{"cadnum":"1420355109:00:000:0021"},"geometry":{"type":"Polygon","coordinates":[[[36.861204,48.692562],[36.861663,48.692686],[36.861936,48.692019],[36.86143,48.691885],[36.861204,48.692562]]]}},{"type":"Feature","properties":{"cadnum":"1420355109:00:000:0058"},"geometry":{"type":"Polygon","coordinates":[[[36.86363,48.693368],[36.864007,48.693386],[36.864074,48.693041],[36.864088,48.692828],[36.864254,48.692863],[36.864299,48.692784],[36.863701,48.692612],[36.86363,48.693368]]]}},{"type":"Feature","properties":{"cadnum":"1420355109:00:000:0093"},"geometry":{"type":"Polygon","coordinates":[[[36.861824,48.693125],[36.862156,48.693187],[36.862443,48.692366],[36.862476,48.692277],[36.862156,48.692188],[36.862126,48.692274],[36.861824,48.693125]]]}},{"type":"Feature","properties":{"cadnum":"1420355109:00:000:0064"},"geometry":{"type":"Polygon","coordinates":[[[36.860742,48.694414],[36.86107,48.694441],[36.861311,48.693587],[36.86098,48.693501],[36.860742,48.694414]]]}},{"type":"Feature","properties":{"cadnum":"1420355109:00:000:0018"},"geometry":{"type":"Polygon","coordinates":[[[36.861214,48.691749],[36.861847,48.691918],[36.862036,48.691485],[36.861407,48.691313],[36.861214,48.691749]]]}}]}