{"type":"FeatureCollection","features":[{"type":"Feature","properties":{"cadnum":"1420387305:01:000:0044"},"geometry":{"type":"Polygon","coordinates":[[[36.888083,48.626217],[36.892004,48.626729],[36.892488,48.626792],[36.892609,48.626365],[36.892004,48.626286],[36.892004,48.626287],[36.888207,48.625789],[36.888083,48.626217]]]}},{"type":"Feature","properties":{"cadnum":"1420387305:00:000:0012"},"geometry":{"type":"Polygon","coordinates":[[[36.856017,48.599146],[36.856151,48.599292],[36.856403,48.599568],[36.856986,48.599366],[36.856722,48.599122],[36.856547,48.598977],[36.856017,48.599146]]]}},{"type":"Feature","properties":{"cadnum":"1420387305:00:000:0011"},"geometry":{"type":"Polygon","coordinates":[[[36.854548,48.600393],[36.855118,48.600976],[36.855495,48.600815],[36.854948,48.600254],[36.854739,48.600327],[36.854548,48.600393]]]}},{"type":"Feature","properties":{"cadnum":"1420387305:00:000:0013"},"geometry":{"type":"Polygon","coordinates":[[[36.855971,48.599092],[36.856017,48.599146],[36.856547,48.598977],[36.856497,48.598933],[36.855971,48.599092]]]}},{"type":"Feature","properties":{"cadnum":"1420387305:00:000:0008"},"geometry":{"type":"Polygon","coordinates":[[[36.858118,48.597536],[36.858204,48.597614],[36.858357,48.597741],[36.858711,48.59756],[36.858401,48.597289],[36.858118,48.597536]]]}},{"type":"Feature","properties":{"cadnum":"1420387305:00:000:0007"},"geometry":{"type":"Polygon","coordinates":[[[36.858357,48.597741],[36.858667,48.598006],[36.859026,48.598288],[36.859045,48.598278],[36.859109,48.598243],[36.859217,48.598186],[36.859217,48.598185],[36.859345,48.598116],[36.859049,48.597854],[36.858711,48.59756],[36.858357,48.597741]]]}},{"type":"Feature","properties":{"cadnum":"1420387305:00:000:0015"},"geometry":{"type":"Polygon","coordinates":[[[36.858051,48.599521],[36.858738,48.600129],[36.859045,48.599967],[36.859045,48.599968],[36.859497,48.599728],[36.859045,48.599344],[36.858788,48.599125],[36.858051,48.599521]]]}},{"type":"Feature","properties":{"cadnum":"1420387305:00:000:0014"},"geometry":{"type":"Polygon","coordinates":[[[36.857759,48.599259],[36.858051,48.599521],[36.858788,48.599125],[36.858487,48.598867],[36.857759,48.599259]]]}},{"type":"Feature","properties":{"cadnum":"1420387305:00:000:0009"},"geometry":{"type":"Polygon","coordinates":[[[36.859583,48.598249],[36.85996,48.598567],[36.860229,48.598799],[36.860567,48.598609],[36.860306,48.598394],[36.859911,48.598059],[36.859583,48.598249]]]}},{"type":"Feature","properties":{"cadnum":"1420387305:00:000:0010"},"geometry":{"type":"Polygon","coordinates":[[[36.860229,48.598799],[36.860894,48.599375],[36.861204,48.599134],[36.860567,48.598609],[36.860229,48.598799]]]}}]}