{"type":"FeatureCollection","features":[{"type":"Feature","properties":{"cadnum":"1420387001:00:000:0039"},"geometry":{"type":"Polygon","coordinates":[[[37.132827,48.611341],[37.133703,48.61168],[37.133856,48.611739],[37.133875,48.611747],[37.133875,48.611746],[37.134854,48.612143],[37.13567,48.612362],[37.135671,48.612362],[37.135154,48.612933],[37.135667,48.613229],[37.136479,48.612591],[37.135954,48.612175],[37.135846,48.612045],[37.135563,48.611576],[37.135437,48.611234],[37.134032,48.611421],[37.133772,48.611233],[37.13376,48.611224],[37.133579,48.611091],[37.133503,48.61111],[37.133502,48.61111],[37.133269,48.611168],[37.133041,48.611224],[37.133013,48.611231],[37.132827,48.611341]]]}},{"type":"Feature","properties":{"cadnum":"1420387001:00:000:0037"},"geometry":{"type":"Polygon","coordinates":[[[37.137495,48.608273],[37.137684,48.608989],[37.138267,48.610103],[37.13825,48.610361],[37.13847,48.610616],[37.138667,48.610693],[37.138976,48.610711],[37.139196,48.610724],[37.139196,48.610725],[37.139225,48.610726],[37.139368,48.610695],[37.139368,48.610694],[37.139372,48.610693],[37.139395,48.610305],[37.139322,48.609821],[37.139211,48.60922],[37.138366,48.608772],[37.137607,48.608256],[37.137495,48.608273]]]}},{"type":"Feature","properties":{"cadnum":"1420387001:01:000:0002"},"geometry":{"type":"Polygon","coordinates":[[[37.107832,48.633635],[37.107851,48.633647],[37.107962,48.633707],[37.107971,48.633709],[37.108048,48.633647],[37.107914,48.633573],[37.107832,48.633635]]]}},{"type":"Feature","properties":{"cadnum":"1420387001:01:000:0005"},"geometry":{"type":"Polygon","coordinates":[[[37.106229,48.635654],[37.106409,48.635734],[37.106409,48.635733],[37.107666,48.636286],[37.108313,48.635965],[37.108631,48.635749],[37.108798,48.635509],[37.108744,48.635244],[37.107396,48.6346],[37.106409,48.635492],[37.106229,48.635654]]]}},{"type":"Feature","properties":{"cadnum":"1420387001:01:000:0004"},"geometry":{"type":"Polygon","coordinates":[[[37.107738,48.633107],[37.108218,48.633353],[37.108331,48.633258],[37.107851,48.633012],[37.107738,48.633107]]]}},{"type":"Feature","properties":{"cadnum":"1420387001:00:000:0042"},"geometry":{"type":"Polygon","coordinates":[[[37.126176,48.621775],[37.126451,48.622004],[37.126451,48.622005],[37.12734,48.622743],[37.128382,48.622231],[37.128382,48.62223],[37.128608,48.622118],[37.128907,48.621971],[37.12821,48.621389],[37.127726,48.620985],[37.126176,48.621775]]]}},{"type":"Feature","properties":{"cadnum":"1420387001:00:000:0013"},"geometry":{"type":"Polygon","coordinates":[[[37.11474,48.62203],[37.114746,48.622035],[37.114851,48.622118],[37.115019,48.62225],[37.115235,48.622131],[37.115074,48.622005],[37.114956,48.621912],[37.114787,48.622005],[37.114786,48.622005],[37.11474,48.62203]]]}},{"type":"Feature","properties":{"cadnum":"1420387001:00:000:0004"},"geometry":{"type":"Polygon","coordinates":[[[37.115172,48.62231],[37.11527,48.622384],[37.115405,48.622303],[37.115482,48.622363],[37.115661,48.622256],[37.115415,48.622069],[37.11523,48.622176],[37.115306,48.622232],[37.115306,48.622233],[37.115172,48.62231]]]}},{"type":"Feature","properties":{"cadnum":"1420387001:00:000:0030"},"geometry":{"type":"Polygon","coordinates":[[[37.131449,48.6129],[37.132248,48.613188],[37.132523,48.613224],[37.132563,48.613227],[37.133703,48.611915],[37.133856,48.611739],[37.132827,48.611341],[37.131449,48.6129]]]}},{"type":"Feature","properties":{"cadnum":"1420387001:00:000:0021"},"geometry":{"type":"Polygon","coordinates":[[[37.137059,48.612909],[37.137701,48.612977],[37.137787,48.612687],[37.137149,48.612618],[37.137059,48.612909]]]}},{"type":"Feature","properties":{"cadnum":"1420387001:00:000:0018"},"geometry":{"type":"Polygon","coordinates":[[[37.137351,48.613865],[37.13825,48.614019],[37.138451,48.613735],[37.137575,48.613544],[37.137351,48.613865]]]}},{"type":"Feature","properties":{"cadnum":"1420387001:00:000:0019"},"geometry":{"type":"Polygon","coordinates":[[[37.136475,48.613711],[37.137351,48.613865],[37.137575,48.613544],[37.136739,48.613367],[37.136475,48.613711]]]}},{"type":"Feature","properties":{"cadnum":"1420387001:00:000:0020"},"geometry":{"type":"Polygon","coordinates":[[[37.137701,48.612977],[37.138672,48.613084],[37.138766,48.612766],[37.138353,48.612718],[37.138347,48.612746],[37.137787,48.612687],[37.137701,48.612977]]]}},{"type":"Feature","properties":{"cadnum":"1420387001:00:000:0031"},"geometry":{"type":"Polygon","coordinates":[[[37.132563,48.613227],[37.132783,48.613229],[37.133269,48.613161],[37.133529,48.613191],[37.133875,48.613329],[37.133875,48.613328],[37.133978,48.613369],[37.134854,48.612143],[37.133856,48.611739],[37.132563,48.613227]]]}},{"type":"Feature","properties":{"cadnum":"1420387001:00:000:0017"},"geometry":{"type":"Polygon","coordinates":[[[37.11766,48.622072],[37.117708,48.622118],[37.117709,48.622118],[37.117996,48.622387],[37.118099,48.62234],[37.1181,48.62234],[37.118518,48.622864],[37.118734,48.622755],[37.118122,48.622085],[37.118032,48.621986],[37.117906,48.621873],[37.117678,48.621995],[37.117689,48.622004],[37.11769,48.622004],[37.11769,48.622005],[37.117689,48.622005],[37.117727,48.622036],[37.117727,48.622037],[37.11768,48.622061],[37.11766,48.622072]]]}},{"type":"Feature","properties":{"cadnum":"1420387001:00:000:0034"},"geometry":{"type":"Polygon","coordinates":[[[37.116618,48.62049],[37.117067,48.620804],[37.117224,48.620704],[37.11735,48.620623],[37.116906,48.620311],[37.116618,48.62049]]]}},{"type":"Feature","properties":{"cadnum":"1420387001:00:000:0038"},"geometry":{"type":"Polygon","coordinates":[[[37.118962,48.618491],[37.120332,48.619605],[37.120908,48.619231],[37.122003,48.618708],[37.121627,48.618373],[37.121626,48.618373],[37.120701,48.61755],[37.11918,48.618373],[37.119179,48.618373],[37.119013,48.618464],[37.11897,48.618487],[37.118962,48.618491]]]}},{"type":"Feature","properties":{"cadnum":"1420387001:00:000:0033"},"geometry":{"type":"Polygon","coordinates":[[[37.127617,48.613283],[37.12821,48.613565],[37.1283,48.613608],[37.128382,48.613647],[37.128548,48.613726],[37.128893,48.613984],[37.130466,48.613013],[37.129338,48.612199],[37.128295,48.612856],[37.127617,48.613283]]]}},{"type":"Feature","properties":{"cadnum":"1420387001:00:000:0032"},"geometry":{"type":"Polygon","coordinates":[[[37.128893,48.613984],[37.129791,48.614424],[37.130407,48.61467],[37.131714,48.613996],[37.131053,48.613354],[37.130466,48.613013],[37.128893,48.613984]]]}},{"type":"Feature","properties":{"cadnum":"1420387001:00:000:0036"},"geometry":{"type":"Polygon","coordinates":[[[37.135622,48.617191],[37.136628,48.617684],[37.137984,48.616191],[37.136852,48.61573],[37.136512,48.615938],[37.135824,48.616633],[37.135622,48.617191]]]}},{"type":"Feature","properties":{"cadnum":"1420387001:00:000:0016"},"geometry":{"type":"Polygon","coordinates":[[[37.118518,48.622864],[37.118881,48.623319],[37.118958,48.623097],[37.119007,48.623055],[37.118734,48.622755],[37.118518,48.622864]]]}},{"type":"Feature","properties":{"cadnum":"1420387001:00:000:0041"},"geometry":{"type":"Polygon","coordinates":[[[37.124613,48.622553],[37.125772,48.623527],[37.126738,48.62304],[37.126967,48.622927],[37.12734,48.622743],[37.126587,48.622118],[37.126176,48.621775],[37.125996,48.621858],[37.125763,48.621966],[37.125682,48.622005],[37.125681,48.622005],[37.12548,48.622102],[37.125479,48.622103],[37.125449,48.622118],[37.124613,48.622553]],[[37.126734,48.622868],[37.12676,48.622859],[37.126774,48.622874],[37.126747,48.622883],[37.126734,48.622868]],[[37.126432,48.622494],[37.126454,48.622485],[37.126455,48.622485],[37.126468,48.6225],[37.126445,48.622509],[37.126432,48.622494]],[[37.126139,48.62214],[37.12614,48.62214],[37.126162,48.622131],[37.126176,48.622149],[37.126175,48.622149],[37.126153,48.622158],[37.126139,48.62214]]]}},{"type":"Feature","properties":{"cadnum":"1420387001:00:000:0035"},"geometry":{"type":"Polygon","coordinates":[[[37.137993,48.610982],[37.139129,48.611136],[37.139215,48.610825],[37.138659,48.610792],[37.138514,48.610807],[37.138051,48.61077],[37.137993,48.610982]]]}},{"type":"Feature","properties":{"cadnum":"1420387001:00:000:0040"},"geometry":{"type":"Polygon","coordinates":[[[37.123396,48.624254],[37.123755,48.624512],[37.125772,48.623527],[37.124613,48.622553],[37.123786,48.622983],[37.12411,48.62326],[37.124137,48.623411],[37.124025,48.623465],[37.124024,48.623465],[37.123939,48.623465],[37.123665,48.623366],[37.1234,48.623379],[37.123396,48.624254]]]}}]}