{"type":"FeatureCollection","features":[{"type":"Feature","properties":{"cadnum":"1420384401:00:000:0035"},"geometry":{"type":"Polygon","coordinates":[[[36.831029,48.600177],[36.831041,48.600213],[36.83104,48.600213],[36.831209,48.600744],[36.831579,48.600678],[36.831622,48.60067],[36.831751,48.600647],[36.831751,48.600646],[36.831754,48.600646],[36.831579,48.600257],[36.831505,48.600091],[36.831029,48.600177]]]}},{"type":"Feature","properties":{"cadnum":"1420384401:00:000:0059"},"geometry":{"type":"Polygon","coordinates":[[[36.832643,48.600111],[36.832733,48.600327],[36.832734,48.600327],[36.832759,48.600388],[36.833042,48.600316],[36.832934,48.600037],[36.832643,48.600111]]]}},{"type":"Feature","properties":{"cadnum":"1420384401:00:000:0056"},"geometry":{"type":"Polygon","coordinates":[[[36.83483,48.600949],[36.834991,48.601234],[36.835337,48.601154],[36.835184,48.600866],[36.83483,48.600949]]]}},{"type":"Feature","properties":{"cadnum":"1420384401:00:000:0057"},"geometry":{"type":"Polygon","coordinates":[[[36.834412,48.600212],[36.834412,48.600213],[36.834461,48.6003],[36.834476,48.600327],[36.83483,48.600949],[36.835184,48.600866],[36.834868,48.600275],[36.83479,48.600126],[36.834412,48.600212]]]}},{"type":"Feature","properties":{"cadnum":"1420384401:00:000:0039"},"geometry":{"type":"Polygon","coordinates":[[[36.828699,48.598207],[36.82909,48.598243],[36.82935,48.597973],[36.829381,48.597744],[36.828855,48.597687],[36.828802,48.597949],[36.828748,48.597943],[36.828699,48.598207]]]}},{"type":"Feature","properties":{"cadnum":"1420384401:00:000:0086"},"geometry":{"type":"Polygon","coordinates":[[[36.827832,48.598172],[36.828151,48.598169],[36.828241,48.597711],[36.827922,48.597691],[36.827872,48.597969],[36.827832,48.598172]]]}},{"type":"Feature","properties":{"cadnum":"1420384401:00:000:0103"},"geometry":{"type":"Polygon","coordinates":[[[36.829014,48.597209],[36.829601,48.597289],[36.829718,48.596752],[36.829125,48.596734],[36.829014,48.597209]]]}},{"type":"Feature","properties":{"cadnum":"1420384401:00:000:0050"},"geometry":{"type":"Polygon","coordinates":[[[36.827379,48.599105],[36.82741,48.599247],[36.827517,48.599805],[36.827593,48.60023],[36.827855,48.600201],[36.827773,48.599761],[36.827652,48.599072],[36.827379,48.599105]]]}},{"type":"Feature","properties":{"cadnum":"1420384401:00:000:0099"},"geometry":{"type":"Polygon","coordinates":[[[36.830347,48.598677],[36.830415,48.598905],[36.831251,48.598792],[36.831182,48.598564],[36.830347,48.598677]]]}},{"type":"Feature","properties":{"cadnum":"1420384401:00:000:0106"},"geometry":{"type":"Polygon","coordinates":[[[36.828847,48.598772],[36.828951,48.599137],[36.8294,48.599083],[36.829291,48.598724],[36.828847,48.598772]]]}},{"type":"Feature","properties":{"cadnum":"1420384401:00:000:0036"},"geometry":{"type":"Polygon","coordinates":[[[36.830999,48.600078],[36.831029,48.600177],[36.831505,48.600091],[36.831465,48.599996],[36.830999,48.600078]]]}},{"type":"Feature","properties":{"cadnum":"1420384401:00:000:0083"},"geometry":{"type":"Polygon","coordinates":[[[36.830307,48.600124],[36.830402,48.600124],[36.830367,48.600213],[36.830366,48.600213],[36.830325,48.60032],[36.830372,48.600327],[36.830373,48.600327],[36.83054,48.600352],[36.830583,48.600213],[36.830612,48.60012],[36.830742,48.599339],[36.830392,48.599333],[36.830307,48.600124]]]}},{"type":"Feature","properties":{"cadnum":"1420384401:00:000:0037"},"geometry":{"type":"Polygon","coordinates":[[[36.831394,48.599235],[36.831735,48.599235],[36.831735,48.598882],[36.831394,48.598878],[36.831394,48.599235]]]}},{"type":"Feature","properties":{"cadnum":"1420384401:00:000:0045"},"geometry":{"type":"Polygon","coordinates":[[[36.827607,48.59813],[36.827823,48.598125],[36.827945,48.598112],[36.827949,48.597907],[36.827945,48.597607],[36.827607,48.597577],[36.827607,48.59813]]]}},{"type":"Feature","properties":{"cadnum":"1420384401:00:000:0078"},"geometry":{"type":"Polygon","coordinates":[[[36.827679,48.599215],[36.827773,48.599761],[36.827855,48.600201],[36.828155,48.600168],[36.828083,48.59979],[36.827993,48.599182],[36.827679,48.599215]]]}},{"type":"Feature","properties":{"cadnum":"1420384401:00:000:0068"},"geometry":{"type":"Polygon","coordinates":[[[36.829836,48.59876],[36.829844,48.598799],[36.829853,48.598849],[36.829871,48.598846],[36.82988,48.598876],[36.829979,48.59887],[36.829979,48.598873],[36.830024,48.59887],[36.830037,48.59887],[36.830015,48.598745],[36.829836,48.59876]]]}},{"type":"Feature","properties":{"cadnum":"1420384401:00:000:0118"},"geometry":{"type":"Polygon","coordinates":[[[36.827482,48.596568],[36.827648,48.59658],[36.828649,48.596655],[36.82918,48.596694],[36.829181,48.596694],[36.830366,48.596782],[36.831579,48.596871],[36.831623,48.596874],[36.831731,48.596883],[36.831751,48.596852],[36.831751,48.596851],[36.831888,48.596636],[36.832063,48.596354],[36.83187,48.596339],[36.831595,48.596318],[36.830522,48.596235],[36.827643,48.596009],[36.827482,48.596568]],[[36.831748,48.596639],[36.831775,48.596639],[36.831771,48.596657],[36.831744,48.596657],[36.831748,48.596639]]]}},{"type":"Feature","properties":{"cadnum":"1420384401:00:000:0079"},"geometry":{"type":"Polygon","coordinates":[[[36.82763,48.598926],[36.827652,48.599072],[36.827679,48.599215],[36.827993,48.599182],[36.827953,48.598887],[36.82763,48.598926]]]}},{"type":"Feature","properties":{"cadnum":"1420384401:00:000:0107"},"geometry":{"type":"Polygon","coordinates":[[[36.829777,48.597735],[36.829956,48.598475],[36.831471,48.598294],[36.831402,48.597676],[36.831579,48.59724],[36.831704,48.596933],[36.830001,48.59685],[36.829777,48.597735]]]}},{"type":"Feature","properties":{"cadnum":"1420384401:00:000:0042"},"geometry":{"type":"Polygon","coordinates":[[[36.839048,48.59759],[36.839708,48.598308],[36.84,48.598213],[36.839398,48.597465],[36.839048,48.59759]]]}},{"type":"Feature","properties":{"cadnum":"1420384401:00:000:0096"},"geometry":{"type":"Polygon","coordinates":[[[36.841396,48.599211],[36.841828,48.599069],[36.841882,48.598495],[36.841495,48.598493],[36.841396,48.599211]]]}},{"type":"Feature","properties":{"cadnum":"1420384401:00:000:0101"},"geometry":{"type":"Polygon","coordinates":[[[36.840983,48.596749],[36.841325,48.596749],[36.841333,48.59658],[36.841332,48.59658],[36.841361,48.596003],[36.841002,48.596084],[36.840988,48.59658],[36.840987,48.59658],[36.840983,48.596749]]]}},{"type":"Feature","properties":{"cadnum":"1420384401:00:000:0100"},"geometry":{"type":"Polygon","coordinates":[[[36.836721,48.597185],[36.837067,48.59775],[36.837072,48.597749],[36.837185,48.597718],[36.837244,48.597702],[36.837587,48.597607],[36.837417,48.597337],[36.837314,48.597361],[36.837147,48.597082],[36.836721,48.597185]]]}},{"type":"Feature","properties":{"cadnum":"1420384401:00:000:0102"},"geometry":{"type":"Polygon","coordinates":[[[36.840966,48.597702],[36.841302,48.597607],[36.841306,48.597203],[36.841325,48.596749],[36.840983,48.596749],[36.84097,48.597301],[36.840966,48.597702]]]}},{"type":"Feature","properties":{"cadnum":"1420384401:00:000:0095"},"geometry":{"type":"Polygon","coordinates":[[[36.841495,48.598493],[36.841882,48.598495],[36.841967,48.597619],[36.841595,48.597738],[36.841545,48.598136],[36.841495,48.598493]]]}},{"type":"Feature","properties":{"cadnum":"1420384401:00:000:0076"},"geometry":{"type":"Polygon","coordinates":[[[36.8373,48.60012],[36.83737,48.600213],[36.837455,48.600326],[36.837456,48.600327],[36.837637,48.600566],[36.838055,48.600426],[36.837965,48.600327],[36.837966,48.600327],[36.837669,48.599999],[36.8373,48.60012]]]}},{"type":"Feature","properties":{"cadnum":"1420384401:00:000:0075"},"geometry":{"type":"Polygon","coordinates":[[[36.836775,48.599428],[36.837244,48.600046],[36.8373,48.60012],[36.837669,48.599999],[36.837448,48.599755],[36.837134,48.599309],[36.837072,48.59933],[36.836775,48.599428]]]}},{"type":"Feature","properties":{"cadnum":"1420384401:00:000:0060"},"geometry":{"type":"Polygon","coordinates":[[[36.84225,48.597518],[36.842566,48.597959],[36.842566,48.59796],[36.842681,48.598121],[36.842737,48.5981],[36.842737,48.598099],[36.843107,48.597955],[36.84261,48.597379],[36.84225,48.597518]]]}},{"type":"Feature","properties":{"cadnum":"1420384401:00:000:0074"},"geometry":{"type":"Polygon","coordinates":[[[36.834956,48.596363],[36.83496,48.596425],[36.835034,48.59658],[36.835234,48.596995],[36.835427,48.597308],[36.835679,48.597236],[36.835647,48.597189],[36.835639,48.597191],[36.83557,48.597084],[36.83558,48.597082],[36.835454,48.596877],[36.835381,48.596665],[36.835257,48.596297],[36.835081,48.596321],[36.834956,48.596363]]]}},{"type":"Feature","properties":{"cadnum":"1420384401:00:000:0009"},"geometry":{"type":"Polygon","coordinates":[[[36.834363,48.596478],[36.834422,48.59658],[36.834421,48.59658],[36.834477,48.596678],[36.834487,48.596694],[36.83492,48.597441],[36.835167,48.597376],[36.834777,48.596694],[36.834778,48.596694],[36.834664,48.596493],[36.834363,48.596478]]]}},{"type":"Feature","properties":{"cadnum":"1420384401:00:000:0109"},"geometry":{"type":"Polygon","coordinates":[[[36.834664,48.596493],[36.834713,48.59658],[36.834712,48.59658],[36.835167,48.597376],[36.835427,48.597308],[36.835234,48.596995],[36.835089,48.596694],[36.83501,48.596529],[36.834664,48.596493]]]}},{"type":"Feature","properties":{"cadnum":"1420384401:00:000:0071"},"geometry":{"type":"Polygon","coordinates":[[[36.846971,48.596375],[36.847,48.59658],[36.846999,48.59658],[36.847096,48.597269],[36.847545,48.597165],[36.847438,48.59658],[36.847398,48.596357],[36.846971,48.596375]]]}},{"type":"Feature","properties":{"cadnum":"1420384401:00:000:0070"},"geometry":{"type":"Polygon","coordinates":[[[36.846868,48.59567],[36.846971,48.596375],[36.847398,48.596357],[36.847348,48.596077],[36.847302,48.595644],[36.846868,48.59567]]]}},{"type":"Feature","properties":{"cadnum":"1420384401:00:000:0048"},"geometry":{"type":"Polygon","coordinates":[[[36.844828,48.596472],[36.844846,48.59658],[36.844845,48.59658],[36.844861,48.596669],[36.844866,48.596694],[36.844874,48.596737],[36.844891,48.597097],[36.844891,48.597108],[36.845336,48.597103],[36.845287,48.596659],[36.845187,48.5963],[36.844828,48.596472]]]}},{"type":"Feature","properties":{"cadnum":"1420384401:00:000:0069"},"geometry":{"type":"Polygon","coordinates":[[[36.845877,48.596004],[36.845997,48.59662],[36.846428,48.596608],[36.846334,48.595881],[36.845877,48.596004]]]}},{"type":"Feature","properties":{"cadnum":"1420384401:00:000:0110"},"geometry":{"type":"Polygon","coordinates":[[[36.827109,48.600492],[36.82727,48.601365],[36.827607,48.601335],[36.827459,48.600453],[36.827109,48.600492]]]}},{"type":"Feature","properties":{"cadnum":"1420384401:00:000:0092"},"geometry":{"type":"Polygon","coordinates":[[[36.830289,48.600699],[36.830312,48.601142],[36.830406,48.601834],[36.830603,48.601831],[36.830526,48.601137],[36.830526,48.601136],[36.830527,48.601136],[36.830702,48.601124],[36.830643,48.600703],[36.830289,48.600699]]]}},{"type":"Feature","properties":{"cadnum":"1420384401:00:000:0090"},"geometry":{"type":"Polygon","coordinates":[[[36.828609,48.600325],[36.828807,48.601525],[36.829054,48.601507],[36.828865,48.60032],[36.828609,48.600325]]]}},{"type":"Feature","properties":{"cadnum":"1420384401:00:000:0093"},"geometry":{"type":"Polygon","coordinates":[[[36.830406,48.601834],[36.830469,48.602301],[36.830653,48.602295],[36.830603,48.601831],[36.830406,48.601834]]]}},{"type":"Feature","properties":{"cadnum":"1420384401:00:000:0087"},"geometry":{"type":"Polygon","coordinates":[[[36.829498,48.600334],[36.829521,48.600815],[36.829687,48.601959],[36.829853,48.601956],[36.829696,48.600736],[36.829741,48.600593],[36.829746,48.600373],[36.829498,48.600334]]]}},{"type":"Feature","properties":{"cadnum":"1420384401:00:000:0111"},"geometry":{"type":"Polygon","coordinates":[[[36.82727,48.601365],[36.82754,48.602788],[36.827832,48.602755],[36.827607,48.601335],[36.82727,48.601365]]]}},{"type":"Feature","properties":{"cadnum":"1420384401:00:000:0091"},"geometry":{"type":"Polygon","coordinates":[[[36.828807,48.601525],[36.828964,48.602493],[36.829211,48.602482],[36.829054,48.601507],[36.828807,48.601525]]]}},{"type":"Feature","properties":{"cadnum":"1420384401:00:000:0097"},"geometry":{"type":"Polygon","coordinates":[[[36.838585,48.602104],[36.839312,48.602838],[36.839604,48.602704],[36.838863,48.601971],[36.838585,48.602104]]]}},{"type":"Feature","properties":{"cadnum":"1420384401:00:000:0098"},"geometry":{"type":"Polygon","coordinates":[[[36.838199,48.601716],[36.838585,48.602104],[36.838863,48.601971],[36.838369,48.601484],[36.838199,48.601716]]]}},{"type":"Feature","properties":{"cadnum":"1420384401:00:000:0077"},"geometry":{"type":"Polygon","coordinates":[[[36.838104,48.600435],[36.838468,48.600928],[36.83867,48.600869],[36.838306,48.600376],[36.838104,48.600435]]]}},{"type":"Feature","properties":{"cadnum":"1420384401:00:000:0041"},"geometry":{"type":"Polygon","coordinates":[[[36.825218,48.599325],[36.82546,48.600213],[36.82546,48.600215],[36.825491,48.600327],[36.825509,48.600393],[36.825739,48.600361],[36.825696,48.600213],[36.825411,48.599215],[36.825218,48.599325]]]}},{"type":"Feature","properties":{"cadnum":"1420384401:00:000:0040"},"geometry":{"type":"Polygon","coordinates":[[[36.82339,48.600399],[36.823637,48.600741],[36.823852,48.60069],[36.82361,48.600263],[36.823507,48.600327],[36.82339,48.600399]]]}},{"type":"Feature","properties":{"cadnum":"1420384401:00:000:0043"},"geometry":{"type":"Polygon","coordinates":[[[36.824998,48.599443],[36.825203,48.600213],[36.825202,48.600213],[36.825231,48.600318],[36.825233,48.600327],[36.825263,48.600435],[36.825509,48.600393],[36.82546,48.600215],[36.825218,48.599325],[36.824998,48.599443]]]}},{"type":"Feature","properties":{"cadnum":"1420384401:00:000:0044"},"geometry":{"type":"Polygon","coordinates":[[[36.836295,48.59838],[36.836366,48.598561],[36.836316,48.598579],[36.836824,48.599283],[36.837111,48.599191],[36.836474,48.598312],[36.836295,48.59838]]]}},{"type":"Feature","properties":{"cadnum":"1420384401:00:000:0033"},"geometry":{"type":"Polygon","coordinates":[[[36.834524,48.599042],[36.834974,48.599882],[36.835297,48.599794],[36.834843,48.598964],[36.834524,48.599042]]]}},{"type":"Feature","properties":{"cadnum":"1420384401:00:000:0082"},"geometry":{"type":"Polygon","coordinates":[[[36.835081,48.597595],[36.835513,48.598314],[36.835813,48.598225],[36.835391,48.597518],[36.835081,48.597595]]]}},{"type":"Feature","properties":{"cadnum":"1420384401:00:000:0019"},"geometry":{"type":"Polygon","coordinates":[[[36.836209,48.599639],[36.836258,48.599713],[36.836433,48.599662],[36.836384,48.599585],[36.836209,48.599639]]]}},{"type":"Feature","properties":{"cadnum":"1420384401:00:000:0021"},"geometry":{"type":"Polygon","coordinates":[[[36.835004,48.598641],[36.835073,48.598876],[36.835094,48.598873],[36.835184,48.598861],[36.835283,48.598846],[36.835293,48.598846],[36.835316,48.598905],[36.835356,48.598902],[36.835333,48.59884],[36.835436,48.598825],[36.835696,48.59879],[36.835603,48.59851],[36.835836,48.598478],[36.835786,48.598312],[36.835737,48.598246],[36.835261,48.598431],[36.835136,48.598605],[36.835004,48.598641]]]}},{"type":"Feature","properties":{"cadnum":"1420384401:00:000:0034"},"geometry":{"type":"Polygon","coordinates":[[[36.834398,48.598801],[36.834524,48.599042],[36.834843,48.598964],[36.834713,48.598724],[36.834398,48.598801]]]}},{"type":"Feature","properties":{"cadnum":"1420384401:00:000:0104"},"geometry":{"type":"Polygon","coordinates":[[[36.833335,48.599152],[36.833927,48.600147],[36.834197,48.600082],[36.83359,48.599078],[36.833335,48.599152]]]}},{"type":"Feature","properties":{"cadnum":"1420384401:00:000:0012"},"geometry":{"type":"Polygon","coordinates":[[[36.836362,48.597275],[36.836532,48.59756],[36.836744,48.59785],[36.837067,48.59775],[36.836721,48.597185],[36.836362,48.597275]]]}},{"type":"Feature","properties":{"cadnum":"1420384401:00:000:0058"},"geometry":{"type":"Polygon","coordinates":[[[36.832265,48.599179],[36.832643,48.600111],[36.832934,48.600037],[36.832606,48.599158],[36.832265,48.599179]]]}},{"type":"Feature","properties":{"cadnum":"1420384401:00:000:0105"},"geometry":{"type":"Polygon","coordinates":[[[36.833105,48.598772],[36.833335,48.599152],[36.83359,48.599078],[36.833545,48.599006],[36.833486,48.599021],[36.833293,48.598718],[36.833105,48.598772]]]}},{"type":"Feature","properties":{"cadnum":"1420384401:00:000:0004"},"geometry":{"type":"Polygon","coordinates":[[[36.835647,48.599301],[36.835792,48.599538],[36.835966,48.59949],[36.835822,48.599253],[36.835647,48.599301]]]}},{"type":"Feature","properties":{"cadnum":"1420384401:00:000:0073"},"geometry":{"type":"Polygon","coordinates":[[[36.843755,48.598721],[36.844109,48.598733],[36.844132,48.59775],[36.843786,48.597883],[36.843755,48.598721]]]}},{"type":"Feature","properties":{"cadnum":"1420384401:00:000:0072"},"geometry":{"type":"Polygon","coordinates":[[[36.843786,48.597883],[36.844132,48.59775],[36.844141,48.597379],[36.844128,48.596838],[36.843813,48.596954],[36.843803,48.597379],[36.843786,48.597883]]]}},{"type":"Feature","properties":{"cadnum":"1420384401:00:000:0049"},"geometry":{"type":"Polygon","coordinates":[[[36.844891,48.597108],[36.845004,48.598424],[36.845466,48.598412],[36.84534,48.59715],[36.845336,48.597103],[36.844891,48.597108]]]}},{"type":"Feature","properties":{"cadnum":"1420384401:00:000:0061"},"geometry":{"type":"Polygon","coordinates":[[[36.842681,48.598121],[36.84304,48.59862],[36.843404,48.598297],[36.843107,48.597955],[36.842681,48.598121]]]}},{"type":"Feature","properties":{"cadnum":"1420384401:00:000:0085"},"geometry":{"type":"Polygon","coordinates":[[[36.82436,48.60242],[36.824473,48.602817],[36.824652,48.602766],[36.824687,48.602737],[36.824576,48.602372],[36.82436,48.60242]]]}},{"type":"Feature","properties":{"cadnum":"1420384401:00:000:0084"},"geometry":{"type":"Polygon","coordinates":[[[36.823942,48.600987],[36.8241,48.601496],[36.82436,48.60242],[36.824576,48.602372],[36.82431,48.601516],[36.824154,48.600946],[36.823942,48.600987]]]}},{"type":"Feature","properties":{"cadnum":"1420384401:00:000:0046"},"geometry":{"type":"Polygon","coordinates":[[[36.823362,48.601041],[36.823435,48.601546],[36.823578,48.602606],[36.823771,48.602574],[36.823618,48.601493],[36.823555,48.601011],[36.823362,48.601041]]]}},{"type":"Feature","properties":{"cadnum":"1420384401:00:000:0114"},"geometry":{"type":"Polygon","coordinates":[[[36.823565,48.601073],[36.823628,48.601324],[36.82397,48.602535],[36.824176,48.602508],[36.823748,48.601035],[36.823565,48.601073]]]}},{"type":"Feature","properties":{"cadnum":"1420384401:00:000:0047"},"geometry":{"type":"Polygon","coordinates":[[[36.823578,48.602606],[36.82361,48.602856],[36.823808,48.602841],[36.823771,48.602574],[36.823578,48.602606]]]}},{"type":"Feature","properties":{"cadnum":"1420384401:00:000:0108"},"geometry":{"type":"Polygon","coordinates":[[[36.82127,48.601582],[36.821292,48.601817],[36.821589,48.602618],[36.821836,48.602577],[36.82167,48.602006],[36.82153,48.601525],[36.82127,48.601582]]]}},{"type":"Feature","properties":{"cadnum":"1420384401:00:000:0115"},"geometry":{"type":"Polygon","coordinates":[[[36.82397,48.602535],[36.824108,48.603034],[36.824324,48.603017],[36.824176,48.602508],[36.82397,48.602535]]]}},{"type":"Feature","properties":{"cadnum":"1420384401:00:000:0116"},"geometry":{"type":"Polygon","coordinates":[[[36.822114,48.602609],[36.822339,48.6034],[36.822586,48.603352],[36.822366,48.602568],[36.822114,48.602609]]]}},{"type":"Feature","properties":{"cadnum":"1420384401:00:000:0117"},"geometry":{"type":"Polygon","coordinates":[[[36.821777,48.601472],[36.821836,48.601659],[36.82184,48.601668],[36.82193,48.601967],[36.822114,48.602609],[36.822366,48.602568],[36.822182,48.601917],[36.822043,48.601421],[36.821777,48.601472]]]}}]}