{"type":"FeatureCollection","features":[{"type":"Feature","properties":{"cadnum":"1420625000:07:000:1778"},"geometry":{"type":"Polygon","coordinates":[[[38.507673,47.661898],[38.509824,47.661853],[38.509855,47.661696],[38.509717,47.661405],[38.509658,47.661396],[38.509294,47.661463],[38.508912,47.661544],[38.508522,47.661623],[38.508249,47.661675],[38.508248,47.661675],[38.50813,47.661698],[38.508126,47.661698],[38.50793,47.661733],[38.507744,47.661765],[38.50769,47.661777],[38.507688,47.661791],[38.507673,47.661898]]]}},{"type":"Feature","properties":{"cadnum":"1420625000:07:000:1131"},"geometry":{"type":"Polygon","coordinates":[[[38.586275,47.678817],[38.589563,47.678764],[38.595057,47.678674],[38.595093,47.678673],[38.595074,47.677705],[38.595074,47.677575],[38.594885,47.677579],[38.589392,47.677668],[38.586405,47.677717],[38.586275,47.678817]]]}},{"type":"Feature","properties":{"cadnum":"1420625000:07:000:2425"},"geometry":{"type":"Polygon","coordinates":[[[38.608764,47.650565],[38.608769,47.650575],[38.608775,47.650584],[38.608832,47.65069],[38.608833,47.65069],[38.60893,47.650867],[38.610168,47.650671],[38.610171,47.65067],[38.609978,47.650323],[38.608764,47.650565]]]}}]}