{"type":"FeatureCollection","features":[{"type":"Feature","properties":{"cadnum":"1420386701:00:000:0103"},"geometry":{"type":"Polygon","coordinates":[[[37.136781,48.833348],[37.137988,48.835786],[37.138793,48.837409],[37.138913,48.837232],[37.138963,48.837078],[37.13899,48.836883],[37.138999,48.83662],[37.138976,48.836413],[37.13871,48.835899],[37.138711,48.835899],[37.13824,48.834985],[37.13736,48.833214],[37.136781,48.833348]]]}},{"type":"Feature","properties":{"cadnum":"1420386701:00:000:0100"},"geometry":{"type":"Polygon","coordinates":[[[37.136278,48.833477],[37.136699,48.834409],[37.137433,48.835899],[37.137434,48.835899],[37.137477,48.835987],[37.138187,48.837332],[37.138276,48.837599],[37.138649,48.837483],[37.138793,48.837409],[37.138044,48.835899],[37.136781,48.833348],[37.136278,48.833477]]]}},{"type":"Feature","properties":{"cadnum":"1420386701:00:000:0007"},"geometry":{"type":"Polygon","coordinates":[[[37.13299,48.810195],[37.13299,48.810219],[37.133021,48.810221],[37.133026,48.810197],[37.13299,48.810195]]]}},{"type":"Feature","properties":{"cadnum":"1420386701:00:000:0008"},"geometry":{"type":"Polygon","coordinates":[[[37.132734,48.809896],[37.13285,48.809925],[37.13307,48.809982],[37.133286,48.810023],[37.133619,48.810091],[37.133739,48.810118],[37.133812,48.810136],[37.133798,48.810098],[37.133713,48.810076],[37.133627,48.810056],[37.1333,48.809991],[37.133084,48.809947],[37.132864,48.809893],[37.132877,48.809858],[37.132877,48.809857],[37.13307,48.809893],[37.133093,48.809825],[37.132779,48.809778],[37.132756,48.809834],[37.132734,48.809896]]]}},{"type":"Feature","properties":{"cadnum":"1420386701:00:000:0020"},"geometry":{"type":"Polygon","coordinates":[[[37.142382,48.807393],[37.142418,48.80766],[37.14275,48.807607],[37.143523,48.807489],[37.143523,48.807216],[37.142898,48.807308],[37.142382,48.807393]]]}},{"type":"Feature","properties":{"cadnum":"1420386701:00:000:0076"},"geometry":{"type":"Polygon","coordinates":[[[37.144722,48.808802],[37.144834,48.80907],[37.144861,48.809065],[37.145418,48.808952],[37.14531,48.808684],[37.144722,48.808802]]]}},{"type":"Feature","properties":{"cadnum":"1420386701:00:000:0094"},"geometry":{"type":"Polygon","coordinates":[[[37.142296,48.808145],[37.142337,48.808399],[37.142359,48.808397],[37.143487,48.808213],[37.143487,48.807944],[37.142965,48.808042],[37.142296,48.808145]]]}},{"type":"Feature","properties":{"cadnum":"1420386701:00:000:0021"},"geometry":{"type":"Polygon","coordinates":[[[37.14195,48.807675],[37.142031,48.807722],[37.142418,48.80766],[37.142382,48.807393],[37.142009,48.807456],[37.142036,48.807612],[37.142035,48.807612],[37.14195,48.807675]]]}},{"type":"Feature","properties":{"cadnum":"1420386701:00:000:0078"},"geometry":{"type":"Polygon","coordinates":[[[37.142192,48.807095],[37.142211,48.807296],[37.143513,48.807104],[37.143501,48.806965],[37.143491,48.80684],[37.143432,48.806852],[37.142192,48.807095]]]}},{"type":"Feature","properties":{"cadnum":"1420386701:00:000:0095"},"geometry":{"type":"Polygon","coordinates":[[[37.141563,48.808488],[37.142337,48.808399],[37.142296,48.808145],[37.141708,48.808237],[37.141563,48.808488]]]}},{"type":"Feature","properties":{"cadnum":"1420386701:00:000:0075"},"geometry":{"type":"Polygon","coordinates":[[[37.143703,48.80929],[37.144689,48.809099],[37.14469,48.809099],[37.144834,48.80907],[37.144722,48.808802],[37.14372,48.809002],[37.143703,48.80929]]]}},{"type":"Feature","properties":{"cadnum":"1420386701:00:000:0029"},"geometry":{"type":"Polygon","coordinates":[[[37.13347,48.82534],[37.133682,48.825489],[37.133703,48.825474],[37.133802,48.825406],[37.133596,48.825263],[37.13347,48.82534]]]}},{"type":"Feature","properties":{"cadnum":"1420386701:00:000:0109"},"geometry":{"type":"Polygon","coordinates":[[[37.138183,48.82584],[37.138604,48.826624],[37.138829,48.827387],[37.13872,48.828016],[37.139368,48.828263],[37.139422,48.828283],[37.139978,48.828303],[37.140051,48.82822],[37.139682,48.828001],[37.139368,48.827254],[37.139368,48.827253],[37.139053,48.826502],[37.139196,48.826091],[37.139255,48.825922],[37.139368,48.825598],[37.139422,48.825443],[37.139381,48.825228],[37.139196,48.82523],[37.138213,48.825237],[37.138183,48.82584]]]}},{"type":"Feature","properties":{"cadnum":"1420386701:00:000:0110"},"geometry":{"type":"Polygon","coordinates":[[[37.138213,48.825237],[37.139368,48.825229],[37.139368,48.825228],[37.139381,48.825228],[37.139569,48.825021],[37.139951,48.823852],[37.141542,48.82364],[37.141416,48.823282],[37.140833,48.823436],[37.140374,48.823262],[37.139368,48.823719],[37.138892,48.823935],[37.138227,48.824921],[37.138226,48.824937],[37.138226,48.824938],[37.138225,48.824938],[37.138224,48.824979],[37.13822,48.825051],[37.138221,48.825051],[37.138213,48.825237]]]}},{"type":"Feature","properties":{"cadnum":"1420386701:00:000:0034"},"geometry":{"type":"Polygon","coordinates":[[[37.133587,48.827041],[37.133703,48.827052],[37.133825,48.827063],[37.133875,48.827068],[37.134898,48.827162],[37.134908,48.82699],[37.133776,48.826875],[37.133789,48.826946],[37.133592,48.826914],[37.133587,48.827041]]]}},{"type":"Feature","properties":{"cadnum":"1420386701:00:000:0080"},"geometry":{"type":"Polygon","coordinates":[[[37.13467,48.805666],[37.135141,48.805696],[37.135819,48.805752],[37.135877,48.80547],[37.135456,48.805444],[37.13528,48.805456],[37.134714,48.805411],[37.13467,48.805666]]]}},{"type":"Feature","properties":{"cadnum":"1420386701:00:000:0042"},"geometry":{"type":"Polygon","coordinates":[[[37.135586,48.817746],[37.135621,48.817817],[37.135622,48.817817],[37.135752,48.818078],[37.136569,48.817923],[37.136469,48.817718],[37.136399,48.817574],[37.135783,48.817704],[37.135782,48.817704],[37.135587,48.817745],[37.135586,48.817746]]]}},{"type":"Feature","properties":{"cadnum":"1420386701:00:000:0005"},"geometry":{"type":"Polygon","coordinates":[[[37.133896,48.820807],[37.134022,48.821044],[37.134342,48.820952],[37.134212,48.820718],[37.133896,48.820807]]]}},{"type":"Feature","properties":{"cadnum":"1420386701:00:000:0041"},"geometry":{"type":"Polygon","coordinates":[[[37.134338,48.818116],[37.134449,48.818326],[37.135491,48.818095],[37.135384,48.817885],[37.134338,48.818116]]]}},{"type":"Feature","properties":{"cadnum":"1420386701:00:000:0069"},"geometry":{"type":"Polygon","coordinates":[[[37.134171,48.820529],[37.134372,48.820978],[37.134768,48.820878],[37.134697,48.820733],[37.134894,48.820689],[37.134867,48.82063],[37.134755,48.820399],[37.134171,48.820529]]]}},{"type":"Feature","properties":{"cadnum":"1420386701:00:000:0074"},"geometry":{"type":"Polygon","coordinates":[[[37.134697,48.820733],[37.134768,48.820878],[37.134957,48.820827],[37.134934,48.820777],[37.134894,48.820689],[37.134697,48.820733]]]}},{"type":"Feature","properties":{"cadnum":"1420386701:00:000:0065"},"geometry":{"type":"Polygon","coordinates":[[[37.13872,48.82107],[37.138842,48.821304],[37.139188,48.8212],[37.139229,48.821165],[37.13917,48.82094],[37.139013,48.820954],[37.13872,48.82107]]]}},{"type":"Feature","properties":{"cadnum":"1420386701:00:000:0108"},"geometry":{"type":"Polygon","coordinates":[[[37.135586,48.820831],[37.135864,48.821321],[37.135889,48.821364],[37.135928,48.821434],[37.135929,48.821434],[37.135959,48.821487],[37.136416,48.821372],[37.13625,48.821011],[37.136412,48.820991],[37.136233,48.82065],[37.135586,48.820831]]]}},{"type":"Feature","properties":{"cadnum":"1420386701:00:000:0051"},"geometry":{"type":"Polygon","coordinates":[[[37.135567,48.821392],[37.13559,48.821434],[37.135591,48.821434],[37.135617,48.821478],[37.135877,48.82141],[37.135857,48.821377],[37.135824,48.821324],[37.135624,48.821377],[37.135567,48.821392]]]}},{"type":"Feature","properties":{"cadnum":"1420386701:00:000:0092"},"geometry":{"type":"Polygon","coordinates":[[[37.137544,48.821653],[37.137634,48.821822],[37.137674,48.821898],[37.138645,48.821588],[37.138693,48.821638],[37.138766,48.821614],[37.138494,48.821327],[37.138492,48.821324],[37.138176,48.821434],[37.137544,48.821653]]]}},{"type":"Feature","properties":{"cadnum":"1420386701:00:000:0093"},"geometry":{"type":"Polygon","coordinates":[[[37.138492,48.821324],[37.138494,48.821327],[37.138596,48.821434],[37.138766,48.821614],[37.139196,48.821475],[37.139296,48.821443],[37.139246,48.821415],[37.138852,48.821197],[37.138789,48.821221],[37.13859,48.821289],[37.138502,48.821321],[37.138493,48.821324],[37.138492,48.821324]]]}},{"type":"Feature","properties":{"cadnum":"1420386701:00:000:0064"},"geometry":{"type":"Polygon","coordinates":[[[37.137437,48.821449],[37.137558,48.821686],[37.138636,48.821363],[37.138637,48.821363],[37.138842,48.821304],[37.13872,48.82107],[37.138527,48.821147],[37.138008,48.821321],[37.138007,48.821321],[37.137678,48.821431],[37.137437,48.821449]]]}},{"type":"Feature","properties":{"cadnum":"1420386701:00:000:0006"},"geometry":{"type":"Polygon","coordinates":[[[37.134661,48.820209],[37.134867,48.82063],[37.134934,48.820777],[37.134971,48.82086],[37.135015,48.820851],[37.13498,48.820766],[37.134912,48.820612],[37.134745,48.820233],[37.13489,48.820204],[37.134912,48.820251],[37.134944,48.820245],[37.13511,48.820209],[37.135024,48.820038],[37.134944,48.820056],[37.134984,48.820141],[37.134871,48.820162],[37.134661,48.820209]]]}},{"type":"Feature","properties":{"cadnum":"1420386701:00:000:0043"},"geometry":{"type":"Polygon","coordinates":[[[37.136399,48.817574],[37.136462,48.817704],[37.136469,48.817718],[37.136517,48.817817],[37.136569,48.817923],[37.136758,48.817888],[37.136667,48.817704],[37.136583,48.817533],[37.136399,48.817574]]]}},{"type":"Feature","properties":{"cadnum":"1420386701:00:000:0089"},"geometry":{"type":"Polygon","coordinates":[[[37.134921,48.819692],[37.135015,48.819878],[37.136183,48.819618],[37.136102,48.819461],[37.134921,48.819692]]]}},{"type":"Feature","properties":{"cadnum":"1420386701:00:000:0056"},"geometry":{"type":"Polygon","coordinates":[[[37.13551,48.820458],[37.135573,48.820559],[37.135581,48.820559],[37.135622,48.820623],[37.135657,48.820612],[37.135842,48.820562],[37.135797,48.820496],[37.135734,48.820396],[37.135594,48.820434],[37.135586,48.820422],[37.1356,48.820417],[37.135577,48.820384],[37.135527,48.820399],[37.13555,48.820432],[37.135563,48.820428],[37.135573,48.82044],[37.135573,48.820441],[37.13551,48.820458]]]}},{"type":"Feature","properties":{"cadnum":"1420386701:00:000:0027"},"geometry":{"type":"Polygon","coordinates":[[[37.130025,48.826156],[37.130236,48.826265],[37.131215,48.825556],[37.130928,48.825399],[37.130025,48.826156]]]}},{"type":"Feature","properties":{"cadnum":"1420386701:00:000:0030"},"geometry":{"type":"Polygon","coordinates":[[[37.132477,48.825961],[37.132734,48.826136],[37.133682,48.825489],[37.13347,48.82534],[37.132477,48.825961]]]}},{"type":"Feature","properties":{"cadnum":"1420386701:00:000:0072"},"geometry":{"type":"Polygon","coordinates":[[[37.128439,48.827567],[37.128759,48.827593],[37.129321,48.827919],[37.130609,48.826801],[37.129908,48.82634],[37.12981,48.826254],[37.129621,48.826225],[37.128525,48.826227],[37.128439,48.827567]]]}},{"type":"Feature","properties":{"cadnum":"1420386701:00:000:0096"},"geometry":{"type":"Polygon","coordinates":[[[37.129321,48.827919],[37.129693,48.828196],[37.130066,48.828487],[37.130101,48.828516],[37.131889,48.82772],[37.131818,48.827668],[37.131651,48.827529],[37.131512,48.827381],[37.131269,48.82712],[37.13095,48.826843],[37.130762,48.826695],[37.130609,48.826801],[37.129321,48.827919]]]}},{"type":"Feature","properties":{"cadnum":"1420386701:00:000:0071"},"geometry":{"type":"Polygon","coordinates":[[[37.126692,48.826129],[37.126742,48.827608],[37.12821,48.827573],[37.128304,48.827571],[37.128382,48.827569],[37.128382,48.827568],[37.128439,48.827567],[37.128525,48.826227],[37.12821,48.826222],[37.127375,48.826206],[37.126692,48.826129]]]}},{"type":"Feature","properties":{"cadnum":"1420386701:00:000:0098"},"geometry":{"type":"Polygon","coordinates":[[[37.130101,48.828516],[37.130146,48.828554],[37.130145,48.828554],[37.130237,48.82863],[37.130281,48.828667],[37.130349,48.828723],[37.130519,48.82896],[37.130852,48.829474],[37.132307,48.829432],[37.13206,48.828661],[37.131984,48.828247],[37.131867,48.827863],[37.131957,48.827771],[37.131889,48.82772],[37.130101,48.828516]]]}},{"type":"Feature","properties":{"cadnum":"1420386701:00:000:0066"},"geometry":{"type":"Polygon","coordinates":[[[37.144165,48.818089],[37.144242,48.818755],[37.144259,48.818935],[37.144689,48.8189],[37.14469,48.8189],[37.144713,48.818898],[37.144861,48.818886],[37.144861,48.818885],[37.147133,48.818696],[37.147053,48.817855],[37.14469,48.818047],[37.144689,48.818047],[37.144165,48.818089]]]}},{"type":"Feature","properties":{"cadnum":"1420386701:00:000:0099"},"geometry":{"type":"Polygon","coordinates":[[[37.144942,48.819964],[37.144946,48.820886],[37.144946,48.820887],[37.147228,48.820895],[37.147232,48.820301],[37.147219,48.819674],[37.144942,48.819964]]]}},{"type":"Feature","properties":{"cadnum":"1420386701:00:000:0067"},"geometry":{"type":"Polygon","coordinates":[[[37.144097,48.817246],[37.144097,48.81727],[37.144128,48.817704],[37.144128,48.817707],[37.144136,48.817817],[37.144142,48.817897],[37.144165,48.818089],[37.144861,48.818033],[37.147053,48.817855],[37.147038,48.817704],[37.146972,48.817015],[37.144861,48.817185],[37.144097,48.817246]]]}},{"type":"Feature","properties":{"cadnum":"1420386701:00:000:0073"},"geometry":{"type":"Polygon","coordinates":[[[37.144546,48.819071],[37.144601,48.819887],[37.144614,48.820009],[37.144689,48.819999],[37.14469,48.819999],[37.14469,48.82],[37.14485,48.819979],[37.144861,48.819978],[37.147219,48.819674],[37.147192,48.819027],[37.147043,48.818849],[37.147035,48.818751],[37.144852,48.819032],[37.144546,48.819071]]]}},{"type":"Feature","properties":{"cadnum":"1420386701:00:000:0055"},"geometry":{"type":"Polygon","coordinates":[[[37.136395,48.813623],[37.136961,48.813611],[37.136978,48.813431],[37.136412,48.813407],[37.136395,48.813623]]]}},{"type":"Feature","properties":{"cadnum":"1420386701:00:000:0085"},"geometry":{"type":"Polygon","coordinates":[[[37.13507,48.81331],[37.13559,48.813383],[37.136129,48.81344],[37.136183,48.813153],[37.13568,48.813108],[37.135123,48.813025],[37.13507,48.81331]]]}},{"type":"Feature","properties":{"cadnum":"1420386701:00:000:0054"},"geometry":{"type":"Polygon","coordinates":[[[37.135168,48.813647],[37.136395,48.813623],[37.136412,48.813407],[37.135195,48.81336],[37.135168,48.813647]]]}},{"type":"Feature","properties":{"cadnum":"1420386701:00:000:0081"},"geometry":{"type":"Polygon","coordinates":[[[37.131665,48.821416],[37.13172,48.821434],[37.131721,48.821434],[37.132468,48.821671],[37.133003,48.821807],[37.13312,48.821596],[37.132571,48.82146],[37.13223,48.821358],[37.131875,48.82125],[37.131786,48.821321],[37.131785,48.821321],[37.131665,48.821416]]]}},{"type":"Feature","properties":{"cadnum":"1420386701:00:000:0105"},"geometry":{"type":"Polygon","coordinates":[[[37.13263,48.819952],[37.132814,48.81995],[37.132814,48.820003],[37.133187,48.819994],[37.13316,48.819677],[37.133102,48.819308],[37.132827,48.819301],[37.132693,48.819573],[37.13263,48.819952]]]}},{"type":"Feature","properties":{"cadnum":"1420386701:00:000:0106"},"geometry":{"type":"Polygon","coordinates":[[[37.130663,48.819077],[37.13263,48.819952],[37.132693,48.819573],[37.132827,48.819302],[37.132827,48.819301],[37.132828,48.819301],[37.133102,48.819308],[37.133089,48.819213],[37.132793,48.819198],[37.132661,48.819573],[37.130726,48.818931],[37.130663,48.819077]]]}},{"type":"Feature","properties":{"cadnum":"1420386701:00:000:0107"},"geometry":{"type":"Polygon","coordinates":[[[37.136678,48.822924],[37.136919,48.823176],[37.137535,48.823744],[37.137678,48.82358],[37.136906,48.822841],[37.136678,48.822924]]]}},{"type":"Feature","properties":{"cadnum":"1420386701:00:000:0082"},"geometry":{"type":"Polygon","coordinates":[[[37.137364,48.821883],[37.137562,48.822321],[37.137561,48.822321],[37.137481,48.822335],[37.137558,48.822471],[37.137728,48.822431],[37.13776,48.822431],[37.137814,48.822427],[37.13793,48.822422],[37.138362,48.822617],[37.138955,48.822486],[37.139026,48.822111],[37.139368,48.822011],[37.139368,48.82201],[37.139655,48.821925],[37.139296,48.821443],[37.138766,48.821614],[37.13881,48.821679],[37.13815,48.821804],[37.137678,48.821904],[37.137634,48.821822],[37.137531,48.821845],[37.137477,48.821857],[37.137364,48.821883]]]}},{"type":"Feature","properties":{"cadnum":"1420386701:00:000:0031"},"geometry":{"type":"Polygon","coordinates":[[[37.13285,48.822516],[37.133703,48.822737],[37.13383,48.82277],[37.133875,48.822781],[37.133996,48.822812],[37.134112,48.822617],[37.133875,48.82256],[37.132963,48.822339],[37.13285,48.822516]]]}},{"type":"Feature","properties":{"cadnum":"1420386701:00:000:0077"},"geometry":{"type":"Polygon","coordinates":[[[37.141156,48.818837],[37.14125,48.81905],[37.142328,48.818795],[37.142225,48.818615],[37.141156,48.818837]]]}},{"type":"Feature","properties":{"cadnum":"1420386701:00:000:0091"},"geometry":{"type":"Polygon","coordinates":[[[37.139508,48.820417],[37.140297,48.820884],[37.140602,48.821434],[37.140603,48.821434],[37.140706,48.82162],[37.141191,48.822114],[37.141775,48.821827],[37.142601,48.821375],[37.142732,48.82104],[37.142475,48.820715],[37.141667,48.820233],[37.141146,48.819887],[37.139508,48.820417]]]}},{"type":"Feature","properties":{"cadnum":"1420386701:00:000:0079"},"geometry":{"type":"Polygon","coordinates":[[[37.142278,48.817787],[37.142281,48.817817],[37.142282,48.817817],[37.142305,48.818027],[37.143653,48.817891],[37.143637,48.817776],[37.143626,48.817684],[37.143361,48.817704],[37.142278,48.817787]]]}},{"type":"Feature","properties":{"cadnum":"1420386701:00:000:0084"},"geometry":{"type":"Polygon","coordinates":[[[37.125533,48.826009],[37.125996,48.82602],[37.126005,48.825879],[37.126019,48.825666],[37.125573,48.82566],[37.125552,48.825858],[37.125533,48.826009]],[[37.125812,48.825958],[37.12583,48.825958],[37.12583,48.82597],[37.125812,48.82597],[37.125812,48.825958]]]}},{"type":"Feature","properties":{"cadnum":"1420386701:00:000:0023"},"geometry":{"type":"Polygon","coordinates":[[[37.126611,48.825873],[37.126935,48.825888],[37.127047,48.824985],[37.126697,48.82497],[37.126689,48.825051],[37.12669,48.825051],[37.126611,48.825873]]]}},{"type":"Feature","properties":{"cadnum":"1420386701:00:000:0083"},"geometry":{"type":"Polygon","coordinates":[[[37.125573,48.82566],[37.126019,48.825666],[37.126059,48.824944],[37.125659,48.824935],[37.125659,48.824937],[37.125659,48.824938],[37.125658,48.824938],[37.125647,48.825033],[37.125645,48.825051],[37.125573,48.82566]]]}},{"type":"Feature","properties":{"cadnum":"1420386701:00:000:0070"},"geometry":{"type":"Polygon","coordinates":[[[37.125084,48.826065],[37.125152,48.827659],[37.126015,48.82762],[37.126742,48.827608],[37.126692,48.826129],[37.125084,48.826065]]]}},{"type":"Feature","properties":{"cadnum":"1420386701:00:000:0035"},"geometry":{"type":"Polygon","coordinates":[[[37.132227,48.813617],[37.132244,48.813812],[37.133296,48.813836],[37.133273,48.813679],[37.132227,48.813617]]]}},{"type":"Feature","properties":{"cadnum":"1420386701:00:000:0032"},"geometry":{"type":"Polygon","coordinates":[[[37.133187,48.816877],[37.133259,48.817069],[37.133703,48.816995],[37.134759,48.816817],[37.134688,48.816625],[37.133703,48.81679],[37.133187,48.816877]]]}},{"type":"Feature","properties":{"cadnum":"1420386701:00:000:0060"},"geometry":{"type":"Polygon","coordinates":[[[37.13502,48.814724],[37.136489,48.81477],[37.136506,48.814564],[37.135034,48.814516],[37.13502,48.814724]]]}},{"type":"Feature","properties":{"cadnum":"1420386701:00:000:0061"},"geometry":{"type":"Polygon","coordinates":[[[37.136489,48.81477],[37.136898,48.814783],[37.136911,48.814575],[37.136506,48.814564],[37.136489,48.81477]]]}},{"type":"Feature","properties":{"cadnum":"1420386701:00:000:0018"},"geometry":{"type":"Polygon","coordinates":[[[37.134431,48.815042],[37.134435,48.815161],[37.134642,48.815161],[37.134642,48.815042],[37.134431,48.815042]]]}},{"type":"Feature","properties":{"cadnum":"1420386701:00:000:0063"},"geometry":{"type":"Polygon","coordinates":[[[37.133717,48.817196],[37.133806,48.817385],[37.133875,48.817375],[37.133875,48.817374],[37.134938,48.817196],[37.134849,48.817006],[37.133717,48.817196]]]}},{"type":"Feature","properties":{"cadnum":"1420386701:00:000:0028"},"geometry":{"type":"Polygon","coordinates":[[[37.131426,48.821807],[37.132244,48.822049],[37.132806,48.822164],[37.132927,48.821981],[37.132378,48.821851],[37.131561,48.821626],[37.131426,48.821807]]]}},{"type":"Feature","properties":{"cadnum":"1420386701:00:000:0104"},"geometry":{"type":"Polygon","coordinates":[[[37.131535,48.82162],[37.132378,48.821851],[37.132927,48.821981],[37.133007,48.821789],[37.132477,48.821662],[37.131678,48.82141],[37.131535,48.82162]]]}},{"type":"Feature","properties":{"cadnum":"1420386701:00:000:0039"},"geometry":{"type":"Polygon","coordinates":[[[37.130812,48.822226],[37.131045,48.822274],[37.131166,48.822087],[37.130933,48.82204],[37.130812,48.822226]]]}},{"type":"Feature","properties":{"cadnum":"1420386701:00:000:0040"},"geometry":{"type":"Polygon","coordinates":[[[37.131045,48.822274],[37.132504,48.822567],[37.132621,48.822381],[37.131166,48.822087],[37.131045,48.822274]]]}},{"type":"Feature","properties":{"cadnum":"1420386701:00:000:0068"},"geometry":{"type":"Polygon","coordinates":[[[37.144097,48.817246],[37.144689,48.817199],[37.14469,48.817199],[37.146972,48.817015],[37.146886,48.816101],[37.144861,48.816319],[37.144435,48.816364],[37.1442,48.8165],[37.144129,48.816859],[37.144097,48.817246]]]}},{"type":"Feature","properties":{"cadnum":"1420386701:00:000:0101"},"geometry":{"type":"Polygon","coordinates":[[[37.12839,48.814345],[37.128642,48.814498],[37.128785,48.814619],[37.128934,48.814915],[37.129118,48.815533],[37.129135,48.815797],[37.129351,48.816495],[37.129172,48.816826],[37.130124,48.817104],[37.130218,48.817131],[37.129949,48.814599],[37.129886,48.81459],[37.129118,48.814428],[37.12839,48.814345]]]}},{"type":"Feature","properties":{"cadnum":"1420386701:00:000:0025"},"geometry":{"type":"Polygon","coordinates":[[[37.130992,48.815208],[37.131032,48.815451],[37.131053,48.815451],[37.131009,48.815208],[37.130992,48.815208]]]}},{"type":"Feature","properties":{"cadnum":"1420386701:00:000:0022"},"geometry":{"type":"Polygon","coordinates":[[[37.131292,48.816164],[37.131336,48.816441],[37.132477,48.816318],[37.132441,48.816069],[37.131292,48.816164]]]}},{"type":"Feature","properties":{"cadnum":"1420386701:00:000:0102"},"geometry":{"type":"Polygon","coordinates":[[[37.129949,48.814599],[37.130218,48.817131],[37.131225,48.817388],[37.13095,48.815374],[37.130933,48.814759],[37.130717,48.814702],[37.130397,48.814658],[37.129949,48.814599]]]}},{"type":"Feature","properties":{"cadnum":"1420386701:00:000:0037"},"geometry":{"type":"Polygon","coordinates":[[[37.132307,48.814413],[37.132325,48.814617],[37.133233,48.814661],[37.13321,48.814454],[37.132307,48.814413]]]}},{"type":"Feature","properties":{"cadnum":"1420386701:00:000:0026"},"geometry":{"type":"Polygon","coordinates":[[[37.131009,48.815208],[37.131053,48.815451],[37.132321,48.815386],[37.132275,48.815149],[37.131009,48.815208]]]}},{"type":"Feature","properties":{"cadnum":"1420386701:00:000:0024"},"geometry":{"type":"Polygon","coordinates":[[[37.132325,48.814617],[37.132347,48.814818],[37.13338,48.814842],[37.133359,48.814667],[37.133233,48.814661],[37.132325,48.814617]]]}},{"type":"Feature","properties":{"cadnum":"1420386701:00:000:0033"},"geometry":{"type":"Polygon","coordinates":[[[37.132887,48.816927],[37.132963,48.817119],[37.133259,48.817069],[37.133187,48.816877],[37.132887,48.816927]]]}},{"type":"Feature","properties":{"cadnum":"1420386701:00:000:0088"},"geometry":{"type":"Polygon","coordinates":[[[37.141555,48.815546],[37.142372,48.815649],[37.142435,48.815395],[37.141676,48.815321],[37.141632,48.815318],[37.141555,48.815546]]]}},{"type":"Feature","properties":{"cadnum":"1420386701:00:000:0038"},"geometry":{"type":"Polygon","coordinates":[[[37.141739,48.815285],[37.142494,48.815359],[37.142605,48.814862],[37.142337,48.814889],[37.142309,48.814974],[37.141816,48.81493],[37.141739,48.815285]]]}},{"type":"Feature","properties":{"cadnum":"1420386701:00:000:0097"},"geometry":{"type":"Polygon","coordinates":[[[37.130852,48.829474],[37.131714,48.831032],[37.131907,48.831325],[37.132095,48.831349],[37.13295,48.830795],[37.132783,48.830497],[37.132558,48.830063],[37.132317,48.829456],[37.132307,48.829432],[37.130852,48.829474]]]}}]}