{"type":"FeatureCollection","features":[{"type":"Feature","properties":{"cadnum":"1420388003:00:000:0029"},"geometry":{"type":"Polygon","coordinates":[[[37.24938,48.706186],[37.24969,48.706651],[37.250449,48.706462],[37.250103,48.705967],[37.24938,48.706186]]]}},{"type":"Feature","properties":{"cadnum":"1420388003:00:000:0025"},"geometry":{"type":"Polygon","coordinates":[[[37.249833,48.706678],[37.25012,48.707226],[37.250741,48.707081],[37.250552,48.706557],[37.249833,48.706678]]]}},{"type":"Feature","properties":{"cadnum":"1420388003:00:000:0024"},"geometry":{"type":"Polygon","coordinates":[[[37.249133,48.706829],[37.249231,48.706958],[37.249232,48.706958],[37.249384,48.707158],[37.24973,48.707051],[37.249927,48.707274],[37.25012,48.707226],[37.249833,48.706678],[37.249618,48.706714],[37.249133,48.706829]]]}},{"type":"Feature","properties":{"cadnum":"1420388003:00:000:0028"},"geometry":{"type":"Polygon","coordinates":[[[37.248828,48.706376],[37.24906,48.706746],[37.24906,48.706747],[37.249088,48.706791],[37.249231,48.706759],[37.249577,48.706681],[37.24969,48.706651],[37.24938,48.706186],[37.249096,48.706273],[37.24903,48.706293],[37.248877,48.706341],[37.248885,48.706355],[37.248828,48.706376]]]}},{"type":"Feature","properties":{"cadnum":"1420388003:00:000:0026"},"geometry":{"type":"Polygon","coordinates":[[[37.245935,48.704292],[37.246128,48.7045],[37.246824,48.704254],[37.247143,48.704093],[37.247004,48.703856],[37.24664,48.704032],[37.245935,48.704292]]]}},{"type":"Feature","properties":{"cadnum":"1420388003:00:000:0027"},"geometry":{"type":"Polygon","coordinates":[[[37.244853,48.70468],[37.244979,48.704906],[37.24504,48.704885],[37.246128,48.7045],[37.245935,48.704292],[37.244937,48.704648],[37.244853,48.70468]]]}},{"type":"Feature","properties":{"cadnum":"1420388003:00:000:0030"},"geometry":{"type":"Polygon","coordinates":[[[37.247008,48.701835],[37.247076,48.701939],[37.247077,48.701939],[37.24717,48.702081],[37.247539,48.701959],[37.2475,48.70191],[37.24734,48.70171],[37.247031,48.701826],[37.247008,48.701835]]]}},{"type":"Feature","properties":{"cadnum":"1420388003:00:000:0031"},"geometry":{"type":"Polygon","coordinates":[[[37.247323,48.702283],[37.247606,48.70238],[37.247682,48.70238],[37.24756,48.702096],[37.247323,48.702128],[37.247323,48.702283]]]}},{"type":"Feature","properties":{"cadnum":"1420388003:00:000:0008"},"geometry":{"type":"Polygon","coordinates":[[[37.243981,48.701965],[37.24412,48.702261],[37.244893,48.702119],[37.245162,48.702075],[37.245061,48.701897],[37.245019,48.701822],[37.244995,48.701826],[37.244601,48.701885],[37.2446,48.701885],[37.244179,48.701939],[37.243981,48.701965]]]}},{"type":"Feature","properties":{"cadnum":"1420388003:00:000:0009"},"geometry":{"type":"Polygon","coordinates":[[[37.243878,48.70198],[37.244021,48.702279],[37.24412,48.702261],[37.243981,48.701965],[37.243878,48.70198]]]}},{"type":"Feature","properties":{"cadnum":"1420388003:00:000:0044"},"geometry":{"type":"Polygon","coordinates":[[[37.258592,48.708714],[37.258732,48.708886],[37.25898,48.709189],[37.259126,48.709366],[37.260046,48.709283],[37.260168,48.709272],[37.260151,48.709743],[37.260218,48.709933],[37.260371,48.710366],[37.260747,48.71126],[37.261152,48.712211],[37.261179,48.712209],[37.261139,48.712108],[37.261017,48.711666],[37.260837,48.711023],[37.260672,48.70987],[37.260613,48.709138],[37.260577,48.708901],[37.260663,48.708519],[37.26069,48.708465],[37.260806,48.708213],[37.26081,48.708204],[37.260586,48.708258],[37.260046,48.708381],[37.260046,48.708382],[37.258592,48.708714]]]}},{"type":"Feature","properties":{"cadnum":"1420388003:00:000:0033"},"geometry":{"type":"Polygon","coordinates":[[[37.257151,48.704236],[37.25729,48.704496],[37.258573,48.704212],[37.258422,48.703927],[37.257151,48.704236]]]}},{"type":"Feature","properties":{"cadnum":"1420388003:00:000:0032"},"geometry":{"type":"Polygon","coordinates":[[[37.256059,48.704514],[37.25618,48.704731],[37.256634,48.704641],[37.25729,48.704496],[37.257151,48.704236],[37.256476,48.704399],[37.256059,48.704514]]]}},{"type":"Feature","properties":{"cadnum":"1420388003:00:000:0045"},"geometry":{"type":"Polygon","coordinates":[[[37.254114,48.700989],[37.254267,48.701274],[37.254725,48.701159],[37.254725,48.701158],[37.255241,48.701026],[37.255093,48.700758],[37.254705,48.700851],[37.254114,48.700989]]]}},{"type":"Feature","properties":{"cadnum":"1420388003:00:000:0022"},"geometry":{"type":"Polygon","coordinates":[[[37.252514,48.700352],[37.252667,48.700661],[37.253633,48.70045],[37.253489,48.700216],[37.253206,48.700225],[37.252514,48.700352]]]}},{"type":"Feature","properties":{"cadnum":"1420388003:00:000:0050"},"geometry":{"type":"Polygon","coordinates":[[[37.252453,48.700736],[37.252588,48.700941],[37.25381,48.700677],[37.253688,48.700469],[37.252728,48.700677],[37.252453,48.700736]]]}},{"type":"Feature","properties":{"cadnum":"1420388003:00:000:0047"},"geometry":{"type":"Polygon","coordinates":[[[37.252986,48.701775],[37.253013,48.701826],[37.253012,48.701826],[37.253058,48.701913],[37.253072,48.701939],[37.253073,48.701939],[37.253099,48.701989],[37.253694,48.70185],[37.253965,48.701787],[37.254352,48.701692],[37.254235,48.701485],[37.253876,48.701562],[37.252986,48.701775]]]}},{"type":"Feature","properties":{"cadnum":"1420388003:00:000:0023"},"geometry":{"type":"Polygon","coordinates":[[[37.252227,48.700403],[37.252394,48.70072],[37.252667,48.700661],[37.252514,48.700352],[37.252227,48.700403]]]}},{"type":"Feature","properties":{"cadnum":"1420388003:00:000:0036"},"geometry":{"type":"Polygon","coordinates":[[[37.247044,48.705872],[37.247147,48.706035],[37.247214,48.706135],[37.247749,48.705981],[37.248166,48.705863],[37.248167,48.705863],[37.248105,48.705741],[37.248002,48.705575],[37.247623,48.705706],[37.247044,48.705872]],[[37.247543,48.706023],[37.247534,48.706014],[37.247547,48.706011],[37.247552,48.70602],[37.247543,48.706023]]]}},{"type":"Feature","properties":{"cadnum":"1420388003:00:000:0043"},"geometry":{"type":"Polygon","coordinates":[[[37.246748,48.707345],[37.246986,48.707659],[37.248082,48.707277],[37.24787,48.706987],[37.246748,48.707345]]]}},{"type":"Feature","properties":{"cadnum":"1420388003:00:000:0037"},"geometry":{"type":"Polygon","coordinates":[[[37.245732,48.706242],[37.245899,48.70642],[37.245962,48.7065],[37.247214,48.706135],[37.247147,48.706035],[37.247044,48.705872],[37.245732,48.706242]],[[37.24677,48.70626],[37.246766,48.706251],[37.246774,48.706249],[37.246784,48.706257],[37.24677,48.70626]]]}},{"type":"Feature","properties":{"cadnum":"1420388003:00:000:0042"},"geometry":{"type":"Polygon","coordinates":[[[37.24787,48.706987],[37.248082,48.707277],[37.248545,48.707114],[37.248962,48.706974],[37.248732,48.706702],[37.248365,48.706829],[37.24787,48.706987]]]}},{"type":"Feature","properties":{"cadnum":"1420388003:00:000:0038"},"geometry":{"type":"Polygon","coordinates":[[[37.259894,48.711281],[37.259984,48.711627],[37.260046,48.711797],[37.260141,48.712058],[37.260191,48.712158],[37.260218,48.712155],[37.260218,48.712154],[37.26059,48.712093],[37.260546,48.711996],[37.260376,48.711842],[37.260416,48.711814],[37.260299,48.711545],[37.260164,48.711236],[37.259894,48.711281]]]}},{"type":"Feature","properties":{"cadnum":"1420388003:00:000:0040"},"geometry":{"type":"Polygon","coordinates":[[[37.260191,48.712158],[37.26034,48.71247],[37.260623,48.712398],[37.26069,48.712315],[37.26059,48.712093],[37.260191,48.712158]]]}},{"type":"Feature","properties":{"cadnum":"1420388003:00:000:0041"},"geometry":{"type":"Polygon","coordinates":[[[37.258843,48.709432],[37.259028,48.709621],[37.259611,48.710359],[37.259734,48.71065],[37.259894,48.711281],[37.260046,48.711256],[37.260046,48.711257],[37.260164,48.711236],[37.25989,48.710603],[37.259764,48.710327],[37.259382,48.709832],[37.258983,48.709378],[37.258843,48.709432]]]}},{"type":"Feature","properties":{"cadnum":"1420388003:00:000:0039"},"geometry":{"type":"Polygon","coordinates":[[[37.258983,48.709378],[37.259382,48.709832],[37.259764,48.710327],[37.25989,48.710603],[37.260046,48.710963],[37.260046,48.710964],[37.260164,48.711236],[37.260218,48.711359],[37.260299,48.711545],[37.260416,48.711814],[37.260376,48.711842],[37.260546,48.711996],[37.26059,48.712093],[37.26069,48.712315],[37.260784,48.712301],[37.261162,48.712233],[37.260371,48.710366],[37.260151,48.709743],[37.260151,48.709742],[37.260168,48.709272],[37.259126,48.709366],[37.258983,48.709378]]]}},{"type":"Feature","properties":{"cadnum":"1420388003:00:000:0011"},"geometry":{"type":"Polygon","coordinates":[[[37.246667,48.701132],[37.247214,48.701598],[37.247516,48.701497],[37.247484,48.701461],[37.24761,48.701405],[37.24704,48.701094],[37.246667,48.701132]]]}},{"type":"Feature","properties":{"cadnum":"1420388003:00:000:0018"},"geometry":{"type":"Polygon","coordinates":[[[37.247449,48.699917],[37.247763,48.700112],[37.248095,48.699869],[37.248396,48.699626],[37.247893,48.699495],[37.247449,48.699917]]]}},{"type":"Feature","properties":{"cadnum":"1420388003:00:000:0034"},"geometry":{"type":"Polygon","coordinates":[[[37.24518,48.701084],[37.245185,48.70136],[37.245786,48.701367],[37.246249,48.701351],[37.246276,48.701079],[37.245809,48.701073],[37.24518,48.701084]]]}},{"type":"Feature","properties":{"cadnum":"1420388003:00:000:0035"},"geometry":{"type":"Polygon","coordinates":[[[37.244879,48.701082],[37.244947,48.701358],[37.245185,48.70136],[37.24518,48.701084],[37.244879,48.701082]]]}},{"type":"Feature","properties":{"cadnum":"1420388003:00:000:0003"},"geometry":{"type":"Polygon","coordinates":[[[37.253229,48.702196],[37.253355,48.702415],[37.254185,48.702223],[37.25459,48.702116],[37.254464,48.701909],[37.254092,48.702009],[37.254091,48.702009],[37.253229,48.702196]]]}},{"type":"Feature","properties":{"cadnum":"1420388003:00:000:0046"},"geometry":{"type":"Polygon","coordinates":[[[37.255093,48.700758],[37.255241,48.701026],[37.256778,48.700634],[37.257047,48.700563],[37.257137,48.700539],[37.257007,48.700273],[37.256738,48.700343],[37.256463,48.700415],[37.255839,48.700581],[37.255093,48.700758]],[[37.256818,48.700545],[37.256805,48.70053],[37.256827,48.700521],[37.256841,48.700536],[37.256818,48.700545]]]}}]}