{"type":"FeatureCollection","features":[{"type":"Feature","properties":{"cadnum":"1420386805:00:000:0026"},"geometry":{"type":"Polygon","coordinates":[[[36.780922,48.764666],[36.780931,48.765232],[36.780958,48.76527],[36.781038,48.7654],[36.781038,48.765401],[36.781065,48.765975],[36.781097,48.765969],[36.781214,48.765945],[36.781195,48.764776],[36.781195,48.764775],[36.781371,48.764716],[36.78134,48.764672],[36.781591,48.764586],[36.781824,48.764506],[36.782076,48.764424],[36.782141,48.764403],[36.782218,48.764378],[36.782312,48.764348],[36.782312,48.764347],[36.782333,48.764341],[36.782782,48.764183],[36.783038,48.764095],[36.783285,48.764014],[36.783522,48.763932],[36.78377,48.763849],[36.784012,48.763766],[36.78425,48.763683],[36.784578,48.763571],[36.78476,48.763508],[36.784826,48.763485],[36.785126,48.763381],[36.785126,48.763382],[36.785157,48.763419],[36.785229,48.763396],[36.78525,48.763419],[36.785249,48.763419],[36.785279,48.763452],[36.785331,48.763476],[36.78535,48.763485],[36.785445,48.763482],[36.785454,48.763476],[36.785512,48.763437],[36.785515,48.763419],[36.785522,48.763375],[36.785486,48.763307],[36.785558,48.763281],[36.785508,48.763189],[36.785445,48.763206],[36.785283,48.762985],[36.785176,48.762822],[36.784883,48.762298],[36.784763,48.76212],[36.784627,48.761916],[36.784497,48.76172],[36.78434,48.761495],[36.784201,48.761291],[36.784044,48.761075],[36.7839,48.760856],[36.783887,48.760856],[36.783742,48.760639],[36.783612,48.760438],[36.783455,48.760204],[36.783307,48.759988],[36.783202,48.759822],[36.783172,48.759775],[36.782885,48.759351],[36.782575,48.758919],[36.782426,48.758727],[36.782292,48.758499],[36.782206,48.758369],[36.782126,48.758306],[36.782023,48.758277],[36.781757,48.758395],[36.78196,48.758455],[36.782141,48.75859],[36.782141,48.758591],[36.782153,48.7586],[36.782312,48.758833],[36.782312,48.758832],[36.782313,48.758832],[36.782313,48.758833],[36.782975,48.759798],[36.783258,48.76021],[36.784363,48.761826],[36.784969,48.762712],[36.785225,48.763195],[36.784569,48.763419],[36.784568,48.763419],[36.782831,48.764014],[36.782141,48.76425],[36.782141,48.764251],[36.780922,48.764666]]]}},{"type":"Feature","properties":{"cadnum":"1420386805:00:000:0005"},"geometry":{"type":"Polygon","coordinates":[[[36.780252,48.764012],[36.780361,48.764148],[36.781923,48.76365],[36.781811,48.763494],[36.780252,48.764012]]]}},{"type":"Feature","properties":{"cadnum":"1420386805:00:000:0024"},"geometry":{"type":"Polygon","coordinates":[[[36.779849,48.765311],[36.780033,48.76559],[36.780505,48.765416],[36.780522,48.765433],[36.780922,48.765285],[36.780958,48.76527],[36.780918,48.76521],[36.780792,48.76501],[36.779849,48.765311]]]}},{"type":"Feature","properties":{"cadnum":"1420386805:00:000:0025"},"geometry":{"type":"Polygon","coordinates":[[[36.780033,48.76559],[36.780392,48.766132],[36.780935,48.766007],[36.781065,48.765978],[36.781038,48.765397],[36.780958,48.76527],[36.780922,48.765285],[36.780522,48.765433],[36.780505,48.765416],[36.780033,48.76559]]]}},{"type":"Feature","properties":{"cadnum":"1420386805:00:000:0023"},"geometry":{"type":"Polygon","coordinates":[[[36.784218,48.761294],[36.784358,48.761498],[36.784677,48.761394],[36.785602,48.761108],[36.785459,48.760903],[36.784551,48.76119],[36.784218,48.761294]]]}},{"type":"Feature","properties":{"cadnum":"1420386805:00:000:0022"},"geometry":{"type":"Polygon","coordinates":[[[36.783334,48.761335],[36.783501,48.761549],[36.783918,48.761403],[36.783765,48.761199],[36.783334,48.761335]]]}},{"type":"Feature","properties":{"cadnum":"1420386805:00:000:0003"},"geometry":{"type":"Polygon","coordinates":[[[36.85201,48.767893],[36.852132,48.768222],[36.852279,48.768198],[36.852235,48.768074],[36.852248,48.768071],[36.852239,48.768047],[36.852226,48.768047],[36.852225,48.768047],[36.852158,48.767869],[36.85201,48.767893]]]}},{"type":"Feature","properties":{"cadnum":"1420386805:00:000:0027"},"geometry":{"type":"Polygon","coordinates":[[[36.779107,48.76217],[36.779224,48.762339],[36.780824,48.761865],[36.780719,48.761714],[36.779107,48.76217]]]}}]}