{"type":"FeatureCollection","features":[{"type":"Feature","properties":{"cadnum":"1420655900:02:000:0015"},"geometry":{"type":"Polygon","coordinates":[[[38.474907,47.831728],[38.476097,47.831593],[38.47619,47.831603],[38.477124,47.831698],[38.477265,47.831713],[38.477565,47.831583],[38.477768,47.831496],[38.478329,47.831583],[38.4797,47.831797],[38.4797,47.831796],[38.479964,47.831837],[38.480838,47.831696],[38.481626,47.831569],[38.481823,47.831583],[38.482759,47.831651],[38.482775,47.831653],[38.482841,47.831698],[38.483113,47.831888],[38.483212,47.831699],[38.483212,47.831698],[38.483373,47.831391],[38.483979,47.831472],[38.48398,47.831473],[38.483947,47.831583],[38.483946,47.831583],[38.483737,47.832295],[38.483917,47.832431],[38.484375,47.832449],[38.485193,47.83262],[38.485687,47.832723],[38.486247,47.832636],[38.48641,47.832657],[38.486571,47.832663],[38.486733,47.832663],[38.48689,47.832678],[38.487142,47.832727],[38.487591,47.832865],[38.488238,47.833239],[38.489104,47.83342],[38.489347,47.833649],[38.489257,47.8339],[38.490052,47.834014],[38.490515,47.833769],[38.490554,47.833748],[38.490686,47.833678],[38.490861,47.833585],[38.490515,47.833236],[38.489509,47.83222],[38.488763,47.832353],[38.488231,47.831699],[38.488231,47.831698],[38.487825,47.831198],[38.489324,47.830673],[38.489863,47.830342],[38.490146,47.829886],[38.490291,47.829614],[38.490686,47.82925],[38.490748,47.829193],[38.491058,47.828773],[38.491035,47.828502],[38.490824,47.828011],[38.490825,47.828011],[38.490686,47.827687],[38.490542,47.827347],[38.490668,47.82672],[38.490686,47.826667],[38.490829,47.826268],[38.49131,47.826047],[38.492073,47.826017],[38.493201,47.826346],[38.49462,47.826319],[38.495029,47.826358],[38.49618,47.826122],[38.49618,47.826121],[38.498312,47.825682],[38.499268,47.825405],[38.500662,47.824768],[38.501236,47.824542],[38.501501,47.824446],[38.501649,47.824392],[38.501673,47.824383],[38.50215,47.824207],[38.50266,47.824021],[38.503819,47.823496],[38.504134,47.823384],[38.504551,47.823194],[38.505742,47.822633],[38.506549,47.822298],[38.506994,47.822167],[38.507162,47.822117],[38.507166,47.822116],[38.507461,47.822027],[38.50995,47.821466],[38.512659,47.820965],[38.512659,47.820964],[38.512797,47.820939],[38.515304,47.820912],[38.515977,47.820824],[38.517051,47.821038],[38.517675,47.821265],[38.51798,47.821279],[38.517981,47.821279],[38.518614,47.821307],[38.522454,47.821216],[38.522455,47.821216],[38.523645,47.821406],[38.523645,47.821405],[38.523646,47.821405],[38.524596,47.821556],[38.52612,47.821388],[38.528397,47.821403],[38.529139,47.821506],[38.529139,47.821505],[38.530063,47.821632],[38.531663,47.821484],[38.533328,47.82137],[38.533445,47.821439],[38.53416,47.821044],[38.534632,47.821032],[38.534632,47.821031],[38.539364,47.820899],[38.539365,47.820899],[38.539953,47.821085],[38.539953,47.821086],[38.545618,47.822876],[38.545618,47.822875],[38.545846,47.822947],[38.550939,47.822827],[38.55094,47.822827],[38.550962,47.822826],[38.551111,47.822652],[38.551119,47.822642],[38.551151,47.822157],[38.551169,47.821506],[38.5512,47.820635],[38.5512,47.820634],[38.551272,47.818665],[38.551267,47.816946],[38.551268,47.816946],[38.551263,47.8144],[38.551209,47.813906],[38.551209,47.813905],[38.551285,47.813161],[38.551312,47.8129],[38.551461,47.812756],[38.551349,47.811616],[38.551003,47.811109],[38.548964,47.810608],[38.548429,47.810865],[38.547544,47.811257],[38.546349,47.812035],[38.545471,47.811925],[38.544783,47.811839],[38.54268,47.811845],[38.540339,47.812002],[38.540044,47.812055],[38.538655,47.812301],[38.537865,47.812747],[38.537192,47.813257],[38.537193,47.813257],[38.536653,47.813667],[38.535929,47.814008],[38.535215,47.814686],[38.534479,47.815365],[38.53358,47.81658],[38.533219,47.816831],[38.533218,47.816831],[38.532372,47.817419],[38.530512,47.817214],[38.529014,47.817152],[38.528626,47.817136],[38.527698,47.816946],[38.526784,47.816759],[38.524399,47.815992],[38.523645,47.815801],[38.522522,47.815516],[38.521147,47.815296],[38.520684,47.815088],[38.520428,47.815118],[38.519086,47.814639],[38.517981,47.813675],[38.51798,47.813675],[38.517369,47.813142],[38.517368,47.813142],[38.514585,47.810714],[38.513323,47.810309],[38.512896,47.809568],[38.512784,47.809372],[38.512659,47.809294],[38.512137,47.80897],[38.511266,47.808835],[38.511778,47.808747],[38.512487,47.808473],[38.51252,47.80846],[38.512659,47.808376],[38.512837,47.808267],[38.513126,47.808044],[38.513305,47.80783],[38.51343,47.807616],[38.513507,47.807375],[38.513772,47.806228],[38.513887,47.805879],[38.513888,47.805879],[38.513979,47.805604],[38.514225,47.805453],[38.515084,47.805166],[38.515424,47.805139],[38.515986,47.805172],[38.516556,47.805383],[38.516584,47.805318],[38.516584,47.805317],[38.516606,47.805257],[38.516629,47.80519],[38.516027,47.805012],[38.515407,47.804976],[38.514891,47.805049],[38.514589,47.805124],[38.514325,47.805215],[38.514078,47.805327],[38.513763,47.805517],[38.513681,47.805763],[38.513539,47.806198],[38.513269,47.807348],[38.513202,47.80757],[38.513086,47.807776],[38.512927,47.80795],[38.512667,47.808156],[38.512563,47.808218],[38.512375,47.80833],[38.511688,47.808593],[38.510906,47.808729],[38.509074,47.808998],[38.506994,47.809296],[38.506931,47.809305],[38.506092,47.809429],[38.505647,47.809453],[38.505646,47.809453],[38.504877,47.809493],[38.504843,47.809495],[38.503109,47.809251],[38.501905,47.808753],[38.501673,47.808631],[38.501673,47.80863],[38.500472,47.807996],[38.499296,47.807755],[38.497436,47.807652],[38.496497,47.807661],[38.496008,47.807795],[38.490721,47.809239],[38.490515,47.809292],[38.489892,47.809453],[38.489891,47.809453],[38.489643,47.809517],[38.489638,47.809516],[38.488421,47.809372],[38.487905,47.8091],[38.487654,47.808792],[38.486117,47.807643],[38.485193,47.807273],[38.484249,47.806895],[38.482695,47.806955],[38.48123,47.806479],[38.4797,47.80659],[38.478064,47.806708],[38.476546,47.807205],[38.476802,47.808542],[38.477045,47.809372],[38.478554,47.809453],[38.478549,47.809453],[38.479528,47.809506],[38.485021,47.809802],[38.485022,47.809802],[38.48813,47.809969],[38.488228,47.809975],[38.489423,47.810038],[38.489419,47.809987],[38.489419,47.809942],[38.489725,47.809767],[38.489586,47.809637],[38.489992,47.80954],[38.489993,47.80954],[38.490061,47.809568],[38.490062,47.809568],[38.490098,47.809582],[38.490272,47.809749],[38.490322,47.809752],[38.490322,47.809767],[38.490515,47.809952],[38.490515,47.809953],[38.491008,47.810424],[38.491008,47.810425],[38.490672,47.810584],[38.490686,47.810598],[38.490687,47.810598],[38.490901,47.810801],[38.490712,47.810892],[38.490811,47.810982],[38.490605,47.811079],[38.490686,47.811159],[38.490687,47.811159],[38.490694,47.811167],[38.490515,47.811254],[38.490335,47.811341],[38.489886,47.810913],[38.490411,47.810662],[38.489427,47.81011],[38.488228,47.810047],[38.488125,47.810041],[38.485193,47.809884],[38.4797,47.809589],[38.479315,47.809568],[38.477068,47.809447],[38.477069,47.809453],[38.47708,47.80949],[38.477102,47.809568],[38.477103,47.809568],[38.47811,47.812982],[38.478213,47.813257],[38.478214,47.813257],[38.479353,47.816264],[38.479528,47.816594],[38.479528,47.816595],[38.479654,47.81683],[38.479654,47.816831],[38.479653,47.816831],[38.480207,47.817868],[38.480027,47.819397],[38.480074,47.820634],[38.480075,47.820634],[38.480075,47.820635],[38.480112,47.821575],[38.4808,47.822899],[38.480806,47.824207],[38.480805,47.824207],[38.480813,47.825589],[38.480062,47.825881],[38.479528,47.825913],[38.476936,47.826065],[38.476362,47.826288],[38.478266,47.826286],[38.478515,47.827895],[38.478586,47.828348],[38.479286,47.830233],[38.475118,47.830004],[38.47491,47.831698],[38.474911,47.831698],[38.474911,47.831699],[38.474907,47.831728]]]}},{"type":"Feature","properties":{"cadnum":"1420655900:02:000:0038"},"geometry":{"type":"Polygon","coordinates":[[[38.518551,47.812641],[38.518711,47.813142],[38.51871,47.813142],[38.519185,47.814617],[38.519939,47.814713],[38.523474,47.815567],[38.52353,47.815581],[38.523645,47.815609],[38.523645,47.815608],[38.523646,47.815608],[38.5247,47.815862],[38.524382,47.813905],[38.523645,47.81368],[38.523645,47.813679],[38.522243,47.813248],[38.522243,47.811287],[38.518726,47.812578],[38.51861,47.81262],[38.518551,47.812641]]]}},{"type":"Feature","properties":{"cadnum":"1420655900:02:000:0026"},"geometry":{"type":"Polygon","coordinates":[[[38.460147,47.832412],[38.461782,47.832621],[38.463049,47.832808],[38.463168,47.832826],[38.463221,47.832834],[38.463682,47.832901],[38.46477,47.833154],[38.465407,47.833357],[38.46542,47.833323],[38.465433,47.833299],[38.465443,47.833278],[38.465479,47.833158],[38.465492,47.833112],[38.465515,47.833016],[38.465529,47.832973],[38.465523,47.832962],[38.465519,47.832917],[38.465519,47.832916],[38.466292,47.832687],[38.466651,47.832732],[38.466682,47.832645],[38.467414,47.832745],[38.468492,47.83289],[38.468493,47.83289],[38.468542,47.832935],[38.468578,47.832982],[38.468613,47.832995],[38.468714,47.833008],[38.469229,47.833076],[38.469858,47.833169],[38.469876,47.833085],[38.469877,47.833085],[38.470033,47.8331],[38.47002,47.833191],[38.470787,47.83329],[38.471982,47.833441],[38.471821,47.834008],[38.471718,47.834354],[38.471704,47.8344],[38.471632,47.834653],[38.471173,47.834596],[38.469934,47.83443],[38.469903,47.834692],[38.470087,47.834722],[38.470087,47.834723],[38.470064,47.834801],[38.46989,47.834776],[38.469615,47.834725],[38.469261,47.834653],[38.468973,47.83459],[38.468766,47.834533],[38.468766,47.834532],[38.468607,47.834468],[38.468295,47.83434],[38.46803,47.834204],[38.46799,47.834246],[38.468263,47.834372],[38.468714,47.834556],[38.468739,47.834566],[38.468951,47.834626],[38.469238,47.834692],[38.469598,47.834765],[38.469822,47.834803],[38.469844,47.83481],[38.469871,47.834812],[38.4702,47.83487],[38.470027,47.835386],[38.469525,47.836893],[38.469467,47.837134],[38.469462,47.837165],[38.469808,47.837113],[38.47098,47.836944],[38.471246,47.836905],[38.473353,47.836604],[38.474035,47.836505],[38.474035,47.836506],[38.475374,47.836311],[38.477098,47.836073],[38.477454,47.83603],[38.477668,47.83601],[38.477664,47.835986],[38.477664,47.835985],[38.477687,47.835985],[38.477687,47.83597],[38.477767,47.835961],[38.477768,47.835961],[38.477768,47.835976],[38.4778,47.835974],[38.477804,47.836003],[38.477903,47.836001],[38.47792,47.836001],[38.478041,47.836003],[38.478081,47.836007],[38.478441,47.836064],[38.47858,47.836085],[38.478586,47.836085],[38.478779,47.836115],[38.478922,47.836139],[38.479255,47.836191],[38.479528,47.836232],[38.47967,47.836253],[38.4797,47.836257],[38.480009,47.836302],[38.480054,47.836158],[38.480054,47.836157],[38.480467,47.836191],[38.480534,47.835883],[38.480588,47.835886],[38.48084,47.83592],[38.480804,47.836046],[38.480804,47.836058],[38.480943,47.836073],[38.480849,47.836417],[38.481846,47.836544],[38.482624,47.836646],[38.482888,47.83668],[38.482968,47.83668],[38.483324,47.836712],[38.483454,47.836709],[38.483576,47.836698],[38.483723,47.836661],[38.483853,47.836607],[38.484033,47.836486],[38.484186,47.836327],[38.484236,47.836248],[38.484446,47.835684],[38.484509,47.83548],[38.484541,47.835376],[38.484603,47.835174],[38.484618,47.835172],[38.484756,47.834686],[38.484788,47.834581],[38.484824,47.834448],[38.484815,47.834448],[38.484865,47.834276],[38.484901,47.834144],[38.484914,47.834104],[38.484945,47.833999],[38.484972,47.833911],[38.484976,47.833893],[38.484985,47.833866],[38.484995,47.833848],[38.484999,47.833833],[38.484999,47.833827],[38.485021,47.833783],[38.485022,47.833783],[38.485188,47.833465],[38.485193,47.833467],[38.485193,47.833466],[38.487272,47.833918],[38.48905,47.834222],[38.489257,47.8339],[38.489347,47.833649],[38.489104,47.83342],[38.488238,47.833239],[38.487591,47.832865],[38.487142,47.832727],[38.48689,47.832678],[38.486733,47.832663],[38.486571,47.832663],[38.48641,47.832657],[38.486247,47.832636],[38.485687,47.832723],[38.485022,47.832584],[38.485021,47.832584],[38.484375,47.832449],[38.483917,47.832431],[38.483916,47.832431],[38.483737,47.832295],[38.483912,47.831699],[38.483912,47.831698],[38.48398,47.831472],[38.483373,47.831391],[38.483273,47.831583],[38.483271,47.831583],[38.483113,47.831888],[38.482775,47.831653],[38.482759,47.831651],[38.481626,47.831569],[38.481537,47.831583],[38.481536,47.831583],[38.480838,47.831696],[38.480823,47.831698],[38.479964,47.831837],[38.479528,47.83177],[38.479071,47.831699],[38.479071,47.831698],[38.477768,47.831496],[38.477297,47.831698],[38.477298,47.831698],[38.477298,47.831699],[38.477265,47.831713],[38.47619,47.831603],[38.476097,47.831593],[38.475168,47.831698],[38.474907,47.831728],[38.474924,47.831583],[38.475118,47.830004],[38.474207,47.829951],[38.470473,47.829732],[38.470137,47.830203],[38.469162,47.830564],[38.468928,47.831029],[38.468663,47.830937],[38.468443,47.83086],[38.46764,47.830462],[38.467316,47.830244],[38.466184,47.829193],[38.465456,47.828499],[38.46498,47.827971],[38.464881,47.826536],[38.463445,47.826853],[38.463668,47.827057],[38.463471,47.827169],[38.463592,47.827604],[38.463619,47.827718],[38.463655,47.827895],[38.463669,47.827959],[38.463679,47.828011],[38.46368,47.828011],[38.463714,47.828167],[38.463804,47.828409],[38.463892,47.828583],[38.463978,47.828698],[38.463512,47.828903],[38.463799,47.82941],[38.463992,47.829669],[38.464145,47.829765],[38.465613,47.831403],[38.465825,47.831583],[38.465869,47.83162],[38.465916,47.831641],[38.465936,47.83165],[38.466031,47.831656],[38.466032,47.831656],[38.466037,47.831698],[38.466038,47.831698],[38.466038,47.831699],[38.466066,47.831879],[38.466108,47.832204],[38.466229,47.832416],[38.466296,47.832512],[38.466269,47.832546],[38.466129,47.8326],[38.465973,47.832624],[38.464428,47.832732],[38.46441,47.832636],[38.464401,47.832552],[38.464374,47.832338],[38.464347,47.832338],[38.464347,47.832316],[38.46437,47.832316],[38.464355,47.832232],[38.464351,47.832195],[38.464324,47.831973],[38.463403,47.832021],[38.4633,47.832515],[38.463439,47.832792],[38.463049,47.83274],[38.460166,47.832353],[38.460147,47.832412]],[[38.481433,47.831942],[38.481716,47.832005],[38.481802,47.832057],[38.481859,47.832132],[38.481899,47.832385],[38.4819,47.832385],[38.482156,47.83238],[38.482272,47.832371],[38.482362,47.832349],[38.482429,47.832322],[38.482538,47.832202],[38.482762,47.832139],[38.483127,47.832202],[38.483203,47.832226],[38.483387,47.832295],[38.483463,47.832338],[38.483629,47.83247],[38.483355,47.832774],[38.481312,47.83257],[38.481339,47.831945],[38.481429,47.831942],[38.481433,47.831942]],[[38.481352,47.831659],[38.482565,47.831686],[38.482718,47.831698],[38.48305,47.831967],[38.482978,47.832087],[38.482947,47.832108],[38.482744,47.832075],[38.482502,47.832141],[38.482457,47.832172],[38.482421,47.832202],[38.482389,47.832241],[38.482381,47.832244],[38.482299,47.832302],[38.482152,47.83232],[38.481985,47.83232],[38.481936,47.832093],[38.481855,47.832009],[38.481733,47.831949],[38.481442,47.831885],[38.481343,47.831891],[38.481352,47.831659]]]}},{"type":"Feature","properties":{"cadnum":"1420655900:01:000:0032"},"geometry":{"type":"Polygon","coordinates":[[[38.501528,47.833592],[38.501673,47.833795],[38.501748,47.8339],[38.502216,47.833746],[38.501995,47.833438],[38.501528,47.833592]]]}},{"type":"Feature","properties":{"cadnum":"1420655900:01:000:0019"},"geometry":{"type":"Polygon","coordinates":[[[38.503648,47.835045],[38.503804,47.835271],[38.503851,47.835337],[38.504107,47.835268],[38.503891,47.834975],[38.503648,47.835045]]]}},{"type":"Feature","properties":{"cadnum":"1420655900:01:000:0118"},"geometry":{"type":"Polygon","coordinates":[[[38.504178,47.832105],[38.504447,47.832497],[38.504623,47.832437],[38.504515,47.832277],[38.504362,47.832048],[38.504178,47.832105]]]}},{"type":"Feature","properties":{"cadnum":"1420655900:01:000:0178"},"geometry":{"type":"Polygon","coordinates":[[[38.502463,47.835039],[38.502613,47.835271],[38.50265,47.835328],[38.502899,47.835259],[38.502705,47.834966],[38.502463,47.835039]]]}},{"type":"Feature","properties":{"cadnum":"1420655900:01:000:0051"},"geometry":{"type":"Polygon","coordinates":[[[38.504327,47.833296],[38.504488,47.83352],[38.504663,47.833462],[38.504501,47.833239],[38.504327,47.833296]]]}},{"type":"Feature","properties":{"cadnum":"1420655900:01:000:0138"},"geometry":{"type":"Polygon","coordinates":[[[38.505992,47.833929],[38.506249,47.83424],[38.506522,47.834153],[38.506235,47.833848],[38.505992,47.833929]]]}},{"type":"Feature","properties":{"cadnum":"1420655900:01:000:0086"},"geometry":{"type":"Polygon","coordinates":[[[38.503065,47.831547],[38.50316,47.831698],[38.503161,47.831698],[38.503161,47.831699],[38.503279,47.831885],[38.503451,47.831831],[38.503335,47.83165],[38.503235,47.831493],[38.503065,47.831547]]]}},{"type":"Feature","properties":{"cadnum":"1420655900:01:000:0133"},"geometry":{"type":"Polygon","coordinates":[[[38.501704,47.832338],[38.50191,47.832651],[38.502126,47.832588],[38.501887,47.832293],[38.501704,47.832338]]]}},{"type":"Feature","properties":{"cadnum":"1420655900:01:000:0117"},"geometry":{"type":"Polygon","coordinates":[[[38.503325,47.833839],[38.503554,47.834155],[38.503819,47.834068],[38.503581,47.833755],[38.503325,47.833839]]]}},{"type":"Feature","properties":{"cadnum":"1420655900:01:000:0091"},"geometry":{"type":"Polygon","coordinates":[[[38.503401,47.831442],[38.503572,47.831698],[38.503572,47.831699],[38.503616,47.831764],[38.503738,47.831725],[38.503738,47.831726],[38.503755,47.831752],[38.503805,47.831737],[38.503698,47.831583],[38.503697,47.831583],[38.503562,47.831388],[38.503401,47.831442]]]}},{"type":"Feature","properties":{"cadnum":"1420655900:01:000:0109"},"geometry":{"type":"Polygon","coordinates":[[[38.502664,47.833802],[38.502809,47.834001],[38.503019,47.833932],[38.50288,47.833733],[38.502664,47.833802]]]}},{"type":"Feature","properties":{"cadnum":"1420655900:01:000:0122"},"geometry":{"type":"Polygon","coordinates":[[[38.503348,47.832343],[38.503679,47.832802],[38.503751,47.832778],[38.503828,47.832754],[38.503513,47.832289],[38.503348,47.832343]]]}},{"type":"Feature","properties":{"cadnum":"1420655900:01:000:0092"},"geometry":{"type":"Polygon","coordinates":[[[38.502903,47.834901],[38.502903,47.834906],[38.502925,47.834933],[38.502933,47.83493],[38.50314,47.835169],[38.503388,47.835102],[38.503132,47.834831],[38.502903,47.834901]]]}},{"type":"Feature","properties":{"cadnum":"1420655900:01:000:0073"},"geometry":{"type":"Polygon","coordinates":[[[38.50205,47.83187],[38.50227,47.832208],[38.502341,47.832184],[38.502337,47.832175],[38.50243,47.832141],[38.50222,47.831815],[38.50205,47.83187]]]}},{"type":"Feature","properties":{"cadnum":"1420655900:01:000:0174"},"geometry":{"type":"Polygon","coordinates":[[[38.506245,47.834855],[38.506438,47.835172],[38.506662,47.835105],[38.506478,47.834789],[38.506245,47.834855]]]}},{"type":"Feature","properties":{"cadnum":"1420655900:01:000:0335"},"geometry":{"type":"Polygon","coordinates":[[[38.505952,47.835295],[38.506013,47.835386],[38.506014,47.835386],[38.506159,47.8356],[38.506424,47.835543],[38.506293,47.835343],[38.506218,47.835226],[38.506045,47.835271],[38.505954,47.835295],[38.505952,47.835295]]]}},{"type":"Feature","properties":{"cadnum":"1420655900:01:000:0171"},"geometry":{"type":"Polygon","coordinates":[[[38.504555,47.831978],[38.504564,47.831985],[38.504614,47.83206],[38.504771,47.832238],[38.504977,47.832166],[38.504816,47.831906],[38.504704,47.83194],[38.5047,47.831933],[38.504555,47.831978]]]}},{"type":"Feature","properties":{"cadnum":"1420655900:01:000:0087"},"geometry":{"type":"Polygon","coordinates":[[[38.50252,47.832126],[38.502713,47.83241],[38.502719,47.832416],[38.502844,47.832376],[38.50288,47.832356],[38.502696,47.832072],[38.50252,47.832126]]]}},{"type":"Feature","properties":{"cadnum":"1420655900:01:000:0114"},"geometry":{"type":"Polygon","coordinates":[[[38.506914,47.835036],[38.506994,47.835159],[38.506994,47.83516],[38.507124,47.835359],[38.50724,47.835328],[38.507376,47.835292],[38.507151,47.834966],[38.506914,47.835036]]]}},{"type":"Feature","properties":{"cadnum":"1420655900:01:000:0120"},"geometry":{"type":"Polygon","coordinates":[[[38.501285,47.832103],[38.501484,47.832401],[38.501501,47.832396],[38.501646,47.832354],[38.501673,47.832347],[38.501704,47.832338],[38.501584,47.832173],[38.501488,47.832039],[38.501285,47.832103]]]}},{"type":"Feature","properties":{"cadnum":"1420655900:01:000:0179"},"geometry":{"type":"Polygon","coordinates":[[[38.505998,47.833456],[38.506204,47.83371],[38.506591,47.833583],[38.506411,47.833321],[38.505998,47.833456]]]}},{"type":"Feature","properties":{"cadnum":"1420655900:01:000:0188"},"geometry":{"type":"Polygon","coordinates":[[[38.506648,47.833706],[38.506927,47.834029],[38.506994,47.834005],[38.506994,47.834006],[38.507138,47.833954],[38.506868,47.833631],[38.506648,47.833706]]]}},{"type":"Feature","properties":{"cadnum":"1420655900:01:000:0093"},"geometry":{"type":"Polygon","coordinates":[[[38.506675,47.835102],[38.506871,47.835386],[38.506872,47.835386],[38.506895,47.835419],[38.506994,47.835393],[38.506994,47.835394],[38.507124,47.835359],[38.507068,47.835271],[38.507067,47.835271],[38.506914,47.835036],[38.506675,47.835102]]]}},{"type":"Feature","properties":{"cadnum":"1420655900:01:000:0103"},"geometry":{"type":"Polygon","coordinates":[[[38.503002,47.831963],[38.503195,47.832247],[38.503369,47.832193],[38.503186,47.831913],[38.503002,47.831963]]]}},{"type":"Feature","properties":{"cadnum":"1420655900:01:000:0338"},"geometry":{"type":"Polygon","coordinates":[[[38.505121,47.834216],[38.505409,47.83453],[38.505629,47.83446],[38.505346,47.834146],[38.505121,47.834216]]]}},{"type":"Feature","properties":{"cadnum":"1420655900:01:000:0105"},"geometry":{"type":"Polygon","coordinates":[[[38.503409,47.831843],[38.503568,47.83213],[38.503761,47.832069],[38.503568,47.831792],[38.503451,47.831831],[38.503409,47.831843]]]}},{"type":"Feature","properties":{"cadnum":"1420655900:01:000:0049"},"geometry":{"type":"Polygon","coordinates":[[[38.505432,47.831626],[38.50548,47.831698],[38.50548,47.831699],[38.505597,47.831873],[38.506105,47.831701],[38.506021,47.831583],[38.50602,47.831583],[38.505935,47.831463],[38.505562,47.831583],[38.505433,47.831625],[38.505432,47.831626]]]}},{"type":"Feature","properties":{"cadnum":"1420655900:01:000:0064"},"geometry":{"type":"Polygon","coordinates":[[[38.505149,47.83215],[38.505176,47.832186],[38.50539,47.832117],[38.505422,47.832163],[38.505543,47.832123],[38.505486,47.832042],[38.505149,47.83215]]]}},{"type":"Feature","properties":{"cadnum":"1420655900:01:000:0116"},"geometry":{"type":"Polygon","coordinates":[[[38.50412,47.833715],[38.504258,47.833923],[38.50456,47.83383],[38.504417,47.833619],[38.50412,47.833715]]]}},{"type":"Feature","properties":{"cadnum":"1420655900:01:000:0055"},"geometry":{"type":"Polygon","coordinates":[[[38.505107,47.832096],[38.505149,47.83215],[38.505485,47.832042],[38.505486,47.832042],[38.505543,47.832123],[38.505423,47.832163],[38.505422,47.832163],[38.50539,47.832117],[38.505176,47.832186],[38.505233,47.832268],[38.505683,47.832099],[38.505742,47.832084],[38.505597,47.831873],[38.505144,47.83203],[38.505166,47.832066],[38.505107,47.832096]]]}},{"type":"Feature","properties":{"cadnum":"1420655900:01:000:0185"},"geometry":{"type":"Polygon","coordinates":[[[38.505346,47.834146],[38.505629,47.83446],[38.505849,47.834397],[38.505562,47.834074],[38.505346,47.834146]]]}},{"type":"Feature","properties":{"cadnum":"1420655900:01:000:0081"},"geometry":{"type":"Polygon","coordinates":[[[38.505189,47.832304],[38.505346,47.832533],[38.505633,47.832434],[38.505903,47.832338],[38.505818,47.832226],[38.505719,47.832103],[38.505665,47.832121],[38.505189,47.832304]]]}},{"type":"Feature","properties":{"cadnum":"1420655900:02:000:0039"},"geometry":{"type":"Polygon","coordinates":[[[38.516525,47.805468],[38.516525,47.805598],[38.516566,47.805727],[38.516584,47.805763],[38.516583,47.805763],[38.516605,47.805806],[38.516641,47.805879],[38.516642,47.805879],[38.516669,47.805933],[38.517006,47.806382],[38.517154,47.806554],[38.517302,47.806702],[38.51795,47.807538],[38.518152,47.807994],[38.518152,47.807993],[38.518336,47.808406],[38.518357,47.8085],[38.518227,47.80897],[38.518125,47.809213],[38.517974,47.809568],[38.517975,47.809568],[38.517824,47.809926],[38.517617,47.810331],[38.517352,47.810834],[38.517307,47.811022],[38.517361,47.811218],[38.517841,47.811972],[38.517981,47.812135],[38.517981,47.812136],[38.518057,47.812225],[38.518152,47.812293],[38.51861,47.81262],[38.518726,47.812578],[38.51817,47.812177],[38.518125,47.812124],[38.517963,47.81193],[38.517491,47.81119],[38.517441,47.811028],[38.517482,47.810856],[38.517743,47.810364],[38.517954,47.809944],[38.517981,47.809882],[38.517983,47.809876],[38.518152,47.809484],[38.518152,47.809481],[38.518357,47.809007],[38.518493,47.808497],[38.518461,47.808376],[38.518074,47.80751],[38.517411,47.806651],[38.517267,47.806506],[38.517122,47.80634],[38.516791,47.805899],[38.516767,47.805852],[38.516696,47.805707],[38.51666,47.805589],[38.516674,47.805465],[38.516688,47.805405],[38.516556,47.805383],[38.516525,47.805468]]]}},{"type":"Feature","properties":{"cadnum":"1420655900:02:000:0001"},"geometry":{"type":"Polygon","coordinates":[[[38.518606,47.805848],[38.518659,47.805866],[38.518693,47.805879],[38.518694,47.805879],[38.518793,47.805915],[38.518978,47.805987],[38.519306,47.806219],[38.519499,47.806458],[38.519741,47.806816],[38.520087,47.807269],[38.520317,47.807386],[38.520496,47.807625],[38.522481,47.807797],[38.522491,47.807559],[38.522168,47.8064],[38.522086,47.805953],[38.521852,47.805763],[38.521606,47.805562],[38.521313,47.805251],[38.520904,47.804862],[38.520793,47.804813],[38.520734,47.80479],[38.520554,47.804922],[38.520401,47.805018],[38.520307,47.805067],[38.520128,47.805157],[38.519868,47.805278],[38.519571,47.80541],[38.519225,47.80554],[38.518789,47.805682],[38.518699,47.805763],[38.518698,47.805763],[38.518606,47.805848]]]}},{"type":"Feature","properties":{"cadnum":"1420655900:02:000:0022"},"geometry":{"type":"Polygon","coordinates":[[[38.46807,47.837342],[38.468089,47.837391],[38.468124,47.8375],[38.468137,47.837536],[38.468714,47.837453],[38.468714,47.837452],[38.470509,47.837192],[38.471947,47.836984],[38.474207,47.836657],[38.474207,47.836656],[38.477108,47.836236],[38.477265,47.836215],[38.477647,47.836166],[38.47806,47.836157],[38.478496,47.836227],[38.4797,47.836412],[38.480027,47.836462],[38.48044,47.836526],[38.482651,47.836809],[38.482861,47.836827],[38.483337,47.836872],[38.483737,47.836836],[38.484132,47.836682],[38.48446,47.83636],[38.484729,47.835494],[38.484803,47.835271],[38.485021,47.834617],[38.485022,47.834617],[38.485022,47.834618],[38.485107,47.834361],[38.485129,47.834225],[38.485193,47.834032],[38.485201,47.834008],[38.485278,47.83402],[38.485431,47.834041],[38.486347,47.834177],[38.487335,47.834331],[38.488431,47.834502],[38.48971,47.834674],[38.490515,47.834651],[38.490672,47.834647],[38.490686,47.834644],[38.490686,47.834643],[38.490784,47.83462],[38.49122,47.834517],[38.492083,47.83424],[38.492792,47.834014],[38.492905,47.833978],[38.492864,47.833918],[38.492805,47.833839],[38.492679,47.833882],[38.492563,47.833923],[38.491993,47.834117],[38.491153,47.834363],[38.490622,47.834496],[38.490151,47.834508],[38.489706,47.834521],[38.489469,47.834487],[38.48848,47.834349],[38.487438,47.834198],[38.485172,47.833853],[38.484999,47.833827],[38.484999,47.833833],[38.484995,47.833848],[38.484985,47.833866],[38.484972,47.833911],[38.484945,47.833999],[38.484914,47.834104],[38.484901,47.834144],[38.484865,47.834276],[38.484815,47.834448],[38.484824,47.834448],[38.484788,47.834581],[38.484756,47.834686],[38.484618,47.835172],[38.484603,47.835174],[38.484573,47.835271],[38.484572,47.835271],[38.484541,47.835376],[38.484537,47.835386],[38.484538,47.835386],[38.484509,47.83548],[38.484446,47.835684],[38.484236,47.836248],[38.484186,47.836327],[38.484033,47.836486],[38.483853,47.836607],[38.483723,47.836661],[38.483576,47.836698],[38.483454,47.836709],[38.483324,47.836712],[38.482968,47.83668],[38.482888,47.83668],[38.482624,47.836646],[38.481846,47.836544],[38.480849,47.836417],[38.480844,47.836417],[38.480408,47.836356],[38.480009,47.836302],[38.47967,47.836253],[38.479255,47.836191],[38.478922,47.836139],[38.478779,47.836115],[38.478586,47.836085],[38.47858,47.836085],[38.478441,47.836064],[38.478081,47.836007],[38.477903,47.836001],[38.477804,47.836003],[38.4778,47.835974],[38.477768,47.835976],[38.477768,47.835961],[38.477687,47.83597],[38.477687,47.835985],[38.477664,47.835985],[38.477668,47.83601],[38.477454,47.83603],[38.477098,47.836073],[38.475374,47.836311],[38.474207,47.836481],[38.473353,47.836604],[38.471246,47.836905],[38.47098,47.836944],[38.469808,47.837113],[38.469462,47.837165],[38.469467,47.837134],[38.469311,47.837158],[38.468869,47.837228],[38.468589,47.837269],[38.46811,47.837339],[38.46807,47.837342]]]}},{"type":"Feature","properties":{"cadnum":"1420655900:01:000:0129"},"geometry":{"type":"Polygon","coordinates":[[[38.507812,47.834415],[38.508009,47.83472],[38.508256,47.834638],[38.508036,47.83434],[38.507812,47.834415]]]}},{"type":"Feature","properties":{"cadnum":"1420655900:01:000:0182"},"geometry":{"type":"Polygon","coordinates":[[[38.508009,47.83472],[38.508243,47.835045],[38.508476,47.834982],[38.508229,47.834647],[38.508009,47.83472]]]}},{"type":"Feature","properties":{"cadnum":"1420655900:01:000:0194"},"geometry":{"type":"Polygon","coordinates":[[[38.509325,47.833498],[38.509455,47.833667],[38.510063,47.833456],[38.509945,47.833302],[38.509325,47.833498]]]}},{"type":"Feature","properties":{"cadnum":"1420655900:01:000:0125"},"geometry":{"type":"Polygon","coordinates":[[[38.507323,47.832606],[38.50748,47.832895],[38.507866,47.832769],[38.507646,47.832485],[38.507323,47.832606]]]}},{"type":"Feature","properties":{"cadnum":"1420655900:01:000:0066"},"geometry":{"type":"Polygon","coordinates":[[[38.509208,47.83497],[38.509406,47.835271],[38.509478,47.835379],[38.509478,47.83538],[38.509654,47.835328],[38.509725,47.835308],[38.509451,47.834897],[38.509208,47.83497]]]}},{"type":"Feature","properties":{"cadnum":"1420655900:01:000:0196"},"geometry":{"type":"Polygon","coordinates":[[[38.509455,47.833667],[38.509581,47.83383],[38.510187,47.833616],[38.510063,47.833456],[38.509455,47.833667]]]}},{"type":"Feature","properties":{"cadnum":"1420655900:01:000:0099"},"geometry":{"type":"Polygon","coordinates":[[[38.510138,47.833827],[38.51039,47.834159],[38.51056,47.834108],[38.510304,47.833766],[38.510138,47.833827]]]}},{"type":"Feature","properties":{"cadnum":"1420655900:01:000:0115"},"geometry":{"type":"Polygon","coordinates":[[[38.507313,47.834933],[38.507524,47.835247],[38.507776,47.835178],[38.507551,47.834855],[38.507313,47.834933]]]}},{"type":"Feature","properties":{"cadnum":"1420655900:01:000:0183"},"geometry":{"type":"Polygon","coordinates":[[[38.508935,47.832995],[38.509069,47.833169],[38.50969,47.832971],[38.509554,47.832808],[38.508935,47.832995]]]}},{"type":"Feature","properties":{"cadnum":"1420655900:01:000:0098"},"geometry":{"type":"Polygon","coordinates":[[[38.509698,47.833983],[38.50995,47.834298],[38.51039,47.834159],[38.510138,47.833827],[38.509698,47.833983]]]}},{"type":"Feature","properties":{"cadnum":"1420655900:01:000:0104"},"geometry":{"type":"Polygon","coordinates":[[[38.50849,47.834578],[38.508719,47.83491],[38.508966,47.834843],[38.508723,47.834508],[38.50849,47.834578]]]}},{"type":"Feature","properties":{"cadnum":"1420655900:01:000:0139"},"geometry":{"type":"Polygon","coordinates":[[[38.507084,47.833565],[38.507336,47.833857],[38.507543,47.833784],[38.507323,47.833483],[38.507084,47.833565]]]}},{"type":"Feature","properties":{"cadnum":"1420655900:01:000:0078"},"geometry":{"type":"Polygon","coordinates":[[[38.50778,47.834789],[38.508013,47.835109],[38.508243,47.835045],[38.508009,47.83472],[38.50778,47.834789]]]}},{"type":"Feature","properties":{"cadnum":"1420655900:01:000:0187"},"geometry":{"type":"Polygon","coordinates":[[[38.507417,47.833007],[38.50757,47.83323],[38.507587,47.833257],[38.507641,47.833239],[38.507726,47.833212],[38.507659,47.833058],[38.50761,47.832995],[38.507583,47.832955],[38.507417,47.833007]]]}},{"type":"Feature","properties":{"cadnum":"1420655900:01:000:0140"},"geometry":{"type":"Polygon","coordinates":[[[38.507799,47.833323],[38.508063,47.833643],[38.508266,47.833574],[38.50804,47.833242],[38.507799,47.833323]]]}},{"type":"Feature","properties":{"cadnum":"1420655900:01:000:0134"},"geometry":{"type":"Polygon","coordinates":[[[38.509918,47.834731],[38.510214,47.835136],[38.510462,47.835063],[38.510166,47.834662],[38.509918,47.834731]]]}},{"type":"Feature","properties":{"cadnum":"1420655900:01:000:0132"},"geometry":{"type":"Polygon","coordinates":[[[38.508723,47.834508],[38.508966,47.834843],[38.509214,47.834774],[38.508939,47.834442],[38.508723,47.834508]]]}},{"type":"Feature","properties":{"cadnum":"1420655900:01:000:0083"},"geometry":{"type":"Polygon","coordinates":[[[38.507551,47.834855],[38.507776,47.835178],[38.508013,47.835109],[38.50778,47.834789],[38.507551,47.834855]]]}},{"type":"Feature","properties":{"cadnum":"1420655900:01:000:0336"},"geometry":{"type":"Polygon","coordinates":[[[38.506168,47.826695],[38.506725,47.827133],[38.506851,47.827025],[38.506302,47.826602],[38.506168,47.826695]]]}},{"type":"Feature","properties":{"cadnum":"1420655900:01:000:0123"},"geometry":{"type":"Polygon","coordinates":[[[38.505526,47.82703],[38.506149,47.827401],[38.506352,47.827247],[38.505732,47.826885],[38.505526,47.82703]]]}},{"type":"Feature","properties":{"cadnum":"1420655900:01:000:0044"},"geometry":{"type":"Polygon","coordinates":[[[38.504667,47.827835],[38.504768,47.827895],[38.50492,47.827986],[38.504961,47.828011],[38.505153,47.828125],[38.505332,47.827984],[38.505333,47.827984],[38.505332,47.827983],[38.504887,47.827718],[38.504667,47.827835]]]}},{"type":"Feature","properties":{"cadnum":"1420655900:01:000:0136"},"geometry":{"type":"Polygon","coordinates":[[[38.506092,47.827902],[38.506176,47.828011],[38.506177,47.828011],[38.506212,47.828056],[38.506577,47.82795],[38.506419,47.827754],[38.506106,47.827895],[38.506105,47.827895],[38.506092,47.827902]]]}},{"type":"Feature","properties":{"cadnum":"1420655900:01:000:0085"},"geometry":{"type":"Polygon","coordinates":[[[38.506702,47.827317],[38.506788,47.82741],[38.506878,47.827513],[38.507166,47.827375],[38.507166,47.827374],[38.507254,47.827332],[38.50708,47.827112],[38.506702,47.827317]]]}},{"type":"Feature","properties":{"cadnum":"1420655900:01:000:0137"},"geometry":{"type":"Polygon","coordinates":[[[38.505948,47.827787],[38.506092,47.827902],[38.506419,47.827754],[38.506262,47.827558],[38.505948,47.827787]]]}},{"type":"Feature","properties":{"cadnum":"1420655900:01:000:0124"},"geometry":{"type":"Polygon","coordinates":[[[38.505094,47.827265],[38.505809,47.827658],[38.505988,47.827522],[38.505283,47.8271],[38.505094,47.827265]]]}},{"type":"Feature","properties":{"cadnum":"1420655900:01:000:0175"},"geometry":{"type":"Polygon","coordinates":[[[38.505283,47.8271],[38.505988,47.827522],[38.506149,47.827401],[38.505526,47.82703],[38.505283,47.8271]]]}},{"type":"Feature","properties":{"cadnum":"1420655900:01:000:0190"},"geometry":{"type":"Polygon","coordinates":[[[38.507017,47.827667],[38.507151,47.82783],[38.507166,47.827823],[38.507537,47.827645],[38.507488,47.827595],[38.507403,47.827495],[38.507017,47.827667]]]}},{"type":"Feature","properties":{"cadnum":"1420655900:02:000:1200"},"geometry":{"type":"Polygon","coordinates":[[[38.516556,47.805383],[38.516965,47.805453],[38.517451,47.805499],[38.517828,47.805616],[38.518152,47.80567],[38.518152,47.805669],[38.518286,47.805691],[38.518556,47.805703],[38.518789,47.805682],[38.519225,47.80554],[38.519571,47.80541],[38.519868,47.805278],[38.520128,47.805157],[38.520307,47.805067],[38.520401,47.805018],[38.520554,47.804922],[38.520747,47.804777],[38.52059,47.804795],[38.520442,47.804813],[38.520267,47.804831],[38.520218,47.804862],[38.520132,47.804907],[38.519965,47.804994],[38.519701,47.805112],[38.519428,47.805239],[38.519095,47.805363],[38.518744,47.805486],[38.518569,47.805508],[38.518353,47.805501],[38.518021,47.805447],[38.51795,47.805435],[38.517491,47.805302],[38.517038,47.80526],[38.516629,47.80519],[38.516606,47.805257],[38.516584,47.805317],[38.516584,47.805318],[38.516556,47.805383]]]}},{"type":"Feature","properties":{"cadnum":"1420655900:02:000:0012"},"geometry":{"type":"Polygon","coordinates":[[[38.47584,47.809365],[38.475899,47.809369],[38.476029,47.809396],[38.476083,47.809399],[38.476083,47.809392],[38.477068,47.809447],[38.477168,47.809453],[38.479528,47.809579],[38.479528,47.80958],[38.485021,47.809875],[38.485022,47.809875],[38.488125,47.810041],[38.488228,47.810047],[38.489427,47.81011],[38.490411,47.810662],[38.489886,47.810913],[38.489949,47.810973],[38.490335,47.811341],[38.490389,47.811317],[38.490515,47.811253],[38.490524,47.811248],[38.490686,47.811171],[38.490686,47.81117],[38.490694,47.811167],[38.490605,47.811079],[38.490686,47.811041],[38.490811,47.810982],[38.490712,47.810892],[38.490757,47.810868],[38.490847,47.810825],[38.490901,47.810801],[38.490677,47.810584],[38.490686,47.810579],[38.491008,47.810425],[38.490686,47.810117],[38.490322,47.809767],[38.490322,47.809752],[38.490272,47.809749],[38.490098,47.809582],[38.489993,47.80954],[38.489585,47.809637],[38.489725,47.809767],[38.489419,47.809942],[38.489419,47.809987],[38.489423,47.810038],[38.488228,47.809975],[38.48813,47.809969],[38.485193,47.809811],[38.480685,47.809568],[38.480688,47.809568],[38.4797,47.809515],[38.4797,47.809514],[38.477045,47.809372],[38.476093,47.80932],[38.476097,47.809269],[38.476043,47.809266],[38.475909,47.809272],[38.47585,47.809269],[38.47584,47.809365]]]}},{"type":"Feature","properties":{"cadnum":"1420655900:01:000:0080"},"geometry":{"type":"Polygon","coordinates":[[[38.507317,47.828022],[38.507444,47.82817],[38.507767,47.827962],[38.50765,47.827799],[38.507421,47.827953],[38.507317,47.828022]]]}},{"type":"Feature","properties":{"cadnum":"1420655900:01:000:0084"},"geometry":{"type":"Polygon","coordinates":[[[38.507151,47.82783],[38.507208,47.827895],[38.507207,47.827895],[38.50723,47.827922],[38.507307,47.828011],[38.507317,47.828022],[38.507335,47.828011],[38.507421,47.827953],[38.507507,47.827895],[38.50765,47.827799],[38.507537,47.827645],[38.507474,47.827673],[38.507151,47.82783]]]}},{"type":"Feature","properties":{"cadnum":"1420655900:02:000:0010"},"geometry":{"type":"Polygon","coordinates":[[[38.46803,47.834204],[38.468295,47.83434],[38.468542,47.834441],[38.468542,47.834442],[38.468607,47.834468],[38.468714,47.834512],[38.468714,47.834511],[38.468766,47.834533],[38.468973,47.83459],[38.469261,47.834653],[38.469615,47.834725],[38.46989,47.834776],[38.470064,47.834801],[38.470087,47.834722],[38.469903,47.834692],[38.469934,47.83443],[38.469435,47.834367],[38.469445,47.834325],[38.469261,47.834303],[38.469256,47.834342],[38.469256,47.834343],[38.469255,47.834343],[38.468651,47.834261],[38.468389,47.834225],[38.468034,47.83418],[38.46803,47.834204]]]}},{"type":"Feature","properties":{"cadnum":"1420655900:02:000:0009"},"geometry":{"type":"Polygon","coordinates":[[[38.46537,47.833486],[38.466013,47.833598],[38.466606,47.833694],[38.466921,47.833791],[38.466957,47.833766],[38.467015,47.83373],[38.467248,47.833806],[38.467976,47.834146],[38.468034,47.83418],[38.468389,47.834225],[38.468542,47.834246],[38.468651,47.834261],[38.468714,47.83427],[38.468714,47.834269],[38.469256,47.834343],[38.469261,47.834303],[38.469445,47.834325],[38.469435,47.834367],[38.469934,47.83443],[38.471173,47.834596],[38.471632,47.834653],[38.471982,47.833441],[38.470787,47.83329],[38.469944,47.833182],[38.469229,47.833076],[38.468613,47.832995],[38.468578,47.832982],[38.468542,47.832935],[38.468492,47.83289],[38.467414,47.832745],[38.466682,47.832645],[38.466651,47.832732],[38.466292,47.832687],[38.465519,47.832917],[38.465523,47.832962],[38.465529,47.832973],[38.465515,47.833016],[38.465496,47.833106],[38.465492,47.833112],[38.465479,47.833158],[38.465443,47.833278],[38.465433,47.833299],[38.46542,47.833323],[38.465412,47.833348],[38.46537,47.833486]]]}},{"type":"Feature","properties":{"cadnum":"1420655900:02:000:0017"},"geometry":{"type":"Polygon","coordinates":[[[38.464324,47.831973],[38.464351,47.832195],[38.464355,47.832232],[38.46437,47.832316],[38.464347,47.832316],[38.464347,47.832338],[38.464374,47.832338],[38.464405,47.832575],[38.46441,47.832636],[38.464428,47.832732],[38.465973,47.832624],[38.466129,47.8326],[38.466269,47.832546],[38.466296,47.832512],[38.466229,47.832416],[38.466108,47.832204],[38.466066,47.831879],[38.466053,47.831879],[38.465888,47.831888],[38.465726,47.831894],[38.4656,47.8319],[38.4656,47.831891],[38.465515,47.831894],[38.465515,47.8319],[38.4655,47.8319],[38.46533,47.831913],[38.465087,47.831927],[38.464904,47.83194],[38.464324,47.831973]]]}},{"type":"Feature","properties":{"cadnum":"1420655900:02:000:0011"},"geometry":{"type":"Polygon","coordinates":[[[38.467177,47.83386],[38.467208,47.834228],[38.46732,47.834734],[38.467397,47.835027],[38.467456,47.835271],[38.467475,47.835349],[38.467484,47.835386],[38.467527,47.835561],[38.467607,47.835847],[38.467986,47.836966],[38.46811,47.837339],[38.468542,47.837276],[38.468589,47.837269],[38.468714,47.837251],[38.468869,47.837228],[38.469311,47.837158],[38.469368,47.837149],[38.469467,47.837134],[38.469525,47.836893],[38.470066,47.835271],[38.470065,47.835271],[38.4702,47.83487],[38.469871,47.834812],[38.469844,47.83481],[38.469822,47.834803],[38.469598,47.834765],[38.469238,47.834692],[38.468951,47.834626],[38.468739,47.834566],[38.468542,47.834486],[38.468263,47.834372],[38.46799,47.834246],[38.46728,47.833891],[38.467177,47.83386]]]}},{"type":"Feature","properties":{"cadnum":"1420655900:01:000:0095"},"geometry":{"type":"Polygon","coordinates":[[[38.492805,47.833839],[38.492864,47.833918],[38.492905,47.833978],[38.492954,47.834047],[38.493237,47.834472],[38.493272,47.834532],[38.493272,47.834533],[38.493524,47.83487],[38.493818,47.835271],[38.49382,47.835274],[38.493902,47.835386],[38.493903,47.835386],[38.494566,47.836287],[38.494832,47.836625],[38.49502,47.836863],[38.495096,47.836962],[38.495375,47.837092],[38.495716,47.83711],[38.496008,47.83706],[38.496008,47.837061],[38.496035,47.837056],[38.49618,47.837013],[38.49618,47.837012],[38.497593,47.836586],[38.498186,47.836387],[38.499691,47.835958],[38.500872,47.835588],[38.501201,47.835518],[38.501488,47.835603],[38.501501,47.835609],[38.501569,47.835639],[38.501673,47.835686],[38.501673,47.835685],[38.503671,47.836571],[38.503859,47.836655],[38.504228,47.836818],[38.50465,47.836999],[38.504726,47.836978],[38.504897,47.83693],[38.504344,47.836694],[38.503832,47.836465],[38.503734,47.836423],[38.5016,47.835473],[38.501501,47.835449],[38.501205,47.835371],[38.500792,47.835452],[38.500387,47.835585],[38.499952,47.835724],[38.49987,47.835753],[38.499606,47.835829],[38.499345,47.835901],[38.499094,47.835974],[38.498096,47.836257],[38.497503,47.836453],[38.496794,47.836664],[38.496637,47.836712],[38.496564,47.836734],[38.496008,47.836901],[38.495945,47.83692],[38.495698,47.836962],[38.495451,47.836953],[38.495266,47.836866],[38.494763,47.83622],[38.494467,47.835802],[38.494444,47.835769],[38.49409,47.835271],[38.493807,47.834873],[38.493637,47.834632],[38.49361,47.83459],[38.493471,47.8344],[38.493448,47.834367],[38.493299,47.834155],[38.493268,47.834113],[38.493138,47.833929],[38.493106,47.833884],[38.493025,47.83377],[38.492805,47.833839]]]}},{"type":"Feature","properties":{"cadnum":"1420655900:01:000:0037"},"geometry":{"type":"Polygon","coordinates":[[[38.495572,47.836435],[38.495945,47.83692],[38.49618,47.83685],[38.49618,47.836849],[38.496564,47.836734],[38.496637,47.836712],[38.496794,47.836664],[38.496695,47.83654],[38.496623,47.83645],[38.49661,47.836435],[38.496574,47.83645],[38.496534,47.836396],[38.496394,47.836191],[38.49609,47.836281],[38.495945,47.836323],[38.495901,47.836336],[38.495572,47.836435]]]}},{"type":"Feature","properties":{"cadnum":"1420655900:01:000:0167"},"geometry":{"type":"Polygon","coordinates":[[[38.505377,47.835434],[38.505575,47.835751],[38.50584,47.835684],[38.505638,47.835371],[38.505377,47.835434]]]}},{"type":"Feature","properties":{"cadnum":"1420655900:01:000:0128"},"geometry":{"type":"Polygon","coordinates":[[[38.502409,47.835395],[38.502583,47.835672],[38.502849,47.835597],[38.50265,47.835328],[38.502409,47.835395]]]}},{"type":"Feature","properties":{"cadnum":"1420655900:01:000:0199"},"geometry":{"type":"Polygon","coordinates":[[[38.504654,47.836155],[38.504887,47.836628],[38.505149,47.836568],[38.504901,47.836101],[38.504654,47.836155]]]}},{"type":"Feature","properties":{"cadnum":"1420655900:01:000:0173"},"geometry":{"type":"Polygon","coordinates":[[[38.5031,47.836064],[38.503532,47.836257],[38.503778,47.836193],[38.503603,47.835922],[38.503352,47.835994],[38.5031,47.836064]]]}},{"type":"Feature","properties":{"cadnum":"1420655900:01:000:0176"},"geometry":{"type":"Polygon","coordinates":[[[38.504304,47.836329],[38.504321,47.836363],[38.504335,47.83636],[38.504398,47.836345],[38.504375,47.836311],[38.504313,47.836327],[38.504304,47.836329]]]}},{"type":"Feature","properties":{"cadnum":"1420655900:01:000:0096"},"geometry":{"type":"Polygon","coordinates":[[[38.506199,47.83576],[38.506446,47.836179],[38.506694,47.83611],[38.506451,47.83569],[38.506199,47.83576]]]}},{"type":"Feature","properties":{"cadnum":"1420655900:01:000:0063"},"geometry":{"type":"Polygon","coordinates":[[[38.504101,47.835769],[38.504287,47.836067],[38.504541,47.836001],[38.504354,47.835699],[38.504101,47.835769]]]}},{"type":"Feature","properties":{"cadnum":"1420655900:01:000:0143"},"geometry":{"type":"Polygon","coordinates":[[[38.506451,47.83569],[38.506694,47.83611],[38.506715,47.836148],[38.506971,47.836079],[38.506698,47.835624],[38.506451,47.83569]]]}},{"type":"Feature","properties":{"cadnum":"1420655900:01:000:0110"},"geometry":{"type":"Polygon","coordinates":[[[38.504403,47.836218],[38.504641,47.836689],[38.504887,47.836628],[38.504654,47.836155],[38.504403,47.836218]]]}},{"type":"Feature","properties":{"cadnum":"1420655900:01:000:0131"},"geometry":{"type":"Polygon","coordinates":[[[38.500616,47.8327],[38.500778,47.832995],[38.500966,47.832935],[38.500769,47.832651],[38.500616,47.8327]]]}},{"type":"Feature","properties":{"cadnum":"1420655900:01:000:0102"},"geometry":{"type":"Polygon","coordinates":[[[38.499673,47.831804],[38.500316,47.831831],[38.500373,47.83162],[38.499746,47.831569],[38.499741,47.831583],[38.49974,47.831583],[38.499673,47.831804]]]}},{"type":"Feature","properties":{"cadnum":"1420655900:01:000:0191"},"geometry":{"type":"Polygon","coordinates":[[[38.499247,47.832105],[38.499731,47.832063],[38.499727,47.831804],[38.499673,47.831804],[38.499358,47.831815],[38.49926,47.831949],[38.499247,47.832105]]]}},{"type":"Feature","properties":{"cadnum":"1420655900:01:000:0052"},"geometry":{"type":"Polygon","coordinates":[[[38.499386,47.832944],[38.499476,47.83307],[38.499794,47.832968],[38.499862,47.832944],[38.499826,47.832892],[38.499776,47.83282],[38.499713,47.832841],[38.499386,47.832944]]]}},{"type":"Feature","properties":{"cadnum":"1420655900:01:000:0038"},"geometry":{"type":"Polygon","coordinates":[[[38.499624,47.833637],[38.499826,47.833927],[38.499843,47.833947],[38.499889,47.834014],[38.499902,47.834035],[38.499952,47.834101],[38.499966,47.834122],[38.500149,47.834388],[38.500163,47.834406],[38.500172,47.834421],[38.500679,47.834258],[38.500719,47.834246],[38.500922,47.83418],[38.501075,47.834132],[38.501547,47.833981],[38.501281,47.83361],[38.501249,47.833558],[38.501115,47.833372],[38.501105,47.833359],[38.500998,47.833209],[38.500572,47.833341],[38.500558,47.833348],[38.500126,47.83348],[38.500104,47.833486],[38.49978,47.833589],[38.499767,47.833592],[38.499624,47.833637]],[[38.500329,47.834252],[38.500312,47.834228],[38.500369,47.834207],[38.500392,47.834231],[38.500329,47.834252]]]}},{"type":"Feature","properties":{"cadnum":"1420655900:01:000:0039"},"geometry":{"type":"Polygon","coordinates":[[[38.499098,47.832492],[38.499197,47.832639],[38.499274,47.832615],[38.499358,47.832588],[38.499278,47.832476],[38.499274,47.832467],[38.499255,47.83244],[38.499098,47.832492]]]}},{"type":"Feature","properties":{"cadnum":"1420655900:01:000:0020"},"geometry":{"type":"Polygon","coordinates":[[[38.500769,47.832651],[38.500966,47.832935],[38.501138,47.832883],[38.500962,47.832591],[38.500769,47.832651]]]}},{"type":"Feature","properties":{"cadnum":"1420655900:01:000:0040"},"geometry":{"type":"Polygon","coordinates":[[[38.499274,47.832467],[38.499278,47.832476],[38.499358,47.832588],[38.49944,47.832702],[38.49948,47.832687],[38.499507,47.832723],[38.499511,47.832732],[38.49962,47.832696],[38.499503,47.832533],[38.499551,47.832515],[38.499471,47.832403],[38.499274,47.832467]]]}},{"type":"Feature","properties":{"cadnum":"1420655900:01:000:0168"},"geometry":{"type":"Polygon","coordinates":[[[38.498249,47.831659],[38.498272,47.831698],[38.498272,47.831699],[38.498348,47.831828],[38.498828,47.831704],[38.498838,47.831701],[38.498777,47.831596],[38.498744,47.831538],[38.498559,47.831583],[38.498249,47.831659]]]}},{"type":"Feature","properties":{"cadnum":"1420655900:01:000:0112"},"geometry":{"type":"Polygon","coordinates":[[[38.49731,47.833224],[38.497607,47.833619],[38.497765,47.833565],[38.497476,47.833176],[38.49731,47.833224]]]}},{"type":"Feature","properties":{"cadnum":"1420655900:01:000:0045"},"geometry":{"type":"Polygon","coordinates":[[[38.498505,47.832932],[38.498635,47.833145],[38.498779,47.833103],[38.498645,47.832886],[38.498505,47.832932]]]}},{"type":"Feature","properties":{"cadnum":"1420655900:01:000:0340"},"geometry":{"type":"Polygon","coordinates":[[[38.497392,47.833848],[38.497593,47.834132],[38.497765,47.834077],[38.497539,47.833788],[38.497432,47.833824],[38.497436,47.833833],[38.497392,47.833848]]]}},{"type":"Feature","properties":{"cadnum":"1420655900:01:000:0186"},"geometry":{"type":"Polygon","coordinates":[[[38.499075,47.834955],[38.49909,47.834973],[38.499274,47.835241],[38.499448,47.835187],[38.499404,47.835123],[38.499224,47.834942],[38.499201,47.834915],[38.499075,47.834955]]]}},{"type":"Feature","properties":{"cadnum":"1420655900:01:000:0192"},"geometry":{"type":"Polygon","coordinates":[[[38.498635,47.833435],[38.498717,47.833549],[38.498698,47.833552],[38.498712,47.833571],[38.498954,47.833619],[38.499027,47.833724],[38.499251,47.833652],[38.499004,47.833305],[38.498954,47.833321],[38.498744,47.83339],[38.498748,47.833395],[38.498748,47.833396],[38.498721,47.833408],[38.498635,47.833435]]]}},{"type":"Feature","properties":{"cadnum":"1420655900:01:000:0011"},"geometry":{"type":"Polygon","coordinates":[[[38.497849,47.833682],[38.498061,47.833974],[38.498276,47.833905],[38.498299,47.833896],[38.498303,47.833896],[38.498335,47.833875],[38.498186,47.833667],[38.498195,47.833664],[38.498146,47.833601],[38.498119,47.83361],[38.498109,47.833612],[38.498105,47.833607],[38.498088,47.83361],[38.497971,47.833649],[38.497966,47.833643],[38.497849,47.833682]]]}},{"type":"Feature","properties":{"cadnum":"1420655900:01:000:0113"},"geometry":{"type":"Polygon","coordinates":[[[38.496853,47.833402],[38.49714,47.833782],[38.497293,47.833733],[38.497,47.83335],[38.496853,47.833402]]]}},{"type":"Feature","properties":{"cadnum":"1420655900:01:000:0121"},"geometry":{"type":"Polygon","coordinates":[[[38.497539,47.831982],[38.497652,47.832114],[38.498308,47.831994],[38.498186,47.831813],[38.497539,47.831982]]]}},{"type":"Feature","properties":{"cadnum":"1420655900:01:000:0106"},"geometry":{"type":"Polygon","coordinates":[[[38.49975,47.835419],[38.49983,47.83554],[38.500275,47.83541],[38.500216,47.835331],[38.500215,47.835328],[38.500189,47.83529],[38.499862,47.835386],[38.49975,47.835419]]]}},{"type":"Feature","properties":{"cadnum":"1420655900:01:000:0054"},"geometry":{"type":"Polygon","coordinates":[[[38.498752,47.83316],[38.498765,47.833178],[38.498775,47.833176],[38.498788,47.833196],[38.498788,47.833197],[38.498784,47.8332],[38.498811,47.833239],[38.498815,47.833236],[38.498824,47.833248],[38.498824,47.833251],[38.498828,47.833257],[38.498897,47.833236],[38.49891,47.833233],[38.498847,47.83314],[38.498842,47.833133],[38.498834,47.83314],[38.498815,47.833142],[38.498752,47.83316]]]}},{"type":"Feature","properties":{"cadnum":"1420655900:02:000:0032"},"geometry":{"type":"Polygon","coordinates":[[[38.520518,47.804656],[38.520594,47.804701],[38.520663,47.804744],[38.520734,47.80479],[38.5209,47.804632],[38.521129,47.804446],[38.521187,47.804385],[38.52129,47.804279],[38.521426,47.804135],[38.521493,47.80405],[38.521587,47.80392],[38.521646,47.803836],[38.521745,47.803655],[38.521803,47.803531],[38.521852,47.803431],[38.521929,47.803157],[38.522153,47.802131],[38.522378,47.80106],[38.522275,47.80106],[38.522185,47.801063],[38.522082,47.801067],[38.521868,47.802074],[38.521867,47.802074],[38.521862,47.802104],[38.521843,47.802189],[38.521642,47.803118],[38.521596,47.803269],[38.521573,47.803368],[38.521525,47.803471],[38.52147,47.803585],[38.521376,47.803755],[38.521323,47.803836],[38.521237,47.803956],[38.521179,47.804029],[38.521044,47.804171],[38.520936,47.804279],[38.5209,47.804319],[38.520663,47.804518],[38.520518,47.804656]]]}},{"type":"Feature","properties":{"cadnum":"1420655900:01:000:0082"},"geometry":{"type":"Polygon","coordinates":[[[38.504551,47.831355],[38.5047,47.831556],[38.505256,47.831384],[38.505193,47.831285],[38.505126,47.83118],[38.504977,47.831225],[38.504551,47.831355]]]}},{"type":"Feature","properties":{"cadnum":"1420655900:01:000:0119"},"geometry":{"type":"Polygon","coordinates":[[[38.506549,47.830353],[38.506828,47.830694],[38.507004,47.830637],[38.506702,47.830299],[38.506549,47.830353]]]}},{"type":"Feature","properties":{"cadnum":"1420655900:01:000:0184"},"geometry":{"type":"Polygon","coordinates":[[[38.503122,47.829949],[38.503176,47.830027],[38.503788,47.829841],[38.503725,47.829744],[38.503576,47.829786],[38.503585,47.829804],[38.503122,47.829949]]]}},{"type":"Feature","properties":{"cadnum":"1420655900:01:000:0111"},"geometry":{"type":"Polygon","coordinates":[[[38.504174,47.830094],[38.504291,47.830263],[38.504717,47.830121],[38.504604,47.829958],[38.504174,47.830094]]]}},{"type":"Feature","properties":{"cadnum":"1420655900:01:000:0195"},"geometry":{"type":"Polygon","coordinates":[[[38.503279,47.830778],[38.503581,47.831147],[38.50381,47.831056],[38.503536,47.830682],[38.503279,47.830778]]]}},{"type":"Feature","properties":{"cadnum":"1420655900:01:000:0108"},"geometry":{"type":"Polygon","coordinates":[[[38.506218,47.829587],[38.506361,47.829754],[38.506743,47.829554],[38.506625,47.829413],[38.506218,47.829587]]]}},{"type":"Feature","properties":{"cadnum":"1420655900:01:000:0146"},"geometry":{"type":"Polygon","coordinates":[[[38.506329,47.829063],[38.506379,47.82912],[38.506455,47.829205],[38.506811,47.829087],[38.506675,47.82893],[38.506329,47.829063]]]}},{"type":"Feature","properties":{"cadnum":"1420655900:01:000:0145"},"geometry":{"type":"Polygon","coordinates":[[[38.504291,47.829006],[38.504574,47.829244],[38.504763,47.829111],[38.504465,47.828873],[38.504291,47.829006]]]}},{"type":"Feature","properties":{"cadnum":"1420655900:01:000:0089"},"geometry":{"type":"Polygon","coordinates":[[[38.504824,47.828608],[38.505103,47.828825],[38.505239,47.828731],[38.505287,47.828695],[38.505,47.828474],[38.504824,47.828608]]]}},{"type":"Feature","properties":{"cadnum":"1420655900:01:000:0189"},"geometry":{"type":"Polygon","coordinates":[[[38.504398,47.830429],[38.504515,47.830595],[38.504946,47.830443],[38.50483,47.830281],[38.504398,47.830429]]]}},{"type":"Feature","properties":{"cadnum":"1420655900:01:000:0075"},"geometry":{"type":"Polygon","coordinates":[[[38.504079,47.828309],[38.50456,47.828604],[38.504744,47.828469],[38.504287,47.828167],[38.504079,47.828309]]]}},{"type":"Feature","properties":{"cadnum":"1420655900:01:000:0135"},"geometry":{"type":"Polygon","coordinates":[[[38.506874,47.828876],[38.506994,47.829021],[38.506994,47.829022],[38.506998,47.829026],[38.507166,47.828963],[38.50738,47.828882],[38.507291,47.828782],[38.507246,47.828731],[38.507008,47.828824],[38.506874,47.828876]]]}},{"type":"Feature","properties":{"cadnum":"1420655900:01:000:0090"},"geometry":{"type":"Polygon","coordinates":[[[38.503446,47.830356],[38.503554,47.830516],[38.503761,47.830456],[38.504124,47.830333],[38.504012,47.83017],[38.503446,47.830356]]]}},{"type":"Feature","properties":{"cadnum":"1420655900:01:000:0130"},"geometry":{"type":"Polygon","coordinates":[[[38.506998,47.829026],[38.507166,47.82923],[38.507205,47.829277],[38.507511,47.829042],[38.50738,47.828882],[38.506998,47.829026]]]}},{"type":"Feature","properties":{"cadnum":"1420655900:01:000:0094"},"geometry":{"type":"Polygon","coordinates":[[[38.502933,47.82916],[38.503168,47.82922],[38.503298,47.829292],[38.503513,47.829404],[38.503679,47.829274],[38.503405,47.829108],[38.503159,47.828972],[38.502933,47.82916]]]}},{"type":"Feature","properties":{"cadnum":"1420655900:02:000:0013"},"geometry":{"type":"Polygon","coordinates":[[[38.474452,47.80929],[38.474515,47.809293],[38.474525,47.8092],[38.474466,47.809197],[38.474452,47.80929]]]}},{"type":"Feature","properties":{"cadnum":"1420655900:02:000:0003"},"geometry":{"type":"Polygon","coordinates":[[[38.480161,47.836182],[38.480318,47.836197],[38.48058,47.836218],[38.480588,47.836164],[38.480656,47.83585],[38.480242,47.835811],[38.480161,47.836182]]]}},{"type":"Feature","properties":{"cadnum":"1420655900:02:000:0027"},"geometry":{"type":"Polygon","coordinates":[[[38.485026,47.835911],[38.485193,47.835932],[38.485677,47.835994],[38.485714,47.835706],[38.485085,47.835648],[38.485026,47.835911]]]}},{"type":"Feature","properties":{"cadnum":"1420655900:02:000:0016"},"geometry":{"type":"Polygon","coordinates":[[[38.513126,47.808044],[38.516233,47.808382],[38.516233,47.806995],[38.514805,47.80589],[38.513126,47.808044]]]}},{"type":"Feature","properties":{"cadnum":"1420655900:01:000:0126"},"geometry":{"type":"Polygon","coordinates":[[[38.49983,47.83554],[38.499933,47.835702],[38.500383,47.83557],[38.500275,47.83541],[38.49983,47.83554]]]}},{"type":"Feature","properties":{"cadnum":"1420655900:01:000:0337"},"geometry":{"type":"Polygon","coordinates":[[[38.49921,47.835675],[38.499345,47.835901],[38.499606,47.835829],[38.499457,47.835594],[38.499323,47.835639],[38.49921,47.835675]]]}},{"type":"Feature","properties":{"cadnum":"1420655900:01:000:0048"},"geometry":{"type":"Polygon","coordinates":[[[38.49723,47.835618],[38.497252,47.835654],[38.497279,47.835645],[38.497302,47.835675],[38.49727,47.835684],[38.497342,47.83579],[38.497688,47.835684],[38.49762,47.835581],[38.497566,47.835507],[38.497476,47.835534],[38.49727,47.835579],[38.497283,47.835603],[38.49723,47.835618]]]}},{"type":"Feature","properties":{"cadnum":"1420655900:01:000:0172"},"geometry":{"type":"Polygon","coordinates":[[[38.497513,47.836076],[38.497723,47.836374],[38.498096,47.836251],[38.497863,47.835922],[38.497535,47.836025],[38.497513,47.836076]]]}},{"type":"Feature","properties":{"cadnum":"1420655900:01:000:0107"},"geometry":{"type":"Polygon","coordinates":[[[38.507709,47.828511],[38.507857,47.828704],[38.508149,47.828447],[38.508013,47.828261],[38.507709,47.828511]]]}},{"type":"Feature","properties":{"cadnum":"1420655900:01:000:0042"},"geometry":{"type":"Polygon","coordinates":[[[38.500809,47.830199],[38.500953,47.830407],[38.501564,47.830157],[38.501457,47.829982],[38.500809,47.830199]]]}},{"type":"Feature","properties":{"cadnum":"1420655900:01:000:0127"},"geometry":{"type":"Polygon","coordinates":[[[38.499807,47.829946],[38.499979,47.830203],[38.500545,47.830016],[38.500405,47.829823],[38.499807,47.829946]]]}},{"type":"Feature","properties":{"cadnum":"1420655900:01:000:0177"},"geometry":{"type":"Polygon","coordinates":[[[38.499839,47.831397],[38.500432,47.831439],[38.500499,47.831249],[38.499911,47.831213],[38.499893,47.831258],[38.499839,47.831397]]]}}]}