{"type":"FeatureCollection","features":[{"type":"Feature","properties":{"cadnum":"1420383303:00:000:0038"},"geometry":{"type":"Polygon","coordinates":[[[36.927262,48.690468],[36.927837,48.690448],[36.927841,48.689842],[36.927294,48.689842],[36.927262,48.690468]]]}},{"type":"Feature","properties":{"cadnum":"1420383303:00:000:0007"},"geometry":{"type":"Polygon","coordinates":[[[36.929917,48.689154],[36.929921,48.689745],[36.930424,48.689745],[36.930424,48.689125],[36.929917,48.689154]]]}},{"type":"Feature","properties":{"cadnum":"1420383303:00:000:0033"},"geometry":{"type":"Polygon","coordinates":[[[36.925564,48.692066],[36.927195,48.692099],[36.927197,48.691062],[36.927199,48.690602],[36.927038,48.690599],[36.925577,48.690557],[36.925572,48.691062],[36.925564,48.692066]]]}},{"type":"Feature","properties":{"cadnum":"1420383303:00:000:0030"},"geometry":{"type":"Polygon","coordinates":[[[36.927195,48.69212],[36.927617,48.692125],[36.928753,48.69174],[36.928942,48.691681],[36.928911,48.690949],[36.928892,48.69048],[36.927199,48.690602],[36.927198,48.690949],[36.927197,48.690949],[36.927195,48.69212]]]}},{"type":"Feature","properties":{"cadnum":"1420383303:00:000:0031"},"geometry":{"type":"Polygon","coordinates":[[[36.928892,48.69048],[36.928915,48.691062],[36.928916,48.691062],[36.928942,48.691681],[36.929849,48.691384],[36.930456,48.691348],[36.930456,48.691349],[36.931296,48.691298],[36.931288,48.691062],[36.931264,48.690343],[36.930628,48.690348],[36.930338,48.690349],[36.929701,48.690397],[36.928892,48.69048]]]}},{"type":"Feature","properties":{"cadnum":"1420383303:00:000:0008"},"geometry":{"type":"Polygon","coordinates":[[[36.929921,48.690275],[36.93042,48.69024],[36.930424,48.689745],[36.929921,48.689745],[36.929921,48.690275]]]}},{"type":"Feature","properties":{"cadnum":"1420383303:00:000:0010"},"geometry":{"type":"Polygon","coordinates":[[[36.930531,48.689721],[36.9306,48.690248],[36.930628,48.690247],[36.931111,48.690222],[36.931044,48.689691],[36.930531,48.689721]]]}},{"type":"Feature","properties":{"cadnum":"1420383303:00:000:0036"},"geometry":{"type":"Polygon","coordinates":[[[36.927294,48.689842],[36.927841,48.689842],[36.927846,48.689261],[36.927321,48.689282],[36.927294,48.689842]]]}},{"type":"Feature","properties":{"cadnum":"1420383303:00:000:0009"},"geometry":{"type":"Polygon","coordinates":[[[36.93046,48.689128],[36.930531,48.689721],[36.930628,48.689715],[36.931044,48.689691],[36.930972,48.689101],[36.93046,48.689128]]]}},{"type":"Feature","properties":{"cadnum":"1420383303:00:000:0014"},"geometry":{"type":"Polygon","coordinates":[[[36.949567,48.689537],[36.94989,48.689522],[36.94994,48.688633],[36.949576,48.68865],[36.949567,48.689537]]]}},{"type":"Feature","properties":{"cadnum":"1420383303:00:000:0013"},"geometry":{"type":"Polygon","coordinates":[[[36.948871,48.689305],[36.949393,48.689282],[36.949401,48.688695],[36.94888,48.688719],[36.948871,48.689305]]]}},{"type":"Feature","properties":{"cadnum":"1420383303:00:000:0015"},"geometry":{"type":"Polygon","coordinates":[[[36.949567,48.689733],[36.949882,48.689712],[36.94989,48.689522],[36.949567,48.689537],[36.949567,48.689733]]]}},{"type":"Feature","properties":{"cadnum":"1420383303:00:000:0029"},"geometry":{"type":"Polygon","coordinates":[[[36.948269,48.689285],[36.948808,48.689288],[36.948861,48.688716],[36.948305,48.688736],[36.948269,48.689285]]]}},{"type":"Feature","properties":{"cadnum":"1420383303:00:000:0026"},"geometry":{"type":"Polygon","coordinates":[[[36.940359,48.688479],[36.940768,48.688494],[36.940768,48.688464],[36.940844,48.687743],[36.940431,48.687738],[36.940364,48.688446],[36.940359,48.688479]]]}},{"type":"Feature","properties":{"cadnum":"1420383303:00:000:0032"},"geometry":{"type":"Polygon","coordinates":[[[36.935778,48.690011],[36.935885,48.691062],[36.935886,48.691062],[36.93589,48.691103],[36.936121,48.691093],[36.936121,48.691092],[36.937912,48.691011],[36.937921,48.691011],[36.938095,48.689861],[36.936142,48.689979],[36.936016,48.689991],[36.935778,48.690011]]]}},{"type":"Feature","properties":{"cadnum":"1420383303:00:000:0040"},"geometry":{"type":"Polygon","coordinates":[[[36.937458,48.689828],[36.937961,48.689807],[36.93797,48.689676],[36.937988,48.689329],[36.937485,48.689327],[36.937458,48.689828]]]}},{"type":"Feature","properties":{"cadnum":"1420383303:00:000:0024"},"geometry":{"type":"Polygon","coordinates":[[[36.93797,48.689676],[36.938261,48.689661],[36.938288,48.68954],[36.93832,48.689083],[36.938311,48.688689],[36.938011,48.688701],[36.93797,48.689676]]]}},{"type":"Feature","properties":{"cadnum":"1420383303:00:000:0039"},"geometry":{"type":"Polygon","coordinates":[[[36.937485,48.689327],[36.937988,48.689329],[36.938011,48.688701],[36.937516,48.688727],[36.937485,48.689327]]]}},{"type":"Feature","properties":{"cadnum":"1420383303:00:000:0025"},"geometry":{"type":"Polygon","coordinates":[[[36.940768,48.688494],[36.941173,48.688505],[36.941177,48.688479],[36.941249,48.687749],[36.940844,48.687743],[36.940768,48.688464],[36.940768,48.688494]]]}},{"type":"Feature","properties":{"cadnum":"1420383303:00:000:0018"},"geometry":{"type":"Polygon","coordinates":[[[36.932831,48.688019],[36.932871,48.68868],[36.933321,48.688674],[36.933303,48.68801],[36.932831,48.688019]]]}},{"type":"Feature","properties":{"cadnum":"1420383303:00:000:0042"},"geometry":{"type":"Polygon","coordinates":[[[36.934435,48.690109],[36.934485,48.690637],[36.935831,48.690566],[36.935778,48.690011],[36.934435,48.690109]]]}},{"type":"Feature","properties":{"cadnum":"1420383303:00:000:0043"},"geometry":{"type":"Polygon","coordinates":[[[36.934741,48.687879],[36.934745,48.68852],[36.935235,48.688511],[36.935208,48.687879],[36.934741,48.687879]]]}},{"type":"Feature","properties":{"cadnum":"1420383303:00:000:0035"},"geometry":{"type":"Polygon","coordinates":[[[36.933743,48.687646],[36.933757,48.687954],[36.934265,48.687951],[36.934278,48.687622],[36.933743,48.687646]]]}},{"type":"Feature","properties":{"cadnum":"1420383303:00:000:0041"},"geometry":{"type":"Polygon","coordinates":[[[36.931264,48.690343],[36.931277,48.690806],[36.93285,48.690723],[36.93276,48.690234],[36.931758,48.690308],[36.931264,48.690343]]]}},{"type":"Feature","properties":{"cadnum":"1420383303:00:000:0020"},"geometry":{"type":"Polygon","coordinates":[[[36.933707,48.688576],[36.934196,48.688553],[36.934197,48.688553],[36.934265,48.687951],[36.933757,48.687954],[36.933707,48.688576]]]}},{"type":"Feature","properties":{"cadnum":"1420383303:00:000:0037"},"geometry":{"type":"Polygon","coordinates":[[[36.934875,48.688879],[36.934893,48.68943],[36.934884,48.689454],[36.935387,48.689454],[36.935414,48.688849],[36.935185,48.688861],[36.934875,48.688879]]]}},{"type":"Feature","properties":{"cadnum":"1420383303:00:000:0019"},"geometry":{"type":"Polygon","coordinates":[[[36.932831,48.688019],[36.933303,48.68801],[36.933277,48.687639],[36.932831,48.687648],[36.932831,48.688019]]]}},{"type":"Feature","properties":{"cadnum":"1420383303:00:000:0016"},"geometry":{"type":"Polygon","coordinates":[[[36.942183,48.688603],[36.942911,48.688606],[36.942924,48.688185],[36.942196,48.688185],[36.942183,48.688603]]]}},{"type":"Feature","properties":{"cadnum":"1420383303:00:000:0023"},"geometry":{"type":"Polygon","coordinates":[[[36.943651,48.688624],[36.943921,48.688639],[36.943961,48.688185],[36.944024,48.687518],[36.943755,48.687503],[36.943651,48.688624]]]}},{"type":"Feature","properties":{"cadnum":"1420383303:00:000:0027"},"geometry":{"type":"Polygon","coordinates":[[[36.944949,48.688048],[36.94499,48.688609],[36.945534,48.688594],[36.945489,48.688031],[36.944949,48.688048]]]}},{"type":"Feature","properties":{"cadnum":"1420383303:00:000:0028"},"geometry":{"type":"Polygon","coordinates":[[[36.944941,48.687936],[36.944949,48.688048],[36.945489,48.688031],[36.945479,48.687921],[36.944941,48.687936]]]}},{"type":"Feature","properties":{"cadnum":"1420383303:00:000:0021"},"geometry":{"type":"Polygon","coordinates":[[[36.943823,48.689522],[36.944276,48.689528],[36.944303,48.688962],[36.94385,48.688956],[36.943823,48.689522]]]}},{"type":"Feature","properties":{"cadnum":"1420383303:00:000:0022"},"geometry":{"type":"Polygon","coordinates":[[[36.943607,48.689519],[36.943823,48.689522],[36.94385,48.688956],[36.943638,48.688953],[36.943607,48.689519]]]}},{"type":"Feature","properties":{"cadnum":"1420383303:00:000:0017"},"geometry":{"type":"Polygon","coordinates":[[[36.942196,48.688185],[36.942924,48.688185],[36.942951,48.687435],[36.942223,48.687435],[36.942196,48.688185]]]}}]}