{"type":"FeatureCollection","features":[{"type":"Feature","properties":{"cadnum":"1421555900:02:000:0033"},"geometry":{"type":"Polygon","coordinates":[[[37.518799,47.524411],[37.518826,47.524607],[37.518923,47.525312],[37.519082,47.526655],[37.519139,47.528154],[37.519122,47.528316],[37.519019,47.529303],[37.519023,47.529937],[37.520891,47.530107],[37.52094,47.529916],[37.520941,47.529916],[37.521412,47.529941],[37.521413,47.529941],[37.52147,47.530155],[37.522338,47.530229],[37.523718,47.530312],[37.523718,47.530313],[37.523829,47.530319],[37.52389,47.530323],[37.525679,47.53042],[37.526963,47.530477],[37.528078,47.530499],[37.528068,47.52944],[37.528046,47.528734],[37.528036,47.528432],[37.527965,47.526055],[37.527907,47.525254],[37.526869,47.525109],[37.52572,47.525009],[37.52389,47.524852],[37.52389,47.524851],[37.522405,47.524723],[37.521498,47.524645],[37.521064,47.524607],[37.521063,47.524607],[37.518799,47.524411]]]}},{"type":"Feature","properties":{"cadnum":"1421555900:02:000:0035"},"geometry":{"type":"Polygon","coordinates":[[[37.50991,47.503928],[37.509937,47.505085],[37.511185,47.505215],[37.511428,47.505539],[37.511773,47.506173],[37.512371,47.507266],[37.512732,47.507782],[37.51313,47.508352],[37.512903,47.508619],[37.512451,47.509149],[37.512731,47.509229],[37.512732,47.509229],[37.513174,47.509353],[37.514981,47.508091],[37.51573,47.507912],[37.518225,47.508614],[37.518384,47.508659],[37.518396,47.508662],[37.518785,47.508771],[37.518396,47.509368],[37.518136,47.509767],[37.518135,47.509767],[37.517514,47.510721],[37.516736,47.512111],[37.515677,47.513594],[37.515627,47.513664],[37.514918,47.51408],[37.51286,47.513962],[37.512694,47.513952],[37.512732,47.51402],[37.512732,47.514021],[37.513589,47.515573],[37.513816,47.516464],[37.513502,47.517188],[37.513501,47.517188],[37.51348,47.517237],[37.513479,47.517304],[37.513476,47.517814],[37.513336,47.518418],[37.514513,47.519249],[37.516013,47.519719],[37.517914,47.51978],[37.518225,47.51979],[37.518247,47.51979],[37.518396,47.519795],[37.519791,47.519837],[37.519805,47.519531],[37.52389,47.517659],[37.52389,47.517658],[37.524661,47.517304],[37.524662,47.517304],[37.526784,47.516331],[37.527332,47.517187],[37.527332,47.517188],[37.527331,47.517188],[37.527709,47.517777],[37.528634,47.519227],[37.529033,47.521013],[37.529211,47.521806],[37.52925,47.521979],[37.529683,47.524723],[37.529684,47.524723],[37.52969,47.524757],[37.52991,47.525327],[37.530063,47.525522],[37.530193,47.525713],[37.530211,47.525709],[37.530212,47.525709],[37.530342,47.525937],[37.530566,47.526395],[37.530952,47.527075],[37.531248,47.527435],[37.532223,47.528432],[37.532224,47.528432],[37.532745,47.528964],[37.533001,47.529288],[37.533135,47.529582],[37.533189,47.529889],[37.533406,47.532025],[37.533554,47.533461],[37.533554,47.533691],[37.533495,47.533962],[37.53367,47.533983],[37.533728,47.533725],[37.533728,47.533428],[37.533627,47.532141],[37.533458,47.529971],[37.533368,47.529564],[37.533229,47.529252],[37.533028,47.529018],[37.532821,47.528779],[37.532505,47.528432],[37.531814,47.527675],[37.531254,47.526925],[37.530997,47.52658],[37.530579,47.525879],[37.530296,47.525266],[37.530173,47.524723],[37.530174,47.524723],[37.529383,47.521196],[37.529383,47.521195],[37.529316,47.520897],[37.529315,47.520897],[37.529211,47.52043],[37.529211,47.520431],[37.528936,47.519204],[37.527699,47.517295],[37.526919,47.516088],[37.527975,47.516146],[37.527804,47.515618],[37.52797,47.515373],[37.527971,47.515373],[37.527971,47.515372],[37.528994,47.515266],[37.529003,47.515321],[37.529211,47.515311],[37.529322,47.515305],[37.529322,47.515306],[37.529383,47.515428],[37.529383,47.515427],[37.529703,47.516073],[37.529861,47.516146],[37.530431,47.515951],[37.531007,47.51499],[37.531401,47.514617],[37.53199,47.513904],[37.532564,47.513478],[37.532563,47.513478],[37.532563,47.513477],[37.532564,47.513477],[37.532942,47.513197],[37.53415,47.512302],[37.534284,47.512369],[37.534704,47.512057],[37.534766,47.512011],[37.534876,47.51193],[37.534876,47.511929],[37.534986,47.511847],[37.535444,47.511495],[37.535435,47.511416],[37.535727,47.5112],[37.535898,47.511016],[37.536212,47.510743],[37.536001,47.510591],[37.536611,47.510224],[37.536464,47.510039],[37.53689,47.509856],[37.537173,47.509736],[37.537243,47.509767],[37.537392,47.509835],[37.537393,47.509835],[37.538026,47.50968],[37.538467,47.50952],[37.53875,47.508949],[37.539078,47.508297],[37.539819,47.507579],[37.537706,47.506057],[37.53641,47.505124],[37.534704,47.504631],[37.532017,47.503853],[37.530849,47.503713],[37.530248,47.503995],[37.529383,47.504063],[37.526617,47.504277],[37.52389,47.505248],[37.522499,47.505742],[37.518396,47.505522],[37.51539,47.50536],[37.514338,47.505178],[37.514235,47.504951],[37.512732,47.50459],[37.512731,47.50459],[37.511845,47.504377],[37.511432,47.504092],[37.50991,47.503928]],[[37.532428,47.509883],[37.532502,47.50976],[37.532646,47.509538],[37.533041,47.508992],[37.533468,47.508967],[37.533432,47.508297],[37.53393,47.508312],[37.534141,47.508389],[37.534577,47.508337],[37.534704,47.50839],[37.53486,47.508455],[37.53481,47.509544],[37.534503,47.509767],[37.534378,47.509858],[37.534343,47.509883],[37.534097,47.510063],[37.533588,47.510026],[37.533041,47.510469],[37.53216,47.510333],[37.532428,47.509883]]]}},{"type":"Feature","properties":{"cadnum":"1421555900:01:000:0040"},"geometry":{"type":"Polygon","coordinates":[[[37.534707,47.521864],[37.534833,47.522471],[37.534876,47.523199],[37.534892,47.523471],[37.536706,47.523459],[37.537519,47.523477],[37.540369,47.523623],[37.540369,47.523622],[37.544018,47.523808],[37.545375,47.523872],[37.545133,47.522294],[37.544914,47.520897],[37.544885,47.520705],[37.544064,47.520686],[37.542347,47.520565],[37.541207,47.520541],[37.540248,47.520897],[37.540247,47.520897],[37.538825,47.521426],[37.537645,47.521506],[37.536405,47.521469],[37.535363,47.521469],[37.535359,47.521794],[37.534707,47.521864]]]}},{"type":"Feature","properties":{"cadnum":"1421555900:01:000:0038"},"geometry":{"type":"Polygon","coordinates":[[[37.546727,47.520729],[37.546785,47.520781],[37.54719,47.520897],[37.547454,47.520974],[37.547592,47.521013],[37.55107,47.522015],[37.551184,47.522049],[37.555692,47.523389],[37.555989,47.521493],[37.554255,47.521372],[37.551308,47.521133],[37.548739,47.520906],[37.546727,47.520729]]]}},{"type":"Feature","properties":{"cadnum":"1421555900:01:000:0039"},"geometry":{"type":"Polygon","coordinates":[[[37.55046,47.520963],[37.550469,47.520963],[37.551184,47.52101],[37.551184,47.521011],[37.55597,47.521324],[37.556021,47.520897],[37.55602,47.520897],[37.55623,47.519161],[37.552911,47.518964],[37.552857,47.519276],[37.551309,47.519326],[37.550653,47.519346],[37.550467,47.520897],[37.550466,47.520897],[37.55046,47.520963]]]}},{"type":"Feature","properties":{"cadnum":"1421555900:01:000:0232"},"geometry":{"type":"Polygon","coordinates":[[[37.548909,47.520841],[37.549625,47.520897],[37.550455,47.520962],[37.55046,47.520963],[37.550653,47.519346],[37.551184,47.51933],[37.551309,47.519326],[37.551355,47.519324],[37.552857,47.519276],[37.552911,47.518964],[37.551569,47.518784],[37.551184,47.518735],[37.550226,47.518609],[37.549565,47.519725],[37.548909,47.520841]]]}},{"type":"Feature","properties":{"cadnum":"1421555900:01:000:0267"},"geometry":{"type":"Polygon","coordinates":[[[37.543875,47.516188],[37.543906,47.516479],[37.54423,47.516473],[37.544198,47.516066],[37.544032,47.516131],[37.543875,47.516188]]]}},{"type":"Feature","properties":{"cadnum":"1421555900:01:000:0268"},"geometry":{"type":"Polygon","coordinates":[[[37.540636,47.513898],[37.540812,47.51411],[37.541089,47.514001],[37.541449,47.513858],[37.541269,47.513649],[37.540636,47.513898]]]}},{"type":"Feature","properties":{"cadnum":"1421555900:01:000:0111"},"geometry":{"type":"Polygon","coordinates":[[[37.54224,47.515321],[37.542267,47.515353],[37.542339,47.51533],[37.542311,47.515296],[37.54224,47.515321]]]}},{"type":"Feature","properties":{"cadnum":"1421555900:01:000:0078"},"geometry":{"type":"Polygon","coordinates":[[[37.5421,47.517022],[37.542249,47.517192],[37.54254,47.517208],[37.54255,47.516891],[37.5421,47.517022]]]}},{"type":"Feature","properties":{"cadnum":"1421555900:01:000:0154"},"geometry":{"type":"Polygon","coordinates":[[[37.541597,47.514814],[37.541804,47.515084],[37.542311,47.514887],[37.54211,47.514613],[37.541597,47.514814]]]}},{"type":"Feature","properties":{"cadnum":"1421555900:01:000:0025"},"geometry":{"type":"Polygon","coordinates":[[[37.541557,47.516403],[37.541724,47.516592],[37.54202,47.516473],[37.541821,47.516297],[37.541557,47.516403]]]}},{"type":"Feature","properties":{"cadnum":"1421555900:01:000:0089"},"geometry":{"type":"Polygon","coordinates":[[[37.54299,47.515751],[37.543022,47.515785],[37.543062,47.515767],[37.543125,47.515827],[37.543623,47.515605],[37.543551,47.515524],[37.543506,47.515472],[37.542999,47.515699],[37.54303,47.515733],[37.54299,47.515751]]]}},{"type":"Feature","properties":{"cadnum":"1421555900:01:000:0092"},"geometry":{"type":"Polygon","coordinates":[[[37.540276,47.514656],[37.540369,47.514767],[37.540369,47.514766],[37.540479,47.514896],[37.540856,47.514759],[37.540655,47.514519],[37.540276,47.514656]]]}},{"type":"Feature","properties":{"cadnum":"1421555900:01:000:0145"},"geometry":{"type":"Polygon","coordinates":[[[37.54325,47.513412],[37.543309,47.513478],[37.543361,47.513536],[37.543412,47.513592],[37.544121,47.513288],[37.543942,47.513103],[37.54325,47.513412]]]}},{"type":"Feature","properties":{"cadnum":"1421555900:01:000:0239"},"geometry":{"type":"Polygon","coordinates":[[[37.543116,47.515139],[37.54325,47.515299],[37.543947,47.515026],[37.543812,47.514869],[37.543116,47.515139]]]}},{"type":"Feature","properties":{"cadnum":"1421555900:01:000:0055"},"geometry":{"type":"Polygon","coordinates":[[[37.544167,47.514901],[37.544297,47.51506],[37.544697,47.514905],[37.544567,47.51475],[37.544167,47.514901]]]}},{"type":"Feature","properties":{"cadnum":"1421555900:01:000:0136"},"geometry":{"type":"Polygon","coordinates":[[[37.54281,47.516507],[37.542833,47.516537],[37.5429,47.516509],[37.542877,47.516482],[37.54281,47.516507]]]}},{"type":"Feature","properties":{"cadnum":"1421555900:01:000:0024"},"geometry":{"type":"Polygon","coordinates":[[[37.542932,47.516118],[37.543152,47.516401],[37.543389,47.516318],[37.543165,47.516036],[37.542932,47.516118]]]}},{"type":"Feature","properties":{"cadnum":"1421555900:01:000:0051"},"geometry":{"type":"Polygon","coordinates":[[[37.543412,47.515369],[37.543551,47.515524],[37.544265,47.515254],[37.544125,47.515096],[37.543412,47.515369]]]}},{"type":"Feature","properties":{"cadnum":"1421555900:01:000:0255"},"geometry":{"type":"Polygon","coordinates":[[[37.539697,47.514058],[37.539823,47.514207],[37.539827,47.514204],[37.540197,47.514063],[37.540197,47.514064],[37.54033,47.514013],[37.540146,47.513795],[37.540137,47.513788],[37.539724,47.513946],[37.539733,47.513955],[37.539792,47.514025],[37.539707,47.514055],[37.539697,47.514058]]]}},{"type":"Feature","properties":{"cadnum":"1421555900:01:000:0126"},"geometry":{"type":"Polygon","coordinates":[[[37.541282,47.515609],[37.54131,47.515636],[37.541378,47.515609],[37.541355,47.515582],[37.541282,47.515609]]]}},{"type":"Feature","properties":{"cadnum":"1421555900:01:000:0112"},"geometry":{"type":"Polygon","coordinates":[[[37.543039,47.516589],[37.543066,47.516913],[37.543322,47.516929],[37.543358,47.516603],[37.543039,47.516589]]]}},{"type":"Feature","properties":{"cadnum":"1421555900:01:000:0050"},"geometry":{"type":"Polygon","coordinates":[[[37.543551,47.515524],[37.543678,47.515663],[37.543875,47.515609],[37.544404,47.515409],[37.544265,47.515254],[37.543551,47.515524]]]}},{"type":"Feature","properties":{"cadnum":"1421555900:01:000:0079"},"geometry":{"type":"Polygon","coordinates":[[[37.541112,47.516943],[37.541234,47.517071],[37.541737,47.516877],[37.541624,47.516747],[37.541112,47.516943]]]}},{"type":"Feature","properties":{"cadnum":"1421555900:01:000:0090"},"geometry":{"type":"Polygon","coordinates":[[[37.542442,47.516203],[37.54246,47.516228],[37.542523,47.516209],[37.542504,47.516182],[37.542442,47.516203]]]}},{"type":"Feature","properties":{"cadnum":"1421555900:01:000:0099"},"geometry":{"type":"Polygon","coordinates":[[[37.542567,47.513825],[37.54268,47.513961],[37.543079,47.513801],[37.543062,47.513777],[37.543062,47.513776],[37.543349,47.513685],[37.543255,47.513546],[37.542567,47.513825]]]}},{"type":"Feature","properties":{"cadnum":"1421555900:01:000:0156"},"geometry":{"type":"Polygon","coordinates":[[[37.542613,47.516576],[37.542644,47.516625],[37.54272,47.516603],[37.542689,47.516552],[37.542613,47.516576]]]}},{"type":"Feature","properties":{"cadnum":"1421555900:01:000:0228"},"geometry":{"type":"Polygon","coordinates":[[[37.541121,47.51708],[37.541221,47.517186],[37.5418,47.51721],[37.541777,47.517186],[37.541844,47.517159],[37.541628,47.516895],[37.541247,47.517037],[37.541121,47.51708]]]}},{"type":"Feature","properties":{"cadnum":"1421555900:01:000:0266"},"geometry":{"type":"Polygon","coordinates":[[[37.541607,47.516027],[37.541642,47.51607],[37.541674,47.516061],[37.541898,47.515982],[37.541911,47.515978],[37.541898,47.51596],[37.541876,47.515927],[37.54184,47.515939],[37.541804,47.515894],[37.54171,47.515927],[37.541732,47.515955],[37.54175,47.515978],[37.541638,47.516016],[37.541607,47.516027]]]}},{"type":"Feature","properties":{"cadnum":"1421555900:01:000:0282"},"geometry":{"type":"Polygon","coordinates":[[[37.540649,47.516398],[37.540802,47.516601],[37.541202,47.516452],[37.541247,47.516434],[37.541251,47.516434],[37.541081,47.516243],[37.541041,47.516257],[37.541036,47.516257],[37.540649,47.516398]]]}},{"type":"Feature","properties":{"cadnum":"1421555900:01:000:0081"},"geometry":{"type":"Polygon","coordinates":[[[37.543152,47.516401],[37.543439,47.51641],[37.543376,47.516324],[37.543152,47.516401]]]}},{"type":"Feature","properties":{"cadnum":"1421555900:01:000:0162"},"geometry":{"type":"Polygon","coordinates":[[[37.541911,47.513685],[37.542114,47.513913],[37.542509,47.513761],[37.542307,47.513525],[37.542277,47.513536],[37.542257,47.513543],[37.542133,47.513594],[37.541911,47.513685]]]}},{"type":"Feature","properties":{"cadnum":"1421555900:01:000:0054"},"geometry":{"type":"Polygon","coordinates":[[[37.54207,47.513334],[37.542199,47.513477],[37.542199,47.513478],[37.542198,47.513478],[37.542257,47.513543],[37.542277,47.513536],[37.542307,47.513525],[37.542123,47.513312],[37.54207,47.513334]]]}},{"type":"Feature","properties":{"cadnum":"1421555900:01:000:0102"},"geometry":{"type":"Polygon","coordinates":[[[37.541552,47.515824],[37.541584,47.515872],[37.541638,47.515857],[37.541602,47.515809],[37.541552,47.515824]]]}},{"type":"Feature","properties":{"cadnum":"1421555900:01:000:0151"},"geometry":{"type":"Polygon","coordinates":[[[37.541665,47.516122],[37.541687,47.516151],[37.541758,47.516127],[37.541732,47.516094],[37.541697,47.516106],[37.541665,47.516122]]]}},{"type":"Feature","properties":{"cadnum":"1421555900:01:000:0289"},"geometry":{"type":"Polygon","coordinates":[[[37.542886,47.516868],[37.542909,47.516901],[37.54299,47.516877],[37.542967,47.516843],[37.542886,47.516868]]]}},{"type":"Feature","properties":{"cadnum":"1421555900:01:000:0160"},"geometry":{"type":"Polygon","coordinates":[[[37.543525,47.517332],[37.543808,47.517347],[37.543813,47.517304],[37.543848,47.517026],[37.543565,47.517013],[37.543565,47.517019],[37.543543,47.517188],[37.543542,47.517188],[37.543536,47.517238],[37.543527,47.517304],[37.543528,47.517304],[37.543525,47.517332]]]}},{"type":"Feature","properties":{"cadnum":"1421555900:01:000:0044"},"geometry":{"type":"Polygon","coordinates":[[[37.543259,47.51732],[37.543525,47.517332],[37.543536,47.517238],[37.543565,47.517019],[37.543305,47.517007],[37.54326,47.517304],[37.543261,47.517304],[37.543259,47.51732]]]}},{"type":"Feature","properties":{"cadnum":"1421555900:01:000:0173"},"geometry":{"type":"Polygon","coordinates":[[[37.53924,47.515827],[37.539347,47.515973],[37.540197,47.515674],[37.540363,47.515616],[37.540369,47.515613],[37.540425,47.515593],[37.540213,47.515324],[37.539607,47.515539],[37.53924,47.515827]]]}},{"type":"Feature","properties":{"cadnum":"1421555900:01:000:0279"},"geometry":{"type":"Polygon","coordinates":[[[37.540708,47.516634],[37.540865,47.516798],[37.541337,47.516634],[37.541351,47.516628],[37.541355,47.516628],[37.541395,47.516612],[37.5414,47.51661],[37.541251,47.516434],[37.541247,47.516434],[37.541202,47.516452],[37.540802,47.516601],[37.540708,47.516634]]]}},{"type":"Feature","properties":{"cadnum":"1421555900:01:000:0131"},"geometry":{"type":"Polygon","coordinates":[[[37.54276,47.517217],[37.543026,47.517228],[37.543066,47.516916],[37.542774,47.516901],[37.54276,47.517217]]]}},{"type":"Feature","properties":{"cadnum":"1421555900:01:000:0053"},"geometry":{"type":"Polygon","coordinates":[[[37.541449,47.513585],[37.541455,47.513594],[37.541456,47.513594],[37.541638,47.513797],[37.541911,47.513685],[37.542257,47.513543],[37.54207,47.513334],[37.541911,47.513401],[37.541719,47.513478],[37.541718,47.513478],[37.541449,47.513585]]]}},{"type":"Feature","properties":{"cadnum":"1421555900:01:000:0017"},"geometry":{"type":"Polygon","coordinates":[[[37.54131,47.516118],[37.541395,47.516216],[37.541372,47.516228],[37.541408,47.51627],[37.541435,47.516257],[37.541517,47.516355],[37.541741,47.516267],[37.541597,47.5161],[37.541575,47.516109],[37.541565,47.5161],[37.54153,47.516115],[37.541475,47.516052],[37.54131,47.516118]]]}},{"type":"Feature","properties":{"cadnum":"1421555900:01:000:0128"},"geometry":{"type":"Polygon","coordinates":[[[37.542953,47.514775],[37.543008,47.514841],[37.543093,47.514941],[37.543691,47.51471],[37.54356,47.51455],[37.543322,47.514641],[37.543318,47.514635],[37.543273,47.514653],[37.543273,47.514656],[37.543272,47.514656],[37.542953,47.514775]]]}},{"type":"Feature","properties":{"cadnum":"1421555900:01:000:0021"},"geometry":{"type":"Polygon","coordinates":[[[37.543412,47.513592],[37.543413,47.513594],[37.543414,47.513594],[37.543574,47.513755],[37.544026,47.513547],[37.544364,47.513392],[37.544221,47.513242],[37.543676,47.513478],[37.543675,47.513478],[37.543412,47.513592]]]}},{"type":"Feature","properties":{"cadnum":"1421555900:01:000:0215"},"geometry":{"type":"Polygon","coordinates":[[[37.542289,47.514553],[37.542487,47.514793],[37.543066,47.514568],[37.542863,47.514341],[37.542289,47.514553]]]}},{"type":"Feature","properties":{"cadnum":"1421555900:01:000:0251"},"geometry":{"type":"Polygon","coordinates":[[[37.542421,47.515026],[37.542866,47.515537],[37.543153,47.515579],[37.543401,47.515485],[37.543378,47.515459],[37.543251,47.515298],[37.543117,47.515138],[37.543008,47.514975],[37.542979,47.51494],[37.542912,47.514965],[37.542829,47.514862],[37.542421,47.515026]]]}},{"type":"Feature","properties":{"cadnum":"1421555900:01:000:0141"},"geometry":{"type":"Polygon","coordinates":[[[37.542676,47.515951],[37.542711,47.515985],[37.542792,47.515949],[37.54276,47.515915],[37.542676,47.515951]]]}},{"type":"Feature","properties":{"cadnum":"1421555900:01:000:0062"},"geometry":{"type":"Polygon","coordinates":[[[37.540479,47.514896],[37.540668,47.515117],[37.541288,47.514887],[37.541103,47.514671],[37.540479,47.514896]]]}},{"type":"Feature","properties":{"cadnum":"1421555900:01:000:0238"},"geometry":{"type":"Polygon","coordinates":[[[37.54025,47.516285],[37.540369,47.516399],[37.540403,47.51643],[37.540559,47.516355],[37.540403,47.516209],[37.54025,47.516285]]]}},{"type":"Feature","properties":{"cadnum":"1421555900:01:000:0226"},"geometry":{"type":"Polygon","coordinates":[[[37.545519,47.515184],[37.545649,47.515348],[37.54569,47.515332],[37.545691,47.515332],[37.545691,47.515333],[37.546196,47.515139],[37.546035,47.51499],[37.545802,47.515078],[37.54568,47.515123],[37.545676,47.515117],[37.545603,47.515144],[37.545609,47.51515],[37.545609,47.515151],[37.545519,47.515184]]]}},{"type":"Feature","properties":{"cadnum":"1421555900:01:000:0243"},"geometry":{"type":"Polygon","coordinates":[[[37.545047,47.514641],[37.545312,47.514948],[37.545766,47.514775],[37.54546,47.514474],[37.545051,47.514641],[37.545047,47.514641]]]}},{"type":"Feature","properties":{"cadnum":"1421555900:01:000:0253"},"geometry":{"type":"Polygon","coordinates":[[[37.545729,47.516871],[37.54586,47.517022],[37.545862,47.517021],[37.546265,47.516862],[37.546134,47.516707],[37.545729,47.516871]]]}},{"type":"Feature","properties":{"cadnum":"1421555900:02:000:0042"},"geometry":{"type":"Polygon","coordinates":[[[37.545406,47.513682],[37.545546,47.513795],[37.54569,47.513798],[37.545691,47.513798],[37.545817,47.513801],[37.545862,47.513802],[37.546089,47.513806],[37.546112,47.513588],[37.545862,47.513583],[37.54542,47.513573],[37.545406,47.513682]]]}},{"type":"Feature","properties":{"cadnum":"1421555900:01:000:0288"},"geometry":{"type":"Polygon","coordinates":[[[37.544867,47.515861],[37.545003,47.516018],[37.545007,47.516016],[37.54541,47.515861],[37.54528,47.515703],[37.544877,47.515857],[37.544876,47.515857],[37.544871,47.515857],[37.544867,47.515861]]]}},{"type":"Feature","properties":{"cadnum":"1421555900:01:000:0237"},"geometry":{"type":"Polygon","coordinates":[[[37.545263,47.516331],[37.545383,47.51647],[37.545393,47.516468],[37.54569,47.516366],[37.545691,47.516366],[37.545802,47.516328],[37.545672,47.51617],[37.545469,47.516252],[37.545469,47.516255],[37.545402,47.516279],[37.545397,47.516276],[37.545272,47.516324],[37.545263,47.516331]]]}},{"type":"Feature","properties":{"cadnum":"1421555900:01:000:0213"},"geometry":{"type":"Polygon","coordinates":[[[37.545133,47.516173],[37.545263,47.516331],[37.545272,47.516324],[37.545397,47.516276],[37.545402,47.516279],[37.545469,47.516255],[37.545469,47.516252],[37.545672,47.51617],[37.54554,47.516016],[37.545141,47.51617],[37.545133,47.516173]]]}},{"type":"Feature","properties":{"cadnum":"1421555900:01:000:0149"},"geometry":{"type":"Polygon","coordinates":[[[37.54546,47.517429],[37.545662,47.517438],[37.545662,47.517386],[37.545693,47.517386],[37.545693,47.517311],[37.545775,47.517311],[37.545775,47.51715],[37.545756,47.517107],[37.545487,47.517111],[37.545469,47.517304],[37.54547,47.517304],[37.54546,47.517429]]]}},{"type":"Feature","properties":{"cadnum":"1421555900:01:000:0284"},"geometry":{"type":"Polygon","coordinates":[[[37.544602,47.515551],[37.544733,47.515699],[37.545141,47.515551],[37.545016,47.515391],[37.544602,47.515551]]]}},{"type":"Feature","properties":{"cadnum":"1421555900:01:000:0085"},"geometry":{"type":"Polygon","coordinates":[[[37.544261,47.514489],[37.544395,47.514647],[37.544791,47.514492],[37.544657,47.514337],[37.544261,47.514489]]]}},{"type":"Feature","properties":{"cadnum":"1421555900:01:000:0168"},"geometry":{"type":"Polygon","coordinates":[[[37.544441,47.517059],[37.544706,47.517074],[37.544737,47.516749],[37.54463,47.516743],[37.544477,47.516734],[37.544471,47.516767],[37.544463,47.516871],[37.544458,47.516901],[37.544441,47.517059]]]}},{"type":"Feature","properties":{"cadnum":"1421555900:01:000:0229"},"geometry":{"type":"Polygon","coordinates":[[[37.544777,47.515117],[37.544917,47.515284],[37.545316,47.515121],[37.545177,47.514953],[37.545087,47.51499],[37.545087,47.514996],[37.545047,47.515008],[37.544777,47.515117]]]}},{"type":"Feature","properties":{"cadnum":"1421555900:01:000:0227"},"geometry":{"type":"Polygon","coordinates":[[[37.544387,47.514647],[37.544517,47.514805],[37.544921,47.51465],[37.544791,47.514496],[37.544387,47.514647]]]}},{"type":"Feature","properties":{"cadnum":"1421555900:01:000:0110"},"geometry":{"type":"Polygon","coordinates":[[[37.544265,47.515985],[37.544292,47.516394],[37.544697,47.516379],[37.54463,47.5163],[37.544494,47.516149],[37.54436,47.515994],[37.544324,47.515955],[37.544265,47.515985]]]}},{"type":"Feature","properties":{"cadnum":"1421555900:01:000:0276"},"geometry":{"type":"Polygon","coordinates":[[[37.544674,47.517386],[37.544934,47.517399],[37.544953,47.517215],[37.544966,47.517086],[37.544706,47.517074],[37.544694,47.517188],[37.544691,47.517215],[37.544682,47.517304],[37.544674,47.517386]]]}},{"type":"Feature","properties":{"cadnum":"1421555900:01:000:0270"},"geometry":{"type":"Polygon","coordinates":[[[37.544647,47.514962],[37.544777,47.515117],[37.545047,47.515008],[37.545087,47.514996],[37.545087,47.51499],[37.545177,47.514953],[37.545056,47.514808],[37.544647,47.514962]]]}},{"type":"Feature","properties":{"cadnum":"1421555900:01:000:0220"},"geometry":{"type":"Polygon","coordinates":[[[37.544297,47.516085],[37.544437,47.516239],[37.544809,47.516094],[37.54484,47.516085],[37.544697,47.515921],[37.544297,47.516085]]]}},{"type":"Feature","properties":{"cadnum":"1421555900:01:000:0152"},"geometry":{"type":"Polygon","coordinates":[[[37.544787,47.51435],[37.545051,47.514641],[37.545465,47.514471],[37.5452,47.514183],[37.544787,47.51435]]]}},{"type":"Feature","properties":{"cadnum":"1421555900:01:000:0124"},"geometry":{"type":"Polygon","coordinates":[[[37.544341,47.51593],[37.544387,47.516385],[37.544391,47.516428],[37.544836,47.516419],[37.54472,47.516285],[37.544588,47.516133],[37.544454,47.515978],[37.544418,47.515936],[37.544341,47.51593]]]}},{"type":"Feature","properties":{"cadnum":"1421555900:01:000:0242"},"geometry":{"type":"Polygon","coordinates":[[[37.545649,47.515348],[37.545691,47.515397],[37.545691,47.515398],[37.545779,47.515503],[37.545806,47.515493],[37.545862,47.515472],[37.545862,47.515471],[37.546362,47.515278],[37.546224,47.51513],[37.546196,47.515139],[37.545712,47.515322],[37.545676,47.515335],[37.545649,47.515348]]]}},{"type":"Feature","properties":{"cadnum":"1421555900:02:000:0012"},"geometry":{"type":"Polygon","coordinates":[[[37.541269,47.508634],[37.5418,47.508658],[37.541813,47.508524],[37.541282,47.508497],[37.541269,47.508634]]]}},{"type":"Feature","properties":{"cadnum":"1421555900:01:000:0060"},"geometry":{"type":"Polygon","coordinates":[[[37.545236,47.509187],[37.54569,47.509208],[37.545691,47.509208],[37.545702,47.509209],[37.545862,47.509216],[37.545936,47.509219],[37.545999,47.508622],[37.545793,47.508613],[37.545299,47.508589],[37.545286,47.508688],[37.545276,47.508792],[37.545236,47.509187]]]}},{"type":"Feature","properties":{"cadnum":"1421555900:02:000:0013"},"geometry":{"type":"Polygon","coordinates":[[[37.543452,47.507572],[37.543982,47.507599],[37.543995,47.507466],[37.543466,47.507438],[37.543452,47.507572]]]}},{"type":"Feature","properties":{"cadnum":"1421555900:02:000:0005"},"geometry":{"type":"Polygon","coordinates":[[[37.541198,47.508128],[37.541485,47.508167],[37.541862,47.508182],[37.541907,47.507957],[37.541508,47.507906],[37.541372,47.507982],[37.541198,47.508128]]]}},{"type":"Feature","properties":{"cadnum":"1421555900:02:000:0032"},"geometry":{"type":"Polygon","coordinates":[[[37.518673,47.523165],[37.518799,47.524411],[37.521498,47.524645],[37.523718,47.524837],[37.52572,47.525009],[37.525744,47.524723],[37.525877,47.523192],[37.526034,47.52284],[37.526183,47.522082],[37.526371,47.520897],[37.526389,47.520781],[37.527781,47.520693],[37.527745,47.519534],[37.527598,47.518979],[37.526914,47.519091],[37.526057,47.519267],[37.524858,47.519443],[37.524835,47.520729],[37.524202,47.520729],[37.52419,47.521013],[37.524191,47.521013],[37.524156,47.521909],[37.52389,47.521929],[37.522046,47.522067],[37.5206,47.522143],[37.520793,47.520938],[37.520464,47.521013],[37.519202,47.521302],[37.518982,47.521952],[37.518757,47.522564],[37.518785,47.522858],[37.518673,47.523165]]]}},{"type":"Feature","properties":{"cadnum":"1421555900:02:000:0043"},"geometry":{"type":"Polygon","coordinates":[[[37.521317,47.522106],[37.522046,47.522067],[37.523718,47.521942],[37.523718,47.521943],[37.524156,47.521909],[37.524195,47.520897],[37.524202,47.520729],[37.524215,47.520459],[37.523718,47.520014],[37.523361,47.519695],[37.521533,47.520783],[37.521515,47.520897],[37.521514,47.520897],[37.521317,47.522106]]]}},{"type":"Feature","properties":{"cadnum":"1421555900:01:000:0235"},"geometry":{"type":"Polygon","coordinates":[[[37.519809,47.519661],[37.520034,47.519977],[37.520415,47.520338],[37.520967,47.520862],[37.52116,47.520938],[37.521286,47.520911],[37.521533,47.520783],[37.523361,47.519695],[37.52346,47.519604],[37.523434,47.51951],[37.522256,47.518445],[37.520743,47.519197],[37.519809,47.519661]],[[37.520307,47.519919],[37.520195,47.519913],[37.520208,47.519837],[37.520321,47.519843],[37.520307,47.519919]]]}},{"type":"Feature","properties":{"cadnum":"1421555900:01:000:0067"},"geometry":{"type":"Polygon","coordinates":[[[37.534775,47.520781],[37.5348,47.520897],[37.534799,47.520897],[37.534869,47.521221],[37.535251,47.521172],[37.535186,47.520897],[37.535152,47.520753],[37.534775,47.520781]]]}},{"type":"Feature","properties":{"cadnum":"1421555900:01:000:0066"},"geometry":{"type":"Polygon","coordinates":[[[37.534384,47.520811],[37.534402,47.520897],[37.534401,47.520897],[37.534425,47.521006],[37.534427,47.521013],[37.534483,47.521269],[37.534704,47.521241],[37.534704,47.521242],[37.534869,47.521221],[37.534824,47.521013],[37.534825,47.521013],[37.534775,47.520781],[37.534384,47.520811]]]}},{"type":"Feature","properties":{"cadnum":"1421555900:01:000:0193"},"geometry":{"type":"Polygon","coordinates":[[[37.540102,47.518369],[37.540369,47.518544],[37.54038,47.518551],[37.541131,47.518606],[37.541171,47.518208],[37.5402,47.518161],[37.540129,47.518157],[37.540102,47.518369]]]}},{"type":"Feature","properties":{"cadnum":"1421555900:01:000:0203"},"geometry":{"type":"Polygon","coordinates":[[[37.540995,47.519222],[37.541867,47.519485],[37.542487,47.519494],[37.542513,47.519018],[37.541242,47.518761],[37.540995,47.519222]]]}},{"type":"Feature","properties":{"cadnum":"1421555900:01:000:0265"},"geometry":{"type":"Polygon","coordinates":[[[37.541548,47.518822],[37.542513,47.519018],[37.543726,47.519258],[37.543753,47.519264],[37.543852,47.519283],[37.543987,47.51931],[37.544148,47.519343],[37.544154,47.519283],[37.544184,47.518961],[37.544194,47.518863],[37.544211,47.518672],[37.544225,47.518542],[37.54423,47.518487],[37.544301,47.517698],[37.544311,47.517623],[37.544234,47.51762],[37.544175,47.51762],[37.543305,47.517586],[37.542311,47.517547],[37.542311,47.517604],[37.542316,47.51765],[37.54233,47.517899],[37.542343,47.518139],[37.542074,47.51815],[37.54207,47.518224],[37.542041,47.518254],[37.541732,47.518409],[37.541548,47.518822]],[[37.543897,47.518611],[37.543735,47.518602],[37.543739,47.51853],[37.543905,47.518539],[37.543906,47.518539],[37.543897,47.518611]]]}},{"type":"Feature","properties":{"cadnum":"1421555900:01:000:0183"},"geometry":{"type":"Polygon","coordinates":[[[37.541269,47.518703],[37.541364,47.518706],[37.541372,47.5186],[37.541274,47.518597],[37.541269,47.518703]]]}},{"type":"Feature","properties":{"cadnum":"1421555900:01:000:0196"},"geometry":{"type":"Polygon","coordinates":[[[37.539621,47.517887],[37.540369,47.517922],[37.541247,47.517963],[37.541282,47.51765],[37.540529,47.517617],[37.540529,47.517568],[37.540197,47.517555],[37.540197,47.517556],[37.539661,47.517535],[37.539621,47.517887]]]}},{"type":"Feature","properties":{"cadnum":"1421555900:01:000:0202"},"geometry":{"type":"Polygon","coordinates":[[[37.543133,47.519431],[37.544382,47.520104],[37.544683,47.519958],[37.544091,47.51937],[37.543924,47.519328],[37.543201,47.519261],[37.543133,47.519431]]]}},{"type":"Feature","properties":{"cadnum":"1421555900:01:000:0037"},"geometry":{"type":"Polygon","coordinates":[[[37.537034,47.520156],[37.539082,47.520238],[37.53981,47.520241],[37.540369,47.520234],[37.540369,47.520233],[37.541058,47.520223],[37.541821,47.520238],[37.543165,47.520359],[37.543187,47.520153],[37.541925,47.519795],[37.542037,47.519591],[37.540369,47.519112],[37.540369,47.519111],[37.538646,47.518615],[37.537739,47.518366],[37.537196,47.519598],[37.537034,47.520156]]]}},{"type":"Feature","properties":{"cadnum":"1421555900:01:000:0184"},"geometry":{"type":"Polygon","coordinates":[[[37.543735,47.518602],[37.543897,47.518611],[37.543906,47.518539],[37.543739,47.51853],[37.543735,47.518602]]]}},{"type":"Feature","properties":{"cadnum":"1421555900:01:000:0200"},"geometry":{"type":"Polygon","coordinates":[[[37.544225,47.519395],[37.54485,47.519907],[37.545016,47.519819],[37.545182,47.519962],[37.54569,47.519673],[37.54569,47.519674],[37.545691,47.519674],[37.545859,47.519578],[37.545862,47.519576],[37.546309,47.519321],[37.54714,47.518809],[37.546804,47.51856],[37.546106,47.518991],[37.545838,47.519004],[37.54564,47.519013],[37.54569,47.518677],[37.545691,47.518677],[37.545739,47.518357],[37.544351,47.518299],[37.544225,47.519395]]]}},{"type":"Feature","properties":{"cadnum":"1421555900:01:000:0150"},"geometry":{"type":"Polygon","coordinates":[[[37.545662,47.517386],[37.545662,47.517438],[37.54577,47.517444],[37.545775,47.517311],[37.545693,47.517311],[37.545693,47.517386],[37.545662,47.517386]]]}},{"type":"Feature","properties":{"cadnum":"1421555900:01:000:0185"},"geometry":{"type":"Polygon","coordinates":[[[37.544557,47.519795],[37.544674,47.519895],[37.544768,47.51984],[37.544647,47.519744],[37.544557,47.519795]]]}},{"type":"Feature","properties":{"cadnum":"1421555900:01:000:0027"},"geometry":{"type":"Polygon","coordinates":[[[37.536831,47.514453],[37.5372,47.514899],[37.537753,47.514692],[37.537384,47.514244],[37.536831,47.514453]]]}},{"type":"Feature","properties":{"cadnum":"1421555900:01:000:0113"},"geometry":{"type":"Polygon","coordinates":[[[37.537389,47.51495],[37.537672,47.515254],[37.538166,47.515045],[37.538292,47.515181],[37.538632,47.515038],[37.538233,47.514593],[37.537749,47.514795],[37.537749,47.514796],[37.537793,47.514838],[37.53768,47.514883],[37.537636,47.514844],[37.537389,47.51495]]]}},{"type":"Feature","properties":{"cadnum":"1421555900:01:000:0171"},"geometry":{"type":"Polygon","coordinates":[[[37.538162,47.516516],[37.538359,47.516719],[37.538255,47.516761],[37.538525,47.517046],[37.538867,47.516907],[37.53906,47.51712],[37.53968,47.516864],[37.538997,47.516151],[37.538162,47.516516]]]}},{"type":"Feature","properties":{"cadnum":"1421555900:01:000:0225"},"geometry":{"type":"Polygon","coordinates":[[[37.538808,47.51583],[37.539037,47.516094],[37.539378,47.51596],[37.539154,47.515688],[37.538808,47.51583]]]}},{"type":"Feature","properties":{"cadnum":"1421555900:01:000:0273"},"geometry":{"type":"Polygon","coordinates":[[[37.539544,47.516673],[37.539599,47.516731],[37.539689,47.516695],[37.539639,47.516637],[37.539544,47.516673]]]}},{"type":"Feature","properties":{"cadnum":"1421555900:01:000:0026"},"geometry":{"type":"Polygon","coordinates":[[[37.537812,47.513631],[37.537909,47.513743],[37.538292,47.513594],[37.538193,47.51348],[37.538192,47.513479],[37.537904,47.513594],[37.537905,47.513594],[37.537812,47.513631]]]}},{"type":"Feature","properties":{"cadnum":"1421555900:01:000:0204"},"geometry":{"type":"Polygon","coordinates":[[[37.53438,47.515056],[37.534613,47.515326],[37.534704,47.515291],[37.534858,47.51523],[37.534876,47.515223],[37.535534,47.514962],[37.535286,47.514692],[37.534876,47.514858],[37.534876,47.514857],[37.53438,47.515056]]]}},{"type":"Feature","properties":{"cadnum":"1421555900:01:000:0188"},"geometry":{"type":"Polygon","coordinates":[[[37.535133,47.515888],[37.535255,47.516036],[37.535686,47.51587],[37.535561,47.515721],[37.535133,47.515888]]]}},{"type":"Feature","properties":{"cadnum":"1421555900:01:000:0195"},"geometry":{"type":"Polygon","coordinates":[[[37.535686,47.516537],[37.535934,47.516831],[37.536204,47.516713],[37.535938,47.516428],[37.535686,47.516537]]]}},{"type":"Feature","properties":{"cadnum":"1421555900:01:000:0190"},"geometry":{"type":"Polygon","coordinates":[[[37.537757,47.513731],[37.537959,47.513965],[37.538808,47.513633],[37.538735,47.513546],[37.538619,47.513406],[37.538429,47.513478],[37.538428,47.513478],[37.537757,47.513731]]]}},{"type":"Feature","properties":{"cadnum":"1421555900:01:000:0187"},"geometry":{"type":"Polygon","coordinates":[[[37.538632,47.514932],[37.538825,47.515151],[37.539297,47.514953],[37.5391,47.514741],[37.538632,47.514932]]]}},{"type":"Feature","properties":{"cadnum":"1421555900:01:000:0198"},"geometry":{"type":"Polygon","coordinates":[[[37.533409,47.51391],[37.533629,47.514159],[37.534704,47.513752],[37.535408,47.513485],[37.53543,47.513507],[37.53543,47.513506],[37.535609,47.513433],[37.535349,47.513127],[37.534876,47.513318],[37.53448,47.513478],[37.534479,47.513478],[37.533409,47.51391]]]}},{"type":"Feature","properties":{"cadnum":"1421555900:01:000:0178"},"geometry":{"type":"Polygon","coordinates":[[[37.536913,47.513779],[37.536971,47.513853],[37.537043,47.513825],[37.536984,47.513752],[37.536913,47.513779]]]}},{"type":"Feature","properties":{"cadnum":"1421555900:01:000:0186"},"geometry":{"type":"Polygon","coordinates":[[[37.539584,47.514881],[37.539841,47.515193],[37.540034,47.515123],[37.539787,47.514808],[37.539584,47.514881]]]}},{"type":"Feature","properties":{"cadnum":"1421555900:01:000:0181"},"geometry":{"type":"Polygon","coordinates":[[[37.53654,47.515739],[37.536598,47.515805],[37.536684,47.515773],[37.536625,47.515706],[37.53654,47.515739]]]}},{"type":"Feature","properties":{"cadnum":"1421555900:01:000:0189"},"geometry":{"type":"Polygon","coordinates":[[[37.539284,47.514726],[37.539446,47.514896],[37.539792,47.51475],[37.539653,47.514584],[37.539284,47.514726]]]}},{"type":"Feature","properties":{"cadnum":"1421555900:01:000:0192"},"geometry":{"type":"Polygon","coordinates":[[[37.536028,47.516889],[37.536394,47.517304],[37.536395,47.517304],[37.536513,47.517438],[37.536837,47.517302],[37.536818,47.517282],[37.536328,47.516761],[37.536028,47.516889]]]}},{"type":"Feature","properties":{"cadnum":"1421555900:01:000:0194"},"geometry":{"type":"Polygon","coordinates":[[[37.537923,47.51563],[37.538179,47.515942],[37.538467,47.51583],[37.538225,47.515524],[37.537923,47.51563]]]}},{"type":"Feature","properties":{"cadnum":"1421555900:01:000:0280"},"geometry":{"type":"Polygon","coordinates":[[[37.534806,47.514228],[37.534842,47.514274],[37.534936,47.514238],[37.534896,47.514192],[37.534883,47.514198],[37.534806,47.514228]]]}},{"type":"Feature","properties":{"cadnum":"1421555900:01:000:0207"},"geometry":{"type":"Polygon","coordinates":[[[37.536477,47.513154],[37.536756,47.513477],[37.536756,47.513478],[37.536846,47.513581],[37.536857,47.513594],[37.537052,47.513819],[37.537821,47.513523],[37.538022,47.513446],[37.537806,47.513188],[37.537277,47.513388],[37.537276,47.513388],[37.537213,47.513315],[37.537133,47.513345],[37.536841,47.513012],[37.536477,47.513154]]]}},{"type":"Feature","properties":{"cadnum":"1421555900:01:000:0083"},"geometry":{"type":"Polygon","coordinates":[[[37.53769,47.515223],[37.537829,47.515378],[37.538265,47.515199],[37.538125,47.515045],[37.53769,47.515223]]]}},{"type":"Feature","properties":{"cadnum":"1421555900:01:000:0182"},"geometry":{"type":"Polygon","coordinates":[[[37.538655,47.517268],[37.538687,47.517304],[37.538689,47.517304],[37.538741,47.517359],[37.538821,47.517325],[37.538736,47.517235],[37.538709,47.517246],[37.538655,47.517268]]]}},{"type":"Feature","properties":{"cadnum":"1421555900:01:000:0206"},"geometry":{"type":"Polygon","coordinates":[[[37.534007,47.514635],[37.534267,47.514926],[37.534704,47.514751],[37.53476,47.514729],[37.534876,47.514682],[37.535143,47.514574],[37.534869,47.514267],[37.534007,47.514635]]]}},{"type":"Feature","properties":{"cadnum":"1421555900:01:000:0172"},"geometry":{"type":"Polygon","coordinates":[[[37.53406,47.517062],[37.534171,47.517187],[37.534171,47.517188],[37.53417,47.517188],[37.534222,47.517246],[37.534272,47.517304],[37.534273,47.517304],[37.534876,47.517987],[37.535196,47.518351],[37.535255,47.51833],[37.536468,47.517871],[37.535902,47.51719],[37.535902,47.517189],[37.535655,47.516895],[37.535655,47.516891],[37.535363,47.516537],[37.535166,47.516509],[37.534704,47.516698],[37.534137,47.516929],[37.53406,47.517062]]]}},{"type":"Feature","properties":{"cadnum":"1421555900:01:000:0210"},"geometry":{"type":"Polygon","coordinates":[[[37.53693,47.515654],[37.537079,47.515824],[37.537515,47.515663],[37.537357,47.515481],[37.53693,47.515654]]]}},{"type":"Feature","properties":{"cadnum":"1421555900:01:000:0016"},"geometry":{"type":"Polygon","coordinates":[[[37.537604,47.514814],[37.53768,47.514883],[37.537793,47.514838],[37.537716,47.514768],[37.537604,47.514814]]]}},{"type":"Feature","properties":{"cadnum":"1421555900:01:000:0212"},"geometry":{"type":"Polygon","coordinates":[[[37.53601,47.51587],[37.536104,47.515973],[37.536301,47.515897],[37.536208,47.515787],[37.53601,47.51587]]]}},{"type":"Feature","properties":{"cadnum":"1421555900:01:000:0274"},"geometry":{"type":"Polygon","coordinates":[[[37.539357,47.513655],[37.539567,47.513904],[37.540016,47.513728],[37.539797,47.513494],[37.539796,47.513494],[37.539524,47.513594],[37.539357,47.513655]]]}},{"type":"Feature","properties":{"cadnum":"1421555900:01:000:0208"},"geometry":{"type":"Polygon","coordinates":[[[37.534001,47.516328],[37.534258,47.51664],[37.534704,47.516475],[37.534775,47.516449],[37.534876,47.516442],[37.534909,47.516439],[37.535162,47.516328],[37.534865,47.515987],[37.534001,47.516328]]]}},{"type":"Feature","properties":{"cadnum":"1421555900:01:000:0023"},"geometry":{"type":"Polygon","coordinates":[[[37.536221,47.515766],[37.536244,47.515791],[37.53632,47.51576],[37.536301,47.515736],[37.536221,47.515766]]]}},{"type":"Feature","properties":{"cadnum":"1421555900:01:000:0176"},"geometry":{"type":"Polygon","coordinates":[[[37.53672,47.51583],[37.536778,47.515903],[37.536854,47.515875],[37.536791,47.515803],[37.53672,47.51583]]]}},{"type":"Feature","properties":{"cadnum":"1421555900:01:000:0197"},"geometry":{"type":"Polygon","coordinates":[[[37.537712,47.515357],[37.537852,47.515515],[37.538292,47.515335],[37.538152,47.515184],[37.537712,47.515357]]]}},{"type":"Feature","properties":{"cadnum":"1421555900:01:000:0224"},"geometry":{"type":"Polygon","coordinates":[[[37.534343,47.513889],[37.534357,47.513904],[37.534478,47.514046],[37.534541,47.514123],[37.534617,47.51421],[37.534704,47.514178],[37.534747,47.514161],[37.534747,47.514162],[37.534806,47.514228],[37.534876,47.5142],[37.534883,47.514198],[37.534793,47.514095],[37.534761,47.514044],[37.534829,47.514016],[37.534757,47.513931],[37.534644,47.513801],[37.534626,47.513783],[37.534343,47.513889]]]}},{"type":"Feature","properties":{"cadnum":"1421555900:01:000:0201"},"geometry":{"type":"Polygon","coordinates":[[[37.535435,47.516255],[37.535529,47.516373],[37.535762,47.516285],[37.535668,47.516167],[37.535435,47.516255]]]}},{"type":"Feature","properties":{"cadnum":"1421555900:01:000:0177"},"geometry":{"type":"Polygon","coordinates":[[[37.539837,47.514501],[37.53989,47.514574],[37.539963,47.514547],[37.539904,47.514474],[37.539837,47.514501]]]}},{"type":"Feature","properties":{"cadnum":"1421555900:01:000:0211"},"geometry":{"type":"Polygon","coordinates":[[[37.536391,47.515982],[37.536458,47.516061],[37.536774,47.515933],[37.536701,47.515854],[37.536391,47.515982]]]}},{"type":"Feature","properties":{"cadnum":"1421555900:01:000:0256"},"geometry":{"type":"Polygon","coordinates":[[[37.53963,47.513983],[37.539697,47.514058],[37.539707,47.514055],[37.539792,47.514025],[37.539733,47.513955],[37.539724,47.513946],[37.53963,47.513983]]]}},{"type":"Feature","properties":{"cadnum":"1421555900:01:000:0180"},"geometry":{"type":"Polygon","coordinates":[[[37.535426,47.515114],[37.535479,47.515178],[37.535561,47.515148],[37.535506,47.515084],[37.535426,47.515114]]]}},{"type":"Feature","properties":{"cadnum":"1421555900:01:000:0205"},"geometry":{"type":"Polygon","coordinates":[[[37.536204,47.515466],[37.536212,47.515475],[37.536315,47.515587],[37.536473,47.51576],[37.536693,47.515666],[37.53671,47.515675],[37.536711,47.515675],[37.536921,47.515596],[37.536643,47.515284],[37.536204,47.515466]]]}},{"type":"Feature","properties":{"cadnum":"1421555900:01:000:0258"},"geometry":{"type":"Polygon","coordinates":[[[37.536711,47.515272],[37.53693,47.515526],[37.537294,47.515387],[37.537079,47.51513],[37.536711,47.515272]]]}},{"type":"Feature","properties":{"cadnum":"1421555900:01:000:0230"},"geometry":{"type":"Polygon","coordinates":[[[37.541638,47.511452],[37.54188,47.511732],[37.542353,47.511544],[37.54211,47.511265],[37.541638,47.511452]]]}},{"type":"Feature","properties":{"cadnum":"1421555900:01:000:0122"},"geometry":{"type":"Polygon","coordinates":[[[37.539862,47.51159],[37.540098,47.511865],[37.540197,47.511828],[37.540197,47.511829],[37.540334,47.511777],[37.540097,47.511497],[37.539862,47.51159]]]}},{"type":"Feature","properties":{"cadnum":"1421555900:01:000:0047"},"geometry":{"type":"Polygon","coordinates":[[[37.541158,47.510206],[37.541391,47.510476],[37.541754,47.510333],[37.541521,47.51006],[37.541158,47.510206]]]}},{"type":"Feature","properties":{"cadnum":"1421555900:01:000:0221"},"geometry":{"type":"Polygon","coordinates":[[[37.540951,47.511231],[37.541184,47.51151],[37.541418,47.511422],[37.541179,47.51114],[37.540951,47.511231]]]}},{"type":"Feature","properties":{"cadnum":"1421555900:01:000:0010"},"geometry":{"type":"Polygon","coordinates":[[[37.541386,47.510552],[37.541391,47.510591],[37.541642,47.510898],[37.541925,47.5108],[37.541565,47.510448],[37.541386,47.510552]]]}},{"type":"Feature","properties":{"cadnum":"1421555900:01:000:0108"},"geometry":{"type":"Polygon","coordinates":[[[37.541705,47.51135],[37.541948,47.511629],[37.542424,47.511443],[37.542181,47.511164],[37.541705,47.51135]]]}},{"type":"Feature","properties":{"cadnum":"1421555900:01:000:0132"},"geometry":{"type":"Polygon","coordinates":[[[37.540565,47.511325],[37.540789,47.511607],[37.541022,47.511519],[37.540798,47.51124],[37.540565,47.511325]]]}},{"type":"Feature","properties":{"cadnum":"1421555900:02:000:0034"},"geometry":{"type":"Polygon","coordinates":[[[37.541821,47.509993],[37.541948,47.510278],[37.542204,47.510199],[37.542087,47.509902],[37.54198,47.509948],[37.541821,47.509993]]]}},{"type":"Feature","properties":{"cadnum":"1421555900:01:000:0240"},"geometry":{"type":"Polygon","coordinates":[[[37.53994,47.510415],[37.540183,47.510688],[37.540197,47.510682],[37.540337,47.510625],[37.540369,47.510612],[37.540407,47.510597],[37.540207,47.510366],[37.540173,47.510327],[37.53994,47.510415]]]}},{"type":"Feature","properties":{"cadnum":"1421555900:01:000:0140"},"geometry":{"type":"Polygon","coordinates":[[[37.540313,47.510203],[37.540358,47.510257],[37.540362,47.510254],[37.540429,47.510336],[37.540466,47.510379],[37.540546,47.510473],[37.540775,47.510388],[37.5406,47.510175],[37.540551,47.510114],[37.540502,47.510133],[37.540313,47.510203]]]}},{"type":"Feature","properties":{"cadnum":"1421555900:02:000:0001"},"geometry":{"type":"Polygon","coordinates":[[[37.544423,47.511456],[37.544953,47.511489],[37.54497,47.511353],[37.544445,47.511319],[37.544423,47.511456]]]}},{"type":"Feature","properties":{"cadnum":"1421555900:01:000:0247"},"geometry":{"type":"Polygon","coordinates":[[[37.540946,47.513046],[37.541158,47.513282],[37.541628,47.513106],[37.541408,47.512863],[37.540946,47.513046]]]}},{"type":"Feature","properties":{"cadnum":"1421555900:01:000:0052"},"geometry":{"type":"Polygon","coordinates":[[[37.539729,47.512375],[37.53994,47.51263],[37.540197,47.512523],[37.540259,47.512497],[37.540369,47.512451],[37.540399,47.512439],[37.540256,47.512269],[37.540183,47.51218],[37.539917,47.512295],[37.539729,47.512375]]]}},{"type":"Feature","properties":{"cadnum":"1421555900:01:000:0234"},"geometry":{"type":"Polygon","coordinates":[[[37.543098,47.51323],[37.54325,47.513412],[37.543942,47.513103],[37.543969,47.513091],[37.543816,47.512911],[37.543098,47.51323]]]}},{"type":"Feature","properties":{"cadnum":"1421555900:01:000:0382"},"geometry":{"type":"Polygon","coordinates":[[[37.541408,47.512863],[37.54162,47.513094],[37.541628,47.513106],[37.541867,47.513024],[37.541854,47.513009],[37.541665,47.512772],[37.541408,47.512863]]]}},{"type":"Feature","properties":{"cadnum":"1421555900:01:000:0031"},"geometry":{"type":"Polygon","coordinates":[[[37.540057,47.513066],[37.540197,47.513232],[37.540227,47.513267],[37.540369,47.513215],[37.540892,47.513024],[37.540716,47.512815],[37.54021,47.513008],[37.540057,47.513066]]]}},{"type":"Feature","properties":{"cadnum":"1421555900:01:000:0041"},"geometry":{"type":"Polygon","coordinates":[[[37.541207,47.511811],[37.541414,47.512059],[37.541957,47.511843],[37.54175,47.511598],[37.541404,47.511735],[37.541207,47.511811]]]}},{"type":"Feature","properties":{"cadnum":"1421555900:01:000:0042"},"geometry":{"type":"Polygon","coordinates":[[[37.541058,47.511868],[37.541269,47.51212],[37.541414,47.512059],[37.541207,47.511811],[37.541058,47.511868]]]}},{"type":"Feature","properties":{"cadnum":"1421555900:01:000:0119"},"geometry":{"type":"Polygon","coordinates":[[[37.541247,47.511535],[37.541404,47.511735],[37.54175,47.511598],[37.541584,47.511398],[37.541247,47.511535]]]}},{"type":"Feature","properties":{"cadnum":"1421555900:01:000:0163"},"geometry":{"type":"Polygon","coordinates":[[[37.540492,47.51141],[37.540726,47.511689],[37.540955,47.511602],[37.540726,47.511322],[37.540492,47.51141]]]}},{"type":"Feature","properties":{"cadnum":"1421555900:01:000:0116"},"geometry":{"type":"Polygon","coordinates":[[[37.540766,47.512423],[37.540816,47.512481],[37.540969,47.51242],[37.540919,47.512363],[37.540766,47.512423]]]}},{"type":"Feature","properties":{"cadnum":"1421555900:01:000:0246"},"geometry":{"type":"Polygon","coordinates":[[[37.541813,47.513115],[37.54202,47.513352],[37.542118,47.513315],[37.541907,47.513079],[37.541813,47.513115]]]}},{"type":"Feature","properties":{"cadnum":"1421555900:01:000:0249"},"geometry":{"type":"Polygon","coordinates":[[[37.541714,47.513151],[37.541925,47.513388],[37.54202,47.513352],[37.541813,47.513115],[37.541714,47.513151]]]}},{"type":"Feature","properties":{"cadnum":"1421555900:01:000:0048"},"geometry":{"type":"Polygon","coordinates":[[[37.542815,47.512706],[37.542963,47.512884],[37.543313,47.512751],[37.543165,47.512572],[37.542815,47.512706]]]}},{"type":"Feature","properties":{"cadnum":"1421555900:01:000:0020"},"geometry":{"type":"Polygon","coordinates":[[[37.540016,47.512724],[37.540197,47.512943],[37.540232,47.512985],[37.540369,47.512932],[37.540699,47.512805],[37.540479,47.512547],[37.540197,47.512655],[37.540016,47.512724]]]}},{"type":"Feature","properties":{"cadnum":"1421555900:01:000:0269"},"geometry":{"type":"Polygon","coordinates":[[[37.541665,47.512772],[37.541854,47.513009],[37.541867,47.513024],[37.542114,47.51293],[37.542104,47.512918],[37.541903,47.512678],[37.541665,47.512772]]]}},{"type":"Feature","properties":{"cadnum":"1421555900:01:000:0244"},"geometry":{"type":"Polygon","coordinates":[[[37.538184,47.509727],[37.538217,47.509767],[37.538262,47.509825],[37.538292,47.509862],[37.538308,47.509883],[37.538309,47.509883],[37.538404,47.510002],[37.538632,47.509914],[37.538562,47.509828],[37.538508,47.50976],[37.538391,47.509623],[37.538377,47.509605],[37.538184,47.509727]]]}},{"type":"Feature","properties":{"cadnum":"1421555900:01:000:0285"},"geometry":{"type":"Polygon","coordinates":[[[37.537622,47.509799],[37.537623,47.509799],[37.537692,47.509883],[37.537693,47.509883],[37.537942,47.510179],[37.538175,47.510087],[37.537903,47.509775],[37.537887,47.509756],[37.537712,47.509775],[37.537622,47.509799]]]}},{"type":"Feature","properties":{"cadnum":"1421555900:01:000:0219"},"geometry":{"type":"Polygon","coordinates":[[[37.538391,47.509623],[37.538605,47.509883],[37.538607,47.509883],[37.538632,47.509914],[37.538871,47.509823],[37.538921,47.509805],[37.539074,47.509666],[37.538938,47.50952],[37.538844,47.509438],[37.538391,47.509623]]]}},{"type":"Feature","properties":{"cadnum":"1421555900:01:000:0159"},"geometry":{"type":"Polygon","coordinates":[[[37.53733,47.509914],[37.537667,47.510287],[37.537942,47.510179],[37.537623,47.509799],[37.537622,47.509799],[37.537408,47.509883],[37.53733,47.509914]]]}},{"type":"Feature","properties":{"cadnum":"1421555900:02:000:0026"},"geometry":{"type":"Polygon","coordinates":[[[37.539428,47.509441],[37.539544,47.509581],[37.540282,47.509302],[37.540142,47.509113],[37.539985,47.509223],[37.539428,47.509441]]]}},{"type":"Feature","properties":{"cadnum":"1421555900:01:000:0278"},"geometry":{"type":"Polygon","coordinates":[[[37.5349,47.51937],[37.534946,47.51958],[37.534959,47.519646],[37.534972,47.519643],[37.534913,47.519367],[37.5349,47.51937]]]}},{"type":"Feature","properties":{"cadnum":"1421555900:01:000:0080"},"geometry":{"type":"Polygon","coordinates":[[[37.539177,47.51752],[37.539307,47.517632],[37.539437,47.517563],[37.539307,47.51745],[37.539177,47.51752]]]}},{"type":"Feature","properties":{"cadnum":"1421555900:01:000:0277"},"geometry":{"type":"Polygon","coordinates":[[[37.534913,47.519367],[37.534972,47.519643],[37.535596,47.519528],[37.535525,47.519249],[37.534913,47.519367]]]}},{"type":"Feature","properties":{"cadnum":"1421555900:01:000:0252"},"geometry":{"type":"Polygon","coordinates":[[[37.534693,47.518888],[37.534704,47.518903],[37.534747,47.518964],[37.534876,47.518918],[37.534876,47.518917],[37.535255,47.518779],[37.535085,47.518582],[37.534739,47.518721],[37.534823,47.518836],[37.534693,47.518888]]]}},{"type":"Feature","properties":{"cadnum":"1421555900:01:000:0139"},"geometry":{"type":"Polygon","coordinates":[[[37.534141,47.519713],[37.534187,47.519879],[37.534704,47.519828],[37.535066,47.519792],[37.535053,47.519728],[37.53503,47.519616],[37.534802,47.51964],[37.534141,47.519713]]]}},{"type":"Feature","properties":{"cadnum":"1421555900:01:000:0143"},"geometry":{"type":"Polygon","coordinates":[[[37.538305,47.518033],[37.538512,47.51829],[37.538458,47.518399],[37.538341,47.518429],[37.538669,47.518524],[37.538606,47.518442],[37.538714,47.518263],[37.538781,47.518242],[37.538835,47.518318],[37.539037,47.518254],[37.538984,47.518181],[37.539154,47.51813],[37.539284,47.51799],[37.539033,47.517817],[37.538305,47.518033]]]}},{"type":"Feature","properties":{"cadnum":"1421555900:01:000:0022"},"geometry":{"type":"Polygon","coordinates":[[[37.534254,47.520207],[37.53429,47.52038],[37.534876,47.520324],[37.535286,47.520283],[37.535251,47.520108],[37.534814,47.520152],[37.534254,47.520207]]]}},{"type":"Feature","properties":{"cadnum":"1421555900:01:000:0231"},"geometry":{"type":"Polygon","coordinates":[[[37.535561,47.518946],[37.535929,47.519962],[37.536082,47.520071],[37.537034,47.520156],[37.537196,47.519598],[37.537726,47.518397],[37.537411,47.518305],[37.537133,47.518263],[37.536908,47.518296],[37.535609,47.518867],[37.535561,47.518946]]]}},{"type":"Feature","properties":{"cadnum":"1421555900:01:000:0019"},"geometry":{"type":"Polygon","coordinates":[[[37.534105,47.519522],[37.534141,47.519683],[37.534704,47.519647],[37.534802,47.51964],[37.534876,47.519633],[37.534876,47.519632],[37.53503,47.519616],[37.53499,47.519404],[37.534704,47.519442],[37.534105,47.519522]]]}},{"type":"Feature","properties":{"cadnum":"1421555900:01:000:0064"},"geometry":{"type":"Polygon","coordinates":[[[37.535188,47.519697],[37.535242,47.519977],[37.535435,47.519958],[37.535439,47.519986],[37.535839,47.519944],[37.535736,47.519622],[37.535188,47.519697]]]}},{"type":"Feature","properties":{"cadnum":"1421555900:01:000:0077"},"geometry":{"type":"Polygon","coordinates":[[[37.53416,47.518872],[37.534307,47.519036],[37.534704,47.518882],[37.534704,47.518883],[37.534824,47.518836],[37.534685,47.518645],[37.53416,47.518872]]]}},{"type":"Feature","properties":{"cadnum":"1421555900:01:000:0216"},"geometry":{"type":"Polygon","coordinates":[[[37.534959,47.519646],[37.53499,47.519795],[37.535009,47.519907],[37.535143,47.519886],[37.535682,47.519792],[37.535596,47.519528],[37.534959,47.519646]]]}},{"type":"Feature","properties":{"cadnum":"1421555900:01:000:0106"},"geometry":{"type":"Polygon","coordinates":[[[37.535255,47.51833],[37.535471,47.518588],[37.536791,47.518087],[37.53658,47.517829],[37.535255,47.51833]]]}},{"type":"Feature","properties":{"cadnum":"1421555900:02:000:0011"},"geometry":{"type":"Polygon","coordinates":[[[37.552517,47.515894],[37.553163,47.515924],[37.553186,47.515703],[37.552538,47.515672],[37.552517,47.515894]]]}},{"type":"Feature","properties":{"cadnum":"1421555900:02:000:0031"},"geometry":{"type":"Polygon","coordinates":[[[37.552538,47.515672],[37.553186,47.515703],[37.553207,47.515484],[37.552561,47.515454],[37.552538,47.515672]]]}},{"type":"Feature","properties":{"cadnum":"1421555900:02:000:0028"},"geometry":{"type":"Polygon","coordinates":[[[37.552072,47.514905],[37.552705,47.514935],[37.552727,47.51471],[37.552094,47.51468],[37.552072,47.514905]]]}},{"type":"Feature","properties":{"cadnum":"1421555900:02:000:0024"},"geometry":{"type":"Polygon","coordinates":[[[37.551412,47.515099],[37.552049,47.51513],[37.552072,47.514905],[37.551434,47.514874],[37.551412,47.515099]]]}},{"type":"Feature","properties":{"cadnum":"1421555900:02:000:0019"},"geometry":{"type":"Polygon","coordinates":[[[37.553392,47.514766],[37.553393,47.514766],[37.554021,47.514795],[37.554043,47.514568],[37.553415,47.514537],[37.553392,47.514766]]]}},{"type":"Feature","properties":{"cadnum":"1421555900:02:000:0027"},"geometry":{"type":"Polygon","coordinates":[[[37.554461,47.516643],[37.555113,47.516677],[37.555135,47.516458],[37.554484,47.516425],[37.554461,47.516643]]]}},{"type":"Feature","properties":{"cadnum":"1421555900:01:000:0101"},"geometry":{"type":"Polygon","coordinates":[[[37.536913,47.51019],[37.536963,47.51026],[37.537007,47.510242],[37.536957,47.510175],[37.536913,47.51019]]]}},{"type":"Feature","properties":{"cadnum":"1421555900:01:000:0264"},"geometry":{"type":"Polygon","coordinates":[[[37.538026,47.510646],[37.538288,47.510934],[37.538296,47.510943],[37.538516,47.510855],[37.538512,47.510846],[37.538246,47.510554],[37.538026,47.510646]]]}},{"type":"Feature","properties":{"cadnum":"1421555900:01:000:0063"},"geometry":{"type":"Polygon","coordinates":[[[37.538426,47.510946],[37.538646,47.511225],[37.53888,47.51114],[37.53866,47.510861],[37.538426,47.510946]]]}},{"type":"Feature","properties":{"cadnum":"1421555900:01:000:0121"},"geometry":{"type":"Polygon","coordinates":[[[37.536438,47.510344],[37.536489,47.510415],[37.536537,47.510399],[37.536485,47.510328],[37.536438,47.510344]]]}},{"type":"Feature","properties":{"cadnum":"1421555900:01:000:0222"},"geometry":{"type":"Polygon","coordinates":[[[37.538691,47.509978],[37.538705,47.509993],[37.538718,47.510008],[37.538957,47.510287],[37.539154,47.510212],[37.539181,47.510203],[37.538938,47.509918],[37.538925,47.509902],[37.538915,47.50989],[37.538691,47.509978]]]}},{"type":"Feature","properties":{"cadnum":"1421555900:01:000:0129"},"geometry":{"type":"Polygon","coordinates":[[[37.536135,47.510921],[37.536175,47.510968],[37.536217,47.510952],[37.536175,47.510907],[37.536135,47.510921]]]}},{"type":"Feature","properties":{"cadnum":"1421555900:01:000:0137"},"geometry":{"type":"Polygon","coordinates":[[[37.535529,47.511398],[37.535624,47.511447],[37.535651,47.511425],[37.535624,47.51141],[37.535556,47.511373],[37.535529,47.511398]]]}},{"type":"Feature","properties":{"cadnum":"1421555900:01:000:0084"},"geometry":{"type":"Polygon","coordinates":[[[37.539716,47.510503],[37.539963,47.510776],[37.540183,47.510688],[37.53994,47.510415],[37.539716,47.510503]]]}},{"type":"Feature","properties":{"cadnum":"1421555900:01:000:0155"},"geometry":{"type":"Polygon","coordinates":[[[37.53742,47.511753],[37.53764,47.512029],[37.537909,47.511923],[37.537667,47.51165],[37.53742,47.511753]]]}},{"type":"Feature","properties":{"cadnum":"1421555900:01:000:0218"},"geometry":{"type":"Polygon","coordinates":[[[37.537267,47.511589],[37.537393,47.511732],[37.537406,47.511726],[37.537407,47.511726],[37.537439,47.511762],[37.537456,47.511753],[37.537447,47.511741],[37.537676,47.51165],[37.537533,47.511486],[37.537443,47.511519],[37.537335,47.511564],[37.537267,47.511589]]]}},{"type":"Feature","properties":{"cadnum":"1421555900:01:000:0259"},"geometry":{"type":"Polygon","coordinates":[[[37.53768,47.51165],[37.537915,47.511926],[37.538139,47.511838],[37.537909,47.511562],[37.53768,47.51165]]]}},{"type":"Feature","properties":{"cadnum":"1421555900:01:000:0261"},"geometry":{"type":"Polygon","coordinates":[[[37.539024,47.510766],[37.539257,47.511046],[37.539491,47.510952],[37.539261,47.510679],[37.539024,47.510766]]]}},{"type":"Feature","properties":{"cadnum":"1421555900:01:000:0123"},"geometry":{"type":"Polygon","coordinates":[[[37.536311,47.51097],[37.536397,47.51107],[37.536445,47.511049],[37.53636,47.510949],[37.536311,47.51097]]]}},{"type":"Feature","properties":{"cadnum":"1421555900:01:000:0138"},"geometry":{"type":"Polygon","coordinates":[[[37.53654,47.510469],[37.53658,47.510516],[37.536625,47.510496],[37.53659,47.510451],[37.53654,47.510469]]]}},{"type":"Feature","properties":{"cadnum":"1421555900:01:000:0133"},"geometry":{"type":"Polygon","coordinates":[[[37.536212,47.510813],[37.536275,47.510843],[37.536311,47.510809],[37.536248,47.510776],[37.536212,47.510813]]]}},{"type":"Feature","properties":{"cadnum":"1421555900:01:000:0009"},"geometry":{"type":"Polygon","coordinates":[[[37.538494,47.511249],[37.538718,47.511526],[37.538951,47.511443],[37.538732,47.511161],[37.538494,47.511249]]]}},{"type":"Feature","properties":{"cadnum":"1421555900:01:000:0115"},"geometry":{"type":"Polygon","coordinates":[[[37.538646,47.511225],[37.538854,47.511507],[37.539091,47.511425],[37.53888,47.511143],[37.538646,47.511225]]]}},{"type":"Feature","properties":{"cadnum":"1421555900:01:000:0008"},"geometry":{"type":"Polygon","coordinates":[[[37.538764,47.511629],[37.538957,47.511856],[37.539018,47.511829],[37.539019,47.511829],[37.539064,47.511881],[37.539271,47.511798],[37.539019,47.511526],[37.538764,47.511629]]]}},{"type":"Feature","properties":{"cadnum":"1421555900:01:000:0068"},"geometry":{"type":"Polygon","coordinates":[[[37.539033,47.513124],[37.539248,47.513388],[37.53976,47.513181],[37.53955,47.512918],[37.539033,47.513124]]]}},{"type":"Feature","properties":{"cadnum":"1421555900:01:000:0059"},"geometry":{"type":"Polygon","coordinates":[[[37.53915,47.512414],[37.539324,47.512621],[37.539441,47.512572],[37.539643,47.51249],[37.53946,47.512293],[37.53915,47.512414]]]}},{"type":"Feature","properties":{"cadnum":"1421555900:01:000:0046"},"geometry":{"type":"Polygon","coordinates":[[[37.538534,47.512882],[37.538615,47.512978],[37.538772,47.512918],[37.538691,47.512821],[37.538534,47.512882]]]}},{"type":"Feature","properties":{"cadnum":"1421555900:01:000:0170"},"geometry":{"type":"Polygon","coordinates":[[[37.53464,47.512536],[37.534704,47.512612],[37.534704,47.512613],[37.535039,47.513009],[37.535498,47.51283],[37.535093,47.51236],[37.534876,47.512444],[37.53464,47.512536]]]}},{"type":"Feature","properties":{"cadnum":"1421555900:01:000:0045"},"geometry":{"type":"Polygon","coordinates":[[[37.53508,47.512338],[37.535592,47.512942],[37.536311,47.512639],[37.536364,47.512614],[37.535852,47.51202],[37.53508,47.512338]]]}},{"type":"Feature","properties":{"cadnum":"1421555900:01:000:0142"},"geometry":{"type":"Polygon","coordinates":[[[37.538682,47.512099],[37.538925,47.512384],[37.539158,47.512295],[37.538921,47.512005],[37.538889,47.512016],[37.538888,47.512016],[37.53888,47.512007],[37.538835,47.512026],[37.538844,47.512034],[37.538844,47.512035],[37.538682,47.512099]]]}},{"type":"Feature","properties":{"cadnum":"1421555900:01:000:0032"},"geometry":{"type":"Polygon","coordinates":[[[37.53999,47.513091],[37.540165,47.513291],[37.540227,47.513267],[37.540057,47.513066],[37.53999,47.513091]]]}},{"type":"Feature","properties":{"cadnum":"1421555900:01:000:0179"},"geometry":{"type":"Polygon","coordinates":[[[37.536001,47.512117],[37.536055,47.512178],[37.536135,47.512147],[37.536082,47.512084],[37.536001,47.512117]]]}},{"type":"Feature","properties":{"cadnum":"1421555900:01:000:0199"},"geometry":{"type":"Polygon","coordinates":[[[37.535682,47.51299],[37.535955,47.513297],[37.537896,47.512542],[37.537618,47.512226],[37.535682,47.51299]]]}},{"type":"Feature","properties":{"cadnum":"1421555900:01:000:0104"},"geometry":{"type":"Polygon","coordinates":[[[37.536841,47.510694],[37.537101,47.511013],[37.53733,47.510925],[37.537074,47.510603],[37.536841,47.510694]]]}},{"type":"Feature","properties":{"cadnum":"1421555900:01:000:0057"},"geometry":{"type":"Polygon","coordinates":[[[37.538844,47.512536],[37.539024,47.512738],[37.539324,47.512621],[37.53915,47.512414],[37.538844,47.512536]]]}},{"type":"Feature","properties":{"cadnum":"1421555900:01:000:0109"},"geometry":{"type":"Polygon","coordinates":[[[37.538229,47.512284],[37.538449,47.512563],[37.538678,47.512478],[37.538449,47.512196],[37.538282,47.512263],[37.538229,47.512284]]]}},{"type":"Feature","properties":{"cadnum":"1421555900:01:000:0290"},"geometry":{"type":"Polygon","coordinates":[[[37.537326,47.510518],[37.537339,47.510536],[37.537582,47.510827],[37.537806,47.510727],[37.537559,47.510448],[37.537546,47.51043],[37.537326,47.510518]]]}},{"type":"Feature","properties":{"cadnum":"1421555900:01:000:0283"},"geometry":{"type":"Polygon","coordinates":[[[37.538246,47.510557],[37.538512,47.510846],[37.538516,47.510855],[37.538736,47.51077],[37.538728,47.510761],[37.538471,47.510467],[37.538269,47.510548],[37.538246,47.510557]]]}},{"type":"Feature","properties":{"cadnum":"1421555900:01:000:0157"},"geometry":{"type":"Polygon","coordinates":[[[37.538009,47.510251],[37.538269,47.510548],[37.538498,47.510458],[37.538238,47.51016],[37.538009,47.510251]]]}},{"type":"Feature","properties":{"cadnum":"1421555900:01:000:0028"},"geometry":{"type":"Polygon","coordinates":[[[37.538188,47.511034],[37.538412,47.51131],[37.538646,47.511225],[37.538426,47.510946],[37.538188,47.511034]]]}},{"type":"Feature","properties":{"cadnum":"1421555900:01:000:0167"},"geometry":{"type":"Polygon","coordinates":[[[37.538929,47.511647],[37.539167,47.511926],[37.53941,47.511838],[37.539171,47.511553],[37.538929,47.511647]]]}},{"type":"Feature","properties":{"cadnum":"1421555900:01:000:0260"},"geometry":{"type":"Polygon","coordinates":[[[37.537191,47.511504],[37.537267,47.511589],[37.537335,47.511564],[37.537443,47.511519],[37.537533,47.511486],[37.537439,47.51138],[37.5372,47.51147],[37.537217,47.511492],[37.537191,47.511504]]]}},{"type":"Feature","properties":{"cadnum":"1421555900:01:000:0161"},"geometry":{"type":"Polygon","coordinates":[[[37.537582,47.510827],[37.537838,47.511128],[37.538062,47.511037],[37.537806,47.510727],[37.537582,47.510827]]]}},{"type":"Feature","properties":{"cadnum":"1421555900:01:000:0245"},"geometry":{"type":"Polygon","coordinates":[[[37.537909,47.511562],[37.538129,47.511829],[37.538139,47.511838],[37.538323,47.511768],[37.538382,47.511747],[37.538372,47.511737],[37.538314,47.511668],[37.538305,47.511671],[37.538139,47.511474],[37.537909,47.511562]]]}},{"type":"Feature","properties":{"cadnum":"1421555900:01:000:0125"},"geometry":{"type":"Polygon","coordinates":[[[37.5393,47.512771],[37.539366,47.512848],[37.539483,47.512804],[37.539417,47.512726],[37.5393,47.512771]]]}},{"type":"Feature","properties":{"cadnum":"1421555900:01:000:0153"},"geometry":{"type":"Polygon","coordinates":[[[37.536261,47.511092],[37.536311,47.511134],[37.536347,47.511112],[37.536297,47.51107],[37.536261,47.511092]]]}},{"type":"Feature","properties":{"cadnum":"1421555900:01:000:0069"},"geometry":{"type":"Polygon","coordinates":[[[37.53955,47.512918],[37.53976,47.513181],[37.539989,47.513091],[37.539774,47.512827],[37.53955,47.512918]]]}},{"type":"Feature","properties":{"cadnum":"1421555900:01:000:0250"},"geometry":{"type":"Polygon","coordinates":[[[37.538238,47.51016],[37.538255,47.510175],[37.538498,47.510458],[37.538691,47.510381],[37.538714,47.510372],[37.538475,47.510091],[37.538458,47.510073],[37.538238,47.510157],[37.538238,47.51016]]]}},{"type":"Feature","properties":{"cadnum":"1421555900:02:000:0006"},"geometry":{"type":"Polygon","coordinates":[[[37.550356,47.509475],[37.551184,47.509515],[37.551303,47.509521],[37.551355,47.509524],[37.551355,47.509523],[37.551416,47.509526],[37.551429,47.50939],[37.551184,47.509378],[37.55037,47.509338],[37.550356,47.509475]]]}},{"type":"Feature","properties":{"cadnum":"1421555900:02:000:0004"},"geometry":{"type":"Polygon","coordinates":[[[37.551488,47.508267],[37.552283,47.508303],[37.552291,47.508212],[37.551496,47.508176],[37.551488,47.508267]]]}},{"type":"Feature","properties":{"cadnum":"1421555900:02:000:0017"},"geometry":{"type":"Polygon","coordinates":[[[37.554416,47.508106],[37.555077,47.50813],[37.555085,47.508027],[37.554425,47.508],[37.554416,47.508106]]]}},{"type":"Feature","properties":{"cadnum":"1421555900:02:000:0022"},"geometry":{"type":"Polygon","coordinates":[[[37.555058,47.508573],[37.555719,47.50861],[37.555727,47.508504],[37.555068,47.508467],[37.555058,47.508573]]]}},{"type":"Feature","properties":{"cadnum":"1421555900:02:000:0009"},"geometry":{"type":"Polygon","coordinates":[[[37.55588,47.509596],[37.55632,47.509621],[37.556334,47.509453],[37.555899,47.509432],[37.55588,47.509596]]]}},{"type":"Feature","properties":{"cadnum":"1421555900:02:000:0008"},"geometry":{"type":"Polygon","coordinates":[[[37.55509,47.508252],[37.555754,47.508288],[37.555764,47.508182],[37.555104,47.508142],[37.55509,47.508252]]]}},{"type":"Feature","properties":{"cadnum":"1421555900:02:000:0030"},"geometry":{"type":"Polygon","coordinates":[[[37.55297,47.50618],[37.553307,47.506194],[37.553321,47.506057],[37.553352,47.50577],[37.553014,47.505755],[37.552982,47.506057],[37.552979,47.506084],[37.55297,47.506173],[37.552971,47.506173],[37.55297,47.50618]]]}},{"type":"Feature","properties":{"cadnum":"1421555900:02:000:0007"},"geometry":{"type":"Polygon","coordinates":[[[37.555324,47.509896],[37.555754,47.50992],[37.555758,47.509883],[37.555773,47.509754],[37.555341,47.509732],[37.555337,47.509767],[37.555324,47.509896]]]}},{"type":"Feature","properties":{"cadnum":"1421555900:02:000:0039"},"geometry":{"type":"Polygon","coordinates":[[[37.55253,47.506783],[37.552867,47.506801],[37.552916,47.506377],[37.55258,47.506358],[37.55253,47.506783]]]}},{"type":"Feature","properties":{"cadnum":"1421555900:02:000:0040"},"geometry":{"type":"Polygon","coordinates":[[[37.552561,47.507272],[37.55288,47.507287],[37.552924,47.506868],[37.55293,47.506841],[37.552611,47.506823],[37.552607,47.506853],[37.552561,47.507272]]]}},{"type":"Feature","properties":{"cadnum":"1421555900:02:000:0036"},"geometry":{"type":"Polygon","coordinates":[[[37.552611,47.506352],[37.552943,47.506371],[37.552972,47.506094],[37.552987,47.505943],[37.552656,47.505928],[37.552642,47.506057],[37.552641,47.506057],[37.552611,47.506352]]]}},{"type":"Feature","properties":{"cadnum":"1421555900:02:000:0037"},"geometry":{"type":"Polygon","coordinates":[[[37.553289,47.506386],[37.553622,47.506401],[37.553649,47.506131],[37.553666,47.505976],[37.553333,47.505961],[37.553323,47.506057],[37.553315,47.506128],[37.553311,47.506173],[37.553289,47.506386]]]}},{"type":"Feature","properties":{"cadnum":"1421555900:02:000:0038"},"geometry":{"type":"Polygon","coordinates":[[[37.552194,47.506765],[37.55253,47.506783],[37.55258,47.506358],[37.552247,47.50634],[37.552194,47.506765]]]}},{"type":"Feature","properties":{"cadnum":"1421555900:01:000:0135"},"geometry":{"type":"Polygon","coordinates":[[[37.530265,47.522176],[37.530305,47.5223],[37.531531,47.522127],[37.531478,47.521972],[37.530265,47.522176]]]}},{"type":"Feature","properties":{"cadnum":"1421555900:01:000:0174"},"geometry":{"type":"Polygon","coordinates":[[[37.528886,47.517298],[37.528886,47.517304],[37.528887,47.517304],[37.528927,47.517678],[37.529211,47.518021],[37.529304,47.518132],[37.529383,47.518176],[37.529383,47.518175],[37.529992,47.518503],[37.530642,47.518879],[37.531172,47.519252],[37.531518,47.51958],[37.531554,47.519737],[37.531401,47.520077],[37.531137,47.52052],[37.531067,47.520897],[37.531066,47.520897],[37.531051,47.520981],[37.53107,47.521013],[37.531071,47.521013],[37.531258,47.521318],[37.531311,47.521412],[37.532259,47.521369],[37.532501,47.520897],[37.5325,47.520897],[37.532573,47.520756],[37.532628,47.520653],[37.532601,47.520508],[37.532601,47.520486],[37.532892,47.520329],[37.532992,47.520295],[37.533288,47.520198],[37.533458,47.519892],[37.533342,47.51954],[37.533018,47.519264],[37.532705,47.518545],[37.532399,47.518157],[37.531478,47.517881],[37.531478,47.51788],[37.531388,47.51729],[37.531357,47.517074],[37.531357,47.517073],[37.531455,47.51692],[37.531464,47.516834],[37.531478,47.516709],[37.531496,47.516691],[37.531531,47.516655],[37.531491,47.516555],[37.530072,47.516364],[37.529965,47.516349],[37.529497,47.516285],[37.529407,47.516516],[37.529309,47.516602],[37.529034,47.516843],[37.528922,47.517188],[37.528921,47.517188],[37.528886,47.517298]]]}},{"type":"Feature","properties":{"cadnum":"1421555900:01:000:0286"},"geometry":{"type":"Polygon","coordinates":[[[37.531221,47.523853],[37.531406,47.523869],[37.531464,47.523784],[37.531671,47.52368],[37.531663,47.523389],[37.531227,47.523395],[37.531221,47.523853]]]}},{"type":"Feature","properties":{"cadnum":"1421555900:01:000:0287"},"geometry":{"type":"Polygon","coordinates":[[[37.530678,47.523808],[37.531221,47.523853],[37.531227,47.523395],[37.530718,47.523404],[37.530678,47.523808]]]}},{"type":"Feature","properties":{"cadnum":"1421555900:01:000:0272"},"geometry":{"type":"Polygon","coordinates":[[[37.533841,47.522624],[37.533904,47.522892],[37.534567,47.522858],[37.534506,47.522592],[37.533841,47.522624]]]}},{"type":"Feature","properties":{"cadnum":"1421555900:01:000:0271"},"geometry":{"type":"Polygon","coordinates":[[[37.533718,47.522109],[37.533778,47.522358],[37.534443,47.522325],[37.534374,47.522039],[37.533718,47.522109]]]}},{"type":"Feature","properties":{"cadnum":"1421555900:01:000:0070"},"geometry":{"type":"Polygon","coordinates":[[[37.533778,47.522358],[37.533841,47.522624],[37.534506,47.522592],[37.534443,47.522325],[37.533778,47.522358]]]}},{"type":"Feature","properties":{"cadnum":"1421555900:01:000:0191"},"geometry":{"type":"Polygon","coordinates":[[[37.532803,47.515694],[37.532974,47.515912],[37.533409,47.515745],[37.533221,47.515526],[37.532803,47.515694]]]}},{"type":"Feature","properties":{"cadnum":"1421555900:01:000:0146"},"geometry":{"type":"Polygon","coordinates":[[[37.532839,47.516106],[37.532888,47.51616],[37.533001,47.516115],[37.532951,47.516061],[37.532839,47.516106]]]}},{"type":"Feature","properties":{"cadnum":"1421555900:01:000:0029"},"geometry":{"type":"Polygon","coordinates":[[[37.53172,47.516804],[37.531976,47.517125],[37.532043,47.517129],[37.532345,47.517026],[37.53238,47.517004],[37.53225,47.516798],[37.532129,47.516659],[37.53172,47.516804]]]}},{"type":"Feature","properties":{"cadnum":"1421555900:01:000:0217"},"geometry":{"type":"Polygon","coordinates":[[[37.533063,47.513585],[37.533068,47.513594],[37.533069,47.513594],[37.533238,47.51381],[37.53389,47.513552],[37.533889,47.513551],[37.533705,47.513334],[37.533338,47.513478],[37.533063,47.513585]]]}},{"type":"Feature","properties":{"cadnum":"1421555900:01:000:0030"},"geometry":{"type":"Polygon","coordinates":[[[37.531693,47.516695],[37.531752,47.516774],[37.53172,47.516804],[37.532129,47.516659],[37.532039,47.516552],[37.531724,47.516534],[37.531774,47.516625],[37.531693,47.516695]]]}},{"type":"Feature","properties":{"cadnum":"1421555900:01:000:0275"},"geometry":{"type":"Polygon","coordinates":[[[37.532165,47.51654],[37.532166,47.51654],[37.53256,47.516567],[37.532663,47.516564],[37.532735,47.51654],[37.532888,47.516482],[37.532879,47.51647],[37.532924,47.516455],[37.532925,47.516455],[37.532938,47.51647],[37.533198,47.516373],[37.533022,47.516173],[37.532165,47.51654]]]}},{"type":"Feature","properties":{"cadnum":"1421555900:01:000:0158"},"geometry":{"type":"Polygon","coordinates":[[[37.533032,47.516891],[37.533208,47.517089],[37.533665,47.516913],[37.533485,47.516707],[37.533032,47.516891]]]}},{"type":"Feature","properties":{"cadnum":"1421555900:01:000:0175"},"geometry":{"type":"Polygon","coordinates":[[[37.533324,47.515269],[37.533364,47.515317],[37.533472,47.515275],[37.533432,47.515229],[37.533431,47.515229],[37.533324,47.515269]]]}},{"type":"Feature","properties":{"cadnum":"1421555900:01:000:0209"},"geometry":{"type":"Polygon","coordinates":[[[37.533135,47.516057],[37.533382,47.51634],[37.534716,47.515809],[37.534546,47.515612],[37.53345,47.516036],[37.533301,47.515997],[37.533135,47.516057]]]}},{"type":"Feature","properties":{"cadnum":"1421555900:01:000:0241"},"geometry":{"type":"Polygon","coordinates":[[[37.550226,47.518609],[37.551355,47.518757],[37.551569,47.518784],[37.552911,47.518964],[37.554547,47.519061],[37.556182,47.519161],[37.556276,47.518102],[37.556196,47.518099],[37.556195,47.518099],[37.556199,47.518038],[37.553779,47.517948],[37.553536,47.517954],[37.553374,47.517945],[37.553217,47.517917],[37.551798,47.517844],[37.551628,47.517878],[37.551565,47.517875],[37.551393,47.517823],[37.551335,47.517825],[37.55072,47.517835],[37.5504,47.517853],[37.550486,47.518188],[37.550226,47.518609]]]}},{"type":"Feature","properties":{"cadnum":"1421555900:02:000:0021"},"geometry":{"type":"Polygon","coordinates":[[[37.555287,47.510227],[37.555719,47.510251],[37.555737,47.510084],[37.555306,47.510063],[37.555287,47.510227]]]}},{"type":"Feature","properties":{"cadnum":"1421555900:02:000:0041"},"geometry":{"type":"Polygon","coordinates":[[[37.554762,47.510227],[37.555194,47.510254],[37.555216,47.510091],[37.554785,47.510063],[37.554762,47.510227]]]}},{"type":"Feature","properties":{"cadnum":"1421555900:02:000:0003"},"geometry":{"type":"Polygon","coordinates":[[[37.552924,47.510564],[37.553222,47.510582],[37.553257,47.510345],[37.552961,47.510324],[37.552924,47.510564]]]}},{"type":"Feature","properties":{"cadnum":"1421555900:02:000:0016"},"geometry":{"type":"Polygon","coordinates":[[[37.554236,47.510063],[37.554762,47.510093],[37.554781,47.50996],[37.554249,47.509929],[37.554236,47.510063]]]}},{"type":"Feature","properties":{"cadnum":"1421555900:01:000:0254"},"geometry":{"type":"Polygon","coordinates":[[[37.533135,47.519361],[37.533342,47.51954],[37.533225,47.519352],[37.533135,47.519361]]]}},{"type":"Feature","properties":{"cadnum":"1421555900:01:000:0134"},"geometry":{"type":"Polygon","coordinates":[[[37.532946,47.520329],[37.532992,47.520459],[37.533554,47.520329],[37.533665,47.520292],[37.533692,47.520274],[37.534001,47.520229],[37.53398,47.520117],[37.533401,47.520201],[37.532946,47.520329]]]}},{"type":"Feature","properties":{"cadnum":"1421555900:01:000:0049"},"geometry":{"type":"Polygon","coordinates":[[[37.532745,47.52052],[37.532848,47.520653],[37.533225,47.520569],[37.533481,47.520499],[37.533539,47.52041],[37.533584,47.520387],[37.533768,47.520353],[37.533773,47.520374],[37.53398,47.520344],[37.534024,47.520338],[37.534001,47.520229],[37.533692,47.520274],[37.533665,47.520292],[37.533554,47.520329],[37.532745,47.52052]]]}},{"type":"Feature","properties":{"cadnum":"1421555900:01:000:0033"},"geometry":{"type":"Polygon","coordinates":[[[37.532206,47.517647],[37.532282,47.517768],[37.532772,47.517826],[37.533001,47.517754],[37.532808,47.517523],[37.532579,47.51759],[37.532206,47.517647]]]}},{"type":"Feature","properties":{"cadnum":"1421555900:01:000:0164"},"geometry":{"type":"Polygon","coordinates":[[[37.531567,47.517341],[37.531581,47.517547],[37.531594,47.517599],[37.531801,47.517577],[37.531819,47.517608],[37.531909,47.517583],[37.532628,47.517426],[37.532569,47.517362],[37.532192,47.517368],[37.532043,47.517365],[37.531806,47.517359],[37.531747,47.517362],[37.531743,47.517365],[37.531724,47.517334],[37.53172,47.517334],[37.531567,47.517341]]]}},{"type":"Feature","properties":{"cadnum":"1421555900:01:000:0166"},"geometry":{"type":"Polygon","coordinates":[[[37.533257,47.52028],[37.533332,47.520368],[37.533342,47.520365],[37.533615,47.52032],[37.533921,47.520283],[37.533926,47.520283],[37.533885,47.520099],[37.533917,47.520092],[37.533908,47.520065],[37.533877,47.520068],[37.53385,47.519944],[37.533845,47.519944],[37.533701,47.519962],[37.533454,47.519971],[37.533427,47.520205],[37.533257,47.52028]]]}},{"type":"Feature","properties":{"cadnum":"1421555900:01:000:0165"},"geometry":{"type":"Polygon","coordinates":[[[37.531594,47.517599],[37.531621,47.517708],[37.531787,47.517705],[37.532525,47.517532],[37.53265,47.517502],[37.532691,47.517489],[37.532628,47.517426],[37.531909,47.517583],[37.53182,47.517608],[37.531819,47.517608],[37.531801,47.517577],[37.531594,47.517599]]]}},{"type":"Feature","properties":{"cadnum":"1421555900:01:000:0257"},"geometry":{"type":"Polygon","coordinates":[[[37.533225,47.519352],[37.533342,47.51954],[37.533464,47.519771],[37.533804,47.519731],[37.53371,47.519306],[37.533225,47.519352]]]}},{"type":"Feature","properties":{"cadnum":"1421555900:01:000:0097"},"geometry":{"type":"Polygon","coordinates":[[[37.53376,47.518427],[37.533961,47.518654],[37.53451,47.518442],[37.534303,47.518224],[37.53376,47.518427]]]}},{"type":"Feature","properties":{"cadnum":"1421555900:01:000:0100"},"geometry":{"type":"Polygon","coordinates":[[[37.525544,47.517068],[37.525589,47.517116],[37.525638,47.517095],[37.525598,47.517046],[37.525544,47.517068]]]}},{"type":"Feature","properties":{"cadnum":"1421555900:01:000:0036"},"geometry":{"type":"Polygon","coordinates":[[[37.525814,47.517041],[37.525845,47.517089],[37.525894,47.517074],[37.525864,47.517026],[37.525814,47.517041]]]}},{"type":"Feature","properties":{"cadnum":"1421555900:01:000:0095"},"geometry":{"type":"Polygon","coordinates":[[[37.549412,47.517535],[37.549934,47.517563],[37.549957,47.517392],[37.54945,47.51722],[37.549448,47.517219],[37.549438,47.517304],[37.549439,47.517304],[37.549412,47.517535]]]}},{"type":"Feature","properties":{"cadnum":"1421555900:01:000:0281"},"geometry":{"type":"Polygon","coordinates":[[[37.547701,47.517538],[37.547966,47.517554],[37.547966,47.517535],[37.547993,47.517241],[37.547865,47.517246],[37.547737,47.51725],[37.54773,47.517304],[37.547731,47.517304],[37.547706,47.51752],[37.547701,47.517538]]]}},{"type":"Feature","properties":{"cadnum":"1421555900:01:000:0058"},"geometry":{"type":"Polygon","coordinates":[[[37.545999,47.516552],[37.546138,47.516707],[37.546534,47.516546],[37.546399,47.516391],[37.545999,47.516552]]]}},{"type":"Feature","properties":{"cadnum":"1421555900:01:000:0018"},"geometry":{"type":"Polygon","coordinates":[[[37.545963,47.517237],[37.545964,47.517304],[37.545965,47.517304],[37.545968,47.517372],[37.545972,47.517372],[37.546066,47.517374],[37.546129,47.517377],[37.546121,47.517244],[37.545963,47.517237]]]}},{"type":"Feature","properties":{"cadnum":"1421555900:01:000:0103"},"geometry":{"type":"Polygon","coordinates":[[[37.547154,47.517129],[37.54719,47.517195],[37.547467,47.517204],[37.547468,47.517204],[37.547724,47.517217],[37.547693,47.517122],[37.547639,47.516947],[37.547163,47.517129],[37.547154,47.517129]]]}},{"type":"Feature","properties":{"cadnum":"1421555900:01:000:0148"},"geometry":{"type":"Polygon","coordinates":[[[37.54767,47.516931],[37.547737,47.517141],[37.547791,47.517116],[37.548092,47.516958],[37.548129,47.516943],[37.54798,47.516795],[37.54767,47.516931]]]}},{"type":"Feature","properties":{"cadnum":"1421555900:01:000:0223"},"geometry":{"type":"Polygon","coordinates":[[[37.547095,47.516324],[37.547257,47.51647],[37.547414,47.516612],[37.547639,47.516509],[37.547594,47.516468],[37.54758,47.516477],[37.547567,47.516461],[37.54758,47.516455],[37.547328,47.516212],[37.547095,47.516324]]]}},{"type":"Feature","properties":{"cadnum":"1421555900:01:000:0147"},"geometry":{"type":"Polygon","coordinates":[[[37.546452,47.51748],[37.546718,47.517487],[37.546745,47.517207],[37.546754,47.517125],[37.546534,47.517159],[37.546498,47.517165],[37.546495,47.517188],[37.546494,47.517188],[37.546452,47.51748]]]}},{"type":"Feature","properties":{"cadnum":"1421555900:01:000:0091"},"geometry":{"type":"Polygon","coordinates":[[[37.547181,47.517507],[37.547459,47.51752],[37.547467,47.517204],[37.54719,47.517195],[37.547186,47.517304],[37.547187,47.517304],[37.547181,47.517507]]]}},{"type":"Feature","properties":{"cadnum":"1421555900:01:000:0056"},"geometry":{"type":"Polygon","coordinates":[[[37.547706,47.517156],[37.547715,47.517188],[37.547714,47.517188],[37.547733,47.51725],[37.547863,47.517246],[37.547993,47.517241],[37.547993,47.517219],[37.548267,47.517208],[37.548375,47.517232],[37.548469,47.51721],[37.548169,47.516925],[37.548092,47.516958],[37.547791,47.517116],[37.547706,47.517156]]]}},{"type":"Feature","properties":{"cadnum":"1421555900:01:000:0236"},"geometry":{"type":"Polygon","coordinates":[[[37.548236,47.517565],[37.54851,47.517577],[37.548523,47.517441],[37.548536,47.517262],[37.548536,47.517237],[37.548519,47.517219],[37.548492,47.517208],[37.548276,47.517171],[37.548274,47.517188],[37.548266,47.517259],[37.548261,47.517304],[37.548262,47.517304],[37.548236,47.517565]]]}},{"type":"Feature","properties":{"cadnum":"1421555900:01:000:0169"},"geometry":{"type":"Polygon","coordinates":[[[37.533967,47.51337],[37.534091,47.513518],[37.534321,47.513428],[37.534195,47.513279],[37.533967,47.51337]]]}},{"type":"Feature","properties":{"cadnum":"1421555900:01:000:0061"},"geometry":{"type":"Polygon","coordinates":[[[37.546731,47.509304],[37.547176,47.509675],[37.547315,47.509754],[37.547378,47.509708],[37.547431,47.509253],[37.546745,47.509217],[37.546731,47.509304]]]}},{"type":"Feature","properties":{"cadnum":"1421555900:02:000:0014"},"geometry":{"type":"Polygon","coordinates":[[[37.528388,47.519917],[37.52846,47.520286],[37.528814,47.520253],[37.528756,47.519888],[37.528388,47.519917]]]}},{"type":"Feature","properties":{"cadnum":"1421555900:01:000:0043"},"geometry":{"type":"Polygon","coordinates":[[[37.546955,47.51742],[37.547064,47.517423],[37.547064,47.517414],[37.547073,47.517302],[37.547077,47.517274],[37.546969,47.517268],[37.546955,47.51742]]]}},{"type":"Feature","properties":{"cadnum":"1421555900:01:000:0214"},"geometry":{"type":"Polygon","coordinates":[[[37.546907,47.51877],[37.54692,47.518782],[37.546983,47.518742],[37.546997,47.518748],[37.547081,47.518809],[37.547091,47.518818],[37.547144,47.518782],[37.547154,47.518727],[37.54714,47.518724],[37.547014,47.518718],[37.547001,47.518715],[37.547001,47.518709],[37.546955,47.518706],[37.546955,47.518736],[37.546907,47.51877]]]}},{"type":"Feature","properties":{"cadnum":"1421555900:01:000:0248"},"geometry":{"type":"Polygon","coordinates":[[[37.547356,47.519058],[37.547854,47.519373],[37.54793,47.519324],[37.5482,47.519152],[37.54763,47.518894],[37.547356,47.519058]]]}},{"type":"Feature","properties":{"cadnum":"1421555900:01:000:0074"},"geometry":{"type":"Polygon","coordinates":[[[37.546129,47.519725],[37.546574,47.520061],[37.546651,47.520016],[37.546865,47.519883],[37.546425,47.519543],[37.546129,47.519725]]]}},{"type":"Feature","properties":{"cadnum":"1421555900:01:000:0071"},"geometry":{"type":"Polygon","coordinates":[[[37.546718,47.519361],[37.547158,47.519701],[37.547234,47.519652],[37.54745,47.519519],[37.54701,47.519179],[37.546718,47.519361]]]}},{"type":"Feature","properties":{"cadnum":"1421555900:01:000:0082"},"geometry":{"type":"Polygon","coordinates":[[[37.547647,47.518114],[37.548294,47.518224],[37.548389,47.517948],[37.547742,47.517847],[37.547647,47.518114]]]}},{"type":"Feature","properties":{"cadnum":"1421555900:01:000:0073"},"geometry":{"type":"Polygon","coordinates":[[[37.546425,47.519543],[37.546865,47.519883],[37.546942,47.519834],[37.547158,47.519701],[37.546718,47.519361],[37.546425,47.519543]]]}},{"type":"Feature","properties":{"cadnum":"1421555900:01:000:0076"},"geometry":{"type":"Polygon","coordinates":[[[37.546804,47.518563],[37.547517,47.518955],[37.547697,47.518678],[37.547463,47.518639],[37.546821,47.518527],[37.546804,47.518563]]]}},{"type":"Feature","properties":{"cadnum":"1421555900:02:000:0020"},"geometry":{"type":"Polygon","coordinates":[[[37.548542,47.51091],[37.549081,47.510943],[37.549098,47.510813],[37.549116,47.510679],[37.548577,47.510646],[37.548542,47.51091]]]}},{"type":"Feature","properties":{"cadnum":"1421555900:02:000:0002"},"geometry":{"type":"Polygon","coordinates":[[[37.546079,47.51283],[37.546201,47.512839],[37.546265,47.512254],[37.546196,47.51225],[37.546142,47.512245],[37.546079,47.51283]]]}},{"type":"Feature","properties":{"cadnum":"1421555900:02:000:0029"},"geometry":{"type":"Polygon","coordinates":[[[37.547957,47.510748],[37.548501,47.510782],[37.548519,47.510651],[37.547976,47.510618],[37.547957,47.510748]]]}}]}