{"type":"FeatureCollection","features":[{"type":"Feature","properties":{"cadnum":"1421255000:01:002:0001"},"geometry":{"type":"Polygon","coordinates":[[[36.893301,47.828545],[36.893718,47.831698],[36.893718,47.831699],[36.894206,47.835386],[36.894207,47.835386],[36.894397,47.836815],[36.897669,47.836625],[36.900555,47.836456],[36.900397,47.835271],[36.900396,47.835271],[36.899921,47.831699],[36.899921,47.831698],[36.899922,47.831698],[36.899455,47.828185],[36.897497,47.8283],[36.893301,47.828545]]]}},{"type":"Feature","properties":{"cadnum":"1421255000:01:001:0049"},"geometry":{"type":"Polygon","coordinates":[[[36.863837,47.784756],[36.864212,47.787428],[36.864434,47.789],[36.864538,47.788993],[36.864667,47.788985],[36.86471,47.788983],[36.86471,47.788982],[36.865633,47.788925],[36.865407,47.787313],[36.86504,47.784682],[36.86471,47.784702],[36.863837,47.784756]]]}},{"type":"Feature","properties":{"cadnum":"1421255000:01:001:0048"},"geometry":{"type":"Polygon","coordinates":[[[36.86504,47.784682],[36.865423,47.787428],[36.865633,47.788925],[36.866854,47.788849],[36.866653,47.787428],[36.866654,47.787428],[36.866257,47.784603],[36.86504,47.784682]]]}},{"type":"Feature","properties":{"cadnum":"1421255000:01:001:0044"},"geometry":{"type":"Polygon","coordinates":[[[36.869779,47.78438],[36.870031,47.786173],[36.870031,47.786174],[36.870207,47.787428],[36.870376,47.788626],[36.871122,47.788581],[36.87242,47.788499],[36.873754,47.788415],[36.873604,47.787313],[36.873603,47.787313],[36.873175,47.784163],[36.870203,47.784353],[36.869779,47.78438]]]}},{"type":"Feature","properties":{"cadnum":"1421255000:01:001:0045"},"geometry":{"type":"Polygon","coordinates":[[[36.868647,47.784452],[36.869064,47.787428],[36.869065,47.787428],[36.869244,47.788698],[36.869833,47.788662],[36.870031,47.788649],[36.870376,47.788626],[36.870203,47.787398],[36.870203,47.787395],[36.869779,47.78438],[36.868647,47.784452]]]}},{"type":"Feature","properties":{"cadnum":"1421255000:01:001:0001"},"geometry":{"type":"Polygon","coordinates":[[[36.88885,47.791619],[36.889186,47.794809],[36.889187,47.794809],[36.889219,47.795101],[36.889979,47.794694],[36.890853,47.794226],[36.892004,47.79383],[36.892004,47.793831],[36.892129,47.793787],[36.892176,47.793771],[36.892282,47.793734],[36.892052,47.791466],[36.88885,47.791619]]]}},{"type":"Feature","properties":{"cadnum":"1421255000:01:001:0013"},"geometry":{"type":"Polygon","coordinates":[[[36.88536,47.795472],[36.885563,47.797684],[36.886511,47.797646],[36.887704,47.797597],[36.887695,47.797527],[36.887287,47.795394],[36.886683,47.795419],[36.88536,47.795472]]]}},{"type":"Feature","properties":{"cadnum":"1421255000:01:003:0002"},"geometry":{"type":"Polygon","coordinates":[[[36.864389,47.875313],[36.864538,47.875507],[36.864686,47.875699],[36.864764,47.875816],[36.864763,47.875816],[36.864792,47.875858],[36.864841,47.875931],[36.864842,47.875931],[36.864847,47.875937],[36.865907,47.877314],[36.869284,47.876576],[36.869198,47.875931],[36.869199,47.875931],[36.869118,47.875326],[36.868885,47.875362],[36.86471,47.875317],[36.864389,47.875313]],[[36.867646,47.876889],[36.86765,47.876883],[36.867663,47.87688],[36.867672,47.876883],[36.867676,47.876892],[36.867672,47.876898],[36.867659,47.876901],[36.86765,47.876898],[36.867646,47.876889]]]}},{"type":"Feature","properties":{"cadnum":"1421255000:01:003:0001"},"geometry":{"type":"Polygon","coordinates":[[[36.865907,47.877314],[36.867137,47.878917],[36.869563,47.878727],[36.869284,47.876576],[36.865907,47.877314]]]}},{"type":"Feature","properties":{"cadnum":"1421255000:01:003:0003"},"geometry":{"type":"Polygon","coordinates":[[[36.869118,47.875326],[36.869183,47.875816],[36.869182,47.875816],[36.869284,47.876576],[36.869563,47.878727],[36.870203,47.878678],[36.870203,47.878677],[36.871674,47.878564],[36.871313,47.875816],[36.871208,47.875003],[36.870203,47.875159],[36.870203,47.875158],[36.869118,47.875326]],[[36.869653,47.876449],[36.869657,47.87644],[36.869676,47.87644],[36.86968,47.876449],[36.869676,47.876455],[36.869667,47.876458],[36.869657,47.876455],[36.869653,47.876449]]]}},{"type":"Feature","properties":{"cadnum":"1421255000:01:002:0011"},"geometry":{"type":"Polygon","coordinates":[[[36.906308,47.825481],[36.906475,47.826871],[36.908483,47.826753],[36.908484,47.826753],[36.908484,47.826754],[36.912947,47.826491],[36.912799,47.825296],[36.911587,47.825345],[36.908655,47.82542],[36.906308,47.825481]]]}},{"type":"Feature","properties":{"cadnum":"1421255000:01:002:0010"},"geometry":{"type":"Polygon","coordinates":[[[36.906475,47.826871],[36.906613,47.828011],[36.906614,47.828011],[36.906633,47.828165],[36.908655,47.828048],[36.908655,47.828047],[36.911111,47.827904],[36.913105,47.827787],[36.912947,47.826491],[36.908655,47.826744],[36.908655,47.826743],[36.906475,47.826871]]]}},{"type":"Feature","properties":{"cadnum":"1421255000:01:002:0005"},"geometry":{"type":"Polygon","coordinates":[[[36.89923,47.825966],[36.899501,47.828011],[36.899809,47.830329],[36.903162,47.830135],[36.903162,47.830134],[36.906686,47.829928],[36.906452,47.828011],[36.906453,47.828011],[36.906147,47.82549],[36.90299,47.825707],[36.90299,47.825708],[36.89923,47.825966]]]}},{"type":"Feature","properties":{"cadnum":"1421255000:04:010:0070"},"geometry":{"type":"Polygon","coordinates":[[[36.846638,47.851047],[36.846791,47.8514],[36.846849,47.851526],[36.847195,47.851454],[36.847137,47.851324],[36.846979,47.850974],[36.846638,47.851047]]]}},{"type":"Feature","properties":{"cadnum":"1421255000:01:001:0028"},"geometry":{"type":"Polygon","coordinates":[[[36.869015,47.792504],[36.869315,47.794694],[36.869581,47.796622],[36.870031,47.796592],[36.870031,47.796593],[36.870825,47.796541],[36.870586,47.794809],[36.870587,47.794809],[36.870259,47.792431],[36.870031,47.792444],[36.869015,47.792504]]]}},{"type":"Feature","properties":{"cadnum":"1421255000:01:001:0032"},"geometry":{"type":"Polygon","coordinates":[[[36.864137,47.792811],[36.864416,47.794809],[36.864604,47.796145],[36.864686,47.796136],[36.86471,47.796294],[36.864806,47.796921],[36.866038,47.796839],[36.865997,47.796498],[36.865898,47.79655],[36.865646,47.796592],[36.865409,47.796552],[36.865198,47.796459],[36.865067,47.796315],[36.865032,47.796143],[36.865032,47.796142],[36.865103,47.795973],[36.865269,47.79585],[36.865498,47.795771],[36.865749,47.795774],[36.865898,47.795814],[36.865759,47.794809],[36.865472,47.79273],[36.864538,47.792786],[36.864538,47.792787],[36.864137,47.792811]]]}},{"type":"Feature","properties":{"cadnum":"1421255000:01:003:0012"},"geometry":{"type":"Polygon","coordinates":[[[36.89079,47.873563],[36.891086,47.875816],[36.891085,47.875816],[36.891249,47.877049],[36.892004,47.876991],[36.893458,47.876877],[36.893318,47.875816],[36.893004,47.873419],[36.892004,47.873484],[36.892004,47.873485],[36.89079,47.873563]]]}},{"type":"Feature","properties":{"cadnum":"1421255000:04:001:0041"},"geometry":{"type":"Polygon","coordinates":[[[36.827221,47.839534],[36.828389,47.839996],[36.828402,47.839968],[36.828551,47.840005],[36.828605,47.839914],[36.828192,47.839782],[36.827356,47.839456],[36.827239,47.839525],[36.827221,47.839534]]]}},{"type":"Feature","properties":{"cadnum":"1421255000:04:003:0047"},"geometry":{"type":"Polygon","coordinates":[[[36.828151,47.84228],[36.828393,47.842356],[36.828511,47.842197],[36.828591,47.842224],[36.828981,47.842262],[36.829138,47.842311],[36.829364,47.841961],[36.829161,47.841901],[36.828546,47.841717],[36.828412,47.84191],[36.828276,47.842106],[36.828151,47.84228]]]}},{"type":"Feature","properties":{"cadnum":"1421255000:01:001:0054"},"geometry":{"type":"Polygon","coordinates":[[[36.858627,47.79311],[36.858857,47.794694],[36.858856,47.794694],[36.859174,47.796876],[36.859217,47.796873],[36.860418,47.796788],[36.860121,47.794694],[36.86012,47.794694],[36.859883,47.793019],[36.859217,47.793068],[36.858627,47.79311]]]}},{"type":"Feature","properties":{"cadnum":"1421255000:01:001:0063"},"geometry":{"type":"Polygon","coordinates":[[[36.859407,47.789145],[36.859671,47.791003],[36.85967,47.791003],[36.859952,47.792977],[36.861155,47.792893],[36.860929,47.791119],[36.860719,47.789444],[36.860661,47.789064],[36.860661,47.789063],[36.859407,47.789145]]]}},{"type":"Feature","properties":{"cadnum":"1421255000:01:001:0053"},"geometry":{"type":"Polygon","coordinates":[[[36.859883,47.793019],[36.860137,47.794809],[36.860418,47.796788],[36.861491,47.796722],[36.861649,47.796724],[36.861405,47.794809],[36.861168,47.792938],[36.859883,47.793019]]]}},{"type":"Feature","properties":{"cadnum":"1421255000:01:001:0064"},"geometry":{"type":"Polygon","coordinates":[[[36.858151,47.789227],[36.858409,47.791003],[36.858408,47.791003],[36.858707,47.793056],[36.859045,47.793035],[36.859155,47.793028],[36.859217,47.793024],[36.859952,47.792977],[36.859686,47.791119],[36.859687,47.791119],[36.859407,47.789145],[36.859217,47.789157],[36.858151,47.789227]]]}},{"type":"Feature","properties":{"cadnum":"1421255000:01:001:0033"},"geometry":{"type":"Polygon","coordinates":[[[36.862705,47.792898],[36.862953,47.794694],[36.862968,47.794804],[36.862969,47.794809],[36.863172,47.79626],[36.864604,47.796145],[36.8644,47.794694],[36.864137,47.792811],[36.862705,47.792898]]]}},{"type":"Feature","properties":{"cadnum":"1421255000:01:001:0034"},"geometry":{"type":"Polygon","coordinates":[[[36.861298,47.792986],[36.861515,47.794694],[36.861524,47.794764],[36.86153,47.794809],[36.86173,47.796366],[36.863172,47.79626],[36.862968,47.794804],[36.862705,47.792898],[36.861298,47.792986]]]}},{"type":"Feature","properties":{"cadnum":"1421255000:01:001:0007"},"geometry":{"type":"Polygon","coordinates":[[[36.881632,47.791969],[36.881921,47.794694],[36.88192,47.794694],[36.882014,47.795566],[36.883603,47.795499],[36.883518,47.794694],[36.883517,47.794694],[36.883222,47.791891],[36.881632,47.791969]]]}},{"type":"Feature","properties":{"cadnum":"1421255000:01:001:0008"},"geometry":{"type":"Polygon","coordinates":[[[36.880114,47.792041],[36.880397,47.794694],[36.880396,47.794694],[36.880395,47.794694],[36.880496,47.795626],[36.881189,47.795599],[36.882014,47.795566],[36.881933,47.794809],[36.881934,47.794809],[36.881632,47.791969],[36.881055,47.791997],[36.880114,47.792041]]]}},{"type":"Feature","properties":{"cadnum":"1421255000:01:002:0006"},"geometry":{"type":"Polygon","coordinates":[[[36.907081,47.831864],[36.907495,47.835271],[36.907494,47.835271],[36.907589,47.836046],[36.908483,47.835994],[36.908484,47.835994],[36.908538,47.835991],[36.908655,47.835985],[36.908655,47.835984],[36.914061,47.83567],[36.914026,47.835386],[36.913579,47.831699],[36.913579,47.831698],[36.91358,47.831698],[36.913554,47.831487],[36.909923,47.831698],[36.909927,47.831698],[36.909927,47.831699],[36.908484,47.831783],[36.908483,47.831783],[36.907081,47.831864]]]}},{"type":"Feature","properties":{"cadnum":"1421255000:01:002:0004"},"geometry":{"type":"Polygon","coordinates":[[[36.899809,47.830329],[36.89999,47.831698],[36.899991,47.831698],[36.899991,47.831699],[36.90048,47.835386],[36.900622,47.836453],[36.903162,47.836305],[36.907432,47.836055],[36.90735,47.835386],[36.906888,47.831583],[36.906887,47.831583],[36.906686,47.829928],[36.90299,47.830144],[36.90299,47.830145],[36.899809,47.830329]],[[36.900932,47.830679],[36.900897,47.830601],[36.900905,47.830516],[36.90096,47.830441],[36.90105,47.830383],[36.901166,47.830353],[36.901287,47.830353],[36.901404,47.83038],[36.901498,47.830434],[36.901557,47.83051],[36.90157,47.830592],[36.901539,47.830673],[36.901463,47.83074],[36.90136,47.830785],[36.901238,47.830803],[36.901117,47.830787],[36.901008,47.830745],[36.900932,47.830679]]]}},{"type":"Feature","properties":{"cadnum":"1421255000:01:001:0069"},"geometry":{"type":"Polygon","coordinates":[[[36.857516,47.785161],[36.857829,47.787313],[36.85811,47.789236],[36.858151,47.789227],[36.859045,47.789168],[36.859045,47.789169],[36.859407,47.789145],[36.859217,47.787837],[36.859217,47.787836],[36.85914,47.787313],[36.859045,47.786657],[36.859045,47.786659],[36.858814,47.785071],[36.857516,47.785161]]]}},{"type":"Feature","properties":{"cadnum":"1421255000:01:002:0007"},"geometry":{"type":"Polygon","coordinates":[[[36.906937,47.830667],[36.907047,47.831583],[36.907046,47.831583],[36.907081,47.831864],[36.908655,47.831773],[36.911901,47.831583],[36.913554,47.831487],[36.913405,47.830287],[36.908655,47.830567],[36.908655,47.830566],[36.906937,47.830667]]]}},{"type":"Feature","properties":{"cadnum":"1421255000:01:002:0009"},"geometry":{"type":"Polygon","coordinates":[[[36.906633,47.828165],[36.90679,47.829461],[36.908655,47.829353],[36.913262,47.829084],[36.913131,47.828011],[36.913132,47.828011],[36.913105,47.827787],[36.911251,47.827895],[36.91125,47.827895],[36.911111,47.827904],[36.909273,47.828011],[36.909279,47.828011],[36.908484,47.828058],[36.908483,47.828058],[36.906633,47.828165]]]}},{"type":"Feature","properties":{"cadnum":"1421255000:01:004:0012"},"geometry":{"type":"Polygon","coordinates":[[[36.896459,47.816511],[36.896509,47.81683],[36.896509,47.816831],[36.896522,47.816913],[36.897497,47.816545],[36.897618,47.816499],[36.897555,47.816101],[36.896459,47.816511]]]}},{"type":"Feature","properties":{"cadnum":"1421255000:01:003:0013"},"geometry":{"type":"Polygon","coordinates":[[[36.872892,47.873861],[36.872955,47.874605],[36.875524,47.874437],[36.875525,47.874437],[36.875525,47.874438],[36.881189,47.874067],[36.884507,47.873849],[36.884247,47.872247],[36.884247,47.872246],[36.884188,47.871882],[36.881149,47.87193],[36.879588,47.871954],[36.87941,47.872131],[36.878353,47.873184],[36.875525,47.873535],[36.875524,47.873535],[36.872892,47.873861]],[[36.883029,47.873596],[36.883033,47.873587],[36.883043,47.873587],[36.883051,47.87359],[36.883056,47.873596],[36.883051,47.873602],[36.883043,47.873605],[36.883033,47.873602],[36.883029,47.873596]],[[36.88112,47.873994],[36.881125,47.873988],[36.881133,47.873984],[36.881142,47.873988],[36.881146,47.873994],[36.881142,47.874],[36.881133,47.874003],[36.881125,47.874],[36.88112,47.873994]]]}},{"type":"Feature","properties":{"cadnum":"1421255000:01:001:0011"},"geometry":{"type":"Polygon","coordinates":[[[36.875909,47.792244],[36.876182,47.794809],[36.876288,47.795801],[36.877653,47.795744],[36.877553,47.794809],[36.877554,47.794809],[36.877275,47.792177],[36.875909,47.792244]]]}},{"type":"Feature","properties":{"cadnum":"1421255000:06:001:0103"},"geometry":{"type":"Polygon","coordinates":[[[36.802585,47.821665],[36.802715,47.821958],[36.803344,47.821882],[36.80373,47.821835],[36.803609,47.821563],[36.802585,47.821665]]]}},{"type":"Feature","properties":{"cadnum":"1421255000:06:001:0107"},"geometry":{"type":"Polygon","coordinates":[[[36.801911,47.822054],[36.802715,47.821958],[36.802585,47.821665],[36.802037,47.821719],[36.801911,47.822054]]]}},{"type":"Feature","properties":{"cadnum":"1421255000:06:001:0104"},"geometry":{"type":"Polygon","coordinates":[[[36.801678,47.822552],[36.801996,47.822486],[36.803218,47.822226],[36.80346,47.822178],[36.803344,47.821882],[36.801911,47.822054],[36.801678,47.822552]]]}},{"type":"Feature","properties":{"cadnum":"1421255000:04:001:0205"},"geometry":{"type":"Polygon","coordinates":[[[36.818917,47.852704],[36.818993,47.852876],[36.819953,47.852689],[36.819877,47.852517],[36.818917,47.852704]]]}},{"type":"Feature","properties":{"cadnum":"1421255000:01:002:0003"},"geometry":{"type":"Polygon","coordinates":[[[36.893014,47.826395],[36.893157,47.827465],[36.897669,47.827202],[36.89931,47.827106],[36.899163,47.825972],[36.897669,47.826076],[36.897669,47.826075],[36.893014,47.826395]]]}},{"type":"Feature","properties":{"cadnum":"1421255000:01:002:0002"},"geometry":{"type":"Polygon","coordinates":[[[36.893157,47.827465],[36.893214,47.827895],[36.893301,47.828545],[36.897669,47.82829],[36.899455,47.828185],[36.899431,47.828011],[36.89931,47.827106],[36.897497,47.827212],[36.893157,47.827465]]]}},{"type":"Feature","properties":{"cadnum":"1421255000:01:002:0019"},"geometry":{"type":"Polygon","coordinates":[[[36.913065,47.826907],[36.913196,47.828011],[36.913197,47.828011],[36.913248,47.828438],[36.914148,47.828386],[36.91947,47.828073],[36.91947,47.828074],[36.919617,47.828065],[36.919617,47.828056],[36.919631,47.828047],[36.919641,47.828043],[36.919642,47.828043],[36.919648,47.82804],[36.919667,47.828044],[36.91968,47.828056],[36.91968,47.828062],[36.920273,47.828029],[36.920249,47.827895],[36.920004,47.826503],[36.91947,47.826534],[36.913977,47.826854],[36.913065,47.826907]],[[36.919482,47.827383],[36.919482,47.827368],[36.919491,47.827356],[36.919514,47.827353],[36.919531,47.827356],[36.919532,47.827356],[36.919545,47.827368],[36.919545,47.827383],[36.919532,47.827392],[36.919514,47.827398],[36.919497,47.827395],[36.919482,47.827383]],[[36.919365,47.826677],[36.919375,47.826666],[36.919397,47.826659],[36.919415,47.826666],[36.919428,47.826674],[36.919428,47.826675],[36.919428,47.82669],[36.919415,47.826702],[36.919397,47.826705],[36.919379,47.826702],[36.919365,47.82669],[36.919365,47.826677]]]}},{"type":"Feature","properties":{"cadnum":"1421255000:01:002:0020"},"geometry":{"type":"Polygon","coordinates":[[[36.912866,47.825293],[36.913065,47.826907],[36.914148,47.826844],[36.919641,47.826524],[36.919642,47.826524],[36.920004,47.826503],[36.91978,47.825233],[36.91947,47.825228],[36.91947,47.825229],[36.918176,47.825209],[36.917197,47.824793],[36.916046,47.824811],[36.916011,47.825166],[36.914148,47.825242],[36.912866,47.825293]],[[36.919281,47.826026],[36.919271,47.826015],[36.919271,47.826014],[36.919271,47.825999],[36.919281,47.825987],[36.919304,47.825984],[36.919321,47.825987],[36.919334,47.825999],[36.919334,47.826014],[36.919334,47.826015],[36.919321,47.826024],[36.919304,47.826029],[36.919281,47.826026]],[[36.919164,47.825338],[36.919151,47.825327],[36.919151,47.825315],[36.919159,47.825302],[36.919181,47.825296],[36.919182,47.825296],[36.919199,47.825302],[36.919214,47.825311],[36.919214,47.825327],[36.919199,47.825338],[36.919182,47.825342],[36.919181,47.825342],[36.919164,47.825338]]]}},{"type":"Feature","properties":{"cadnum":"1421255000:05:006:0001"},"geometry":{"type":"Polygon","coordinates":[[[36.812955,47.843565],[36.813962,47.844656],[36.81486,47.844668],[36.815094,47.844867],[36.8151,47.844867],[36.8151,47.844868],[36.815422,47.844874],[36.815647,47.844707],[36.815947,47.844478],[36.816334,47.844403],[36.817488,47.843601],[36.816726,47.842645],[36.816653,47.842552],[36.816513,47.842377],[36.816174,47.842645],[36.816173,47.842645],[36.816073,47.842724],[36.815939,47.84276],[36.815404,47.842905],[36.815193,47.842961],[36.814982,47.843016],[36.812955,47.843565]]]}},{"type":"Feature","properties":{"cadnum":"1421255000:05:006:0002"},"geometry":{"type":"Polygon","coordinates":[[[36.816634,47.842528],[36.816726,47.842645],[36.816733,47.842653],[36.816818,47.84276],[36.817488,47.843601],[36.817834,47.84329],[36.818072,47.84273],[36.818068,47.842477],[36.818041,47.84232],[36.818031,47.842025],[36.817829,47.841663],[36.817703,47.841738],[36.816634,47.842528]]]}},{"type":"Feature","properties":{"cadnum":"1421255000:01:003:0007"},"geometry":{"type":"Polygon","coordinates":[[[36.880863,47.874214],[36.881075,47.875816],[36.881074,47.875816],[36.881189,47.876681],[36.88119,47.876681],[36.88134,47.877817],[36.88324,47.87767],[36.882997,47.875816],[36.882773,47.874091],[36.881018,47.874204],[36.880863,47.874214]]]}},{"type":"Feature","properties":{"cadnum":"1421255000:01:003:0008"},"geometry":{"type":"Polygon","coordinates":[[[36.882773,47.874091],[36.883012,47.875931],[36.88324,47.87767],[36.885158,47.877521],[36.884934,47.875816],[36.884933,47.875816],[36.884691,47.873964],[36.882773,47.874091]]]}},{"type":"Feature","properties":{"cadnum":"1421255000:01:003:0009"},"geometry":{"type":"Polygon","coordinates":[[[36.884691,47.873964],[36.884948,47.875931],[36.884949,47.875931],[36.885158,47.877521],[36.886123,47.877447],[36.885923,47.875931],[36.885657,47.873901],[36.884691,47.873964]]]}},{"type":"Feature","properties":{"cadnum":"1421255000:01:001:0072"},"geometry":{"type":"Polygon","coordinates":[[[36.853933,47.785396],[36.854228,47.787428],[36.854229,47.787428],[36.854526,47.789462],[36.855688,47.789389],[36.855385,47.787313],[36.855384,47.787313],[36.855095,47.785324],[36.853933,47.785396]]]}},{"type":"Feature","properties":{"cadnum":"1421255000:01:001:0071"},"geometry":{"type":"Polygon","coordinates":[[[36.855095,47.785324],[36.855401,47.787428],[36.855402,47.787428],[36.855688,47.789389],[36.856852,47.789317],[36.856567,47.787313],[36.856566,47.787313],[36.856273,47.785243],[36.855095,47.785324]]]}},{"type":"Feature","properties":{"cadnum":"1421255000:04:010:0013"},"geometry":{"type":"Polygon","coordinates":[[[36.841023,47.849199],[36.841459,47.849512],[36.841652,47.849651],[36.841805,47.849579],[36.841625,47.849434],[36.841216,47.849105],[36.841023,47.849199]]]}},{"type":"Feature","properties":{"cadnum":"1421255000:01:004:0009"},"geometry":{"type":"Polygon","coordinates":[[[36.875812,47.894992],[36.87604,47.89656],[36.87931,47.89551],[36.87841,47.89435],[36.878411,47.89435],[36.87829,47.894194],[36.878161,47.894235],[36.878148,47.894239],[36.877803,47.89435],[36.875812,47.894992]]]}},{"type":"Feature","properties":{"cadnum":"1421255000:01:004:0008"},"geometry":{"type":"Polygon","coordinates":[[[36.87604,47.89656],[36.876229,47.897819],[36.880131,47.896564],[36.87931,47.89551],[36.87604,47.89656]]]}},{"type":"Feature","properties":{"cadnum":"1421255000:01:004:0007"},"geometry":{"type":"Polygon","coordinates":[[[36.876229,47.897819],[36.876243,47.897918],[36.876242,47.897918],[36.876395,47.898952],[36.879608,47.897918],[36.880869,47.897513],[36.880131,47.896564],[36.876229,47.897819]],[[36.877311,47.898046],[36.877311,47.89804],[36.877311,47.898039],[36.877316,47.898031],[36.877316,47.898022],[36.877324,47.898004],[36.87733,47.897995],[36.877334,47.897986],[36.877338,47.897979],[36.87734,47.897976],[36.877343,47.89797],[36.877351,47.897961],[36.877356,47.897955],[36.877365,47.897946],[36.87737,47.89794],[36.877378,47.897931],[36.877387,47.897925],[36.877398,47.897918],[36.877424,47.897901],[36.877437,47.897895],[36.877454,47.897883],[36.877468,47.897879],[36.877481,47.897874],[36.877491,47.89787],[36.877504,47.897865],[36.877517,47.897861],[36.877527,47.897859],[36.87754,47.897856],[36.877554,47.897852],[36.877567,47.89785],[36.87758,47.89785],[36.877594,47.897847],[36.877621,47.897847],[36.877634,47.897844],[36.877634,47.897843],[36.877657,47.897843],[36.877657,47.897844],[36.87767,47.897847],[36.877697,47.897847],[36.877724,47.897852],[36.877737,47.897852],[36.877751,47.897856],[36.877764,47.897859],[36.877774,47.897861],[36.877787,47.897865],[36.8778,47.89787],[36.87781,47.897874],[36.877823,47.897879],[36.877833,47.897883],[36.877846,47.897888],[36.877854,47.897895],[36.877863,47.897901],[36.877877,47.897907],[36.877886,47.897913],[36.877894,47.897918],[36.877896,47.897919],[36.877904,47.897925],[36.877913,47.897934],[36.877917,47.89794],[36.877926,47.897946],[36.877936,47.897955],[36.87794,47.897961],[36.877949,47.89797],[36.877952,47.897976],[36.877957,47.897988],[36.877963,47.897995],[36.877967,47.898004],[36.877972,47.898013],[36.877976,47.898022],[36.877976,47.898033],[36.877977,47.898033],[36.87798,47.898039],[36.87798,47.89804],[36.87798,47.8981],[36.877976,47.898109],[36.877976,47.898118],[36.877972,47.898127],[36.877967,47.898136],[36.877967,47.898145],[36.877957,47.898154],[36.877953,47.898163],[36.877949,47.898169],[36.877944,47.898178],[36.877936,47.898187],[36.87793,47.898193],[36.877922,47.898202],[36.877913,47.898208],[36.877909,47.898214],[36.8779,47.898223],[36.87789,47.898229],[36.877882,47.898236],[36.877869,47.898241],[36.87785,47.898253],[36.87785,47.898254],[36.877837,47.898256],[36.877827,47.898262],[36.877814,47.898268],[36.877806,47.898271],[36.877792,47.898274],[36.877783,47.89828],[36.87777,47.898283],[36.877756,47.898287],[36.877729,47.898292],[36.877716,47.898292],[36.877707,47.898296],[36.877706,47.898296],[36.877693,47.898296],[36.87768,47.898298],[36.877613,47.898298],[36.877599,47.898296],[36.877586,47.898296],[36.877571,47.898292],[36.877558,47.898292],[36.877544,47.898289],[36.877536,47.898287],[36.877523,47.898283],[36.877509,47.89828],[36.877496,47.898274],[36.877487,47.898271],[36.877473,47.898268],[36.877464,47.898262],[36.87745,47.898256],[36.877441,47.898254],[36.877428,47.898247],[36.87742,47.898241],[36.877419,47.898241],[36.87741,47.898236],[36.877401,47.898229],[36.877391,47.89822],[36.877383,47.898214],[36.877374,47.898208],[36.877365,47.898199],[36.87736,47.898193],[36.877351,47.898184],[36.877347,47.898178],[36.877343,47.898169],[36.877334,47.89816],[36.87733,47.898154],[36.877324,47.898145],[36.87732,47.898136],[36.87732,47.898127],[36.877316,47.898118],[36.877311,47.898109],[36.877311,47.898091],[36.877307,47.898082],[36.877307,47.898055],[36.877311,47.898046]]]}},{"type":"Feature","properties":{"cadnum":"1421255000:04:005:0165"},"geometry":{"type":"Polygon","coordinates":[[[36.831385,47.845777],[36.831555,47.845823],[36.831579,47.845786],[36.831744,47.845531],[36.831591,47.845476],[36.831385,47.845777]]]}},{"type":"Feature","properties":{"cadnum":"1421255000:04:003:0058"},"geometry":{"type":"Polygon","coordinates":[[[36.831071,47.844237],[36.831416,47.844333],[36.831579,47.844384],[36.831579,47.844385],[36.83166,47.84441],[36.831751,47.844438],[36.831784,47.844448],[36.831937,47.844228],[36.831709,47.844169],[36.831295,47.844059],[36.831196,47.844036],[36.831071,47.844237]]]}},{"type":"Feature","properties":{"cadnum":"1421255000:01:001:0017"},"geometry":{"type":"Polygon","coordinates":[[[36.877123,47.79581],[36.877324,47.798025],[36.878856,47.797961],[36.879408,47.797938],[36.879211,47.795726],[36.877123,47.79581]]]}},{"type":"Feature","properties":{"cadnum":"1421255000:01:001:0018"},"geometry":{"type":"Polygon","coordinates":[[[36.874953,47.795901],[36.874997,47.796236],[36.875227,47.798109],[36.875524,47.798097],[36.875525,47.798097],[36.877055,47.798034],[36.877324,47.798025],[36.877123,47.79581],[36.87565,47.795872],[36.874953,47.795901]]]}},{"type":"Feature","properties":{"cadnum":"1421255000:01:001:0036"},"geometry":{"type":"Polygon","coordinates":[[[36.871122,47.788581],[36.871455,47.791003],[36.871454,47.791003],[36.871634,47.792301],[36.872932,47.79222],[36.872765,47.791003],[36.872764,47.791003],[36.872763,47.791003],[36.87242,47.788499],[36.871122,47.788581]]]}},{"type":"Feature","properties":{"cadnum":"1421255000:01:002:0012"},"geometry":{"type":"Polygon","coordinates":[[[36.914021,47.834776],[36.914093,47.835386],[36.914094,47.835386],[36.914128,47.835666],[36.91947,47.835354],[36.920849,47.835273],[36.921194,47.835253],[36.921055,47.834367],[36.91947,47.83446],[36.914021,47.834776]],[[36.920722,47.834897],[36.920718,47.834882],[36.920732,47.834873],[36.920753,47.834867],[36.920772,47.83487],[36.920785,47.834882],[36.920785,47.834897],[36.920772,47.83491],[36.920753,47.834912],[36.920732,47.83491],[36.920722,47.834897]]]}},{"type":"Feature","properties":{"cadnum":"1421255000:01:002:0014"},"geometry":{"type":"Polygon","coordinates":[[[36.913792,47.832892],[36.913904,47.833836],[36.913977,47.833832],[36.91412,47.833824],[36.914148,47.833822],[36.919641,47.833503],[36.919642,47.833503],[36.919642,47.833502],[36.920906,47.833429],[36.920753,47.832485],[36.91947,47.832561],[36.913977,47.832881],[36.913792,47.832892]],[[36.920407,47.832901],[36.920399,47.83289],[36.920399,47.832889],[36.920399,47.832877],[36.920407,47.832865],[36.92043,47.832859],[36.920449,47.832865],[36.920462,47.832874],[36.920462,47.832889],[36.920462,47.83289],[36.920449,47.832901],[36.92043,47.832904],[36.920407,47.832901]]]}},{"type":"Feature","properties":{"cadnum":"1421255000:01:002:0013"},"geometry":{"type":"Polygon","coordinates":[[[36.913904,47.833836],[36.913977,47.83442],[36.914021,47.834776],[36.914148,47.834769],[36.919641,47.83445],[36.919642,47.83445],[36.921055,47.834367],[36.920906,47.833429],[36.91947,47.833512],[36.91947,47.833513],[36.91412,47.833824],[36.913904,47.833836]],[[36.920633,47.834219],[36.920623,47.834207],[36.920623,47.834191],[36.920633,47.83418],[36.920655,47.834177],[36.920673,47.83418],[36.920686,47.834191],[36.920686,47.834207],[36.920673,47.834216],[36.920655,47.834222],[36.920633,47.834219]],[[36.920525,47.833504],[36.920516,47.833495],[36.920516,47.83348],[36.920525,47.833468],[36.920547,47.833465],[36.920565,47.833468],[36.920566,47.833468],[36.920579,47.83348],[36.920579,47.833492],[36.920566,47.833504],[36.920565,47.833504],[36.920547,47.833511],[36.920525,47.833504]]]}},{"type":"Feature","properties":{"cadnum":"1421255000:01:002:0015"},"geometry":{"type":"Polygon","coordinates":[[[36.913671,47.831927],[36.913792,47.832892],[36.914148,47.832872],[36.914148,47.832871],[36.919641,47.832551],[36.919642,47.832551],[36.920753,47.832485],[36.920628,47.831699],[36.920628,47.831698],[36.920629,47.831698],[36.9206,47.83152],[36.919531,47.831583],[36.919526,47.831583],[36.91836,47.831652],[36.917564,47.831698],[36.917566,47.831698],[36.917566,47.831699],[36.914148,47.8319],[36.914148,47.831899],[36.913671,47.831927]],[[36.92021,47.832153],[36.92021,47.832141],[36.920224,47.83213],[36.920242,47.832123],[36.92026,47.83213],[36.920273,47.832139],[36.920273,47.832153],[36.920264,47.832166],[36.920242,47.832168],[36.920224,47.832166],[36.92021,47.832153]]]}},{"type":"Feature","properties":{"cadnum":"1421255000:04:003:0178"},"geometry":{"type":"Polygon","coordinates":[[[36.833738,47.838175],[36.833805,47.838193],[36.833909,47.838036],[36.833842,47.838021],[36.833738,47.838175]]]}},{"type":"Feature","properties":{"cadnum":"1421255000:04:003:0014"},"geometry":{"type":"Polygon","coordinates":[[[36.833805,47.838193],[36.834224,47.83831],[36.83456,47.838403],[36.834691,47.838202],[36.834358,47.838105],[36.834161,47.838048],[36.834052,47.838018],[36.834039,47.838021],[36.833976,47.837999],[36.833941,47.838045],[36.833909,47.838036],[36.833805,47.838193]]]}},{"type":"Feature","properties":{"cadnum":"1421255000:01:002:0017"},"geometry":{"type":"Polygon","coordinates":[[[36.913401,47.829699],[36.913535,47.830821],[36.913977,47.830795],[36.914034,47.830792],[36.914148,47.830786],[36.914148,47.830785],[36.91947,47.830474],[36.91947,47.830475],[36.920457,47.830416],[36.920327,47.829295],[36.91947,47.829345],[36.913977,47.829666],[36.913401,47.829699]],[[36.919941,47.830152],[36.919927,47.830139],[36.919927,47.830127],[36.919937,47.830115],[36.919959,47.830109],[36.919977,47.830115],[36.91999,47.830124],[36.91999,47.830139],[36.919977,47.830152],[36.919959,47.830154],[36.919941,47.830152]],[[36.919864,47.82944],[36.919851,47.829428],[36.919851,47.829413],[36.919851,47.829412],[36.919864,47.829401],[36.919883,47.829397],[36.919904,47.829401],[36.919914,47.829412],[36.919914,47.829413],[36.919914,47.829428],[36.919904,47.829437],[36.919883,47.829443],[36.919864,47.82944]]]}},{"type":"Feature","properties":{"cadnum":"1421255000:01:003:0006"},"geometry":{"type":"Polygon","coordinates":[[[36.877041,47.874464],[36.877232,47.875931],[36.877517,47.878112],[36.881018,47.877842],[36.881018,47.877843],[36.88134,47.877817],[36.881075,47.875816],[36.880863,47.874214],[36.877041,47.874464]],[[36.879158,47.874406],[36.879152,47.874401],[36.879158,47.874395],[36.879166,47.874392],[36.879179,47.874395],[36.879184,47.874401],[36.879179,47.874406],[36.879166,47.87441],[36.879158,47.874406]],[[36.877284,47.87479],[36.877284,47.874789],[36.877288,47.874783],[36.877297,47.874781],[36.877307,47.874783],[36.877311,47.874789],[36.877311,47.87479],[36.877307,47.874798],[36.877307,47.874799],[36.877297,47.874799],[36.877288,47.874795],[36.877284,47.87479]]]}},{"type":"Feature","properties":{"cadnum":"1421255000:01:001:0027"},"geometry":{"type":"Polygon","coordinates":[[[36.870259,47.792431],[36.870571,47.794694],[36.87057,47.794694],[36.870825,47.796541],[36.872164,47.796459],[36.871914,47.794694],[36.871584,47.79234],[36.870259,47.792431]]]}},{"type":"Feature","properties":{"cadnum":"1421255000:01:002:0021"},"geometry":{"type":"Polygon","coordinates":[[[36.891936,47.818912],[36.892004,47.819358],[36.892198,47.820634],[36.892199,47.820634],[36.892199,47.820635],[36.892318,47.821406],[36.893436,47.821107],[36.893346,47.820519],[36.893037,47.818475],[36.892004,47.818885],[36.891936,47.818912]]]}},{"type":"Feature","properties":{"cadnum":"1421255000:01:004:0017"},"geometry":{"type":"Polygon","coordinates":[[[36.895542,47.816859],[36.895554,47.816946],[36.895555,47.816946],[36.89561,47.817308],[36.89653,47.816964],[36.896522,47.816913],[36.896459,47.816511],[36.895616,47.816831],[36.895615,47.816831],[36.895614,47.816831],[36.895542,47.816858],[36.895542,47.816859]]]}},{"type":"Feature","properties":{"cadnum":"1421255000:01:002:0035"},"geometry":{"type":"Polygon","coordinates":[[[36.894666,47.81877],[36.894712,47.819072],[36.894991,47.818969],[36.894945,47.818668],[36.894666,47.81877]]]}},{"type":"Feature","properties":{"cadnum":"1421255000:01:002:0029"},"geometry":{"type":"Polygon","coordinates":[[[36.894217,47.818031],[36.894266,47.818348],[36.894528,47.818243],[36.894478,47.817926],[36.894217,47.818031]]]}},{"type":"Feature","properties":{"cadnum":"1421255000:01:002:0031"},"geometry":{"type":"Polygon","coordinates":[[[36.894119,47.817398],[36.894169,47.817715],[36.894429,47.817612],[36.894383,47.817295],[36.894119,47.817398]]]}},{"type":"Feature","properties":{"cadnum":"1421255000:01:002:0023"},"geometry":{"type":"Polygon","coordinates":[[[36.891842,47.818303],[36.891891,47.818607],[36.892004,47.818563],[36.892176,47.818495],[36.892991,47.81817],[36.892941,47.817865],[36.892176,47.818171],[36.891842,47.818303]]]}},{"type":"Feature","properties":{"cadnum":"1421255000:01:002:0030"},"geometry":{"type":"Polygon","coordinates":[[[36.894169,47.817715],[36.894217,47.818031],[36.894478,47.817926],[36.894429,47.817612],[36.894169,47.817715]]]}},{"type":"Feature","properties":{"cadnum":"1421255000:01:002:0026"},"geometry":{"type":"Polygon","coordinates":[[[36.894362,47.818978],[36.89459,47.820471],[36.894824,47.82019],[36.894622,47.818873],[36.894362,47.818978]]]}},{"type":"Feature","properties":{"cadnum":"1421255000:01:002:0024"},"geometry":{"type":"Polygon","coordinates":[[[36.89319,47.819045],[36.893432,47.820634],[36.893433,47.820634],[36.893433,47.820635],[36.893503,47.821089],[36.894236,47.820896],[36.89453,47.820542],[36.89459,47.820471],[36.894362,47.818978],[36.894312,47.818661],[36.894303,47.818605],[36.89319,47.819045]]]}},{"type":"Feature","properties":{"cadnum":"1421255000:01:002:0038"},"geometry":{"type":"Polygon","coordinates":[[[36.894532,47.817872],[36.894576,47.81817],[36.894851,47.818068],[36.894806,47.817769],[36.894532,47.817872]]]}},{"type":"Feature","properties":{"cadnum":"1421255000:01:002:0022"},"geometry":{"type":"Polygon","coordinates":[[[36.891891,47.818607],[36.891936,47.818912],[36.892176,47.818817],[36.893037,47.818475],[36.892991,47.81817],[36.892176,47.818495],[36.891891,47.818607]]]}},{"type":"Feature","properties":{"cadnum":"1421255000:01:002:0028"},"geometry":{"type":"Polygon","coordinates":[[[36.894266,47.818348],[36.894303,47.818605],[36.894312,47.818661],[36.894572,47.818559],[36.894528,47.818243],[36.894266,47.818348]]]}},{"type":"Feature","properties":{"cadnum":"1421255000:01:002:0033"},"geometry":{"type":"Polygon","coordinates":[[[36.894761,47.819374],[36.894806,47.819675],[36.895079,47.819569],[36.895052,47.819392],[36.895035,47.819271],[36.894761,47.819374]]]}},{"type":"Feature","properties":{"cadnum":"1421255000:01:004:0018"},"geometry":{"type":"Polygon","coordinates":[[[36.89561,47.817308],[36.895681,47.81776],[36.896599,47.817413],[36.896584,47.817313],[36.89653,47.816964],[36.89561,47.817308]]]}},{"type":"Feature","properties":{"cadnum":"1421255000:01:002:0027"},"geometry":{"type":"Polygon","coordinates":[[[36.894312,47.818661],[36.894362,47.818978],[36.894622,47.818873],[36.894572,47.818559],[36.894312,47.818661]]]}},{"type":"Feature","properties":{"cadnum":"1421255000:01:002:0040"},"geometry":{"type":"Polygon","coordinates":[[[36.894442,47.817271],[36.894486,47.81757],[36.894761,47.817467],[36.894748,47.817374],[36.894716,47.817168],[36.894469,47.817259],[36.894442,47.817271]]]}},{"type":"Feature","properties":{"cadnum":"1421255000:01:002:0032"},"geometry":{"type":"Polygon","coordinates":[[[36.894806,47.819675],[36.894873,47.820127],[36.895121,47.819832],[36.895079,47.819569],[36.894806,47.819675]]]}},{"type":"Feature","properties":{"cadnum":"1421255000:01:002:0039"},"geometry":{"type":"Polygon","coordinates":[[[36.894486,47.81757],[36.894532,47.817872],[36.894806,47.817769],[36.894779,47.817579],[36.894761,47.817467],[36.894486,47.81757]]]}},{"type":"Feature","properties":{"cadnum":"1421255000:01:004:0019"},"geometry":{"type":"Polygon","coordinates":[[[36.895681,47.81776],[36.89575,47.818209],[36.896666,47.817863],[36.896652,47.817769],[36.896599,47.817413],[36.895681,47.81776]]]}},{"type":"Feature","properties":{"cadnum":"1421255000:01:002:0034"},"geometry":{"type":"Polygon","coordinates":[[[36.894712,47.819072],[36.894761,47.819374],[36.895035,47.819271],[36.894991,47.818969],[36.894712,47.819072]]]}},{"type":"Feature","properties":{"cadnum":"1421255000:01:004:0020"},"geometry":{"type":"Polygon","coordinates":[[[36.89575,47.818209],[36.895821,47.818674],[36.896737,47.81833],[36.896666,47.817863],[36.89575,47.818209]]]}},{"type":"Feature","properties":{"cadnum":"1421255000:01:002:0025"},"geometry":{"type":"Polygon","coordinates":[[[36.89301,47.817841],[36.89319,47.819045],[36.894303,47.818605],[36.894266,47.818348],[36.894217,47.818031],[36.894169,47.817715],[36.894119,47.817398],[36.89301,47.817841]]]}},{"type":"Feature","properties":{"cadnum":"1421255000:01:002:0037"},"geometry":{"type":"Polygon","coordinates":[[[36.894576,47.81817],[36.894622,47.818471],[36.894901,47.818366],[36.894865,47.818146],[36.894851,47.818068],[36.894576,47.81817]]]}},{"type":"Feature","properties":{"cadnum":"1421255000:01:003:0004"},"geometry":{"type":"Polygon","coordinates":[[[36.871208,47.875003],[36.871328,47.875931],[36.871329,47.875931],[36.871674,47.878564],[36.875582,47.878263],[36.875275,47.875931],[36.875276,47.875931],[36.875101,47.874591],[36.872976,47.874729],[36.871208,47.875003]],[[36.873529,47.875605],[36.873534,47.8756],[36.873542,47.875596],[36.873552,47.8756],[36.873556,47.875605],[36.873552,47.875614],[36.873542,47.875614],[36.873534,47.875612],[36.873529,47.875605]],[[36.871611,47.876031],[36.871607,47.876022],[36.871611,47.876016],[36.871621,47.876012],[36.87163,47.876016],[36.871634,47.876025],[36.87163,47.876031],[36.871621,47.876034],[36.871611,47.876031]]]}},{"type":"Feature","properties":{"cadnum":"1421255000:02:001:0033"},"geometry":{"type":"Polygon","coordinates":[[[36.786523,47.815799],[36.787556,47.815926],[36.787634,47.815936],[36.787801,47.815956],[36.787806,47.815957],[36.789501,47.816161],[36.789824,47.814946],[36.787634,47.813753],[36.787143,47.813486],[36.786523,47.815799]]]}},{"type":"Feature","properties":{"cadnum":"1421255000:05:003:0002"},"geometry":{"type":"Polygon","coordinates":[[[36.808666,47.833673],[36.809003,47.833863],[36.809606,47.833361],[36.809607,47.833361],[36.809731,47.833257],[36.809778,47.833245],[36.809789,47.833242],[36.810009,47.833097],[36.809794,47.832959],[36.809637,47.833061],[36.809542,47.833122],[36.808666,47.833673]]]}},{"type":"Feature","properties":{"cadnum":"1421255000:05:003:0001"},"geometry":{"type":"Polygon","coordinates":[[[36.809794,47.832959],[36.810009,47.833097],[36.810651,47.832682],[36.810814,47.83257],[36.811101,47.832371],[36.810899,47.832241],[36.810607,47.832437],[36.810437,47.832548],[36.809865,47.83291],[36.809794,47.832959]]]}},{"type":"Feature","properties":{"cadnum":"1421255000:05:003:0099"},"geometry":{"type":"Polygon","coordinates":[[[36.812521,47.834575],[36.812762,47.834743],[36.812861,47.83468],[36.812624,47.834511],[36.812521,47.834575]]]}},{"type":"Feature","properties":{"cadnum":"1421255000:05:003:0067"},"geometry":{"type":"Polygon","coordinates":[[[36.812624,47.834511],[36.812861,47.83468],[36.813355,47.834376],[36.813657,47.834189],[36.813804,47.834099],[36.813549,47.833932],[36.813401,47.834026],[36.812624,47.834511]]]}},{"type":"Feature","properties":{"cadnum":"1421255000:04:003:0064"},"geometry":{"type":"Polygon","coordinates":[[[36.829427,47.844735],[36.830239,47.844984],[36.830333,47.84484],[36.829511,47.844593],[36.829427,47.844735]]]}},{"type":"Feature","properties":{"cadnum":"1421255000:04:002:0195"},"geometry":{"type":"Polygon","coordinates":[[[36.82926,47.843737],[36.829381,47.843773],[36.82927,47.843978],[36.829318,47.844114],[36.829381,47.844132],[36.829553,47.84383],[36.829723,47.843529],[36.829444,47.843438],[36.82926,47.843737]]]}},{"type":"Feature","properties":{"cadnum":"1421255000:04:003:0075"},"geometry":{"type":"Polygon","coordinates":[[[36.828542,47.846061],[36.828721,47.846127],[36.828807,47.846027],[36.829197,47.846143],[36.829318,47.846179],[36.829332,47.84619],[36.829471,47.84623],[36.82953,47.846143],[36.829256,47.846054],[36.828676,47.845871],[36.828542,47.846061]]]}},{"type":"Feature","properties":{"cadnum":"1421255000:04:003:0071"},"geometry":{"type":"Polygon","coordinates":[[[36.829387,47.845953],[36.829593,47.846013],[36.82988,47.845527],[36.829674,47.845458],[36.829673,47.845458],[36.829387,47.845953]]]}}]}