{"type":"FeatureCollection","features":[{"type":"Feature","properties":{"cadnum":"1421588600:02:000:0208"},"geometry":{"type":"Polygon","coordinates":[[[37.115639,47.657935],[37.115643,47.657975],[37.115649,47.658024],[37.115656,47.658091],[37.115657,47.658091],[37.115715,47.658573],[37.117224,47.658513],[37.122889,47.658288],[37.122889,47.658287],[37.125183,47.658195],[37.125163,47.657975],[37.125162,47.657975],[37.125126,47.657557],[37.122889,47.657647],[37.122889,47.657646],[37.117224,47.657872],[37.117224,47.657873],[37.115639,47.657935]]]}},{"type":"Feature","properties":{"cadnum":"1421588600:02:000:1337"},"geometry":{"type":"Polygon","coordinates":[[[37.138942,47.659944],[37.13912,47.661791],[37.139121,47.661791],[37.139219,47.662799],[37.139368,47.662772],[37.144861,47.661771],[37.144861,47.66177],[37.145003,47.661744],[37.146298,47.661508],[37.150259,47.660969],[37.150094,47.659484],[37.144951,47.659696],[37.14469,47.659707],[37.144689,47.659707],[37.139368,47.659927],[37.138942,47.659944]]]}},{"type":"Feature","properties":{"cadnum":"1421588600:02:000:1339"},"geometry":{"type":"Polygon","coordinates":[[[37.144848,47.658534],[37.144861,47.658703],[37.144951,47.659696],[37.150094,47.659484],[37.149968,47.658322],[37.144848,47.658534]]]}},{"type":"Feature","properties":{"cadnum":"1421588600:01:000:0107"},"geometry":{"type":"Polygon","coordinates":[[[37.168505,47.670099],[37.168595,47.670268],[37.168886,47.670332],[37.169465,47.670068],[37.171083,47.669189],[37.171084,47.669189],[37.172327,47.668515],[37.174591,47.667286],[37.17244,47.665861],[37.172264,47.666409],[37.172084,47.666705],[37.171585,47.667334],[37.171052,47.667594],[37.170526,47.667724],[37.170211,47.667845],[37.16965,47.668102],[37.168976,47.66855],[37.168756,47.668864],[37.168689,47.66903],[37.168681,47.669074],[37.16867,47.669137],[37.16866,47.669189],[37.168661,47.669189],[37.168505,47.670099]]]}},{"type":"Feature","properties":{"cadnum":"1421588600:02:000:1331"},"geometry":{"type":"Polygon","coordinates":[[[37.151423,47.674097],[37.151616,47.674526],[37.151742,47.674502],[37.151549,47.67407],[37.151423,47.674097]]]}},{"type":"Feature","properties":{"cadnum":"1421588600:02:000:1332"},"geometry":{"type":"Polygon","coordinates":[[[37.151549,47.67407],[37.151742,47.674502],[37.151867,47.674475],[37.151674,47.674045],[37.151549,47.67407]]]}},{"type":"Feature","properties":{"cadnum":"1421588600:02:000:1333"},"geometry":{"type":"Polygon","coordinates":[[[37.151674,47.674045],[37.151867,47.674475],[37.151873,47.674475],[37.151999,47.674448],[37.1518,47.674018],[37.151674,47.674045]]]}},{"type":"Feature","properties":{"cadnum":"1421588600:02:000:1338"},"geometry":{"type":"Polygon","coordinates":[[[37.133592,47.677176],[37.133663,47.677421],[37.133703,47.677414],[37.134036,47.67736],[37.134414,47.6773],[37.134787,47.677239],[37.135154,47.677179],[37.135514,47.677118],[37.135873,47.67706],[37.136223,47.677003],[37.136471,47.676961],[37.136385,47.676719],[37.133767,47.677147],[37.133592,47.677176]]]}},{"type":"Feature","properties":{"cadnum":"1421588600:02:000:1335"},"geometry":{"type":"Polygon","coordinates":[[[37.115518,47.647052],[37.115549,47.647469],[37.117395,47.647397],[37.120845,47.647261],[37.12082,47.64699],[37.120821,47.64699],[37.120809,47.646843],[37.117224,47.646984],[37.117224,47.646985],[37.117224,47.646986],[37.115518,47.647052]]]}},{"type":"Feature","properties":{"cadnum":"1421588600:02:000:1336"},"geometry":{"type":"Polygon","coordinates":[[[37.115482,47.646635],[37.115499,47.646831],[37.115503,47.646874],[37.115502,47.646874],[37.115518,47.647052],[37.117395,47.646979],[37.117395,47.646978],[37.120029,47.646874],[37.120809,47.646843],[37.120778,47.646426],[37.117396,47.64656],[37.117395,47.64656],[37.115482,47.646635]]]}},{"type":"Feature","properties":{"cadnum":"1421588600:02:000:0489"},"geometry":{"type":"Polygon","coordinates":[[[37.141164,47.676266],[37.141228,47.676471],[37.141228,47.676472],[37.141235,47.676492],[37.141264,47.676587],[37.141265,47.676587],[37.141326,47.676782],[37.141659,47.676734],[37.141576,47.676472],[37.141575,47.676472],[37.141575,47.676471],[37.141496,47.67622],[37.141164,47.676266]]]}},{"type":"Feature","properties":{"cadnum":"1421588600:01:000:0384"},"geometry":{"type":"Polygon","coordinates":[[[37.159589,47.661375],[37.159823,47.661529],[37.160312,47.66119],[37.160083,47.661036],[37.159589,47.661375]]]}},{"type":"Feature","properties":{"cadnum":"1421588600:01:000:0383"},"geometry":{"type":"Polygon","coordinates":[[[37.159823,47.661529],[37.160043,47.661675],[37.16021,47.661785],[37.160218,47.661791],[37.160276,47.661828],[37.160428,47.661727],[37.160765,47.661501],[37.160312,47.66119],[37.159823,47.661529]]]}},{"type":"Feature","properties":{"cadnum":"1421588600:02:000:1334"},"geometry":{"type":"Polygon","coordinates":[[[37.115549,47.647469],[37.115585,47.64789],[37.117224,47.647825],[37.120881,47.647678],[37.120845,47.647261],[37.117224,47.647403],[37.117224,47.647404],[37.115549,47.647469]]]}},{"type":"Feature","properties":{"cadnum":"1421588600:02:000:1340"},"geometry":{"type":"Polygon","coordinates":[[[37.136385,47.676719],[37.136471,47.676961],[37.136569,47.676946],[37.136911,47.676891],[37.137171,47.676849],[37.137085,47.676604],[37.136385,47.676719]]]}},{"type":"Feature","properties":{"cadnum":"1421588600:01:000:0381"},"geometry":{"type":"Polygon","coordinates":[[[37.172507,47.659992],[37.173059,47.660413],[37.173455,47.660176],[37.172902,47.659754],[37.172507,47.659992]]]}},{"type":"Feature","properties":{"cadnum":"1421588600:01:000:0382"},"geometry":{"type":"Polygon","coordinates":[[[37.173059,47.660413],[37.173346,47.660631],[37.173742,47.660395],[37.173455,47.660176],[37.173059,47.660413]]]}}]}