{"type":"FeatureCollection","features":[{"type":"Feature","properties":{"cadnum":"1421588000:02:000:0040"},"geometry":{"type":"Polygon","coordinates":[[[37.396875,47.462741],[37.397375,47.462932],[37.397375,47.462933],[37.399317,47.463675],[37.399372,47.462507],[37.400529,47.461625],[37.402013,47.460497],[37.402868,47.460155],[37.403418,47.459934],[37.405875,47.458683],[37.405943,47.458352],[37.404656,47.457806],[37.404653,47.457805],[37.404483,47.457911],[37.404483,47.457912],[37.402868,47.458922],[37.400975,47.460105],[37.400925,47.460138],[37.398609,47.461625],[37.398609,47.461626],[37.397547,47.462309],[37.396875,47.462741]]]}},{"type":"Feature","properties":{"cadnum":"1421588000:02:000:0037"},"geometry":{"type":"Polygon","coordinates":[[[37.3913,47.460915],[37.391965,47.461625],[37.392033,47.461698],[37.392054,47.46172],[37.394749,47.464596],[37.396274,47.465339],[37.396275,47.465339],[37.39642,47.46541],[37.396686,47.465293],[37.397375,47.464993],[37.397375,47.464994],[37.399892,47.463894],[37.399313,47.463861],[37.399317,47.463675],[37.397547,47.462999],[37.397547,47.462998],[37.396875,47.462741],[37.397375,47.462419],[37.397375,47.46242],[37.39879,47.461509],[37.400925,47.460138],[37.399829,47.458273],[37.397547,47.458981],[37.392054,47.460683],[37.392054,47.460682],[37.3913,47.460915]]]}},{"type":"Feature","properties":{"cadnum":"1421588000:02:000:0042"},"geometry":{"type":"Polygon","coordinates":[[[37.399313,47.463861],[37.40173,47.464006],[37.402646,47.464696],[37.40304,47.464817],[37.404169,47.465161],[37.404212,47.465223],[37.404239,47.465261],[37.404293,47.465339],[37.40451,47.465649],[37.404726,47.465959],[37.404766,47.465998],[37.404757,47.466023],[37.404343,47.46643],[37.404259,47.466576],[37.403997,47.467107],[37.404299,47.46769],[37.40473,47.468458],[37.405003,47.468936],[37.405003,47.468937],[37.405002,47.468937],[37.405009,47.468947],[37.405035,47.468995],[37.405066,47.46905],[37.405068,47.469053],[37.405418,47.469624],[37.405611,47.470103],[37.405894,47.47001],[37.405997,47.469976],[37.406055,47.469955],[37.406078,47.469949],[37.406095,47.469828],[37.406137,47.469493],[37.406145,47.469478],[37.406297,47.469059],[37.406362,47.468937],[37.406362,47.468936],[37.406495,47.468685],[37.406702,47.46857],[37.406904,47.468455],[37.407219,47.468343],[37.407259,47.468485],[37.407322,47.468462],[37.407309,47.468327],[37.408533,47.468006],[37.408647,47.467976],[37.408728,47.468036],[37.4088,47.468015],[37.408821,47.467918],[37.41012,47.467544],[37.410156,47.467629],[37.410332,47.467584],[37.410215,47.467502],[37.410215,47.467501],[37.412568,47.466873],[37.412231,47.466418],[37.412209,47.466333],[37.413498,47.465919],[37.4131,47.465336],[37.4129,47.465042],[37.41222,47.465223],[37.411863,47.465318],[37.411856,47.465339],[37.411857,47.465339],[37.41175,47.465743],[37.41175,47.465744],[37.410911,47.466016],[37.410816,47.465868],[37.410668,47.46591],[37.410762,47.466059],[37.410385,47.466169],[37.410336,47.466196],[37.410335,47.466196],[37.409953,47.465512],[37.410083,47.465223],[37.410551,47.464183],[37.411131,47.463509],[37.410915,47.463208],[37.410345,47.46336],[37.40989,47.462768],[37.408948,47.461827],[37.408947,47.461827],[37.408816,47.461626],[37.408816,47.461625],[37.40852,47.461172],[37.406441,47.457985],[37.406469,47.457805],[37.406764,47.455986],[37.406867,47.455419],[37.407007,47.455273],[37.407213,47.455094],[37.407712,47.454851],[37.408166,47.454726],[37.408361,47.454672],[37.408483,47.454639],[37.408533,47.454625],[37.409159,47.454453],[37.409357,47.454741],[37.409572,47.454687],[37.410268,47.455887],[37.410506,47.455826],[37.410825,47.456421],[37.413854,47.455552],[37.413855,47.455552],[37.413855,47.455553],[37.414014,47.455507],[37.413136,47.454081],[37.413135,47.454081],[37.412955,47.453787],[37.412729,47.453402],[37.41273,47.453402],[37.413854,47.453394],[37.413855,47.453394],[37.413951,47.453393],[37.414026,47.45337],[37.415025,47.453059],[37.41524,47.452682],[37.415209,47.452375],[37.415087,47.452148],[37.414917,47.452053],[37.414647,47.452062],[37.414467,47.452135],[37.4144,47.452351],[37.414026,47.452323],[37.413601,47.45229],[37.412666,47.452382],[37.41255,47.452421],[37.411831,47.452555],[37.411817,47.452558],[37.41096,47.452597],[37.410448,47.452648],[37.409213,47.452843],[37.408412,47.45292],[37.408036,47.452956],[37.407393,47.452992],[37.406896,47.453287],[37.406684,47.45366],[37.406523,47.454081],[37.406522,47.454081],[37.406521,47.454081],[37.406491,47.454165],[37.406479,47.454197],[37.40648,47.454197],[37.406271,47.45482],[37.406706,47.45493],[37.406707,47.45493],[37.406707,47.455121],[37.406527,47.455547],[37.406437,47.455971],[37.406035,47.457911],[37.406035,47.457912],[37.405875,47.458683],[37.403418,47.459934],[37.40304,47.460086],[37.402013,47.460497],[37.400682,47.461509],[37.400681,47.461509],[37.399372,47.462507],[37.399313,47.463861]],[[37.405764,47.469399],[37.405844,47.469399],[37.405844,47.469457],[37.405758,47.469457],[37.405764,47.469399]],[[37.40541,47.469053],[37.405408,47.469077],[37.405328,47.469077],[37.405328,47.46902],[37.405412,47.46902],[37.40541,47.469053]],[[37.404896,47.468628],[37.404982,47.468631],[37.404982,47.468685],[37.404896,47.468685],[37.404896,47.468628]]]}},{"type":"Feature","properties":{"cadnum":"1421588000:02:000:0012"},"geometry":{"type":"Polygon","coordinates":[[[37.412402,47.455999],[37.413472,47.457795],[37.413471,47.457795],[37.413659,47.458109],[37.413855,47.458057],[37.413863,47.458055],[37.414026,47.458012],[37.41463,47.457852],[37.413969,47.456738],[37.413372,47.455732],[37.412402,47.455999]]]}},{"type":"Feature","properties":{"cadnum":"1421588000:02:000:0013"},"geometry":{"type":"Polygon","coordinates":[[[37.413372,47.455732],[37.413855,47.456546],[37.413969,47.456738],[37.414026,47.456835],[37.41463,47.457852],[37.415599,47.45759],[37.414337,47.455461],[37.413855,47.455596],[37.413855,47.455597],[37.413372,47.455732]]]}},{"type":"Feature","properties":{"cadnum":"1421588000:02:000:0014"},"geometry":{"type":"Polygon","coordinates":[[[37.414337,47.455461],[37.415599,47.45759],[37.416565,47.457332],[37.415294,47.455197],[37.414337,47.455461]]]}},{"type":"Feature","properties":{"cadnum":"1421588000:02:000:0015"},"geometry":{"type":"Polygon","coordinates":[[[37.415286,47.455306],[37.416647,47.457414],[37.417603,47.457134],[37.416224,47.455023],[37.415286,47.455306]]]}},{"type":"Feature","properties":{"cadnum":"1421588000:01:000:0008"},"geometry":{"type":"Polygon","coordinates":[[[37.397319,47.480641],[37.397375,47.48074],[37.397375,47.480741],[37.397512,47.480981],[37.397547,47.480973],[37.397547,47.480972],[37.398001,47.480863],[37.397835,47.480529],[37.397584,47.480584],[37.397535,47.480595],[37.397319,47.480641]]]}},{"type":"Feature","properties":{"cadnum":"1421588000:01:000:0005"},"geometry":{"type":"Polygon","coordinates":[[[37.392617,47.479961],[37.392685,47.480075],[37.392684,47.480075],[37.393097,47.480769],[37.393357,47.480696],[37.393038,47.480154],[37.392881,47.479889],[37.392617,47.479961]]]}},{"type":"Feature","properties":{"cadnum":"1421588000:01:000:0098"},"geometry":{"type":"Polygon","coordinates":[[[37.391979,47.480178],[37.391985,47.480191],[37.391986,47.480191],[37.392412,47.480954],[37.392756,47.48086],[37.392303,47.480093],[37.392148,47.480133],[37.391979,47.480178]]]}},{"type":"Feature","properties":{"cadnum":"1421588000:01:000:0099"},"geometry":{"type":"Polygon","coordinates":[[[37.392005,47.481182],[37.392292,47.481716],[37.392742,47.481597],[37.392459,47.481063],[37.392005,47.481182]]]}},{"type":"Feature","properties":{"cadnum":"1421588000:01:000:0049"},"geometry":{"type":"Polygon","coordinates":[[[37.395984,47.480141],[37.396014,47.480191],[37.396015,47.480191],[37.396389,47.480814],[37.396619,47.480705],[37.396305,47.480143],[37.396263,47.480067],[37.396232,47.480075],[37.396231,47.480075],[37.395984,47.480141]]]}},{"type":"Feature","properties":{"cadnum":"1421588000:01:000:0033"},"geometry":{"type":"Polygon","coordinates":[[[37.394152,47.48072],[37.394265,47.480915],[37.394493,47.480857],[37.394382,47.480663],[37.394152,47.48072]]]}},{"type":"Feature","properties":{"cadnum":"1421588000:01:000:0031"},"geometry":{"type":"Polygon","coordinates":[[[37.395531,47.480939],[37.395787,47.481446],[37.396034,47.481385],[37.395774,47.480872],[37.395531,47.480939]]]}},{"type":"Feature","properties":{"cadnum":"1421588000:01:000:0127"},"geometry":{"type":"Polygon","coordinates":[[[37.394781,47.481014],[37.395046,47.481513],[37.395284,47.481455],[37.395015,47.480957],[37.394781,47.481014]]]}},{"type":"Feature","properties":{"cadnum":"1421588000:02:000:0027"},"geometry":{"type":"Polygon","coordinates":[[[37.409607,47.477864],[37.409607,47.477888],[37.409644,47.477888],[37.409644,47.477864],[37.409607,47.477864]]]}},{"type":"Feature","properties":{"cadnum":"1421588000:02:000:0026"},"geometry":{"type":"Polygon","coordinates":[[[37.409167,47.476764],[37.409167,47.476786],[37.409204,47.476786],[37.409204,47.476764],[37.409167,47.476764]]]}},{"type":"Feature","properties":{"cadnum":"1421588000:02:000:0029"},"geometry":{"type":"Polygon","coordinates":[[[37.410165,47.479964],[37.410201,47.479964],[37.410201,47.479943],[37.410169,47.479943],[37.410165,47.479964]]]}},{"type":"Feature","properties":{"cadnum":"1421588000:02:000:0028"},"geometry":{"type":"Polygon","coordinates":[[[37.410007,47.478932],[37.410007,47.478989],[37.410093,47.478989],[37.410093,47.478932],[37.410007,47.478932]]]}},{"type":"Feature","properties":{"cadnum":"1421588000:03:000:1560"},"geometry":{"type":"Polygon","coordinates":[[[37.802638,47.841008],[37.802904,47.840997],[37.802967,47.840716],[37.802747,47.840728],[37.802697,47.840728],[37.802638,47.841008]]]}},{"type":"Feature","properties":{"cadnum":"1421588000:01:000:0020"},"geometry":{"type":"Polygon","coordinates":[[[37.407942,47.488573],[37.408013,47.488758],[37.408049,47.488837],[37.408361,47.488807],[37.408361,47.488808],[37.408764,47.48877],[37.408678,47.488488],[37.408446,47.488515],[37.407942,47.488573]]]}},{"type":"Feature","properties":{"cadnum":"1421588000:01:000:0148"},"geometry":{"type":"Polygon","coordinates":[[[37.408804,47.488922],[37.408876,47.489079],[37.409491,47.488955],[37.409437,47.488791],[37.408804,47.488922]]]}},{"type":"Feature","properties":{"cadnum":"1421588000:02:000:0033"},"geometry":{"type":"Polygon","coordinates":[[[37.408166,47.454726],[37.408361,47.455016],[37.408506,47.455229],[37.408533,47.45527],[37.409523,47.456734],[37.410533,47.456463],[37.409159,47.454453],[37.408483,47.454639],[37.408166,47.454726]]]}},{"type":"Feature","properties":{"cadnum":"1421588000:02:000:0035"},"geometry":{"type":"Polygon","coordinates":[[[37.406648,47.457548],[37.408361,47.457058],[37.408361,47.457059],[37.408508,47.457016],[37.407213,47.455094],[37.407007,47.455273],[37.406711,47.456867],[37.406648,47.457548]]]}},{"type":"Feature","properties":{"cadnum":"1421588000:02:000:0009"},"geometry":{"type":"Polygon","coordinates":[[[37.409477,47.45681],[37.41013,47.457911],[37.410131,47.457911],[37.410131,47.457912],[37.410718,47.458899],[37.411701,47.458635],[37.411202,47.457795],[37.411201,47.457795],[37.410456,47.456539],[37.409477,47.45681]]]}},{"type":"Feature","properties":{"cadnum":"1421588000:02:000:0010"},"geometry":{"type":"Polygon","coordinates":[[[37.410456,47.456539],[37.41127,47.457911],[37.411271,47.457911],[37.411271,47.457912],[37.411701,47.458635],[37.41268,47.458374],[37.412336,47.457795],[37.411431,47.456269],[37.410456,47.456539]]]}},{"type":"Feature","properties":{"cadnum":"1421588000:02:000:0034"},"geometry":{"type":"Polygon","coordinates":[[[37.407213,47.455094],[37.408361,47.456799],[37.408361,47.4568],[37.408508,47.457016],[37.408533,47.45701],[37.408533,47.457009],[37.40933,47.456785],[37.409523,47.456734],[37.408506,47.455229],[37.408166,47.454726],[37.407712,47.454851],[37.407213,47.455094]]]}},{"type":"Feature","properties":{"cadnum":"1421588000:02:000:0011"},"geometry":{"type":"Polygon","coordinates":[[[37.411431,47.456269],[37.412405,47.457911],[37.412405,47.457912],[37.41268,47.458374],[37.413659,47.458109],[37.413541,47.457912],[37.413541,47.457911],[37.412402,47.455999],[37.411431,47.456269]]]}},{"type":"Feature","properties":{"cadnum":"1421588000:01:000:0060"},"geometry":{"type":"Polygon","coordinates":[[[37.407322,47.483874],[37.407329,47.483904],[37.407519,47.484703],[37.408211,47.484675],[37.408234,47.484736],[37.408498,47.484736],[37.408485,47.484533],[37.408533,47.484532],[37.408611,47.48453],[37.408601,47.484393],[37.408602,47.484393],[37.408727,47.484371],[37.408728,47.484371],[37.408728,47.484372],[37.409007,47.485173],[37.409338,47.485118],[37.40915,47.484573],[37.409276,47.484551],[37.409626,47.484496],[37.40954,47.484245],[37.409412,47.483876],[37.409374,47.483765],[37.409234,47.483352],[37.408993,47.482651],[37.408813,47.482123],[37.408804,47.482098],[37.408737,47.481867],[37.408475,47.481907],[37.408494,47.48198],[37.408489,47.482147],[37.408103,47.482208],[37.408175,47.482426],[37.407636,47.482517],[37.407429,47.482551],[37.407573,47.483161],[37.407352,47.483788],[37.407322,47.483874]]]}},{"type":"Feature","properties":{"cadnum":"1421588000:02:000:0030"},"geometry":{"type":"Polygon","coordinates":[[[37.410456,47.480492],[37.410456,47.480514],[37.410488,47.480514],[37.410488,47.480492],[37.410456,47.480492]]]}},{"type":"Feature","properties":{"cadnum":"1421588000:02:000:0025"},"geometry":{"type":"Polygon","coordinates":[[[37.408687,47.475675],[37.408687,47.475696],[37.408718,47.475696],[37.408718,47.475675],[37.408687,47.475675]]]}},{"type":"Feature","properties":{"cadnum":"1421588000:02:000:0031"},"geometry":{"type":"Polygon","coordinates":[[[37.404896,47.468685],[37.404982,47.468685],[37.404982,47.468631],[37.404896,47.468628],[37.404896,47.468685]]]}},{"type":"Feature","properties":{"cadnum":"1421588000:02:000:0038"},"geometry":{"type":"Polygon","coordinates":[[[37.399892,47.458258],[37.400975,47.460105],[37.40304,47.458815],[37.40304,47.458814],[37.404653,47.457805],[37.404656,47.457806],[37.404903,47.457911],[37.404904,47.457911],[37.405943,47.458352],[37.406047,47.45785],[37.406347,47.456414],[37.402868,47.457408],[37.401511,47.457795],[37.401172,47.457892],[37.401105,47.457911],[37.401105,47.457912],[37.399892,47.458258]]]}},{"type":"Feature","properties":{"cadnum":"1421588000:01:000:0089"},"geometry":{"type":"Polygon","coordinates":[[[37.38723,47.483411],[37.387281,47.483508],[37.387549,47.48347],[37.387502,47.483372],[37.38723,47.483411]]]}},{"type":"Feature","properties":{"cadnum":"1421588000:01:000:0097"},"geometry":{"type":"Polygon","coordinates":[[[37.389672,47.48078],[37.389767,47.480946],[37.39012,47.481574],[37.390326,47.481517],[37.38987,47.480709],[37.389672,47.48078]]]}},{"type":"Feature","properties":{"cadnum":"1421588000:01:000:0113"},"geometry":{"type":"Polygon","coordinates":[[[37.39099,47.481467],[37.391422,47.482269],[37.391749,47.482184],[37.391319,47.481385],[37.39099,47.481467]]]}},{"type":"Feature","properties":{"cadnum":"1421588000:01:000:0059"},"geometry":{"type":"Polygon","coordinates":[[[37.389306,47.480963],[37.389359,47.481057],[37.389768,47.480948],[37.389701,47.480829],[37.389306,47.480963]]]}},{"type":"Feature","properties":{"cadnum":"1421588000:01:000:0053"},"geometry":{"type":"Polygon","coordinates":[[[37.387231,47.4808],[37.387627,47.4813],[37.388331,47.481075],[37.387981,47.480593],[37.387231,47.4808]]]}},{"type":"Feature","properties":{"cadnum":"1421588000:01:000:0052"},"geometry":{"type":"Polygon","coordinates":[[[37.387851,47.481561],[37.387944,47.481704],[37.388619,47.481494],[37.388529,47.481358],[37.387851,47.481561]]]}},{"type":"Feature","properties":{"cadnum":"1421588000:01:000:0058"},"geometry":{"type":"Polygon","coordinates":[[[37.389359,47.481057],[37.389705,47.481689],[37.390118,47.481576],[37.389768,47.480948],[37.389359,47.481057]]]}},{"type":"Feature","properties":{"cadnum":"1421588000:01:000:0051"},"geometry":{"type":"Polygon","coordinates":[[[37.387944,47.481704],[37.388179,47.482058],[37.388866,47.481874],[37.388619,47.481494],[37.387944,47.481704]]]}},{"type":"Feature","properties":{"cadnum":"1421588000:01:000:0088"},"geometry":{"type":"Polygon","coordinates":[[[37.386779,47.482559],[37.38723,47.483411],[37.387502,47.483372],[37.3872,47.482751],[37.38726,47.482676],[37.387188,47.482549],[37.38725,47.482529],[37.387203,47.482448],[37.386779,47.482559]]]}},{"type":"Feature","properties":{"cadnum":"1421588000:01:000:0092"},"geometry":{"type":"Polygon","coordinates":[[[37.406913,47.485622],[37.407039,47.485914],[37.407578,47.48582],[37.407542,47.485732],[37.407569,47.485701],[37.407502,47.485519],[37.406913,47.485622]]]}},{"type":"Feature","properties":{"cadnum":"1421588000:01:000:0014"},"geometry":{"type":"Polygon","coordinates":[[[37.407758,47.486096],[37.407865,47.486375],[37.408361,47.486294],[37.408361,47.486295],[37.408441,47.486281],[37.408533,47.486266],[37.408571,47.48626],[37.408458,47.485962],[37.407758,47.486096]]]}},{"type":"Feature","properties":{"cadnum":"1421588000:01:000:0142"},"geometry":{"type":"Polygon","coordinates":[[[37.40632,47.484614],[37.406433,47.484897],[37.406994,47.484834],[37.407272,47.484778],[37.407156,47.484499],[37.406796,47.484566],[37.40632,47.484614]]]}},{"type":"Feature","properties":{"cadnum":"1421588000:01:000:0045"},"geometry":{"type":"Polygon","coordinates":[[[37.407569,47.487662],[37.407681,47.487944],[37.408431,47.487804],[37.408315,47.487511],[37.408314,47.487511],[37.407795,47.487616],[37.407796,47.487616],[37.407569,47.487662]]]}},{"type":"Feature","properties":{"cadnum":"1421588000:01:000:0152"},"geometry":{"type":"Polygon","coordinates":[[[37.408188,47.487234],[37.408296,47.487511],[37.408361,47.487498],[37.408361,47.487499],[37.408984,47.487379],[37.408871,47.4871],[37.408408,47.487192],[37.408188,47.487234]]]}},{"type":"Feature","properties":{"cadnum":"1421588000:01:000:0093"},"geometry":{"type":"Polygon","coordinates":[[[37.406737,47.485649],[37.406859,47.485944],[37.407039,47.485914],[37.406913,47.485622],[37.406737,47.485649]]]}},{"type":"Feature","properties":{"cadnum":"1421588000:01:000:0123"},"geometry":{"type":"Polygon","coordinates":[[[37.403009,47.479491],[37.403131,47.47981],[37.403491,47.479745],[37.40336,47.479433],[37.403009,47.479491]]]}},{"type":"Feature","properties":{"cadnum":"1421588000:01:000:0131"},"geometry":{"type":"Polygon","coordinates":[[[37.403181,47.479913],[37.403227,47.480075],[37.403226,47.480075],[37.403364,47.480557],[37.403657,47.480517],[37.40372,47.48051],[37.40358,47.480075],[37.403513,47.479864],[37.403181,47.479913]]]}},{"type":"Feature","properties":{"cadnum":"1421588000:01:000:0145"},"geometry":{"type":"Polygon","coordinates":[[[37.403858,47.477229],[37.404061,47.477733],[37.40438,47.47767],[37.40415,47.477162],[37.403858,47.477229]]]}},{"type":"Feature","properties":{"cadnum":"1421588000:01:000:0006"},"geometry":{"type":"Polygon","coordinates":[[[37.405022,47.477038],[37.405282,47.477545],[37.405336,47.477533],[37.405516,47.47749],[37.405255,47.476984],[37.405022,47.477038]]]}},{"type":"Feature","properties":{"cadnum":"1421588000:01:000:0062"},"geometry":{"type":"Polygon","coordinates":[[[37.404689,47.478505],[37.404816,47.478859],[37.405233,47.478805],[37.405095,47.478444],[37.404689,47.478505]]]}},{"type":"Feature","properties":{"cadnum":"1421588000:01:000:0084"},"geometry":{"type":"Polygon","coordinates":[[[37.405481,47.478379],[37.405632,47.478777],[37.40615,47.478699],[37.406001,47.478289],[37.405481,47.478379]]]}},{"type":"Feature","properties":{"cadnum":"1421588000:01:000:0158"},"geometry":{"type":"Polygon","coordinates":[[[37.40415,47.477162],[37.404376,47.477666],[37.404689,47.477594],[37.40446,47.47709],[37.40415,47.477162]]]}},{"type":"Feature","properties":{"cadnum":"1421588000:01:000:0077"},"geometry":{"type":"Polygon","coordinates":[[[37.406015,47.480123],[37.406033,47.480191],[37.406082,47.480368],[37.406737,47.480307],[37.406706,47.48019],[37.406661,47.480019],[37.406309,47.480075],[37.406308,47.480075],[37.406016,47.480122],[37.406015,47.480123]]]}},{"type":"Feature","properties":{"cadnum":"1421588000:01:000:0034"},"geometry":{"type":"Polygon","coordinates":[[[37.405579,47.479257],[37.405646,47.479457],[37.40645,47.479339],[37.406365,47.479157],[37.405579,47.479257]]]}},{"type":"Feature","properties":{"cadnum":"1421588000:01:000:0115"},"geometry":{"type":"Polygon","coordinates":[[[37.405764,47.479885],[37.405824,47.480075],[37.405848,47.48015],[37.406661,47.480019],[37.406571,47.479758],[37.405764,47.479885]]]}},{"type":"Feature","properties":{"cadnum":"1421588000:01:000:0019"},"geometry":{"type":"Polygon","coordinates":[[[37.40332,47.47932],[37.403513,47.479831],[37.403603,47.480075],[37.403623,47.480129],[37.403646,47.480191],[37.403778,47.480544],[37.404313,47.48049],[37.404632,47.480456],[37.404748,47.480444],[37.404829,47.480435],[37.405156,47.480402],[37.405418,47.480377],[37.405682,47.48035],[37.405768,47.480341],[37.405839,47.480183],[37.405785,47.479983],[37.405728,47.479779],[37.405674,47.479579],[37.405615,47.479376],[37.405556,47.479184],[37.405502,47.47898],[37.405439,47.47878],[37.405129,47.47882],[37.404816,47.478859],[37.404689,47.478505],[37.404043,47.478611],[37.40399,47.47862],[37.403989,47.47862],[37.403989,47.478616],[37.4039,47.478631],[37.403903,47.478635],[37.403701,47.478668],[37.403854,47.479263],[37.40358,47.47929],[37.40332,47.47932]]]}},{"type":"Feature","properties":{"cadnum":"1421588000:01:000:0143"},"geometry":{"type":"Polygon","coordinates":[[[37.403513,47.477311],[37.403724,47.477815],[37.404061,47.477733],[37.403858,47.477229],[37.403513,47.477311]]]}},{"type":"Feature","properties":{"cadnum":"1421588000:01:000:0063"},"geometry":{"type":"Polygon","coordinates":[[[37.405655,47.479628],[37.405718,47.479833],[37.406527,47.479731],[37.406464,47.479527],[37.405655,47.479628]]]}},{"type":"Feature","properties":{"cadnum":"1421588000:01:000:0139"},"geometry":{"type":"Polygon","coordinates":[[[37.402749,47.477211],[37.402831,47.477375],[37.402868,47.477366],[37.402892,47.47736],[37.402951,47.477488],[37.402961,47.477508],[37.403001,47.477499],[37.403018,47.477542],[37.40304,47.477539],[37.403077,47.477533],[37.403261,47.477499],[37.403347,47.477484],[37.403189,47.477114],[37.403104,47.477135],[37.402868,47.477186],[37.402749,47.477211]]]}},{"type":"Feature","properties":{"cadnum":"1421588000:01:000:0074"},"geometry":{"type":"Polygon","coordinates":[[[37.402133,47.47779],[37.402449,47.478389],[37.402556,47.47858],[37.402868,47.478529],[37.403706,47.478392],[37.403544,47.477992],[37.403513,47.477979],[37.403204,47.478037],[37.403037,47.477609],[37.402862,47.477636],[37.402143,47.477772],[37.402133,47.47779]]]}},{"type":"Feature","properties":{"cadnum":"1421588000:01:000:0100"},"geometry":{"type":"Polygon","coordinates":[[[37.405571,47.477596],[37.405821,47.478085],[37.406114,47.477924],[37.405795,47.47745],[37.405571,47.477596]]]}},{"type":"Feature","properties":{"cadnum":"1421588000:00:000:0063"},"geometry":{"type":"Polygon","coordinates":[[[37.405638,47.479457],[37.405709,47.479664],[37.406508,47.479542],[37.406441,47.479339],[37.405638,47.479457]]]}},{"type":"Feature","properties":{"cadnum":"1421588000:01:000:0138"},"geometry":{"type":"Polygon","coordinates":[[[37.403841,47.476601],[37.404079,47.477059],[37.40437,47.476993],[37.40416,47.476519],[37.403841,47.476601]]]}},{"type":"Feature","properties":{"cadnum":"1421588000:01:000:0129"},"geometry":{"type":"Polygon","coordinates":[[[37.404106,47.476394],[37.404142,47.476479],[37.404143,47.476479],[37.40437,47.476993],[37.404766,47.476895],[37.404528,47.47637],[37.404496,47.4763],[37.404237,47.476363],[37.404236,47.476363],[37.404107,47.476394],[37.404106,47.476394]]]}},{"type":"Feature","properties":{"cadnum":"1421588000:02:000:0019"},"geometry":{"type":"Polygon","coordinates":[[[37.406234,47.46973],[37.406234,47.469788],[37.406315,47.469788],[37.406315,47.46973],[37.406234,47.46973]]]}},{"type":"Feature","properties":{"cadnum":"1421588000:02:000:0018"},"geometry":{"type":"Polygon","coordinates":[[[37.405758,47.469457],[37.405844,47.469457],[37.405844,47.469399],[37.405764,47.469399],[37.405758,47.469457]]]}},{"type":"Feature","properties":{"cadnum":"1421588000:02:000:0032"},"geometry":{"type":"Polygon","coordinates":[[[37.405328,47.46902],[37.405328,47.469077],[37.405408,47.469077],[37.405412,47.46902],[37.405328,47.46902]]]}},{"type":"Feature","properties":{"cadnum":"1421588000:02:000:0016"},"geometry":{"type":"Polygon","coordinates":[[[37.406383,47.470999],[37.406437,47.471032],[37.406504,47.471054],[37.406909,47.470963],[37.406904,47.470954],[37.407299,47.470854],[37.407213,47.470708],[37.406666,47.47085],[37.406747,47.470225],[37.407173,47.470237],[37.407179,47.47015],[37.407169,47.47015],[37.406697,47.470137],[37.406468,47.470131],[37.40645,47.470346],[37.406477,47.47035],[37.406437,47.47062],[37.406383,47.470999]]]}},{"type":"Feature","properties":{"cadnum":"1421588000:02:000:0021"},"geometry":{"type":"Polygon","coordinates":[[[37.4076,47.471352],[37.407681,47.471352],[37.407686,47.471297],[37.4076,47.471294],[37.4076,47.471352]]]}},{"type":"Feature","properties":{"cadnum":"1421588000:02:000:0022"},"geometry":{"type":"Polygon","coordinates":[[[37.407578,47.472381],[37.407578,47.472402],[37.407609,47.472402],[37.407609,47.472381],[37.407578,47.472381]]]}},{"type":"Feature","properties":{"cadnum":"1421588000:02:000:0020"},"geometry":{"type":"Polygon","coordinates":[[[37.406684,47.470073],[37.406684,47.470131],[37.40677,47.470131],[37.40677,47.470073],[37.406684,47.470073]]]}},{"type":"Feature","properties":{"cadnum":"1421588000:01:000:0013"},"geometry":{"type":"Polygon","coordinates":[[[37.403009,47.482384],[37.403158,47.482872],[37.403437,47.48283],[37.403275,47.482344],[37.403009,47.482384]]]}},{"type":"Feature","properties":{"cadnum":"1421588000:01:000:0061"},"geometry":{"type":"Polygon","coordinates":[[[37.403621,47.480598],[37.403701,47.480991],[37.40367,47.480994],[37.403701,47.481115],[37.404156,47.481054],[37.404146,47.481024],[37.404146,47.481023],[37.404187,47.481021],[37.404196,47.481048],[37.404217,47.481045],[37.404393,47.481023],[37.404487,47.481012],[37.404555,47.481003],[37.404596,47.480996],[37.404559,47.480863],[37.404537,47.480866],[37.404519,47.480811],[37.404542,47.480809],[37.404456,47.480508],[37.404452,47.480505],[37.40425,47.480529],[37.403715,47.480587],[37.403621,47.480598]]]}},{"type":"Feature","properties":{"cadnum":"1421588000:01:000:0009"},"geometry":{"type":"Polygon","coordinates":[[[37.406594,47.481443],[37.406657,47.4817],[37.407146,47.481816],[37.407012,47.481349],[37.406917,47.481397],[37.40685,47.481331],[37.406594,47.481443]]]}},{"type":"Feature","properties":{"cadnum":"1421588000:01:000:0108"},"geometry":{"type":"Polygon","coordinates":[[[37.403382,47.482884],[37.403504,47.483361],[37.403769,47.483325],[37.403638,47.482848],[37.403382,47.482884]]]}},{"type":"Feature","properties":{"cadnum":"1421588000:01:000:0017"},"geometry":{"type":"Polygon","coordinates":[[[37.403617,47.48177],[37.403755,47.482229],[37.404003,47.482198],[37.403877,47.481737],[37.403858,47.48174],[37.403617,47.48177]]]}},{"type":"Feature","properties":{"cadnum":"1421588000:01:000:0133"},"geometry":{"type":"Polygon","coordinates":[[[37.402678,47.480848],[37.402795,47.481203],[37.402868,47.481192],[37.402875,47.481191],[37.40304,47.481167],[37.40304,47.481166],[37.403217,47.481139],[37.403104,47.480784],[37.402881,47.480818],[37.402678,47.480848]]]}},{"type":"Feature","properties":{"cadnum":"1421588000:01:000:0154"},"geometry":{"type":"Polygon","coordinates":[[[37.402754,47.48242],[37.402868,47.482823],[37.402892,47.482909],[37.40304,47.482889],[37.40304,47.482888],[37.403158,47.482872],[37.403009,47.482384],[37.402754,47.48242]]]}},{"type":"Feature","properties":{"cadnum":"1421588000:01:000:0076"},"geometry":{"type":"Polygon","coordinates":[[[37.405046,47.480526],[37.405178,47.480955],[37.4055,47.480913],[37.405382,47.480481],[37.405381,47.480481],[37.405046,47.480526]]]}},{"type":"Feature","properties":{"cadnum":"1421588000:01:000:0055"},"geometry":{"type":"Polygon","coordinates":[[[37.404699,47.482726],[37.40486,47.483185],[37.405108,47.483145],[37.40495,47.482687],[37.404699,47.482726]]]}},{"type":"Feature","properties":{"cadnum":"1421588000:01:000:0105"},"geometry":{"type":"Polygon","coordinates":[[[37.40403,47.482229],[37.404187,47.482715],[37.404447,47.482675],[37.404286,47.482189],[37.40403,47.482229]]]}},{"type":"Feature","properties":{"cadnum":"1421588000:01:000:0086"},"geometry":{"type":"Polygon","coordinates":[[[37.403638,47.482848],[37.403764,47.483313],[37.404038,47.483276],[37.40389,47.482814],[37.403881,47.482814],[37.403638,47.482848]]]}},{"type":"Feature","properties":{"cadnum":"1421588000:01:000:0002"},"geometry":{"type":"Polygon","coordinates":[[[37.406531,47.480787],[37.406639,47.481233],[37.406976,47.481194],[37.406877,47.48079],[37.40685,47.480753],[37.406531,47.480787]]]}},{"type":"Feature","properties":{"cadnum":"1421588000:01:000:0162"},"geometry":{"type":"Polygon","coordinates":[[[37.405929,47.480398],[37.406028,47.480748],[37.406032,47.480762],[37.406387,47.480711],[37.406383,47.480699],[37.40628,47.48035],[37.405929,47.480398]]]}},{"type":"Feature","properties":{"cadnum":"1421588000:01:000:0018"},"geometry":{"type":"Polygon","coordinates":[[[37.403495,47.482359],[37.403638,47.482848],[37.403881,47.482814],[37.403733,47.482326],[37.403495,47.482359]]]}},{"type":"Feature","properties":{"cadnum":"1421588000:01:000:0030"},"geometry":{"type":"Polygon","coordinates":[[[37.404217,47.481163],[37.404357,47.481637],[37.404626,47.481597],[37.404474,47.481124],[37.404217,47.481163]]]}},{"type":"Feature","properties":{"cadnum":"1421588000:01:000:0120"},"geometry":{"type":"Polygon","coordinates":[[[37.405791,47.48089],[37.405915,47.481318],[37.406275,47.481261],[37.406154,47.480839],[37.405791,47.48089]]]}},{"type":"Feature","properties":{"cadnum":"1421588000:01:000:0021"},"geometry":{"type":"Polygon","coordinates":[[[37.406154,47.480839],[37.406275,47.481261],[37.406634,47.481206],[37.406531,47.480787],[37.406154,47.480839]]]}},{"type":"Feature","properties":{"cadnum":"1421588000:01:000:0103"},"geometry":{"type":"Polygon","coordinates":[[[37.40482,47.482186],[37.40495,47.482687],[37.405211,47.482654],[37.40508,47.482153],[37.40482,47.482186]]]}},{"type":"Feature","properties":{"cadnum":"1421588000:01:000:0004"},"geometry":{"type":"Polygon","coordinates":[[[37.402754,47.475906],[37.402844,47.476082],[37.402868,47.476076],[37.40345,47.475936],[37.403355,47.47576],[37.402976,47.475852],[37.402754,47.475906]]]}},{"type":"Feature","properties":{"cadnum":"1421588000:01:000:0156"},"geometry":{"type":"Polygon","coordinates":[[[37.403099,47.474497],[37.403212,47.474703],[37.403684,47.474579],[37.403571,47.474372],[37.403099,47.474497]]]}},{"type":"Feature","properties":{"cadnum":"1421588000:01:000:0094"},"geometry":{"type":"Polygon","coordinates":[[[37.403045,47.473094],[37.403204,47.473401],[37.403611,47.473316],[37.403468,47.472997],[37.403045,47.473094]]]}},{"type":"Feature","properties":{"cadnum":"1421588000:01:000:0065"},"geometry":{"type":"Polygon","coordinates":[[[37.402408,47.473237],[37.402583,47.473507],[37.402868,47.473435],[37.403024,47.473395],[37.402871,47.473125],[37.402408,47.473237]]]}},{"type":"Feature","properties":{"cadnum":"1421588000:01:000:0161"},"geometry":{"type":"Polygon","coordinates":[[[37.405156,47.474581],[37.405265,47.47481],[37.405292,47.474804],[37.405309,47.474801],[37.405359,47.474792],[37.405422,47.474779],[37.405404,47.474727],[37.405399,47.474716],[37.405345,47.474545],[37.405278,47.474558],[37.405246,47.474563],[37.405229,47.474567],[37.405156,47.474581]]]}},{"type":"Feature","properties":{"cadnum":"1421588000:01:000:0135"},"geometry":{"type":"Polygon","coordinates":[[[37.402596,47.475256],[37.402699,47.475483],[37.402868,47.475443],[37.402868,47.475444],[37.402937,47.475427],[37.40304,47.475403],[37.40354,47.475283],[37.403423,47.475044],[37.40304,47.475143],[37.402596,47.475256]]]}},{"type":"Feature","properties":{"cadnum":"1421588000:01:000:0160"},"geometry":{"type":"Polygon","coordinates":[[[37.405139,47.473859],[37.405188,47.473975],[37.40566,47.473899],[37.405592,47.473747],[37.405445,47.47378],[37.405318,47.473807],[37.405175,47.473841],[37.405179,47.47385],[37.405139,47.473859]]]}},{"type":"Feature","properties":{"cadnum":"1421588000:01:000:0144"},"geometry":{"type":"Polygon","coordinates":[[[37.402762,47.473847],[37.402868,47.474051],[37.402868,47.474052],[37.402879,47.474072],[37.40304,47.474032],[37.403342,47.473957],[37.403221,47.473732],[37.402869,47.473821],[37.402762,47.473847]]]}},{"type":"Feature","properties":{"cadnum":"1421588000:01:000:0102"},"geometry":{"type":"Polygon","coordinates":[[[37.404699,47.473204],[37.404748,47.473298],[37.404749,47.473298],[37.404797,47.473285],[37.404816,47.473325],[37.405188,47.47324],[37.405112,47.473085],[37.404873,47.47314],[37.404883,47.473161],[37.404882,47.473161],[37.404699,47.473204]]]}},{"type":"Feature","properties":{"cadnum":"1421588000:01:000:0016"},"geometry":{"type":"Polygon","coordinates":[[[37.404101,47.474549],[37.404259,47.474746],[37.404645,47.474591],[37.404474,47.474376],[37.404187,47.474484],[37.404204,47.474509],[37.404101,47.474549]]]}},{"type":"Feature","properties":{"cadnum":"1421588000:01:000:0025"},"geometry":{"type":"Polygon","coordinates":[[[37.404546,47.47405],[37.404707,47.474354],[37.405072,47.474263],[37.404905,47.47396],[37.404546,47.47405]]]}},{"type":"Feature","properties":{"cadnum":"1421588000:02:000:0023"},"geometry":{"type":"Polygon","coordinates":[[[37.407932,47.473471],[37.407932,47.473492],[37.407964,47.473495],[37.407964,47.473471],[37.407932,47.473471]]]}},{"type":"Feature","properties":{"cadnum":"1421588000:01:000:0141"},"geometry":{"type":"Polygon","coordinates":[[[37.405175,47.475888],[37.405273,47.476228],[37.405682,47.476151],[37.405638,47.475994],[37.405601,47.475827],[37.405175,47.475888]]]}},{"type":"Feature","properties":{"cadnum":"1421588000:01:000:0073"},"geometry":{"type":"Polygon","coordinates":[[[37.40517,47.474166],[37.405229,47.474279],[37.405322,47.474254],[37.405265,47.474145],[37.40517,47.474166]]]}},{"type":"Feature","properties":{"cadnum":"1421588000:01:000:0109"},"geometry":{"type":"Polygon","coordinates":[[[37.404321,47.473453],[37.404443,47.473613],[37.404963,47.473507],[37.404892,47.473341],[37.404321,47.473453]]]}},{"type":"Feature","properties":{"cadnum":"1421588000:01:000:0140"},"geometry":{"type":"Polygon","coordinates":[[[37.405668,47.47552],[37.405709,47.475654],[37.406198,47.475589],[37.406154,47.475425],[37.405938,47.475456],[37.405943,47.475477],[37.405668,47.47552]]]}},{"type":"Feature","properties":{"cadnum":"1421588000:01:000:0159"},"geometry":{"type":"Polygon","coordinates":[[[37.404986,47.475238],[37.405035,47.475402],[37.405143,47.475384],[37.405273,47.475366],[37.405552,47.475323],[37.405597,47.475314],[37.405588,47.475271],[37.405575,47.475222],[37.405485,47.475234],[37.405439,47.475141],[37.404986,47.475238]]]}},{"type":"Feature","properties":{"cadnum":"1421588000:02:000:0024"},"geometry":{"type":"Polygon","coordinates":[[[37.408345,47.474567],[37.408345,47.474588],[37.408378,47.474588],[37.408378,47.474567],[37.408345,47.474567]]]}},{"type":"Feature","properties":{"cadnum":"1421588000:01:000:0072"},"geometry":{"type":"Polygon","coordinates":[[[37.400831,47.477198],[37.400871,47.477268],[37.401267,47.477159],[37.40125,47.477129],[37.4012,47.477105],[37.401173,47.47709],[37.401119,47.477083],[37.400894,47.477147],[37.40085,47.477171],[37.400831,47.477198]]]}},{"type":"Feature","properties":{"cadnum":"1421588000:01:000:0121"},"geometry":{"type":"Polygon","coordinates":[[[37.400535,47.476455],[37.400547,47.476479],[37.400548,47.476479],[37.400642,47.476653],[37.40141,47.476494],[37.401373,47.476429],[37.401284,47.47627],[37.40091,47.476363],[37.400909,47.476363],[37.400535,47.476455]]]}},{"type":"Feature","properties":{"cadnum":"1421588000:01:000:0090"},"geometry":{"type":"Polygon","coordinates":[[[37.402043,47.476215],[37.402138,47.476363],[37.402137,47.476363],[37.402166,47.476406],[37.402166,47.476407],[37.402211,47.476479],[37.402219,47.476491],[37.402852,47.47637],[37.402718,47.476073],[37.402043,47.476215]]]}},{"type":"Feature","properties":{"cadnum":"1421588000:01:000:0111"},"geometry":{"type":"Polygon","coordinates":[[[37.398793,47.480058],[37.398801,47.480075],[37.39885,47.48017],[37.39885,47.480171],[37.399008,47.480133],[37.39912,47.480107],[37.399066,47.479997],[37.398793,47.480058]]]}},{"type":"Feature","properties":{"cadnum":"1421588000:01:000:0095"},"geometry":{"type":"Polygon","coordinates":[[[37.401653,47.477651],[37.40168,47.477702],[37.401892,47.477648],[37.401864,47.477599],[37.401653,47.477651]]]}},{"type":"Feature","properties":{"cadnum":"1421588000:01:000:0110"},"geometry":{"type":"Polygon","coordinates":[[[37.398504,47.479497],[37.398793,47.480058],[37.399066,47.479997],[37.398806,47.479436],[37.398504,47.479497]]]}},{"type":"Feature","properties":{"cadnum":"1421588000:01:000:0136"},"geometry":{"type":"Polygon","coordinates":[[[37.399448,47.477691],[37.399646,47.478079],[37.400175,47.477952],[37.399978,47.477566],[37.399448,47.477691]]]}},{"type":"Feature","properties":{"cadnum":"1421588000:01:000:0024"},"geometry":{"type":"Polygon","coordinates":[[[37.402188,47.480123],[37.402215,47.480191],[37.402216,47.480191],[37.402345,47.480514],[37.40252,47.480481],[37.402638,47.480462],[37.402525,47.480191],[37.402475,47.480071],[37.40245,47.480075],[37.402192,47.480122],[37.402188,47.480123]]]}},{"type":"Feature","properties":{"cadnum":"1421588000:01:000:0087"},"geometry":{"type":"Polygon","coordinates":[[[37.400814,47.478142],[37.401128,47.478954],[37.401384,47.478911],[37.401166,47.478349],[37.401067,47.478094],[37.400814,47.478142]]]}},{"type":"Feature","properties":{"cadnum":"1421588000:01:000:0128"},"geometry":{"type":"Polygon","coordinates":[[[37.398959,47.477724],[37.399187,47.47817],[37.399646,47.478079],[37.399623,47.478037],[37.399412,47.477621],[37.398959,47.477724]]]}},{"type":"Feature","properties":{"cadnum":"1421588000:01:000:0027"},"geometry":{"type":"Polygon","coordinates":[[[37.400647,47.479861],[37.400739,47.480075],[37.400747,47.480095],[37.400788,47.480191],[37.400789,47.480191],[37.400818,47.480258],[37.401105,47.480207],[37.401071,47.480117],[37.400957,47.479806],[37.400647,47.479861]]]}},{"type":"Feature","properties":{"cadnum":"1421588000:01:000:0112"},"geometry":{"type":"Polygon","coordinates":[[[37.39864,47.478298],[37.398967,47.478877],[37.398756,47.478923],[37.398873,47.479115],[37.399255,47.479054],[37.399174,47.478838],[37.39912,47.478844],[37.398873,47.478244],[37.39864,47.478298]]]}},{"type":"Feature","properties":{"cadnum":"1421588000:01:000:0029"},"geometry":{"type":"Polygon","coordinates":[[[37.401527,47.479027],[37.401739,47.479585],[37.4019,47.479558],[37.401703,47.478996],[37.401527,47.479027]]]}},{"type":"Feature","properties":{"cadnum":"1421588000:01:000:0157"},"geometry":{"type":"Polygon","coordinates":[[[37.401074,47.478061],[37.401347,47.478705],[37.401703,47.478641],[37.401437,47.477997],[37.401074,47.478061]]]}},{"type":"Feature","properties":{"cadnum":"1421588000:01:000:0054"},"geometry":{"type":"Polygon","coordinates":[[[37.400548,47.478192],[37.400836,47.479005],[37.400837,47.479005],[37.401128,47.478953],[37.400814,47.478143],[37.400548,47.478192]]]}},{"type":"Feature","properties":{"cadnum":"1421588000:01:000:0028"},"geometry":{"type":"Polygon","coordinates":[[[37.400355,47.479907],[37.400484,47.480191],[37.400485,47.480191],[37.400539,47.48031],[37.400818,47.480258],[37.400747,47.480095],[37.400647,47.479861],[37.400355,47.479907]]]}},{"type":"Feature","properties":{"cadnum":"1421588000:01:000:0003"},"geometry":{"type":"Polygon","coordinates":[[[37.400993,47.479178],[37.401187,47.479731],[37.401537,47.479673],[37.401321,47.479124],[37.400993,47.479178]]]}},{"type":"Feature","properties":{"cadnum":"1421588000:01:000:0104"},"geometry":{"type":"Polygon","coordinates":[[[37.399762,47.479983],[37.39984,47.480191],[37.399841,47.480191],[37.399919,47.480398],[37.400221,47.480341],[37.400166,47.480192],[37.400166,47.480191],[37.400068,47.479925],[37.399946,47.479949],[37.399762,47.479983]]]}},{"type":"Feature","properties":{"cadnum":"1421588000:01:000:0116"},"geometry":{"type":"Polygon","coordinates":[[[37.40172,47.477903],[37.402039,47.478583],[37.402363,47.478528],[37.402009,47.477842],[37.40172,47.477903]]]}},{"type":"Feature","properties":{"cadnum":"1421588000:01:000:0070"},"geometry":{"type":"Polygon","coordinates":[[[37.399422,47.479445],[37.399659,47.479997],[37.399735,47.479986],[37.399946,47.479949],[37.399739,47.479391],[37.399422,47.479445]]]}},{"type":"Feature","properties":{"cadnum":"1421588000:01:000:0153"},"geometry":{"type":"Polygon","coordinates":[[[37.40212,47.47272],[37.402145,47.472766],[37.402147,47.472766],[37.402269,47.472972],[37.402695,47.472866],[37.402636,47.472766],[37.402548,47.472614],[37.402405,47.47265],[37.402404,47.47265],[37.40212,47.47272]]]}},{"type":"Feature","properties":{"cadnum":"1421588000:01:000:0155"},"geometry":{"type":"Polygon","coordinates":[[[37.397242,47.469991],[37.397372,47.470198],[37.397375,47.470197],[37.397375,47.470198],[37.398594,47.469851],[37.398468,47.469645],[37.397957,47.469788],[37.397588,47.469894],[37.397375,47.469954],[37.397242,47.469991]]]}},{"type":"Feature","properties":{"cadnum":"1421588000:01:000:0046"},"geometry":{"type":"Polygon","coordinates":[[[37.399116,47.471458],[37.399255,47.471692],[37.400374,47.471406],[37.400229,47.471172],[37.399116,47.471458]]]}},{"type":"Feature","properties":{"cadnum":"1421588000:01:000:0137"},"geometry":{"type":"Polygon","coordinates":[[[37.398204,47.471865],[37.398334,47.472101],[37.399452,47.471816],[37.399322,47.471582],[37.398204,47.471865]]]}},{"type":"Feature","properties":{"cadnum":"1421588000:01:000:0007"},"geometry":{"type":"Polygon","coordinates":[[[37.399592,47.472263],[37.399731,47.472493],[37.40085,47.472207],[37.400705,47.471973],[37.399592,47.472263]]]}},{"type":"Feature","properties":{"cadnum":"1421588000:01:000:0067"},"geometry":{"type":"Polygon","coordinates":[[[37.402026,47.471546],[37.402062,47.471606],[37.402035,47.471613],[37.402112,47.471752],[37.402237,47.471722],[37.402229,47.471707],[37.402385,47.471671],[37.402386,47.471671],[37.402395,47.471685],[37.402781,47.471592],[37.402583,47.471412],[37.402026,47.471546]]]}},{"type":"Feature","properties":{"cadnum":"1421588000:01:000:0071"},"geometry":{"type":"Polygon","coordinates":[[[37.40146,47.470908],[37.402093,47.471363],[37.402313,47.471246],[37.401613,47.470817],[37.40146,47.470908]]]}},{"type":"Feature","properties":{"cadnum":"1421588000:01:000:0066"},"geometry":{"type":"Polygon","coordinates":[[[37.398738,47.472749],[37.398747,47.472766],[37.398869,47.472985],[37.399988,47.472697],[37.399856,47.472463],[37.399125,47.47265],[37.399124,47.47265],[37.398738,47.472749]]]}},{"type":"Feature","properties":{"cadnum":"1421588000:01:000:0085"},"geometry":{"type":"Polygon","coordinates":[[[37.401946,47.472468],[37.402038,47.47265],[37.402037,47.47265],[37.402076,47.472724],[37.402506,47.472621],[37.402372,47.472366],[37.401946,47.472468]]]}},{"type":"Feature","properties":{"cadnum":"1421588000:01:000:0126"},"geometry":{"type":"Polygon","coordinates":[[[37.399511,47.47191],[37.399655,47.472156],[37.399713,47.472138],[37.399569,47.471895],[37.399511,47.47191]]]}},{"type":"Feature","properties":{"cadnum":"1421588000:01:000:0125"},"geometry":{"type":"Polygon","coordinates":[[[37.399569,47.471895],[37.399713,47.472138],[37.400764,47.471856],[37.400621,47.47161],[37.400068,47.471761],[37.399569,47.471895]]]}},{"type":"Feature","properties":{"cadnum":"1421588000:02:000:0039"},"geometry":{"type":"Polygon","coordinates":[[[37.399892,47.463894],[37.402013,47.464705],[37.402781,47.464733],[37.402646,47.464696],[37.40173,47.464006],[37.399892,47.463894]]]}},{"type":"Feature","properties":{"cadnum":"1421588000:01:000:0096"},"geometry":{"type":"Polygon","coordinates":[[[37.402206,47.483103],[37.402328,47.48359],[37.402613,47.483549],[37.402613,47.483548],[37.402462,47.483066],[37.402206,47.483103]]]}},{"type":"Feature","properties":{"cadnum":"1421588000:01:000:0147"},"geometry":{"type":"Polygon","coordinates":[[[37.400967,47.481613],[37.401123,47.482074],[37.401374,47.482035],[37.401213,47.48157],[37.400967,47.481613]]]}},{"type":"Feature","properties":{"cadnum":"1421588000:01:000:0124"},"geometry":{"type":"Polygon","coordinates":[[[37.399839,47.480899],[37.399982,47.481194],[37.400378,47.481121],[37.400265,47.48082],[37.400139,47.480841],[37.399839,47.480899]]]}},{"type":"Feature","properties":{"cadnum":"1421588000:01:000:0114"},"geometry":{"type":"Polygon","coordinates":[[[37.401374,47.482035],[37.401554,47.482487],[37.401793,47.482445],[37.401636,47.481992],[37.401374,47.482035]]]}},{"type":"Feature","properties":{"cadnum":"1421588000:01:000:0012"},"geometry":{"type":"Polygon","coordinates":[[[37.398917,47.481671],[37.399124,47.482004],[37.399573,47.481892],[37.399399,47.481545],[37.398917,47.481671]]]}},{"type":"Feature","properties":{"cadnum":"1421588000:01:000:0106"},"geometry":{"type":"Polygon","coordinates":[[[37.399452,47.481437],[37.399619,47.48177],[37.400104,47.481658],[37.399933,47.481324],[37.399452,47.481437]]]}},{"type":"Feature","properties":{"cadnum":"1421588000:01:000:0107"},"geometry":{"type":"Polygon","coordinates":[[[37.399965,47.480435],[37.400139,47.480841],[37.400265,47.48082],[37.400431,47.48079],[37.400288,47.48038],[37.399965,47.480435]]]}},{"type":"Feature","properties":{"cadnum":"1421588000:01:000:0117"},"geometry":{"type":"Polygon","coordinates":[[[37.401123,47.482074],[37.40128,47.482532],[37.401554,47.482487],[37.401374,47.482035],[37.401123,47.482074]]]}},{"type":"Feature","properties":{"cadnum":"1421588000:01:000:0101"},"geometry":{"type":"Polygon","coordinates":[[[37.400449,47.481209],[37.400584,47.481555],[37.40098,47.481482],[37.400841,47.481136],[37.400449,47.481209]]]}},{"type":"Feature","properties":{"cadnum":"1421588000:01:000:0146"},"geometry":{"type":"Polygon","coordinates":[[[37.401963,47.48143],[37.402156,47.481919],[37.402435,47.481883],[37.402242,47.481385],[37.401963,47.48143]]]}},{"type":"Feature","properties":{"cadnum":"1421588000:01:000:0026"},"geometry":{"type":"Polygon","coordinates":[[[37.401491,47.480678],[37.401596,47.480984],[37.402003,47.480915],[37.401883,47.480602],[37.401491,47.480678]]]}},{"type":"Feature","properties":{"cadnum":"1421588000:01:000:0036"},"geometry":{"type":"Polygon","coordinates":[[[37.39399,47.477715],[37.394439,47.478519],[37.394759,47.478425],[37.394309,47.477624],[37.39399,47.477715]]]}},{"type":"Feature","properties":{"cadnum":"1421588000:01:000:0011"},"geometry":{"type":"Polygon","coordinates":[[[37.392248,47.479339],[37.392414,47.479621],[37.392684,47.479542],[37.392518,47.479266],[37.392248,47.479339]]]}},{"type":"Feature","properties":{"cadnum":"1421588000:01:000:0091"},"geometry":{"type":"Polygon","coordinates":[[[37.395473,47.477396],[37.395908,47.478215],[37.396232,47.478137],[37.395791,47.477317],[37.395473,47.477396]]]}},{"type":"Feature","properties":{"cadnum":"1421588000:01:000:0079"},"geometry":{"type":"Polygon","coordinates":[[[37.396043,47.479107],[37.396152,47.479293],[37.39643,47.479218],[37.39632,47.479032],[37.396043,47.479107]]]}},{"type":"Feature","properties":{"cadnum":"1421588000:01:000:0134"},"geometry":{"type":"Polygon","coordinates":[[[37.39616,47.478161],[37.396443,47.478611],[37.396619,47.478555],[37.39647,47.478231],[37.396416,47.478143],[37.39642,47.478143],[37.396393,47.4781],[37.396389,47.478091],[37.396344,47.478103],[37.396349,47.478113],[37.39616,47.478161]]]}},{"type":"Feature","properties":{"cadnum":"1421588000:01:000:0037"},"geometry":{"type":"Polygon","coordinates":[[[37.393959,47.477663],[37.39399,47.477715],[37.394309,47.477624],[37.394278,47.477569],[37.393959,47.477663]]]}},{"type":"Feature","properties":{"cadnum":"1421588000:01:000:0010"},"geometry":{"type":"Polygon","coordinates":[[[37.392414,47.479621],[37.392508,47.479779],[37.392778,47.479703],[37.392684,47.479542],[37.392414,47.479621]]]}},{"type":"Feature","properties":{"cadnum":"1421588000:01:000:0122"},"geometry":{"type":"Polygon","coordinates":[[[37.394493,47.477605],[37.394911,47.478395],[37.394912,47.478395],[37.395258,47.478304],[37.394808,47.477524],[37.394493,47.477605]]]}},{"type":"Feature","properties":{"cadnum":"1421588000:01:000:0078"},"geometry":{"type":"Polygon","coordinates":[[[37.396152,47.479293],[37.396481,47.47985],[37.396758,47.479774],[37.39643,47.479218],[37.396152,47.479293]]]}},{"type":"Feature","properties":{"cadnum":"1421588000:01:000:0149"},"geometry":{"type":"Polygon","coordinates":[[[37.400378,47.473312],[37.400508,47.473544],[37.400539,47.473534],[37.401609,47.473234],[37.401451,47.473001],[37.400378,47.473312]]]}},{"type":"Feature","properties":{"cadnum":"1421588000:01:000:0150"},"geometry":{"type":"Polygon","coordinates":[[[37.401761,47.473091],[37.401919,47.473346],[37.402426,47.473228],[37.402269,47.472963],[37.401761,47.473091]]]}},{"type":"Feature","properties":{"cadnum":"1421588000:01:000:0130"},"geometry":{"type":"Polygon","coordinates":[[[37.399919,47.474843],[37.400063,47.475092],[37.400076,47.475089],[37.400436,47.474995],[37.400288,47.474743],[37.399929,47.47484],[37.399919,47.474843]]]}},{"type":"Feature","properties":{"cadnum":"1421588000:01:000:0151"},"geometry":{"type":"Polygon","coordinates":[[[37.401684,47.47549],[37.401837,47.47576],[37.402538,47.475638],[37.402403,47.475323],[37.402359,47.475305],[37.401684,47.47549]]]}},{"type":"Feature","properties":{"cadnum":"1421588000:01:000:0119"},"geometry":{"type":"Polygon","coordinates":[[[37.400539,47.473534],[37.400688,47.473775],[37.401752,47.473474],[37.401609,47.473234],[37.400539,47.473534]]]}}]}