{"type":"FeatureCollection","features":[{"type":"Feature","properties":{"cadnum":"1421587000:05:000:0288"},"geometry":{"type":"Polygon","coordinates":[[[37.573174,47.580472],[37.573328,47.580482],[37.573591,47.580499],[37.573622,47.580287],[37.573453,47.580276],[37.573201,47.58026],[37.57319,47.580334],[37.573191,47.580334],[37.573174,47.580472]]]}},{"type":"Feature","properties":{"cadnum":"1421587000:05:000:0287"},"geometry":{"type":"Polygon","coordinates":[[[37.573075,47.581199],[37.573156,47.581205],[37.573253,47.581212],[37.573328,47.581217],[37.57347,47.581226],[37.573591,47.580499],[37.573174,47.580472],[37.573075,47.581199]]]}}]}