{"type":"FeatureCollection","features":[{"type":"Feature","properties":{"cadnum":"1422482501:05:000:0055"},"geometry":{"type":"Polygon","coordinates":[[[37.791675,48.445489],[37.792883,48.445511],[37.792883,48.445512],[37.795156,48.445552],[37.795227,48.443766],[37.795261,48.442943],[37.792883,48.442901],[37.792644,48.442896],[37.792275,48.44388],[37.792276,48.44388],[37.791675,48.445489]]]}},{"type":"Feature","properties":{"cadnum":"1422482501:05:011:0001"},"geometry":{"type":"Polygon","coordinates":[[[37.774979,48.465242],[37.776575,48.46562],[37.776575,48.465619],[37.776593,48.465623],[37.776822,48.465466],[37.776496,48.465399],[37.775159,48.46512],[37.774979,48.465242]]]}},{"type":"Feature","properties":{"cadnum":"1422482501:05:011:0002"},"geometry":{"type":"Polygon","coordinates":[[[37.776593,48.465623],[37.776822,48.465677],[37.777028,48.465508],[37.776822,48.465466],[37.776593,48.465623]]]}},{"type":"Feature","properties":{"cadnum":"1422482501:02:007:0001"},"geometry":{"type":"Polygon","coordinates":[[[37.768126,48.470421],[37.768813,48.470713],[37.768952,48.470564],[37.768264,48.470276],[37.768126,48.470421]]]}}]}