{"type":"FeatureCollection","features":[{"type":"Feature","properties":{"cadnum":"1422085001:00:000:0001"},"geometry":{"type":"Polygon","coordinates":[[[37.241843,48.413865],[37.241942,48.414026],[37.242207,48.414259],[37.242642,48.414307],[37.24306,48.414393],[37.243253,48.414583],[37.24325,48.414606],[37.24325,48.414607],[37.243128,48.415863],[37.243738,48.41582],[37.243738,48.415819],[37.2443,48.415779],[37.244457,48.41538],[37.245189,48.415445],[37.245661,48.415323],[37.247008,48.414867],[37.246954,48.414697],[37.246887,48.414486],[37.246887,48.414485],[37.246837,48.414148],[37.246878,48.413105],[37.24704,48.411883],[37.246528,48.4119],[37.246231,48.411907],[37.245759,48.411871],[37.244973,48.411799],[37.244165,48.411695],[37.243567,48.411615],[37.243566,48.411615],[37.242849,48.411519],[37.242629,48.411492],[37.242184,48.411498],[37.242113,48.412243],[37.241843,48.413865]],[[37.246748,48.414515],[37.246815,48.414606],[37.246815,48.414607],[37.24682,48.414614],[37.246825,48.414721],[37.246826,48.414721],[37.246833,48.414861],[37.246164,48.415076],[37.245944,48.414778],[37.245944,48.414777],[37.24633,48.414651],[37.246748,48.414515]]]}}]}