{"type":"FeatureCollection","features":[{"type":"Feature","properties":{"cadnum":"1423655000:01:000:0042"},"geometry":{"type":"Polygon","coordinates":[[[38.15623,47.078281],[38.156337,47.078345],[38.15644,47.078277],[38.156333,47.078211],[38.15623,47.078281]]]}},{"type":"Feature","properties":{"cadnum":"1423655000:01:000:0025"},"geometry":{"type":"Polygon","coordinates":[[[38.151935,47.062942],[38.151976,47.062972],[38.152415,47.062704],[38.152416,47.062703],[38.15239,47.062683],[38.152385,47.062679],[38.152276,47.062742],[38.152277,47.062742],[38.151935,47.062942]]]}},{"type":"Feature","properties":{"cadnum":"1423655000:01:000:0023"},"geometry":{"type":"Polygon","coordinates":[[[38.152416,47.062661],[38.152445,47.062683],[38.152448,47.062685],[38.152802,47.062468],[38.152771,47.062443],[38.152474,47.062625],[38.152473,47.062625],[38.152416,47.06266],[38.152416,47.062661]]]}},{"type":"Feature","properties":{"cadnum":"1423655000:01:000:0142"},"geometry":{"type":"Polygon","coordinates":[[[38.149209,47.06457],[38.149869,47.065105],[38.149939,47.06516],[38.149939,47.065161],[38.150033,47.065235],[38.15011,47.065296],[38.150264,47.065417],[38.151087,47.06494],[38.151307,47.064811],[38.151779,47.064532],[38.152272,47.064246],[38.152205,47.06419],[38.151895,47.063939],[38.151832,47.06389],[38.151805,47.063869],[38.151626,47.063725],[38.15154,47.063652],[38.151437,47.063569],[38.15128,47.063437],[38.151184,47.063364],[38.151087,47.063422],[38.151068,47.063434],[38.15011,47.06402],[38.149936,47.064126],[38.14937,47.064468],[38.149357,47.064481],[38.149209,47.06457]]]}},{"type":"Feature","properties":{"cadnum":"1423655000:01:000:0026"},"geometry":{"type":"Polygon","coordinates":[[[38.151855,47.062878],[38.151903,47.062917],[38.152353,47.062654],[38.152308,47.062618],[38.152296,47.062625],[38.152295,47.062625],[38.152189,47.062686],[38.152091,47.062742],[38.151855,47.062878]]]}},{"type":"Feature","properties":{"cadnum":"1423655000:01:000:0027"},"geometry":{"type":"Polygon","coordinates":[[[38.166322,47.07498],[38.16643,47.075062],[38.166528,47.075001],[38.166421,47.074919],[38.166322,47.07498]]]}},{"type":"Feature","properties":{"cadnum":"1423655000:01:000:0048"},"geometry":{"type":"Polygon","coordinates":[[[38.146716,47.062615],[38.146728,47.062625],[38.146782,47.062667],[38.146877,47.062742],[38.146878,47.062742],[38.146896,47.062756],[38.147112,47.062929],[38.147358,47.063126],[38.147412,47.063094],[38.147452,47.063073],[38.147582,47.062997],[38.147578,47.062994],[38.147618,47.062972],[38.148012,47.062742],[38.148013,47.062742],[38.148813,47.062275],[38.148894,47.062229],[38.149232,47.062033],[38.14937,47.061951],[38.149253,47.061856],[38.149226,47.061837],[38.148764,47.061491],[38.148728,47.061464],[38.148706,47.061449],[38.14862,47.061498],[38.148378,47.061638],[38.147259,47.062296],[38.146716,47.062615]]]}},{"type":"Feature","properties":{"cadnum":"1423655000:01:000:0037"},"geometry":{"type":"Polygon","coordinates":[[[38.175547,47.087383],[38.175839,47.087671],[38.176006,47.087841],[38.176015,47.087851],[38.176055,47.087891],[38.176063,47.0879],[38.176486,47.088322],[38.176734,47.088569],[38.176761,47.0886],[38.176774,47.088609],[38.177223,47.088367],[38.177404,47.088271],[38.177658,47.088135],[38.17795,47.087982],[38.178346,47.087771],[38.1787,47.087578],[38.178687,47.087563],[38.178686,47.087563],[38.178665,47.087542],[38.178453,47.087313],[38.178117,47.086948],[38.178072,47.086903],[38.178054,47.086884],[38.178053,47.086884],[38.177631,47.086432],[38.177587,47.086468],[38.177573,47.086477],[38.176954,47.086921],[38.176935,47.086933],[38.176702,47.087102],[38.176472,47.087266],[38.176388,47.087325],[38.175988,47.087615],[38.175692,47.087318],[38.175664,47.087331],[38.175547,47.087383]]]}},{"type":"Feature","properties":{"cadnum":"1423655000:01:000:0018"},"geometry":{"type":"Polygon","coordinates":[[[38.162064,47.071453],[38.162266,47.071606],[38.162459,47.071484],[38.162275,47.071355],[38.162136,47.071453],[38.162113,47.071423],[38.162064,47.071453]]]}},{"type":"Feature","properties":{"cadnum":"1423655000:02:000:0003"},"geometry":{"type":"Polygon","coordinates":[[[38.189921,47.097823],[38.190055,47.097828],[38.190068,47.097694],[38.189934,47.097688],[38.189921,47.097823]]]}},{"type":"Feature","properties":{"cadnum":"1423655000:01:000:0049"},"geometry":{"type":"Polygon","coordinates":[[[38.14575,47.058576],[38.145997,47.058756],[38.146837,47.058157],[38.146837,47.058156],[38.146779,47.05812],[38.147209,47.057807],[38.146886,47.05778],[38.146743,47.057869],[38.14575,47.058576]]]}},{"type":"Feature","properties":{"cadnum":"1423655000:01:000:0033"},"geometry":{"type":"Polygon","coordinates":[[[38.159949,47.068874],[38.16015,47.06899],[38.160316,47.068852],[38.160159,47.068752],[38.16011,47.068801],[38.160109,47.068801],[38.160069,47.068776],[38.159949,47.068874]]]}},{"type":"Feature","properties":{"cadnum":"1423655000:01:000:0015"},"geometry":{"type":"Polygon","coordinates":[[[38.146253,47.06386],[38.147242,47.064643],[38.147978,47.065224],[38.148064,47.065178],[38.148127,47.065139],[38.148504,47.064915],[38.148534,47.0649],[38.148544,47.06489],[38.149232,47.064487],[38.14911,47.064392],[38.148414,47.063838],[38.147507,47.063119],[38.147129,47.063343],[38.146253,47.06386]]]}}]}