{"type":"FeatureCollection","features":[{"type":"Feature","properties":{"cadnum":"1423688801:00:000:0020"},"geometry":{"type":"Polygon","coordinates":[[[37.823511,47.096407],[37.823511,47.096409],[37.823524,47.096713],[37.82427,47.096706],[37.824261,47.096526],[37.82425,47.096317],[37.824239,47.096076],[37.824064,47.096095],[37.824072,47.096292],[37.824077,47.096395],[37.823511,47.096407]]]}},{"type":"Feature","properties":{"cadnum":"1423688801:01:000:1747"},"geometry":{"type":"Polygon","coordinates":[[[37.822599,47.102705],[37.822914,47.102732],[37.823251,47.102782],[37.823268,47.10273],[37.823777,47.102779],[37.823807,47.102641],[37.823381,47.102598],[37.823314,47.102601],[37.823094,47.102571],[37.822851,47.102534],[37.822649,47.102507],[37.822599,47.102705]]]}},{"type":"Feature","properties":{"cadnum":"1423688801:00:000:0019"},"geometry":{"type":"Polygon","coordinates":[[[37.812466,47.100042],[37.812482,47.100148],[37.812498,47.100248],[37.812668,47.100248],[37.812674,47.100271],[37.812767,47.100266],[37.812817,47.100266],[37.812839,47.100257],[37.813037,47.100248],[37.813017,47.100048],[37.813014,47.100015],[37.812685,47.100031],[37.812684,47.100031],[37.812484,47.100041],[37.812466,47.100042]]]}}]}