{"type":"FeatureCollection","features":[{"type":"Feature","properties":{"cadnum":"1424857500:09:000:0189"},"geometry":{"type":"Polygon","coordinates":[[[38.143173,47.578457],[38.144022,47.580072],[38.144617,47.579917],[38.147161,47.579254],[38.147165,47.579163],[38.147205,47.579087],[38.147291,47.579027],[38.147376,47.578987],[38.147515,47.578978],[38.147672,47.578999],[38.147767,47.579054],[38.14779,47.579087],[38.148423,47.578924],[38.147686,47.577278],[38.144617,47.57808],[38.143173,47.578457]]]}}]}