{"type":"FeatureCollection","features":[{"type":"Feature","properties":{"cadnum":"1424585000:09:000:0003"},"geometry":{"type":"Polygon","coordinates":[[[38.048984,47.760903],[38.049429,47.761471],[38.049428,47.761471],[38.050269,47.762543],[38.051061,47.762096],[38.051062,47.762096],[38.051062,47.762097],[38.052051,47.761538],[38.052051,47.761537],[38.051233,47.761],[38.05004,47.760215],[38.048984,47.760903]]]}},{"type":"Feature","properties":{"cadnum":"1424585000:09:000:0006"},"geometry":{"type":"Polygon","coordinates":[[[38.053152,47.766217],[38.054208,47.767567],[38.056726,47.766148],[38.056726,47.766147],[38.056727,47.766147],[38.05785,47.765514],[38.057452,47.765233],[38.056555,47.7646],[38.056319,47.764433],[38.054817,47.765279],[38.053152,47.766217]]]}},{"type":"Feature","properties":{"cadnum":"1424585000:09:000:0004"},"geometry":{"type":"Polygon","coordinates":[[[38.051908,47.764629],[38.052416,47.765279],[38.052417,47.765279],[38.053152,47.766217],[38.055022,47.765163],[38.056319,47.764433],[38.054518,47.763159],[38.051908,47.764629]]]}},{"type":"Feature","properties":{"cadnum":"1424585000:09:000:0005"},"geometry":{"type":"Polygon","coordinates":[[[38.050269,47.762543],[38.051062,47.763552],[38.051908,47.764629],[38.054518,47.763159],[38.054445,47.763107],[38.052051,47.761538],[38.051233,47.762],[38.051233,47.761999],[38.050269,47.762543]]]}},{"type":"Feature","properties":{"cadnum":"1424585000:09:000:0002"},"geometry":{"type":"Polygon","coordinates":[[[38.063001,47.774796],[38.06342,47.775566],[38.064269,47.776085],[38.066986,47.773483],[38.067713,47.772737],[38.067713,47.772736],[38.067895,47.772548],[38.067895,47.772547],[38.069012,47.7714],[38.068491,47.771135],[38.067713,47.771428],[38.067713,47.771427],[38.067391,47.771548],[38.066829,47.772234],[38.066446,47.772548],[38.066445,47.772548],[38.066363,47.772616],[38.066305,47.772663],[38.066074,47.772852],[38.065355,47.773333],[38.063001,47.774796]]]}},{"type":"Feature","properties":{"cadnum":"1424585000:09:000:0001"},"geometry":{"type":"Polygon","coordinates":[[[38.054208,47.767567],[38.054288,47.767669],[38.056555,47.766393],[38.056555,47.766394],[38.057967,47.765598],[38.05785,47.765514],[38.056555,47.766244],[38.054208,47.767567]]]}}]}