{"type":"FeatureCollection","features":[{"type":"Feature","properties":{"cadnum":"1424855600:01:000:0218"},"geometry":{"type":"Polygon","coordinates":[[[37.726736,47.423018],[37.726952,47.423143],[37.726965,47.423134],[37.727418,47.422815],[37.727248,47.422717],[37.727208,47.422745],[37.727171,47.422721],[37.726996,47.422841],[37.726736,47.423018]]]}},{"type":"Feature","properties":{"cadnum":"1424855600:01:000:0069"},"geometry":{"type":"Polygon","coordinates":[[[37.727005,47.423228],[37.727137,47.423303],[37.727208,47.423343],[37.727661,47.422994],[37.727458,47.422876],[37.727005,47.423228]]]}},{"type":"Feature","properties":{"cadnum":"1424855600:02:000:2006"},"geometry":{"type":"Polygon","coordinates":[[[37.721265,47.440756],[37.721472,47.440677],[37.721586,47.440633],[37.721643,47.440611],[37.721644,47.440611],[37.722508,47.440276],[37.723803,47.439265],[37.724019,47.439114],[37.723744,47.439114],[37.721556,47.439107],[37.721536,47.439221],[37.721536,47.439222],[37.721535,47.439222],[37.721265,47.440756]]]}},{"type":"Feature","properties":{"cadnum":"1424855600:01:000:0039"},"geometry":{"type":"Polygon","coordinates":[[[37.734075,47.427264],[37.734282,47.427388],[37.734843,47.426975],[37.734632,47.426845],[37.734075,47.427264]]]}},{"type":"Feature","properties":{"cadnum":"1424855600:01:000:0211"},"geometry":{"type":"Polygon","coordinates":[[[37.734739,47.426406],[37.734924,47.426514],[37.734965,47.42648],[37.735045,47.426416],[37.735175,47.426318],[37.735248,47.426261],[37.735265,47.426249],[37.735085,47.426145],[37.734739,47.426406]]]}},{"type":"Feature","properties":{"cadnum":"1424855600:01:000:0216"},"geometry":{"type":"Polygon","coordinates":[[[37.737089,47.424693],[37.737443,47.424915],[37.737839,47.424605],[37.737485,47.424399],[37.737383,47.424474],[37.737089,47.424693]]]}},{"type":"Feature","properties":{"cadnum":"1424855600:01:000:0210"},"geometry":{"type":"Polygon","coordinates":[[[37.736366,47.424951],[37.736657,47.425134],[37.736927,47.424933],[37.736636,47.424751],[37.736366,47.424951]]]}},{"type":"Feature","properties":{"cadnum":"1424855600:01:000:0002"},"geometry":{"type":"Polygon","coordinates":[[[37.73306,47.425899],[37.733271,47.426021],[37.733468,47.426131],[37.733536,47.426075],[37.733558,47.426057],[37.73372,47.425933],[37.73332,47.425705],[37.733154,47.425829],[37.733131,47.425845],[37.73306,47.425899]]]}},{"type":"Feature","properties":{"cadnum":"1424855600:01:000:0037"},"geometry":{"type":"Polygon","coordinates":[[[37.735512,47.426215],[37.735818,47.426395],[37.73593,47.426309],[37.73589,47.426285],[37.735925,47.426258],[37.735665,47.426106],[37.735512,47.426215]]]}},{"type":"Feature","properties":{"cadnum":"1424855600:01:000:0205"},"geometry":{"type":"Polygon","coordinates":[[[37.73708,47.425319],[37.737749,47.42571],[37.737749,47.425711],[37.737506,47.425908],[37.737726,47.426036],[37.737951,47.425855],[37.73804,47.425783],[37.738123,47.425716],[37.738575,47.425349],[37.738558,47.42534],[37.738678,47.42524],[37.738123,47.424909],[37.737839,47.424739],[37.73708,47.425319]]]}},{"type":"Feature","properties":{"cadnum":"1424855600:01:000:0213"},"geometry":{"type":"Polygon","coordinates":[[[37.73654,47.427829],[37.736932,47.42803],[37.737057,47.427917],[37.737102,47.427881],[37.736662,47.427726],[37.73654,47.427829]]]}},{"type":"Feature","properties":{"cadnum":"1424855600:01:000:0217"},"geometry":{"type":"Polygon","coordinates":[[[37.73629,47.424352],[37.736299,47.424358],[37.736298,47.424358],[37.736734,47.424614],[37.73685,47.42452],[37.73689,47.424408],[37.736891,47.424408],[37.737156,47.424201],[37.736774,47.423976],[37.73629,47.424352]]]}},{"type":"Feature","properties":{"cadnum":"1424855600:01:000:0036"},"geometry":{"type":"Polygon","coordinates":[[[37.734852,47.427704],[37.734861,47.42771],[37.735014,47.427798],[37.735089,47.427738],[37.735089,47.427737],[37.735099,47.427732],[37.734938,47.427634],[37.734852,47.427704]]]}},{"type":"Feature","properties":{"cadnum":"1424855600:01:000:0050"},"geometry":{"type":"Polygon","coordinates":[[[37.734632,47.426845],[37.734843,47.426975],[37.734888,47.427003],[37.735144,47.426808],[37.734888,47.42665],[37.734632,47.426845]]]}},{"type":"Feature","properties":{"cadnum":"1424855600:01:000:0206"},"geometry":{"type":"Polygon","coordinates":[[[37.733158,47.426784],[37.733357,47.426902],[37.733913,47.42648],[37.733707,47.426358],[37.733158,47.426784]]]}},{"type":"Feature","properties":{"cadnum":"1424855600:02:000:2007"},"geometry":{"type":"Polygon","coordinates":[[[37.730239,47.435173],[37.730261,47.435355],[37.730346,47.435506],[37.730345,47.435506],[37.730351,47.435516],[37.730338,47.435622],[37.730328,47.435701],[37.730257,47.4362],[37.730783,47.436227],[37.730728,47.436716],[37.732458,47.436798],[37.732458,47.436799],[37.732525,47.436801],[37.73263,47.435721],[37.732638,47.435638],[37.732595,47.435637],[37.732014,47.435622],[37.7313,47.435604],[37.731281,47.435604],[37.731303,47.435207],[37.730239,47.435173]]]}},{"type":"Feature","properties":{"cadnum":"1424855600:02:000:0002"},"geometry":{"type":"Polygon","coordinates":[[[37.728024,47.433228],[37.728254,47.433766],[37.729206,47.43362],[37.729233,47.433079],[37.728024,47.433228]]]}},{"type":"Feature","properties":{"cadnum":"1424855600:02:000:0010"},"geometry":{"type":"Polygon","coordinates":[[[37.74233,47.435905],[37.742473,47.436066],[37.742785,47.436081],[37.742919,47.436033],[37.742932,47.435844],[37.742932,47.435823],[37.742901,47.43582],[37.742901,47.435768],[37.742896,47.435683],[37.742833,47.435507],[37.742447,47.435501],[37.742445,47.435506],[37.742444,47.435506],[37.742419,47.435592],[37.74241,47.435622],[37.742411,47.435622],[37.74233,47.435905]]]}},{"type":"Feature","properties":{"cadnum":"1424855600:01:000:0040"},"geometry":{"type":"Polygon","coordinates":[[[37.727787,47.424696],[37.727988,47.424811],[37.728555,47.424358],[37.728556,47.424358],[37.728631,47.424298],[37.728429,47.424183],[37.72821,47.424358],[37.728209,47.424358],[37.727787,47.424696]]]}},{"type":"Feature","properties":{"cadnum":"1424855600:01:000:0075"},"geometry":{"type":"Polygon","coordinates":[[[37.730881,47.424717],[37.731137,47.424863],[37.731397,47.424654],[37.731403,47.424654],[37.731133,47.424501],[37.730881,47.424717]]]}},{"type":"Feature","properties":{"cadnum":"1424855600:01:000:0029"},"geometry":{"type":"Polygon","coordinates":[[[37.731766,47.425237],[37.731852,47.425291],[37.731906,47.425249],[37.732036,47.425322],[37.73226,47.425152],[37.732049,47.425024],[37.731766,47.425237]]]}},{"type":"Feature","properties":{"cadnum":"1424855600:01:000:0212"},"geometry":{"type":"Polygon","coordinates":[[[37.73155,47.426705],[37.731749,47.42682],[37.732274,47.42641],[37.732072,47.426289],[37.73155,47.426705]]]}},{"type":"Feature","properties":{"cadnum":"1424855600:01:000:0046"},"geometry":{"type":"Polygon","coordinates":[[[37.729682,47.427297],[37.729942,47.42748],[37.730342,47.42719],[37.730104,47.427021],[37.729682,47.427297]]]}},{"type":"Feature","properties":{"cadnum":"1424855600:01:000:0058"},"geometry":{"type":"Polygon","coordinates":[[[37.731183,47.425544],[37.73138,47.425662],[37.731852,47.425291],[37.731766,47.425237],[37.731653,47.42517],[37.731183,47.425544]]]}},{"type":"Feature","properties":{"cadnum":"1424855600:01:000:0055"},"geometry":{"type":"Polygon","coordinates":[[[37.729386,47.425237],[37.729642,47.425379],[37.730045,47.425046],[37.729789,47.424903],[37.729386,47.425237]]]}},{"type":"Feature","properties":{"cadnum":"1424855600:01:000:0203"},"geometry":{"type":"Polygon","coordinates":[[[37.729776,47.427464],[37.730028,47.427629],[37.730603,47.427291],[37.730361,47.427127],[37.729776,47.427464]]]}},{"type":"Feature","properties":{"cadnum":"1424855600:01:000:0041"},"geometry":{"type":"Polygon","coordinates":[[[37.727701,47.424766],[37.727904,47.424881],[37.727988,47.424811],[37.727787,47.424696],[37.727701,47.424766]]]}},{"type":"Feature","properties":{"cadnum":"1424855600:01:000:0043"},"geometry":{"type":"Polygon","coordinates":[[[37.729116,47.424356],[37.729119,47.424358],[37.729306,47.424467],[37.729309,47.424468],[37.729826,47.424057],[37.729628,47.423933],[37.729116,47.424356]]]}},{"type":"Feature","properties":{"cadnum":"1424855600:01:000:0063"},"geometry":{"type":"Polygon","coordinates":[[[37.729506,47.427914],[37.729583,47.427969],[37.729776,47.428102],[37.730239,47.427807],[37.729992,47.427638],[37.729506,47.427914]]]}},{"type":"Feature","properties":{"cadnum":"1424855600:01:000:0073"},"geometry":{"type":"Polygon","coordinates":[[[37.728816,47.426838],[37.729036,47.426994],[37.729525,47.42668],[37.729313,47.426532],[37.728816,47.426838]]]}},{"type":"Feature","properties":{"cadnum":"1424855600:01:000:0076"},"geometry":{"type":"Polygon","coordinates":[[[37.728451,47.424863],[37.728653,47.424978],[37.729183,47.424593],[37.728977,47.42448],[37.728451,47.424863]]]}},{"type":"Feature","properties":{"cadnum":"1424855600:01:000:0038"},"geometry":{"type":"Polygon","coordinates":[[[37.732219,47.429072],[37.732382,47.429185],[37.73263,47.429011],[37.732915,47.428811],[37.732755,47.428698],[37.732754,47.428698],[37.732505,47.428873],[37.732219,47.429072]]]}},{"type":"Feature","properties":{"cadnum":"1424855600:01:000:0052"},"geometry":{"type":"Polygon","coordinates":[[[37.732822,47.429485],[37.733001,47.429616],[37.733563,47.429233],[37.733406,47.42912],[37.732822,47.429485]]]}},{"type":"Feature","properties":{"cadnum":"1424855600:01:000:0004"},"geometry":{"type":"Polygon","coordinates":[[[37.732449,47.430584],[37.732458,47.430591],[37.732458,47.430592],[37.732902,47.430892],[37.733172,47.430584],[37.732894,47.430397],[37.73263,47.430508],[37.732449,47.430584]]]}},{"type":"Feature","properties":{"cadnum":"1424855600:02:000:2002"},"geometry":{"type":"Polygon","coordinates":[[[37.721934,47.436995],[37.723151,47.437083],[37.723416,47.437099],[37.724579,47.437181],[37.726556,47.437321],[37.726965,47.437032],[37.726965,47.437033],[37.727026,47.436989],[37.727137,47.436911],[37.727137,47.43691],[37.727145,47.436905],[37.726965,47.43689],[37.726965,47.436891],[37.725168,47.436743],[37.723516,47.436607],[37.723246,47.436585],[37.722024,47.436482],[37.721934,47.436995]],[[37.72338,47.436667],[37.72338,47.436682],[37.72338,47.436683],[37.723357,47.436683],[37.723357,47.436682],[37.723357,47.436667],[37.72338,47.436667]],[[37.723273,47.437084],[37.723273,47.437083],[37.723273,47.437069],[37.7233,47.437069],[37.7233,47.437087],[37.723273,47.437084]]]}},{"type":"Feature","properties":{"cadnum":"1424855600:02:000:2001"},"geometry":{"type":"Polygon","coordinates":[[[37.722024,47.436482],[37.723246,47.436585],[37.723516,47.436607],[37.725168,47.436743],[37.727137,47.436905],[37.727137,47.436904],[37.727145,47.436905],[37.727445,47.436692],[37.727037,47.436552],[37.726852,47.436488],[37.725545,47.43634],[37.723614,47.436121],[37.723344,47.43609],[37.722118,47.435951],[37.722024,47.436482]],[[37.723461,47.436261],[37.723461,47.436279],[37.723434,47.436279],[37.723434,47.436261],[37.723461,47.436261]]]}},{"type":"Feature","properties":{"cadnum":"1424855600:02:000:2005"},"geometry":{"type":"Polygon","coordinates":[[[37.721556,47.439107],[37.721643,47.439108],[37.721644,47.439108],[37.723744,47.439114],[37.724019,47.439114],[37.725091,47.438357],[37.723699,47.438314],[37.72342,47.438305],[37.721709,47.438254],[37.721556,47.439107]],[[37.723793,47.438846],[37.723793,47.438864],[37.723767,47.438864],[37.723766,47.438864],[37.723766,47.438846],[37.723767,47.438846],[37.723793,47.438846]],[[37.723605,47.438375],[37.723605,47.438393],[37.723579,47.438393],[37.723579,47.438375],[37.723605,47.438375]]]}},{"type":"Feature","properties":{"cadnum":"1424855600:02:000:0012"},"geometry":{"type":"Polygon","coordinates":[[[37.721705,47.434702],[37.723986,47.434714],[37.723713,47.433908],[37.721709,47.434474],[37.721705,47.434702]]]}},{"type":"Feature","properties":{"cadnum":"1424855600:02:000:2000"},"geometry":{"type":"Polygon","coordinates":[[[37.722118,47.435951],[37.723344,47.43609],[37.723614,47.436121],[37.725545,47.43634],[37.726852,47.436488],[37.724286,47.435621],[37.723753,47.43544],[37.723502,47.435355],[37.722868,47.43514],[37.722275,47.435072],[37.722176,47.435622],[37.722177,47.435622],[37.722118,47.43595],[37.722118,47.435951]],[[37.723632,47.435428],[37.723632,47.435446],[37.723606,47.435446],[37.723605,47.435446],[37.723605,47.435428],[37.723606,47.435428],[37.723632,47.435428]],[[37.723537,47.435865],[37.723537,47.435881],[37.72351,47.435881],[37.72351,47.435863],[37.723537,47.435865]]]}},{"type":"Feature","properties":{"cadnum":"1424855600:01:000:0033"},"geometry":{"type":"Polygon","coordinates":[[[37.735655,47.423665],[37.735831,47.423778],[37.735966,47.423681],[37.736024,47.423638],[37.735952,47.423593],[37.736011,47.42355],[37.736051,47.42352],[37.735997,47.423483],[37.735952,47.423456],[37.735938,47.423465],[37.735655,47.423665]]]}},{"type":"Feature","properties":{"cadnum":"1424855600:01:000:0032"},"geometry":{"type":"Polygon","coordinates":[[[37.735831,47.423778],[37.735952,47.423857],[37.736249,47.423647],[37.736051,47.42352],[37.736011,47.42355],[37.735952,47.423593],[37.736024,47.423638],[37.735966,47.423681],[37.735831,47.423778]]]}},{"type":"Feature","properties":{"cadnum":"1424855600:01:000:0035"},"geometry":{"type":"Polygon","coordinates":[[[37.729929,47.429577],[37.730176,47.42974],[37.730607,47.429442],[37.730361,47.429278],[37.729929,47.429577]]]}},{"type":"Feature","properties":{"cadnum":"1424855600:01:000:0034"},"geometry":{"type":"Polygon","coordinates":[[[37.729561,47.429509],[37.729799,47.429667],[37.729929,47.429577],[37.730361,47.429278],[37.730127,47.429127],[37.729561,47.429509]]]}},{"type":"Feature","properties":{"cadnum":"1424855600:01:000:0059"},"geometry":{"type":"Polygon","coordinates":[[[37.730374,47.429913],[37.730562,47.430038],[37.731024,47.429716],[37.730837,47.429591],[37.730374,47.429913]]]}},{"type":"Feature","properties":{"cadnum":"1424855600:02:000:2003"},"geometry":{"type":"Polygon","coordinates":[[[37.721831,47.437554],[37.723883,47.437685],[37.725864,47.43781],[37.725954,47.437746],[37.726556,47.437321],[37.724579,47.437181],[37.723416,47.437099],[37.723151,47.437083],[37.721934,47.436995],[37.721934,47.436996],[37.721849,47.437475],[37.721831,47.437554]],[[37.72321,47.437427],[37.723206,47.437409],[37.723286,47.437403],[37.723286,47.437421],[37.72321,47.437427]]]}},{"type":"Feature","properties":{"cadnum":"1424855600:02:000:2004"},"geometry":{"type":"Polygon","coordinates":[[[37.721709,47.438254],[37.72342,47.438305],[37.723699,47.438314],[37.725091,47.438357],[37.72572,47.437914],[37.725864,47.43781],[37.723883,47.437685],[37.721831,47.437554],[37.721818,47.437652],[37.721709,47.438254]],[[37.725433,47.437792],[37.725434,47.437792],[37.72546,47.437792],[37.72546,47.43781],[37.725434,47.43781],[37.725433,47.43781],[37.725433,47.437792]],[[37.723403,47.437923],[37.72343,47.437923],[37.72343,47.437941],[37.723403,47.437941],[37.723403,47.437923]],[[37.723178,47.437649],[37.723206,47.437649],[37.723206,47.437667],[37.723178,47.437667],[37.723178,47.437649]]]}},{"type":"Feature","properties":{"cadnum":"1424855600:01:000:0214"},"geometry":{"type":"Polygon","coordinates":[[[37.72894,47.423125],[37.729193,47.423268],[37.729569,47.422989],[37.729319,47.422839],[37.72894,47.423125]]]}},{"type":"Feature","properties":{"cadnum":"1424855600:01:000:0068"},"geometry":{"type":"Polygon","coordinates":[[[37.728007,47.423793],[37.728209,47.423912],[37.728686,47.423538],[37.728487,47.42342],[37.728007,47.423793]]]}},{"type":"Feature","properties":{"cadnum":"1424855600:01:000:0204"},"geometry":{"type":"Polygon","coordinates":[[[37.727988,47.422566],[37.728155,47.422666],[37.728573,47.422356],[37.728837,47.422158],[37.728671,47.422055],[37.727988,47.422566]]]}},{"type":"Feature","properties":{"cadnum":"1424855600:01:000:0208"},"geometry":{"type":"Polygon","coordinates":[[[37.727638,47.422365],[37.727831,47.42248],[37.728653,47.421903],[37.728537,47.421845],[37.728051,47.422134],[37.727638,47.422365]]]}},{"type":"Feature","properties":{"cadnum":"1424855600:01:000:0070"},"geometry":{"type":"Polygon","coordinates":[[[37.730338,47.42235],[37.730468,47.422423],[37.730715,47.422575],[37.73111,47.422338],[37.73089,47.422216],[37.730787,47.42211],[37.730737,47.42211],[37.730338,47.42235]]]}},{"type":"Feature","properties":{"cadnum":"1424855600:01:000:0044"},"geometry":{"type":"Polygon","coordinates":[[[37.731753,47.423216],[37.731973,47.423334],[37.732323,47.423064],[37.732116,47.422933],[37.73177,47.423198],[37.731753,47.423216]]]}},{"type":"Feature","properties":{"cadnum":"1424855600:01:000:0074"},"geometry":{"type":"Polygon","coordinates":[[[37.730342,47.423453],[37.730648,47.423626],[37.731003,47.423368],[37.730701,47.423192],[37.730342,47.423453]]]}},{"type":"Feature","properties":{"cadnum":"1424855600:01:000:0209"},"geometry":{"type":"Polygon","coordinates":[[[37.730877,47.422517],[37.73116,47.422694],[37.731416,47.422508],[37.731124,47.422329],[37.730877,47.422517]]]}},{"type":"Feature","properties":{"cadnum":"1424855600:01:000:0060"},"geometry":{"type":"Polygon","coordinates":[[[37.731703,47.422548],[37.731919,47.42269],[37.732242,47.422462],[37.732026,47.42232],[37.731703,47.422548]]]}},{"type":"Feature","properties":{"cadnum":"1424855600:01:000:0071"},"geometry":{"type":"Polygon","coordinates":[[[37.730127,47.422122],[37.730154,47.422246],[37.73019,47.422268],[37.730338,47.42235],[37.730737,47.42211],[37.730127,47.422122]]]}},{"type":"Feature","properties":{"cadnum":"1424855600:01:000:0005"},"geometry":{"type":"Polygon","coordinates":[[[37.728344,47.422773],[37.728537,47.422888],[37.728914,47.42259],[37.728747,47.422478],[37.728344,47.422773]]]}},{"type":"Feature","properties":{"cadnum":"1424855600:01:000:0077"},"geometry":{"type":"Polygon","coordinates":[[[37.728537,47.422888],[37.728734,47.423003],[37.72912,47.422717],[37.728982,47.422629],[37.728919,47.422587],[37.728537,47.422888]]]}},{"type":"Feature","properties":{"cadnum":"1424855600:01:000:0061"},"geometry":{"type":"Polygon","coordinates":[[[37.727863,47.42311],[37.728047,47.423216],[37.728357,47.422958],[37.728191,47.422863],[37.727863,47.42311]]]}},{"type":"Feature","properties":{"cadnum":"1424855600:01:000:0200"},"geometry":{"type":"Polygon","coordinates":[[[37.727432,47.422809],[37.727589,47.422903],[37.727944,47.42266],[37.727764,47.42255],[37.727432,47.422809]]]}},{"type":"Feature","properties":{"cadnum":"1424855600:01:000:0201"},"geometry":{"type":"Polygon","coordinates":[[[37.730661,47.422663],[37.730957,47.422852],[37.73116,47.422694],[37.730868,47.422511],[37.73077,47.422584],[37.730661,47.422663]]]}},{"type":"Feature","properties":{"cadnum":"1424855600:01:000:0057"},"geometry":{"type":"Polygon","coordinates":[[[37.729058,47.423818],[37.729368,47.423991],[37.729714,47.423712],[37.729408,47.423544],[37.729058,47.423818]]]}},{"type":"Feature","properties":{"cadnum":"1424855600:01:000:0202"},"geometry":{"type":"Polygon","coordinates":[[[37.730697,47.423696],[37.731564,47.423705],[37.731011,47.423374],[37.730701,47.423602],[37.730697,47.423696]]]}},{"type":"Feature","properties":{"cadnum":"1424855600:01:000:0056"},"geometry":{"type":"Polygon","coordinates":[[[37.727409,47.423459],[37.727422,47.423471],[37.727432,47.423462],[37.727458,47.423478],[37.72745,47.423487],[37.727607,47.423575],[37.728047,47.423216],[37.727863,47.42311],[37.727409,47.423459]]]}},{"type":"Feature","properties":{"cadnum":"1424855600:01:000:0215"},"geometry":{"type":"Polygon","coordinates":[[[37.738414,47.424106],[37.73862,47.424301],[37.738634,47.424343],[37.738651,47.42438],[37.739003,47.42431],[37.739186,47.42428],[37.739366,47.42424],[37.739253,47.423927],[37.738993,47.42387],[37.73889,47.423881],[37.738854,47.423888],[37.738724,47.423909],[37.738688,47.423924],[37.738414,47.424106]]]}},{"type":"Feature","properties":{"cadnum":"1424855600:01:000:0207"},"geometry":{"type":"Polygon","coordinates":[[[37.738733,47.421955],[37.738747,47.422277],[37.738966,47.422268],[37.739343,47.422268],[37.739353,47.422128],[37.739276,47.42198],[37.738733,47.421955]]]}}]}