{"type":"FeatureCollection","features":[{"type":"Feature","properties":{"cadnum":"1424881300:04:000:0649"},"geometry":{"type":"Polygon","coordinates":[[[37.736114,47.251452],[37.736186,47.251625],[37.736567,47.251552],[37.736496,47.251381],[37.736114,47.251452]]]}},{"type":"Feature","properties":{"cadnum":"1424881300:04:000:0584"},"geometry":{"type":"Polygon","coordinates":[[[37.735925,47.249994],[37.735997,47.250168],[37.73638,47.250095],[37.736307,47.249921],[37.735925,47.249994]]]}},{"type":"Feature","properties":{"cadnum":"1424881300:04:000:0592"},"geometry":{"type":"Polygon","coordinates":[[[37.737915,47.248223],[37.737951,47.24831],[37.737987,47.248397],[37.738059,47.248571],[37.738123,47.248559],[37.738123,47.248558],[37.738441,47.248497],[37.738297,47.248153],[37.737979,47.248211],[37.737915,47.248223]]]}},{"type":"Feature","properties":{"cadnum":"1424881300:04:000:0591"},"geometry":{"type":"Polygon","coordinates":[[[37.738616,47.247717],[37.738684,47.247891],[37.73872,47.247979],[37.739101,47.247905],[37.738997,47.247647],[37.738616,47.247717]]]}},{"type":"Feature","properties":{"cadnum":"1424881300:04:000:0585"},"geometry":{"type":"Polygon","coordinates":[[[37.74176,47.248427],[37.741827,47.248601],[37.741899,47.248775],[37.74228,47.248702],[37.742209,47.248528],[37.742142,47.248354],[37.74176,47.248427]]]}},{"type":"Feature","properties":{"cadnum":"1424881300:04:000:0587"},"geometry":{"type":"Polygon","coordinates":[[[37.739716,47.248067],[37.739789,47.248241],[37.73981,47.248298],[37.740192,47.248226],[37.740169,47.248167],[37.740098,47.247997],[37.739716,47.248067]]]}},{"type":"Feature","properties":{"cadnum":"1424881300:04:000:0593"},"geometry":{"type":"Polygon","coordinates":[[[37.738059,47.248571],[37.738131,47.248744],[37.738202,47.248917],[37.738584,47.248845],[37.738441,47.248497],[37.738059,47.248571]]]}},{"type":"Feature","properties":{"cadnum":"1424881300:04:000:0588"},"geometry":{"type":"Polygon","coordinates":[[[37.737632,47.247531],[37.737705,47.247704],[37.737951,47.247657],[37.737951,47.247658],[37.738085,47.247631],[37.738014,47.247457],[37.737632,47.247531]]]}},{"type":"Feature","properties":{"cadnum":"1424881300:04:000:0586"},"geometry":{"type":"Polygon","coordinates":[[[37.742209,47.248528],[37.74228,47.248702],[37.742353,47.248875],[37.742735,47.248802],[37.742592,47.248454],[37.742591,47.248454],[37.742209,47.248528]]]}},{"type":"Feature","properties":{"cadnum":"1424881300:04:000:0507"},"geometry":{"type":"Polygon","coordinates":[[[37.740745,47.249366],[37.740756,47.249393],[37.740756,47.249394],[37.740774,47.249438],[37.740804,47.24951],[37.740805,47.24951],[37.740817,47.24954],[37.741197,47.249467],[37.741198,47.249466],[37.741127,47.249296],[37.740745,47.249366]]]}},{"type":"Feature","properties":{"cadnum":"1424881300:04:000:0650"},"geometry":{"type":"Polygon","coordinates":[[[37.744959,47.249333],[37.745017,47.249393],[37.745017,47.249394],[37.745016,47.249394],[37.745074,47.249453],[37.745129,47.24951],[37.74513,47.24951],[37.745173,47.249555],[37.745398,47.249457],[37.745618,47.249357],[37.745398,47.249131],[37.744959,47.249333]]]}},{"type":"Feature","properties":{"cadnum":"1424881300:04:000:0652"},"geometry":{"type":"Polygon","coordinates":[[[37.731011,47.250049],[37.73103,47.250095],[37.731542,47.249997],[37.731474,47.249832],[37.731246,47.249878],[37.731011,47.250049]]]}},{"type":"Feature","properties":{"cadnum":"1424881300:04:000:0589"},"geometry":{"type":"Polygon","coordinates":[[[37.737422,47.247012],[37.737489,47.247186],[37.737871,47.247113],[37.737802,47.246939],[37.737422,47.247012]]]}},{"type":"Feature","properties":{"cadnum":"1424881300:04:000:0651"},"geometry":{"type":"Polygon","coordinates":[[[37.736626,47.248284],[37.736693,47.248458],[37.737076,47.248384],[37.737008,47.24821],[37.736626,47.248284]]]}},{"type":"Feature","properties":{"cadnum":"1424881300:04:000:0590"},"geometry":{"type":"Polygon","coordinates":[[[37.7388,47.250381],[37.738871,47.250555],[37.738944,47.250729],[37.739326,47.250655],[37.739182,47.250308],[37.7388,47.250381]]]}},{"type":"Feature","properties":{"cadnum":"1424881300:04:000:0583"},"geometry":{"type":"Polygon","coordinates":[[[37.740066,47.251263],[37.740139,47.251433],[37.740161,47.251485],[37.740489,47.251424],[37.740448,47.25119],[37.740066,47.251263]]]}},{"type":"Feature","properties":{"cadnum":"1424881300:04:000:0594"},"geometry":{"type":"Polygon","coordinates":[[[37.779713,47.279076],[37.779939,47.279167],[37.780141,47.278933],[37.779916,47.278841],[37.779713,47.279076]]]}}]}