{"type":"FeatureCollection","features":[{"type":"Feature","properties":{"cadnum":"1425587602:00:000:0016"},"geometry":{"type":"Polygon","coordinates":[[[37.726277,48.06751],[37.726359,48.067528],[37.72638,48.067357],[37.726404,48.067128],[37.726422,48.066964],[37.726628,48.066973],[37.726893,48.066991],[37.726902,48.066859],[37.726547,48.066829],[37.726376,48.066817],[37.726342,48.067055],[37.726341,48.067055],[37.726277,48.06751]]]}},{"type":"Feature","properties":{"cadnum":"1425587602:00:000:0030"},"geometry":{"type":"Polygon","coordinates":[[[37.720483,48.063506],[37.720753,48.063512],[37.720773,48.063384],[37.720892,48.062651],[37.720883,48.062647],[37.720659,48.062614],[37.720623,48.062792],[37.720596,48.06293],[37.720507,48.063384],[37.720506,48.063384],[37.720483,48.063506]]]}},{"type":"Feature","properties":{"cadnum":"1425587602:00:000:0014"},"geometry":{"type":"Polygon","coordinates":[[[37.726982,48.062116],[37.727137,48.062133],[37.727137,48.062132],[37.727292,48.062149],[37.727288,48.062173],[37.727768,48.062236],[37.727818,48.062053],[37.727028,48.061954],[37.726982,48.062116]]]}},{"type":"Feature","properties":{"cadnum":"1425587602:00:000:0026"},"geometry":{"type":"Polygon","coordinates":[[[37.723187,48.061579],[37.723416,48.0616],[37.723479,48.061297],[37.723246,48.061276],[37.723187,48.061579]]]}},{"type":"Feature","properties":{"cadnum":"1425587602:00:000:0027"},"geometry":{"type":"Polygon","coordinates":[[[37.724369,48.061711],[37.724629,48.061735],[37.724669,48.061401],[37.724432,48.061381],[37.724373,48.061684],[37.724369,48.061711]]]}},{"type":"Feature","properties":{"cadnum":"1425587602:00:000:0020"},"geometry":{"type":"Polygon","coordinates":[[[37.724607,48.060684],[37.724831,48.060736],[37.724988,48.060432],[37.724759,48.060381],[37.724607,48.060684]]]}},{"type":"Feature","properties":{"cadnum":"1425587602:00:000:0025"},"geometry":{"type":"Polygon","coordinates":[[[37.730527,48.058958],[37.730728,48.058973],[37.73077,48.058733],[37.730577,48.058715],[37.730558,48.058814],[37.730527,48.058958]]]}},{"type":"Feature","properties":{"cadnum":"1425587602:00:000:0018"},"geometry":{"type":"Polygon","coordinates":[[[37.72859,48.059508],[37.729278,48.059577],[37.730585,48.05969],[37.730611,48.059556],[37.729336,48.059432],[37.728617,48.059363],[37.72859,48.059508]]]}},{"type":"Feature","properties":{"cadnum":"1425587602:00:000:0031"},"geometry":{"type":"Polygon","coordinates":[[[37.724598,48.059168],[37.724965,48.059432],[37.725132,48.059316],[37.724791,48.059076],[37.724598,48.059168]]]}},{"type":"Feature","properties":{"cadnum":"1425587602:00:000:0019"},"geometry":{"type":"Polygon","coordinates":[[[37.726619,48.059247],[37.726992,48.059283],[37.727009,48.05909],[37.726636,48.059054],[37.726619,48.059247]]]}},{"type":"Feature","properties":{"cadnum":"1425587602:00:000:0013"},"geometry":{"type":"Polygon","coordinates":[[[37.726372,48.058808],[37.726722,48.058865],[37.726749,48.058796],[37.726803,48.058631],[37.726812,48.058604],[37.726462,48.05855],[37.726372,48.058808]]]}},{"type":"Feature","properties":{"cadnum":"1425587602:00:000:0021"},"geometry":{"type":"Polygon","coordinates":[[[37.725846,48.059201],[37.726416,48.059267],[37.726462,48.059072],[37.725891,48.059006],[37.725846,48.059201]]]}}]}