{"type":"FeatureCollection","features":[{"type":"Feature","properties":{"cadnum":"1425582101:00:000:0013"},"geometry":{"type":"Polygon","coordinates":[[[37.723357,48.211702],[37.723623,48.211717],[37.723623,48.211651],[37.723659,48.210954],[37.723426,48.210945],[37.723357,48.211702]]]}},{"type":"Feature","properties":{"cadnum":"1425582101:00:000:0007"},"geometry":{"type":"Polygon","coordinates":[[[37.733801,48.204793],[37.734084,48.20482],[37.735005,48.204907],[37.735059,48.20468],[37.73385,48.204554],[37.733801,48.204793]]]}}]}