{"type":"FeatureCollection","features":[{"type":"Feature","properties":{"cadnum":"1425582104:00:000:0018"},"geometry":{"type":"Polygon","coordinates":[[[37.790026,48.20279],[37.790096,48.202812],[37.790097,48.202812],[37.790417,48.202913],[37.790478,48.202786],[37.790759,48.202206],[37.790485,48.202266],[37.790107,48.202698],[37.790026,48.20279]]]}},{"type":"Feature","properties":{"cadnum":"1425582104:00:000:0017"},"geometry":{"type":"Polygon","coordinates":[[[37.789546,48.203362],[37.789843,48.203575],[37.790417,48.202913],[37.790026,48.20279],[37.789546,48.203362]]]}},{"type":"Feature","properties":{"cadnum":"1425582104:00:000:0015"},"geometry":{"type":"Polygon","coordinates":[[[37.80276,48.215527],[37.803779,48.215976],[37.803932,48.215844],[37.802913,48.215401],[37.80276,48.215527]]]}},{"type":"Feature","properties":{"cadnum":"1425582104:00:000:0014"},"geometry":{"type":"Polygon","coordinates":[[[37.803806,48.216123],[37.803869,48.216151],[37.804571,48.216463],[37.804875,48.2162],[37.804103,48.215865],[37.804041,48.215919],[37.803806,48.216123]]]}},{"type":"Feature","properties":{"cadnum":"1425582104:00:000:0016"},"geometry":{"type":"Polygon","coordinates":[[[37.801328,48.21597],[37.801978,48.216006],[37.802051,48.215649],[37.801947,48.215578],[37.801498,48.21553],[37.801328,48.21597]]]}},{"type":"Feature","properties":{"cadnum":"1425582104:00:000:0019"},"geometry":{"type":"Polygon","coordinates":[[[37.802598,48.21558],[37.80377,48.215802],[37.803856,48.215646],[37.802688,48.215431],[37.802598,48.21558]]]}},{"type":"Feature","properties":{"cadnum":"1425582104:00:000:0022"},"geometry":{"type":"Polygon","coordinates":[[[37.792797,48.210923],[37.793055,48.211063],[37.793108,48.211091],[37.793292,48.210648],[37.793076,48.210588],[37.793012,48.210666],[37.792797,48.210923]]]}},{"type":"Feature","properties":{"cadnum":"1425582104:00:000:0021"},"geometry":{"type":"Polygon","coordinates":[[[37.793076,48.210588],[37.793292,48.210648],[37.793669,48.210771],[37.793804,48.210588],[37.794001,48.210364],[37.793535,48.210199],[37.793426,48.210163],[37.793148,48.210504],[37.793076,48.210588]]]}}]}