{"type":"FeatureCollection","features":[{"type":"Feature","properties":{"cadnum":"1425585603:00:000:0005"},"geometry":{"type":"Polygon","coordinates":[[[37.637792,48.004613],[37.637793,48.004652],[37.637795,48.004727],[37.637796,48.004727],[37.637798,48.004788],[37.638364,48.004764],[37.63836,48.004613],[37.638359,48.004613],[37.638359,48.004612],[37.638355,48.004448],[37.638355,48.004232],[37.637794,48.004254],[37.63779,48.004455],[37.637793,48.004612],[37.637793,48.004613],[37.637792,48.004613]]]}},{"type":"Feature","properties":{"cadnum":"1425585603:00:000:0081"},"geometry":{"type":"Polygon","coordinates":[[[37.598411,48.091499],[37.598879,48.092146],[37.599121,48.092068],[37.598649,48.091421],[37.598411,48.091499]]]}}]}