{"type":"FeatureCollection","features":[{"type":"Feature","properties":{"cadnum":"1425587601:00:000:0089"},"geometry":{"type":"Polygon","coordinates":[[[37.772446,48.078524],[37.772639,48.078533],[37.772717,48.078067],[37.772716,48.078067],[37.772716,48.078066],[37.772761,48.077804],[37.772572,48.077795],[37.772505,48.078181],[37.772446,48.078524]]]}},{"type":"Feature","properties":{"cadnum":"1425587601:00:000:0050"},"geometry":{"type":"Polygon","coordinates":[[[37.758698,48.08176],[37.759045,48.081794],[37.759492,48.081838],[37.759528,48.081678],[37.758733,48.081598],[37.758703,48.081736],[37.758702,48.081736],[37.758698,48.08176]]]}},{"type":"Feature","properties":{"cadnum":"1425587601:00:000:0049"},"geometry":{"type":"Polygon","coordinates":[[[37.763679,48.081618],[37.764559,48.081687],[37.764586,48.081529],[37.763702,48.081478],[37.763679,48.081618]]]}},{"type":"Feature","properties":{"cadnum":"1425587601:01:000:0051"},"geometry":{"type":"Polygon","coordinates":[[[37.763652,48.081771],[37.763948,48.081794],[37.764528,48.081838],[37.764555,48.081687],[37.763679,48.081618],[37.763658,48.081736],[37.763652,48.081771]]]}},{"type":"Feature","properties":{"cadnum":"1425587601:00:000:0057"},"geometry":{"type":"Polygon","coordinates":[[[37.759515,48.077426],[37.759924,48.077471],[37.759924,48.077472],[37.760005,48.07748],[37.760096,48.07749],[37.760364,48.077519],[37.760396,48.077312],[37.759928,48.077264],[37.759555,48.077225],[37.759515,48.077426]]]}},{"type":"Feature","properties":{"cadnum":"1425587601:00:000:0085"},"geometry":{"type":"Polygon","coordinates":[[[37.766899,48.080175],[37.767034,48.080187],[37.767048,48.080106],[37.766912,48.080097],[37.766899,48.080175]]]}},{"type":"Feature","properties":{"cadnum":"1425587601:00:000:0052"},"geometry":{"type":"Polygon","coordinates":[[[37.765264,48.077675],[37.765417,48.077689],[37.765536,48.0777],[37.765589,48.077705],[37.765589,48.077704],[37.76601,48.077741],[37.766046,48.077486],[37.765589,48.077446],[37.765304,48.07742],[37.765264,48.077675]]]}},{"type":"Feature","properties":{"cadnum":"1425587601:00:000:0086"},"geometry":{"type":"Polygon","coordinates":[[[37.775241,48.081021],[37.775461,48.081036],[37.775585,48.080232],[37.775384,48.080217],[37.775241,48.081021]]]}},{"type":"Feature","properties":{"cadnum":"1425587601:00:000:0087"},"geometry":{"type":"Polygon","coordinates":[[[37.768067,48.076991],[37.768983,48.077072],[37.768992,48.076904],[37.768081,48.076847],[37.768071,48.076952],[37.768067,48.076991]]]}},{"type":"Feature","properties":{"cadnum":"1425587601:00:000:0045"},"geometry":{"type":"Polygon","coordinates":[[[37.778029,48.081211],[37.77825,48.081231],[37.778277,48.081102],[37.778298,48.080995],[37.778353,48.080448],[37.778201,48.080436],[37.778065,48.080967],[37.778029,48.081211]]]}}]}