{"type":"FeatureCollection","features":[{"type":"Feature","properties":{"cadnum":"1425581000:05:000:0001"},"geometry":{"type":"Polygon","coordinates":[[[37.747519,48.15985],[37.748879,48.161106],[37.749109,48.16132],[37.749109,48.161319],[37.750289,48.162409],[37.750288,48.162409],[37.750379,48.162492],[37.751305,48.162524],[37.753922,48.162612],[37.754602,48.162463],[37.754602,48.162462],[37.754603,48.162462],[37.754777,48.162423],[37.754777,48.162424],[37.754852,48.162524],[37.754853,48.162524],[37.755127,48.162882],[37.756287,48.162524],[37.760096,48.161347],[37.760714,48.161156],[37.764159,48.160047],[37.764855,48.159098],[37.762821,48.159098],[37.759924,48.159114],[37.759412,48.159116],[37.754651,48.159176],[37.754523,48.159161],[37.752053,48.15886],[37.752053,48.158859],[37.751178,48.158753],[37.751114,48.158745],[37.749787,48.158583],[37.749496,48.158745],[37.749448,48.158772],[37.74929,48.158859],[37.749291,48.158859],[37.749291,48.15886],[37.749109,48.158962],[37.749109,48.158961],[37.747519,48.15985]]]}}]}