{"type":"FeatureCollection","features":[{"type":"Feature","properties":{"cadnum":"1425583101:00:000:0030"},"geometry":{"type":"Polygon","coordinates":[[[37.527763,48.1918],[37.52819,48.191821],[37.528204,48.191566],[37.528172,48.191506],[37.527795,48.191534],[37.527773,48.191713],[37.527772,48.191713],[37.527763,48.1918]]]}},{"type":"Feature","properties":{"cadnum":"1425583101:00:000:0031"},"geometry":{"type":"Polygon","coordinates":[[[37.527696,48.192473],[37.528145,48.192449],[37.52819,48.191821],[37.527763,48.1918],[37.527696,48.192473]]]}},{"type":"Feature","properties":{"cadnum":"1425583101:00:000:0018"},"geometry":{"type":"Polygon","coordinates":[[[37.811303,48.243188],[37.81146,48.243293],[37.811838,48.243643],[37.811941,48.24373],[37.812301,48.243487],[37.811649,48.243051],[37.811519,48.243018],[37.811303,48.243188]]]}},{"type":"Feature","properties":{"cadnum":"1425583101:00:000:0019"},"geometry":{"type":"Polygon","coordinates":[[[37.811941,48.24373],[37.812358,48.24408],[37.812821,48.243858],[37.812301,48.243487],[37.811941,48.24373]]]}}]}