{"type":"FeatureCollection","features":[{"type":"Feature","properties":{"cadnum":"1425584301:00:000:0060"},"geometry":{"type":"Polygon","coordinates":[[[37.64948,48.158077],[37.649522,48.158148],[37.649611,48.158271],[37.649973,48.158745],[37.649972,48.158745],[37.650059,48.158858],[37.650059,48.158859],[37.65006,48.158859],[37.65006,48.15886],[37.650061,48.158861],[37.650181,48.159047],[37.650232,48.159107],[37.650388,48.15929],[37.650568,48.159221],[37.650267,48.158813],[37.650177,48.158697],[37.649858,48.158283],[37.649822,48.158226],[37.649768,48.158136],[37.649736,48.158064],[37.64948,48.158077]]]}},{"type":"Feature","properties":{"cadnum":"1425584301:00:000:0057"},"geometry":{"type":"Polygon","coordinates":[[[37.64423,48.158868],[37.644302,48.158936],[37.644739,48.159374],[37.644769,48.159403],[37.645546,48.160123],[37.645677,48.160063],[37.644922,48.159359],[37.644583,48.158981],[37.644508,48.158897],[37.644459,48.158828],[37.64423,48.158868]]]}},{"type":"Feature","properties":{"cadnum":"1425584301:00:000:0059"},"geometry":{"type":"Polygon","coordinates":[[[37.649539,48.159071],[37.649809,48.15943],[37.649925,48.159581],[37.650061,48.159584],[37.650311,48.159589],[37.650061,48.159295],[37.649975,48.159194],[37.649894,48.159083],[37.649813,48.15897],[37.649539,48.159071]]]}},{"type":"Feature","properties":{"cadnum":"1425584301:00:000:0038"},"geometry":{"type":"Polygon","coordinates":[[[37.649894,48.159083],[37.649975,48.159194],[37.650061,48.159133],[37.650181,48.159047],[37.650109,48.15893],[37.649894,48.159083]]]}},{"type":"Feature","properties":{"cadnum":"1425584301:00:000:0037"},"geometry":{"type":"Polygon","coordinates":[[[37.649193,48.158091],[37.64921,48.158148],[37.649279,48.158265],[37.649399,48.158426],[37.649641,48.158745],[37.649782,48.15893],[37.649894,48.159083],[37.650109,48.15893],[37.650059,48.158859],[37.650059,48.158858],[37.649611,48.158271],[37.649522,48.158148],[37.64948,48.158077],[37.649193,48.158091]]]}},{"type":"Feature","properties":{"cadnum":"1425584301:00:000:0058"},"geometry":{"type":"Polygon","coordinates":[[[37.64891,48.158151],[37.64895,48.158229],[37.648986,48.158316],[37.649099,48.158472],[37.649139,48.158541],[37.649293,48.158745],[37.649292,48.158745],[37.649539,48.159071],[37.649813,48.15897],[37.649782,48.15893],[37.649728,48.15886],[37.649728,48.158859],[37.649399,48.158426],[37.649279,48.158265],[37.64921,48.158148],[37.649193,48.158091],[37.64891,48.158151]]]}},{"type":"Feature","properties":{"cadnum":"1425584301:00:000:0055"},"geometry":{"type":"Polygon","coordinates":[[[37.637411,48.163185],[37.637686,48.163826],[37.638,48.164269],[37.63826,48.164248],[37.638166,48.163991],[37.637803,48.163613],[37.63765,48.163131],[37.637411,48.163185]]]}},{"type":"Feature","properties":{"cadnum":"1425584301:00:000:0035"},"geometry":{"type":"Polygon","coordinates":[[[37.633666,48.163592],[37.633753,48.163701],[37.634452,48.164571],[37.634564,48.164715],[37.634631,48.164793],[37.634694,48.164904],[37.634905,48.164877],[37.634851,48.16479],[37.634658,48.164581],[37.633872,48.163523],[37.633666,48.163592]]]}},{"type":"Feature","properties":{"cadnum":"1425584301:00:000:0034"},"geometry":{"type":"Polygon","coordinates":[[[37.638189,48.164553],[37.63835,48.164904],[37.638516,48.165308],[37.638597,48.165276],[37.638777,48.165252],[37.638602,48.164857],[37.638423,48.164458],[37.638189,48.164553]]]}},{"type":"Feature","properties":{"cadnum":"1425584301:00:000:0043"},"geometry":{"type":"Polygon","coordinates":[[[37.635862,48.165479],[37.636186,48.165626],[37.636756,48.166025],[37.636788,48.165797],[37.636316,48.165512],[37.63601,48.165336],[37.635862,48.165479]]]}},{"type":"Feature","properties":{"cadnum":"1425584301:00:000:0056"},"geometry":{"type":"Polygon","coordinates":[[[37.637258,48.162825],[37.637411,48.163185],[37.63765,48.163131],[37.637537,48.162777],[37.637258,48.162825]]]}},{"type":"Feature","properties":{"cadnum":"1425584301:00:000:0036"},"geometry":{"type":"Polygon","coordinates":[[[37.633262,48.163083],[37.633581,48.163485],[37.633666,48.163592],[37.633753,48.163563],[37.633872,48.163523],[37.633581,48.163133],[37.633486,48.163005],[37.633262,48.163083]]]}}]}