{"type":"FeatureCollection","features":[{"type":"Feature","properties":{"cadnum":"1425586504:00:000:0007"},"geometry":{"type":"Polygon","coordinates":[[[37.769989,48.299749],[37.770641,48.299895],[37.770794,48.299925],[37.77091,48.299953],[37.770958,48.299964],[37.771082,48.299993],[37.771216,48.300024],[37.771373,48.299817],[37.77091,48.299716],[37.770748,48.29968],[37.770344,48.299569],[37.770151,48.29951],[37.769989,48.299749]]]}},{"type":"Feature","properties":{"cadnum":"1425586504:00:000:0008"},"geometry":{"type":"Polygon","coordinates":[[[37.769756,48.299695],[37.769989,48.299749],[37.770151,48.29951],[37.769931,48.299438],[37.769756,48.299695]]]}}]}