{"type":"FeatureCollection","features":[{"type":"Feature","properties":{"cadnum":"1425555201:00:000:0030"},"geometry":{"type":"Polygon","coordinates":[[[37.863653,48.175664],[37.86367,48.176036],[37.864466,48.176047],[37.864502,48.176047],[37.864726,48.175808],[37.864308,48.175747],[37.86411,48.175718],[37.863653,48.175664]]]}},{"type":"Feature","properties":{"cadnum":"1425555201:00:000:0020"},"geometry":{"type":"Polygon","coordinates":[[[37.852688,48.178045],[37.85308,48.178129],[37.853308,48.177987],[37.853381,48.177941],[37.853479,48.17788],[37.853506,48.177863],[37.853479,48.177856],[37.853294,48.177806],[37.852688,48.178045]]]}},{"type":"Feature","properties":{"cadnum":"1425555201:00:000:0031"},"geometry":{"type":"Polygon","coordinates":[[[37.863217,48.176012],[37.86367,48.176036],[37.863653,48.175664],[37.863487,48.175643],[37.863477,48.175721],[37.863217,48.176012]]]}},{"type":"Feature","properties":{"cadnum":"1425555201:00:000:0019"},"geometry":{"type":"Polygon","coordinates":[[[37.852217,48.17789],[37.852688,48.178045],[37.853294,48.177806],[37.852922,48.177701],[37.852921,48.177701],[37.852935,48.177581],[37.852298,48.17762],[37.852217,48.17789]]]}}]}