{"type":"FeatureCollection","features":[{"type":"Feature","properties":{"cadnum":"2310494005:01:001:0002"},"geometry":{"type":"Polygon","coordinates":[[[36.686613,46.844049],[36.687498,46.844191],[36.687601,46.843874],[36.686717,46.843732],[36.686613,46.844049]]]}},{"type":"Feature","properties":{"cadnum":"2310494005:01:001:0003"},"geometry":{"type":"Polygon","coordinates":[[[36.686717,46.843732],[36.687601,46.843874],[36.687668,46.843679],[36.686776,46.843559],[36.686717,46.843732]]]}},{"type":"Feature","properties":{"cadnum":"2310494005:01:001:0004"},"geometry":{"type":"Polygon","coordinates":[[[36.686961,46.845252],[36.687079,46.845268],[36.68708,46.845268],[36.687129,46.845274],[36.687153,46.845151],[36.687209,46.844872],[36.687042,46.84485],[36.686982,46.845151],[36.686981,46.845151],[36.686961,46.845252]]]}},{"type":"Feature","properties":{"cadnum":"2310494005:01:001:0005"},"geometry":{"type":"Polygon","coordinates":[[[36.686236,46.845159],[36.686627,46.845209],[36.686961,46.845252],[36.687042,46.84485],[36.686347,46.844757],[36.686238,46.845151],[36.686237,46.845151],[36.686236,46.845159]]]}},{"type":"Feature","properties":{"cadnum":"2310494005:01:001:0007"},"geometry":{"type":"Polygon","coordinates":[[[36.684967,46.852165],[36.685053,46.852184],[36.68523,46.852205],[36.685505,46.852234],[36.685514,46.85221],[36.685526,46.852175],[36.685726,46.852199],[36.685746,46.85191],[36.685604,46.851898],[36.684988,46.851838],[36.684968,46.852144],[36.684967,46.852165]]]}}]}