{"type":"FeatureCollection","features":[{"type":"Feature","properties":{"cadnum":"2310494003:01:021:0003"},"geometry":{"type":"Polygon","coordinates":[[[36.68095,46.857105],[36.682009,46.857291],[36.68211,46.857031],[36.681052,46.856844],[36.68095,46.857105]]]}},{"type":"Feature","properties":{"cadnum":"2310494003:01:001:0005"},"geometry":{"type":"Polygon","coordinates":[[[36.681029,46.876654],[36.68103,46.876654],[36.681473,46.876685],[36.681531,46.876291],[36.681087,46.876259],[36.681029,46.876654]]]}},{"type":"Feature","properties":{"cadnum":"2310494003:01:014:0009"},"geometry":{"type":"Polygon","coordinates":[[[36.681,46.875333],[36.681457,46.87539],[36.681487,46.875222],[36.681526,46.875012],[36.68107,46.874953],[36.681024,46.8752],[36.681017,46.875241],[36.681003,46.875317],[36.681,46.875333]]]}},{"type":"Feature","properties":{"cadnum":"2310494003:01:002:0005"},"geometry":{"type":"Polygon","coordinates":[[[36.679501,46.878268],[36.679631,46.878275],[36.680506,46.878317],[36.680535,46.878092],[36.679806,46.878044],[36.67953,46.878028],[36.679501,46.878268]]]}},{"type":"Feature","properties":{"cadnum":"2310494003:01:002:0002"},"geometry":{"type":"Polygon","coordinates":[[[36.678554,46.875656],[36.679196,46.875712],[36.679222,46.875439],[36.678579,46.875382],[36.678554,46.875656]]]}},{"type":"Feature","properties":{"cadnum":"2310494003:01:002:0001"},"geometry":{"type":"Polygon","coordinates":[[[36.680198,46.875736],[36.680395,46.875752],[36.680407,46.875747],[36.680407,46.875726],[36.680671,46.875742],[36.680697,46.875609],[36.680713,46.875523],[36.680441,46.875495],[36.680217,46.875471],[36.680198,46.875736]]]}},{"type":"Feature","properties":{"cadnum":"2310494003:01:001:0001"},"geometry":{"type":"Polygon","coordinates":[[[36.680464,46.877882],[36.680921,46.877912],[36.681024,46.877919],[36.68108,46.877921],[36.681196,46.877488],[36.6806,46.877374],[36.680464,46.877882]]]}},{"type":"Feature","properties":{"cadnum":"2310494003:01:001:0002"},"geometry":{"type":"Polygon","coordinates":[[[36.68108,46.877921],[36.681178,46.877923],[36.681373,46.877831],[36.681506,46.877547],[36.681196,46.877488],[36.68108,46.877921]]]}},{"type":"Feature","properties":{"cadnum":"2310494003:01:006:0002"},"geometry":{"type":"Polygon","coordinates":[[[36.680612,46.871322],[36.68148,46.871432],[36.681535,46.87113],[36.68152,46.871116],[36.681524,46.871098],[36.68067,46.870989],[36.680612,46.871322]]]}},{"type":"Feature","properties":{"cadnum":"2310494003:01:007:0002"},"geometry":{"type":"Polygon","coordinates":[[[36.681945,46.870414],[36.682643,46.870506],[36.682692,46.870304],[36.682507,46.870274],[36.682528,46.870097],[36.682157,46.870048],[36.682147,46.870093],[36.682027,46.870079],[36.681945,46.870414]]]}},{"type":"Feature","properties":{"cadnum":"2310494003:01:007:0005"},"geometry":{"type":"Polygon","coordinates":[[[36.682485,46.870033],[36.682518,46.870061],[36.68256,46.87012],[36.682647,46.870144],[36.682643,46.870182],[36.682988,46.870231],[36.682993,46.870219],[36.683155,46.869683],[36.682815,46.869635],[36.682797,46.869642],[36.68277,46.869637],[36.682726,46.869624],[36.682655,46.869613],[36.682613,46.869609],[36.682572,46.869758],[36.682485,46.870033]]]}},{"type":"Feature","properties":{"cadnum":"2310494003:01:007:0004"},"geometry":{"type":"Polygon","coordinates":[[[36.682014,46.870077],[36.682027,46.870079],[36.682038,46.870033],[36.682041,46.870033],[36.682145,46.870047],[36.682157,46.870048],[36.682188,46.869924],[36.682163,46.869922],[36.68214,46.87001],[36.682033,46.869998],[36.682014,46.870077]]]}},{"type":"Feature","properties":{"cadnum":"2310494003:01:007:0003"},"geometry":{"type":"Polygon","coordinates":[[[36.682027,46.870079],[36.682147,46.870093],[36.682157,46.870048],[36.682144,46.870047],[36.682041,46.870033],[36.682038,46.870032],[36.682027,46.870079]]]}},{"type":"Feature","properties":{"cadnum":"2310494003:01:005:0001"},"geometry":{"type":"Polygon","coordinates":[[[36.676767,46.869508],[36.677649,46.869586],[36.677771,46.869596],[36.677826,46.8696],[36.677942,46.86961],[36.677942,46.869609],[36.678135,46.869624],[36.678162,46.869404],[36.677814,46.869379],[36.677712,46.869371],[36.676792,46.869306],[36.676767,46.869508]]]}},{"type":"Feature","properties":{"cadnum":"2310494003:01:023:0003"},"geometry":{"type":"Polygon","coordinates":[[[36.688462,46.854686],[36.688929,46.854766],[36.688929,46.854765],[36.68934,46.854834],[36.689465,46.854523],[36.688916,46.854427],[36.688589,46.854368],[36.688462,46.854686]]]}},{"type":"Feature","properties":{"cadnum":"2310494003:01:020:0002"},"geometry":{"type":"Polygon","coordinates":[[[36.687431,46.854976],[36.687809,46.855028],[36.688171,46.855091],[36.688321,46.854718],[36.687583,46.854594],[36.687431,46.854976]]]}},{"type":"Feature","properties":{"cadnum":"2310494003:01:022:0006"},"geometry":{"type":"Polygon","coordinates":[[[36.686238,46.853559],[36.686576,46.853606],[36.686657,46.85341],[36.686321,46.85336],[36.686238,46.853559]]]}},{"type":"Feature","properties":{"cadnum":"2310494003:01:024:0001"},"geometry":{"type":"Polygon","coordinates":[[[36.686449,46.853029],[36.687413,46.85316],[36.68776,46.853207],[36.687761,46.853207],[36.687834,46.853],[36.687142,46.852898],[36.686528,46.852808],[36.686449,46.853029]]]}},{"type":"Feature","properties":{"cadnum":"2310494003:01:022:0004"},"geometry":{"type":"Polygon","coordinates":[[[36.685312,46.855487],[36.685387,46.855566],[36.685388,46.85574],[36.685541,46.855763],[36.685627,46.85554],[36.685312,46.855487]]]}},{"type":"Feature","properties":{"cadnum":"2310494003:01:013:0003"},"geometry":{"type":"Polygon","coordinates":[[[36.685451,46.85575],[36.68567,46.856044],[36.685776,46.856061],[36.685557,46.855766],[36.685541,46.855763],[36.685451,46.85575]]]}},{"type":"Feature","properties":{"cadnum":"2310494003:01:024:0002"},"geometry":{"type":"Polygon","coordinates":[[[36.685058,46.8531],[36.686295,46.853328],[36.686426,46.853027],[36.686449,46.853029],[36.686528,46.852808],[36.686543,46.85276],[36.686665,46.852386],[36.686238,46.852303],[36.68614,46.852664],[36.686139,46.852664],[36.686112,46.852767],[36.686108,46.852782],[36.686103,46.852803],[36.68523,46.852678],[36.685175,46.85267],[36.685144,46.852782],[36.685145,46.852782],[36.68509,46.852985],[36.685058,46.8531]]]}},{"type":"Feature","properties":{"cadnum":"2310494003:01:022:0001"},"geometry":{"type":"Polygon","coordinates":[[[36.685532,46.854469],[36.686678,46.854666],[36.68725,46.854767],[36.687303,46.854617],[36.686745,46.854508],[36.686559,46.854469],[36.685584,46.854298],[36.685532,46.854469]]]}},{"type":"Feature","properties":{"cadnum":"2310494003:01:022:0005"},"geometry":{"type":"Polygon","coordinates":[[[36.686576,46.853606],[36.686977,46.853663],[36.687549,46.853763],[36.687707,46.853381],[36.687286,46.853328],[36.687246,46.853342],[36.68709,46.853467],[36.687024,46.853465],[36.686657,46.85341],[36.686576,46.853606]]]}},{"type":"Feature","properties":{"cadnum":"2310494003:01:022:0002"},"geometry":{"type":"Polygon","coordinates":[[[36.685541,46.855763],[36.685557,46.855766],[36.686814,46.855959],[36.686897,46.855744],[36.686005,46.855602],[36.685627,46.85554],[36.685541,46.855763]]]}},{"type":"Feature","properties":{"cadnum":"2310494003:01:022:0003"},"geometry":{"type":"Polygon","coordinates":[[[36.685557,46.855766],[36.685776,46.856061],[36.686183,46.856128],[36.686716,46.856223],[36.686814,46.855959],[36.685557,46.855766]]]}},{"type":"Feature","properties":{"cadnum":"2310494003:01:014:0003"},"geometry":{"type":"Polygon","coordinates":[[[36.682443,46.863156],[36.683264,46.863326],[36.683266,46.863326],[36.683435,46.863364],[36.683435,46.863363],[36.683436,46.863363],[36.683761,46.863435],[36.683857,46.863268],[36.683338,46.863154],[36.682517,46.862983],[36.682443,46.863156]]]}},{"type":"Feature","properties":{"cadnum":"2310494003:01:014:0004"},"geometry":{"type":"Polygon","coordinates":[[[36.682878,46.862279],[36.683435,46.862404],[36.683435,46.862403],[36.683436,46.862403],[36.683757,46.862474],[36.683834,46.862496],[36.684137,46.862572],[36.684263,46.86235],[36.683957,46.862281],[36.683891,46.862273],[36.683296,46.862143],[36.683009,46.86208],[36.682878,46.862279]]]}},{"type":"Feature","properties":{"cadnum":"2310494003:01:011:0004"},"geometry":{"type":"Polygon","coordinates":[[[36.682701,46.866645],[36.683264,46.866714],[36.683264,46.866715],[36.683321,46.866722],[36.683435,46.866428],[36.683461,46.866362],[36.683271,46.866324],[36.683115,46.866292],[36.682794,46.866268],[36.682701,46.866645]]]}},{"type":"Feature","properties":{"cadnum":"2310494003:01:009:0002"},"geometry":{"type":"Polygon","coordinates":[[[36.682576,46.867142],[36.682813,46.867175],[36.683264,46.867239],[36.683316,46.867246],[36.683415,46.86687],[36.682906,46.866789],[36.682675,46.866752],[36.682576,46.867142]]]}},{"type":"Feature","properties":{"cadnum":"2310494003:01:009:0001"},"geometry":{"type":"Polygon","coordinates":[[[36.683441,46.868014],[36.684003,46.868082],[36.683992,46.868124],[36.684114,46.868139],[36.684126,46.868098],[36.684449,46.868137],[36.684432,46.868215],[36.684504,46.868223],[36.684522,46.868147],[36.684522,46.868146],[36.684806,46.868181],[36.684944,46.867689],[36.685105,46.86712],[36.683771,46.866928],[36.683502,46.867806],[36.683503,46.867806],[36.683441,46.868014]]]}},{"type":"Feature","properties":{"cadnum":"2310494003:01:011:0002"},"geometry":{"type":"Polygon","coordinates":[[[36.683926,46.86605],[36.683957,46.866055],[36.6842,46.866091],[36.684211,46.86605],[36.684211,46.866049],[36.684248,46.865922],[36.684113,46.865906],[36.684113,46.865905],[36.684156,46.865829],[36.684031,46.865805],[36.683926,46.86605]]]}},{"type":"Feature","properties":{"cadnum":"2310494003:01:011:0003"},"geometry":{"type":"Polygon","coordinates":[[[36.683411,46.864725],[36.683658,46.864777],[36.683761,46.864537],[36.683476,46.864475],[36.683422,46.864598],[36.683427,46.864601],[36.683454,46.864628],[36.683443,46.864656],[36.683411,46.864725]]]}},{"type":"Feature","properties":{"cadnum":"2310494003:01:015:0008"},"geometry":{"type":"Polygon","coordinates":[[[36.684805,46.864533],[36.68506,46.86458],[36.685157,46.864356],[36.685192,46.864262],[36.685265,46.864075],[36.685274,46.864051],[36.685338,46.863882],[36.684976,46.863806],[36.684929,46.86393],[36.684928,46.863933],[36.684892,46.864025],[36.684999,46.864044],[36.684996,46.864051],[36.684997,46.864051],[36.684912,46.864259],[36.684828,46.864476],[36.684805,46.864533]]]}},{"type":"Feature","properties":{"cadnum":"2310494003:01:011:0001"},"geometry":{"type":"Polygon","coordinates":[[[36.682894,46.865898],[36.683435,46.865979],[36.683435,46.865978],[36.683436,46.865978],[36.683926,46.86605],[36.684031,46.865805],[36.683379,46.86568],[36.683006,46.865608],[36.682894,46.865898]]]}},{"type":"Feature","properties":{"cadnum":"2310494003:01:018:0001"},"geometry":{"type":"Polygon","coordinates":[[[36.684571,46.859863],[36.68468,46.859876],[36.685288,46.859963],[36.685424,46.85957],[36.685101,46.859524],[36.684711,46.859467],[36.684571,46.859863]]]}},{"type":"Feature","properties":{"cadnum":"2310494003:01:021:0002"},"geometry":{"type":"Polygon","coordinates":[[[36.681626,46.855239],[36.682301,46.855357],[36.682431,46.855379],[36.682545,46.855032],[36.682168,46.854965],[36.681738,46.854898],[36.681626,46.855239]]]}},{"type":"Feature","properties":{"cadnum":"2310494003:01:023:0002"},"geometry":{"type":"Polygon","coordinates":[[[36.688858,46.853129],[36.689582,46.85324],[36.689582,46.853239],[36.68967,46.853004],[36.689721,46.852869],[36.688996,46.852761],[36.688938,46.852917],[36.688858,46.853129]]]}},{"type":"Feature","properties":{"cadnum":"2310494003:01:004:0003"},"geometry":{"type":"Polygon","coordinates":[[[36.681516,46.872723],[36.682329,46.872821],[36.682392,46.872458],[36.682227,46.872438],[36.682085,46.872428],[36.68203,46.872424],[36.681927,46.872409],[36.681577,46.87238],[36.681516,46.872723]]]}},{"type":"Feature","properties":{"cadnum":"2310494003:01:001:0004"},"geometry":{"type":"Polygon","coordinates":[[[36.683739,46.870407],[36.684343,46.870492],[36.684409,46.870206],[36.684063,46.87015],[36.684031,46.870144],[36.683991,46.870262],[36.68378,46.870234],[36.683739,46.870407]]]}},{"type":"Feature","properties":{"cadnum":"2310494003:01:001:0003"},"geometry":{"type":"Polygon","coordinates":[[[36.683469,46.87135],[36.684197,46.871433],[36.684236,46.871234],[36.683532,46.871166],[36.683469,46.87135]]]}},{"type":"Feature","properties":{"cadnum":"2310494003:01:004:0002"},"geometry":{"type":"Polygon","coordinates":[[[36.683595,46.870837],[36.684213,46.870902],[36.684274,46.870687],[36.684052,46.870658],[36.683976,46.870648],[36.683666,46.870606],[36.683595,46.870837]]]}},{"type":"Feature","properties":{"cadnum":"2310494003:01:004:0001"},"geometry":{"type":"Polygon","coordinates":[[[36.683532,46.871166],[36.684236,46.871234],[36.684276,46.871042],[36.684271,46.871023],[36.684274,46.871011],[36.684241,46.87101],[36.684001,46.870975],[36.683607,46.870922],[36.683532,46.871166]]]}},{"type":"Feature","properties":{"cadnum":"2310494003:01:009:0004"},"geometry":{"type":"Polygon","coordinates":[[[36.681232,46.865802],[36.682092,46.865939],[36.682578,46.86601],[36.682625,46.86581],[36.681248,46.865618],[36.681232,46.865802]]]}},{"type":"Feature","properties":{"cadnum":"2310494003:01:015:0003"},"geometry":{"type":"Polygon","coordinates":[[[36.683771,46.863784],[36.68474,46.863979],[36.684852,46.863763],[36.684317,46.863636],[36.683897,46.863538],[36.683771,46.863784]]]}},{"type":"Feature","properties":{"cadnum":"2310494003:01:015:0001"},"geometry":{"type":"Polygon","coordinates":[[[36.685344,46.860587],[36.685521,46.860617],[36.685658,46.86065],[36.685839,46.860682],[36.686764,46.860875],[36.686826,46.860675],[36.685811,46.860473],[36.685404,46.860392],[36.685344,46.860587]]]}},{"type":"Feature","properties":{"cadnum":"2310494003:01:015:0002"},"geometry":{"type":"Polygon","coordinates":[[[36.686764,46.860875],[36.687483,46.861026],[36.687569,46.860824],[36.686826,46.860675],[36.686764,46.860875]]]}}]}