{"type":"FeatureCollection","features":[{"type":"Feature","properties":{"cadnum":"2320985807:07:001:0032"},"geometry":{"type":"Polygon","coordinates":[[[35.552196,47.551795],[35.552678,47.55184],[35.552824,47.551249],[35.552302,47.551214],[35.552259,47.551452],[35.552196,47.551795]]]}},{"type":"Feature","properties":{"cadnum":"2320985807:07:001:1032"},"geometry":{"type":"Polygon","coordinates":[[[35.552053,47.552583],[35.552486,47.552623],[35.552678,47.55184],[35.552196,47.551795],[35.552053,47.552583]]]}},{"type":"Feature","properties":{"cadnum":"2320985807:07:003:0003"},"geometry":{"type":"Polygon","coordinates":[[[35.54629,47.547884],[35.546764,47.547919],[35.54679,47.547755],[35.546317,47.54772],[35.54629,47.547884]]]}},{"type":"Feature","properties":{"cadnum":"2320985807:07:004:0071"},"geometry":{"type":"Polygon","coordinates":[[[35.551732,47.547862],[35.551844,47.547887],[35.551891,47.547897],[35.551951,47.547768],[35.551793,47.547734],[35.551732,47.547862]]]}},{"type":"Feature","properties":{"cadnum":"2320985807:07:003:0036"},"geometry":{"type":"Polygon","coordinates":[[[35.547918,47.548497],[35.548346,47.548498],[35.548593,47.547907],[35.548056,47.547865],[35.547918,47.548497]]]}},{"type":"Feature","properties":{"cadnum":"2320985807:07:001:1008"},"geometry":{"type":"Polygon","coordinates":[[[35.547466,47.55023],[35.548068,47.550267],[35.548153,47.549086],[35.547525,47.54909],[35.547466,47.55023]]]}},{"type":"Feature","properties":{"cadnum":"2320985807:07:001:1019"},"geometry":{"type":"Polygon","coordinates":[[[35.550061,47.550575],[35.551013,47.550621],[35.551182,47.549581],[35.550701,47.549426],[35.550271,47.549339],[35.550061,47.550575]]]}},{"type":"Feature","properties":{"cadnum":"2320985807:07:001:0008"},"geometry":{"type":"Polygon","coordinates":[[[35.547425,47.550737],[35.547991,47.550769],[35.548011,47.550652],[35.548062,47.550366],[35.548068,47.550267],[35.547466,47.55023],[35.547464,47.550261],[35.547438,47.550566],[35.547434,47.550614],[35.547429,47.550682],[35.547425,47.550737]]]}},{"type":"Feature","properties":{"cadnum":"2320985807:07:001:0001"},"geometry":{"type":"Polygon","coordinates":[[[35.546179,47.550502],[35.54635,47.550516],[35.546351,47.550516],[35.54642,47.550521],[35.546609,47.549495],[35.546356,47.54945],[35.546179,47.550502]]]}},{"type":"Feature","properties":{"cadnum":"2320985807:07:001:0009"},"geometry":{"type":"Polygon","coordinates":[[[35.548983,47.550749],[35.549412,47.550785],[35.549435,47.550677],[35.549557,47.550102],[35.549128,47.550066],[35.549021,47.550566],[35.549006,47.550638],[35.548996,47.550682],[35.548997,47.550682],[35.548983,47.550749]]]}},{"type":"Feature","properties":{"cadnum":"2320985807:07:001:0010"},"geometry":{"type":"Polygon","coordinates":[[[35.549128,47.550066],[35.549557,47.550102],[35.549747,47.549207],[35.549332,47.549108],[35.549128,47.550066]]]}},{"type":"Feature","properties":{"cadnum":"2320985807:07:001:1006"},"geometry":{"type":"Polygon","coordinates":[[[35.546908,47.550175],[35.547466,47.550208],[35.547525,47.54909],[35.547,47.549093],[35.546908,47.550175]]]}},{"type":"Feature","properties":{"cadnum":"2320985807:07:001:0019"},"geometry":{"type":"Polygon","coordinates":[[[35.550009,47.550881],[35.550413,47.550906],[35.550963,47.550935],[35.551013,47.550621],[35.550061,47.550575],[35.550043,47.550682],[35.550009,47.550881]]]}},{"type":"Feature","properties":{"cadnum":"2320985807:07:001:0006"},"geometry":{"type":"Polygon","coordinates":[[[35.546863,47.550706],[35.547425,47.550737],[35.547434,47.550614],[35.547464,47.550261],[35.547466,47.550208],[35.546908,47.550175],[35.546874,47.550566],[35.546868,47.550637],[35.546864,47.550682],[35.546865,47.550682],[35.546863,47.550706]]]}},{"type":"Feature","properties":{"cadnum":"2320985807:07:003:0002"},"geometry":{"type":"Polygon","coordinates":[[[35.557456,47.548069],[35.558599,47.548086],[35.558793,47.547313],[35.558748,47.547308],[35.558265,47.547268],[35.558084,47.547768],[35.557963,47.54776],[35.557948,47.547834],[35.557508,47.547808],[35.557456,47.548069]]]}},{"type":"Feature","properties":{"cadnum":"2320985807:07:003:0001"},"geometry":{"type":"Polygon","coordinates":[[[35.557295,47.548363],[35.557765,47.548391],[35.557981,47.548356],[35.558572,47.548187],[35.558599,47.548086],[35.557456,47.548069],[35.557295,47.548363]]]}},{"type":"Feature","properties":{"cadnum":"2320985807:07:001:0004"},"geometry":{"type":"Polygon","coordinates":[[[35.540211,47.551952],[35.540686,47.551988],[35.541454,47.552045],[35.541488,47.551831],[35.540809,47.551781],[35.540278,47.551741],[35.540273,47.55178],[35.540272,47.55178],[35.540231,47.551776],[35.540211,47.551952]]]}},{"type":"Feature","properties":{"cadnum":"2320985807:07:005:0010"},"geometry":{"type":"Polygon","coordinates":[[[35.544215,47.545755],[35.544824,47.545812],[35.54494,47.545338],[35.544337,47.545268],[35.544215,47.545755]]]}},{"type":"Feature","properties":{"cadnum":"2320985807:07:005:0011"},"geometry":{"type":"Polygon","coordinates":[[[35.544337,47.545267],[35.54494,47.545338],[35.545161,47.544427],[35.544565,47.544357],[35.544337,47.545267]]]}},{"type":"Feature","properties":{"cadnum":"2320985807:07:001:0014"},"geometry":{"type":"Polygon","coordinates":[[[35.547328,47.551437],[35.547912,47.551457],[35.547968,47.550937],[35.547407,47.550917],[35.547328,47.551437]]]}},{"type":"Feature","properties":{"cadnum":"2320985807:07:001:1014"},"geometry":{"type":"Polygon","coordinates":[[[35.547236,47.552048],[35.547846,47.552076],[35.547912,47.551457],[35.547328,47.551437],[35.547236,47.552048]]]}},{"type":"Feature","properties":{"cadnum":"2320985807:07:007:0001"},"geometry":{"type":"Polygon","coordinates":[[[35.552596,47.548606],[35.553136,47.548629],[35.553159,47.548389],[35.552643,47.548368],[35.552596,47.548606]]]}},{"type":"Feature","properties":{"cadnum":"2320985807:07:003:0051"},"geometry":{"type":"Polygon","coordinates":[[[35.553222,47.548126],[35.553771,47.548174],[35.553847,47.547818],[35.553889,47.547641],[35.553336,47.547595],[35.553303,47.547732],[35.553222,47.548126]]]}},{"type":"Feature","properties":{"cadnum":"2320985807:07:003:1051"},"geometry":{"type":"Polygon","coordinates":[[[35.553336,47.547595],[35.553889,47.547641],[35.553993,47.54719],[35.553456,47.547117],[35.553336,47.547595]]]}},{"type":"Feature","properties":{"cadnum":"2320985807:07:001:0003"},"geometry":{"type":"Polygon","coordinates":[[[35.541337,47.550199],[35.541704,47.550214],[35.541791,47.549356],[35.541423,47.54934],[35.541337,47.550199]]]}},{"type":"Feature","properties":{"cadnum":"2320985807:07:001:0002"},"geometry":{"type":"Polygon","coordinates":[[[35.542067,47.55052],[35.542515,47.550565],[35.54252,47.550543],[35.542636,47.550551],[35.542687,47.550338],[35.542555,47.550325],[35.54253,47.550436],[35.542095,47.550392],[35.542067,47.55052]]]}}]}