{"type":"FeatureCollection","features":[{"type":"Feature","properties":{"cadnum":"2320681502:01:002:0003"},"geometry":{"type":"Polygon","coordinates":[[[36.534177,46.799604],[36.534488,46.799804],[36.534948,46.799483],[36.535113,46.799367],[36.53512,46.799363],[36.535176,46.799323],[36.534948,46.799176],[36.53485,46.799113],[36.534177,46.799604]]]}},{"type":"Feature","properties":{"cadnum":"2320681502:01:009:0001"},"geometry":{"type":"Polygon","coordinates":[[[36.534614,46.796253],[36.534662,46.796285],[36.534661,46.796285],[36.534762,46.796353],[36.534837,46.796403],[36.534838,46.796403],[36.534915,46.796454],[36.534948,46.796431],[36.534988,46.796403],[36.534989,46.796403],[36.535099,46.796325],[36.53512,46.79631],[36.535628,46.795951],[36.535328,46.79575],[36.535084,46.795922],[36.534614,46.796253]]]}},{"type":"Feature","properties":{"cadnum":"2320681502:01:009:0002"},"geometry":{"type":"Polygon","coordinates":[[[36.534915,46.796454],[36.534948,46.796477],[36.535037,46.796536],[36.53512,46.796592],[36.53512,46.796591],[36.535196,46.796642],[36.535702,46.796285],[36.535957,46.796105],[36.535677,46.795917],[36.535628,46.795951],[36.535155,46.796285],[36.535154,46.796285],[36.535015,46.796383],[36.534915,46.796454]]]}},{"type":"Feature","properties":{"cadnum":"2320681502:01:006:0002"},"geometry":{"type":"Polygon","coordinates":[[[36.531279,46.796467],[36.531478,46.796595],[36.531612,46.796496],[36.531484,46.796415],[36.531511,46.796395],[36.531474,46.796373],[36.531752,46.796168],[36.531718,46.796146],[36.531527,46.796285],[36.531526,46.796285],[36.531375,46.796396],[36.531366,46.796403],[36.531279,46.796467]]]}},{"type":"Feature","properties":{"cadnum":"2320681502:01:004:0001"},"geometry":{"type":"Polygon","coordinates":[[[36.534341,46.798556],[36.534659,46.79874],[36.534948,46.798504],[36.535017,46.798448],[36.53512,46.798362],[36.53512,46.798361],[36.535321,46.798191],[36.53501,46.798011],[36.534763,46.798214],[36.534341,46.798556]]]}},{"type":"Feature","properties":{"cadnum":"2320681502:01:004:0002"},"geometry":{"type":"Polygon","coordinates":[[[36.53501,46.798011],[36.53512,46.798075],[36.535321,46.798191],[36.536051,46.797572],[36.535777,46.797381],[36.53501,46.798011]]]}},{"type":"Feature","properties":{"cadnum":"2320681502:01:002:0005"},"geometry":{"type":"Polygon","coordinates":[[[36.529194,46.796525],[36.529455,46.796694],[36.529502,46.796724],[36.529627,46.796637],[36.529627,46.796636],[36.529799,46.796515],[36.529981,46.796382],[36.530189,46.796233],[36.529871,46.796028],[36.529627,46.796206],[36.529356,46.796403],[36.529357,46.796403],[36.529356,46.796404],[36.529194,46.796525]]]}},{"type":"Feature","properties":{"cadnum":"2320681502:01:006:0004"},"geometry":{"type":"Polygon","coordinates":[[[36.530948,46.796291],[36.530949,46.796291],[36.531128,46.796403],[36.531129,46.796403],[36.531258,46.796483],[36.531366,46.796403],[36.531718,46.796146],[36.531962,46.795966],[36.531647,46.79577],[36.531394,46.795967],[36.530955,46.796285],[36.530948,46.796291]]]}},{"type":"Feature","properties":{"cadnum":"2320681502:01:002:0002"},"geometry":{"type":"Polygon","coordinates":[[[36.53313,46.799954],[36.533271,46.800045],[36.533271,46.800046],[36.533431,46.800149],[36.533432,46.800149],[36.534142,46.799629],[36.533837,46.799438],[36.53313,46.799954]]]}},{"type":"Feature","properties":{"cadnum":"2320681502:01:002:0001"},"geometry":{"type":"Polygon","coordinates":[[[36.533837,46.799438],[36.534142,46.799629],[36.53485,46.799113],[36.534549,46.798917],[36.533837,46.799438]]]}},{"type":"Feature","properties":{"cadnum":"2320681502:01:007:0009"},"geometry":{"type":"Polygon","coordinates":[[[36.524734,46.792262],[36.52513,46.792524],[36.525129,46.792524],[36.525265,46.792614],[36.525266,46.792614],[36.526788,46.791416],[36.526199,46.79127],[36.524734,46.792262]]]}},{"type":"Feature","properties":{"cadnum":"2320681502:01:007:0001"},"geometry":{"type":"Polygon","coordinates":[[[36.525896,46.792952],[36.52645,46.793323],[36.526836,46.793051],[36.526282,46.79268],[36.525896,46.792952]]]}},{"type":"Feature","properties":{"cadnum":"2320681502:01:007:0008"},"geometry":{"type":"Polygon","coordinates":[[[36.527753,46.793486],[36.528081,46.79369],[36.529153,46.792917],[36.528824,46.792723],[36.527753,46.793486]]]}},{"type":"Feature","properties":{"cadnum":"2320681502:01:007:0007"},"geometry":{"type":"Polygon","coordinates":[[[36.528592,46.794204],[36.529065,46.794513],[36.529434,46.794228],[36.528993,46.79394],[36.528592,46.794204]]]}},{"type":"Feature","properties":{"cadnum":"2320681502:01:007:0004"},"geometry":{"type":"Polygon","coordinates":[[[36.527643,46.793128],[36.527948,46.793346],[36.528825,46.792723],[36.528631,46.792602],[36.528494,46.792515],[36.528481,46.792524],[36.52848,46.792524],[36.528398,46.792584],[36.528317,46.792642],[36.527643,46.793128]]]}},{"type":"Feature","properties":{"cadnum":"2320681502:01:007:0003"},"geometry":{"type":"Polygon","coordinates":[[[36.526965,46.793617],[36.527269,46.793829],[36.527948,46.793346],[36.527643,46.793128],[36.526965,46.793617]]]}},{"type":"Feature","properties":{"cadnum":"2320681502:01:007:0006"},"geometry":{"type":"Polygon","coordinates":[[[36.528134,46.794503],[36.528645,46.794837],[36.529065,46.794513],[36.528592,46.794204],[36.528134,46.794503]]]}},{"type":"Feature","properties":{"cadnum":"2320681502:01:009:0007"},"geometry":{"type":"Polygon","coordinates":[[[36.535795,46.796579],[36.536701,46.797113],[36.536449,46.797341],[36.537686,46.798136],[36.538532,46.797589],[36.536442,46.796285],[36.536272,46.796179],[36.536004,46.796403],[36.535795,46.796579]]]}},{"type":"Feature","properties":{"cadnum":"2320681502:01:002:0006"},"geometry":{"type":"Polygon","coordinates":[[[36.528279,46.79721],[36.528565,46.797387],[36.529502,46.796724],[36.529194,46.796525],[36.528279,46.79721]]]}},{"type":"Feature","properties":{"cadnum":"2320681502:01:006:0001"},"geometry":{"type":"Polygon","coordinates":[[[36.535408,46.799192],[36.535719,46.799393],[36.536407,46.79889],[36.536096,46.79869],[36.535408,46.799192]]]}},{"type":"Feature","properties":{"cadnum":"2320681502:01:009:0005"},"geometry":{"type":"Polygon","coordinates":[[[36.53174,46.793876],[36.53234,46.794301],[36.532618,46.794098],[36.532025,46.793685],[36.53174,46.793876]]]}},{"type":"Feature","properties":{"cadnum":"2320681502:01:007:0005"},"geometry":{"type":"Polygon","coordinates":[[[36.529841,46.79562],[36.53014,46.795811],[36.530823,46.795305],[36.530497,46.795096],[36.529841,46.79562]]]}},{"type":"Feature","properties":{"cadnum":"2320681502:01:009:0004"},"geometry":{"type":"Polygon","coordinates":[[[36.531388,46.794112],[36.532003,46.794547],[36.53234,46.794301],[36.53174,46.793876],[36.531388,46.794112]]]}},{"type":"Feature","properties":{"cadnum":"2320681502:01:009:0003"},"geometry":{"type":"Polygon","coordinates":[[[36.532003,46.794547],[36.532308,46.794748],[36.533001,46.794278],[36.532667,46.794062],[36.532003,46.794547]]]}}]}