{"type":"FeatureCollection","features":[{"type":"Feature","properties":{"cadnum":"2320985803:05:001:0001"},"geometry":{"type":"Polygon","coordinates":[[[35.429752,47.501098],[35.429921,47.501107],[35.429998,47.500904],[35.429908,47.500884],[35.429802,47.500944],[35.429752,47.501098]]]}},{"type":"Feature","properties":{"cadnum":"2320985803:05:001:0002"},"geometry":{"type":"Polygon","coordinates":[[[35.429921,47.501107],[35.430153,47.501158],[35.430187,47.501074],[35.430163,47.50107],[35.43022,47.500944],[35.429998,47.500904],[35.429921,47.501107]]]}},{"type":"Feature","properties":{"cadnum":"2320985803:05:001:0005"},"geometry":{"type":"Polygon","coordinates":[[[35.422163,47.500553],[35.42274,47.500653],[35.422808,47.500433],[35.422896,47.500163],[35.422344,47.500059],[35.422223,47.500342],[35.422163,47.500553]]]}},{"type":"Feature","properties":{"cadnum":"2320985803:05:001:0006"},"geometry":{"type":"Polygon","coordinates":[[[35.421861,47.501591],[35.422422,47.501661],[35.42274,47.500653],[35.422163,47.500553],[35.421861,47.501591]]]}},{"type":"Feature","properties":{"cadnum":"2320985803:05:001:0003"},"geometry":{"type":"Polygon","coordinates":[[[35.431598,47.500585],[35.431876,47.500656],[35.432383,47.499687],[35.432119,47.49962],[35.431598,47.500585]]]}},{"type":"Feature","properties":{"cadnum":"2320985803:05:001:0004"},"geometry":{"type":"Polygon","coordinates":[[[35.431205,47.501325],[35.431477,47.501397],[35.431876,47.500656],[35.431598,47.500585],[35.431205,47.501325]]]}},{"type":"Feature","properties":{"cadnum":"2320985803:05:001:0010"},"geometry":{"type":"Polygon","coordinates":[[[35.434873,47.501453],[35.435343,47.501591],[35.435672,47.501011],[35.435138,47.500925],[35.434873,47.501453]]]}},{"type":"Feature","properties":{"cadnum":"2320985803:05:001:0011"},"geometry":{"type":"Polygon","coordinates":[[[35.432617,47.502789],[35.432971,47.502845],[35.433118,47.502363],[35.433239,47.502097],[35.433259,47.502007],[35.432921,47.501952],[35.432796,47.502314],[35.43274,47.502462],[35.432617,47.502789]]]}},{"type":"Feature","properties":{"cadnum":"2320985803:05:001:0012"},"geometry":{"type":"Polygon","coordinates":[[[35.432249,47.503758],[35.432645,47.503847],[35.432772,47.503489],[35.432971,47.502845],[35.432617,47.502789],[35.432249,47.503758]]]}}]}