{"type":"FeatureCollection","features":[{"type":"Feature","properties":{"cadnum":"2320982201:06:053:0006"},"geometry":{"type":"Polygon","coordinates":[[[35.35036,47.530271],[35.35118,47.530993],[35.351414,47.530852],[35.350603,47.530109],[35.35036,47.530271]]]}},{"type":"Feature","properties":{"cadnum":"2320982201:06:053:0003"},"geometry":{"type":"Polygon","coordinates":[[[35.348469,47.531592],[35.348597,47.531773],[35.348597,47.531772],[35.348858,47.532141],[35.348859,47.532141],[35.349003,47.532344],[35.349189,47.53229],[35.349376,47.53224],[35.349287,47.532141],[35.348885,47.531692],[35.348979,47.531657],[35.348787,47.531515],[35.348469,47.531592]]]}},{"type":"Feature","properties":{"cadnum":"2320982201:06:055:0006"},"geometry":{"type":"Polygon","coordinates":[[[35.349565,47.530406],[35.34962,47.530457],[35.349804,47.53033],[35.349746,47.530278],[35.349565,47.530406]]]}},{"type":"Feature","properties":{"cadnum":"2320982201:06:055:0026"},"geometry":{"type":"Polygon","coordinates":[[[35.350465,47.528363],[35.35054,47.528432],[35.350541,47.528432],[35.351327,47.529145],[35.351523,47.529059],[35.350762,47.528316],[35.350679,47.528235],[35.350543,47.528316],[35.350465,47.528363]]]}},{"type":"Feature","properties":{"cadnum":"2320982201:06:053:0005"},"geometry":{"type":"Polygon","coordinates":[[[35.352472,47.529149],[35.353117,47.529818],[35.353134,47.529836],[35.353304,47.529751],[35.352644,47.529065],[35.352472,47.529149]]]}},{"type":"Feature","properties":{"cadnum":"2320982201:06:055:0001"},"geometry":{"type":"Polygon","coordinates":[[[35.349109,47.529119],[35.349905,47.529857],[35.35017,47.52972],[35.349337,47.528972],[35.349109,47.529119]]]}},{"type":"Feature","properties":{"cadnum":"2320982201:06:053:0004"},"geometry":{"type":"Polygon","coordinates":[[[35.348275,47.531318],[35.348425,47.53153],[35.348425,47.531531],[35.348469,47.531592],[35.348597,47.531562],[35.348787,47.531515],[35.348561,47.531349],[35.348296,47.531152],[35.348275,47.531318]]]}},{"type":"Feature","properties":{"cadnum":"2320982201:06:055:0005"},"geometry":{"type":"Polygon","coordinates":[[[35.348516,47.529492],[35.348767,47.529723],[35.348799,47.529708],[35.349565,47.530406],[35.349746,47.530278],[35.348723,47.529365],[35.348516,47.529492]]]}},{"type":"Feature","properties":{"cadnum":"2320982201:06:053:0007"},"geometry":{"type":"Polygon","coordinates":[[[35.350119,47.530055],[35.350191,47.530124],[35.35036,47.530271],[35.350603,47.530109],[35.35038,47.529905],[35.350119,47.530055]]]}},{"type":"Feature","properties":{"cadnum":"2320982201:06:055:0002"},"geometry":{"type":"Polygon","coordinates":[[[35.349905,47.529857],[35.350119,47.530055],[35.35038,47.529905],[35.35017,47.52972],[35.349905,47.529857]]]}},{"type":"Feature","properties":{"cadnum":"2320982201:07:005:0005"},"geometry":{"type":"Polygon","coordinates":[[[35.370613,47.532059],[35.370754,47.532083],[35.370946,47.532117],[35.371082,47.532141],[35.371083,47.532141],[35.371103,47.532145],[35.371122,47.532068],[35.371174,47.531867],[35.370675,47.531818],[35.370622,47.532025],[35.370613,47.532059]]]}},{"type":"Feature","properties":{"cadnum":"2320982201:07:005:0004"},"geometry":{"type":"Polygon","coordinates":[[[35.371103,47.532145],[35.371862,47.532278],[35.372046,47.532141],[35.37227,47.531975],[35.371174,47.531867],[35.371133,47.532025],[35.371132,47.532025],[35.371122,47.532068],[35.371103,47.532141],[35.371104,47.532141],[35.371103,47.532145]]]}},{"type":"Feature","properties":{"cadnum":"2320982201:07:005:0009"},"geometry":{"type":"Polygon","coordinates":[[[35.370517,47.532442],[35.370848,47.5325],[35.370946,47.532117],[35.370754,47.532083],[35.370613,47.532059],[35.370592,47.532141],[35.370593,47.532141],[35.370517,47.532442]]]}},{"type":"Feature","properties":{"cadnum":"2320982201:06:007:0005"},"geometry":{"type":"Polygon","coordinates":[[[35.342399,47.55101],[35.342429,47.551133],[35.342476,47.551312],[35.342932,47.551318],[35.343007,47.551318],[35.34305,47.551231],[35.34305,47.551007],[35.342799,47.550773],[35.34252,47.550759],[35.342399,47.55101]]]}},{"type":"Feature","properties":{"cadnum":"2320982201:05:007:0016"},"geometry":{"type":"Polygon","coordinates":[[[35.3379,47.544931],[35.338513,47.544939],[35.338428,47.544701],[35.33847,47.544579],[35.338457,47.544577],[35.338583,47.544261],[35.33836,47.544231],[35.33795,47.544665],[35.3379,47.544931]]]}},{"type":"Feature","properties":{"cadnum":"2320982201:06:007:0016"},"geometry":{"type":"Polygon","coordinates":[[[35.340361,47.544322],[35.340394,47.544602],[35.341147,47.544702],[35.341293,47.544327],[35.340361,47.544322]]]}},{"type":"Feature","properties":{"cadnum":"2320982201:06:007:0014"},"geometry":{"type":"Polygon","coordinates":[[[35.337715,47.543871],[35.337691,47.544027],[35.337738,47.544537],[35.337846,47.544524],[35.33799,47.544183],[35.33831,47.543993],[35.338309,47.543824],[35.33781,47.54383],[35.337747,47.543849],[35.337715,47.543871]]]}},{"type":"Feature","properties":{"cadnum":"2320982201:05:035:0005"},"geometry":{"type":"Polygon","coordinates":[[[35.361761,47.54469],[35.361906,47.545018],[35.362442,47.544909],[35.362292,47.544582],[35.361761,47.54469]]]}},{"type":"Feature","properties":{"cadnum":"2320982201:05:035:0002"},"geometry":{"type":"Polygon","coordinates":[[[35.359409,47.543678],[35.359411,47.543682],[35.359531,47.543834],[35.359583,47.5439],[35.35965,47.543985],[35.360441,47.543517],[35.360148,47.543246],[35.359544,47.5436],[35.359409,47.543678]]]}},{"type":"Feature","properties":{"cadnum":"2320982201:05:035:0001"},"geometry":{"type":"Polygon","coordinates":[[[35.359191,47.543387],[35.359409,47.543678],[35.359411,47.543677],[35.359544,47.5436],[35.359583,47.543577],[35.360147,47.543246],[35.360148,47.543246],[35.360147,47.543245],[35.35989,47.542983],[35.3596,47.543151],[35.359599,47.543151],[35.359546,47.543181],[35.359411,47.543259],[35.359411,47.54326],[35.359191,47.543387]]]}},{"type":"Feature","properties":{"cadnum":"2320982201:05:035:0008"},"geometry":{"type":"Polygon","coordinates":[[[35.362154,47.543252],[35.362154,47.543267],[35.362155,47.543267],[35.362159,47.543314],[35.362162,47.543314],[35.362162,47.543315],[35.362165,47.54335],[35.362175,47.54335],[35.362189,47.543493],[35.362988,47.543497],[35.362978,47.543267],[35.362979,47.543267],[35.362969,47.54303],[35.362516,47.54302],[35.362535,47.543151],[35.362549,47.543244],[35.362154,47.543252]]]}},{"type":"Feature","properties":{"cadnum":"2320982201:05:035:0009"},"geometry":{"type":"Polygon","coordinates":[[[35.362969,47.54303],[35.362974,47.543151],[35.362973,47.543151],[35.362988,47.543497],[35.363365,47.5435],[35.363356,47.543182],[35.363355,47.543143],[35.363044,47.543139],[35.363039,47.543031],[35.362969,47.54303]]]}},{"type":"Feature","properties":{"cadnum":"2320982201:05:035:0004"},"geometry":{"type":"Polygon","coordinates":[[[35.361906,47.545018],[35.36213,47.545526],[35.3626,47.545433],[35.362655,47.545373],[35.362442,47.544909],[35.361906,47.545018]]]}},{"type":"Feature","properties":{"cadnum":"2320982201:05:035:0006"},"geometry":{"type":"Polygon","coordinates":[[[35.362198,47.546202],[35.362222,47.546393],[35.362843,47.546348],[35.362818,47.545947],[35.362721,47.54555],[35.362645,47.545534],[35.362334,47.545568],[35.362678,47.54616],[35.362678,47.546161],[35.362198,47.546202]]]}},{"type":"Feature","properties":{"cadnum":"2320982201:05:035:0007"},"geometry":{"type":"Polygon","coordinates":[[[35.362222,47.546393],[35.362238,47.546533],[35.36285,47.546447],[35.362843,47.546348],[35.362222,47.546393]]]}},{"type":"Feature","properties":{"cadnum":"2320982201:05:033:0005"},"geometry":{"type":"Polygon","coordinates":[[[35.364737,47.54634],[35.364904,47.546348],[35.365044,47.546355],[35.365076,47.546356],[35.365344,47.546369],[35.365507,47.545955],[35.364935,47.545892],[35.364782,47.545875],[35.364737,47.54634]]]}},{"type":"Feature","properties":{"cadnum":"2320982201:05:033:0006"},"geometry":{"type":"Polygon","coordinates":[[[35.364565,47.545851],[35.364587,47.546334],[35.364737,47.54634],[35.364782,47.545875],[35.364565,47.545851]]]}},{"type":"Feature","properties":{"cadnum":"2320982201:05:019:0020"},"geometry":{"type":"Polygon","coordinates":[[[35.369376,47.556208],[35.370397,47.556404],[35.370398,47.556404],[35.37073,47.556468],[35.370811,47.556332],[35.370569,47.556277],[35.369476,47.556026],[35.369376,47.556208]]]}},{"type":"Feature","properties":{"cadnum":"2320982201:05:019:0004"},"geometry":{"type":"Polygon","coordinates":[[[35.370517,47.554531],[35.371717,47.554916],[35.371859,47.554714],[35.370659,47.554327],[35.370615,47.55439],[35.370517,47.554531]]]}},{"type":"Feature","properties":{"cadnum":"2320982201:06:051:0001"},"geometry":{"type":"Polygon","coordinates":[[[35.325515,47.534675],[35.325603,47.535023],[35.326329,47.534967],[35.326328,47.534697],[35.325515,47.534675]]]}},{"type":"Feature","properties":{"cadnum":"2320982201:05:067:0037"},"geometry":{"type":"Polygon","coordinates":[[[35.358986,47.551075],[35.358989,47.551351],[35.359411,47.551554],[35.359411,47.551555],[35.359542,47.551617],[35.359583,47.551637],[35.359832,47.551757],[35.360027,47.551574],[35.359583,47.551362],[35.359583,47.551361],[35.358986,47.551075]]]}},{"type":"Feature","properties":{"cadnum":"2320982201:05:067:0035"},"geometry":{"type":"Polygon","coordinates":[[[35.35899,47.551693],[35.358991,47.551802],[35.359001,47.552548],[35.359583,47.551998],[35.359583,47.551997],[35.359596,47.551985],[35.359529,47.551952],[35.35899,47.551693]]]}},{"type":"Feature","properties":{"cadnum":"2320982201:05:067:0034"},"geometry":{"type":"Polygon","coordinates":[[[35.358593,47.551803],[35.358603,47.552549],[35.359001,47.552548],[35.358991,47.551801],[35.358593,47.551803]]]}},{"type":"Feature","properties":{"cadnum":"2320982201:05:067:0036"},"geometry":{"type":"Polygon","coordinates":[[[35.358989,47.551351],[35.35899,47.551693],[35.359411,47.551896],[35.359529,47.551952],[35.359583,47.551978],[35.359596,47.551985],[35.359832,47.551757],[35.359542,47.551617],[35.358989,47.551351]]]}},{"type":"Feature","properties":{"cadnum":"2320982201:06:007:0003"},"geometry":{"type":"Polygon","coordinates":[[[35.345394,47.54427],[35.345913,47.544373],[35.345657,47.544289],[35.345394,47.54427]]]}},{"type":"Feature","properties":{"cadnum":"2320982201:06:007:0015"},"geometry":{"type":"Polygon","coordinates":[[[35.344001,47.545167],[35.344211,47.545613],[35.344274,47.545626],[35.344404,47.545891],[35.344548,47.545875],[35.344627,47.545665],[35.344611,47.545397],[35.344585,47.545191],[35.344509,47.545184],[35.344241,47.545166],[35.34414,47.54516],[35.344148,47.545176],[35.344148,47.545177],[35.344001,47.545167]]]}},{"type":"Feature","properties":{"cadnum":"2320982201:06:007:0013"},"geometry":{"type":"Polygon","coordinates":[[[35.344819,47.544916],[35.344846,47.545072],[35.344846,47.545073],[35.345023,47.545121],[35.345377,47.545198],[35.345479,47.544978],[35.345252,47.54493],[35.34519,47.544927],[35.344974,47.544926],[35.344819,47.544916]]]}},{"type":"Feature","properties":{"cadnum":"2320982201:06:007:0002"},"geometry":{"type":"Polygon","coordinates":[[[35.345108,47.544844],[35.345249,47.544913],[35.345488,47.544944],[35.345708,47.544614],[35.345815,47.544624],[35.345913,47.544373],[35.345394,47.54427],[35.345315,47.544481],[35.345108,47.544844]]]}},{"type":"Feature","properties":{"cadnum":"2320982201:05:037:0002"},"geometry":{"type":"Polygon","coordinates":[[[35.353418,47.549966],[35.353749,47.549985],[35.353862,47.549089],[35.35353,47.54907],[35.353418,47.549966]]]}},{"type":"Feature","properties":{"cadnum":"2320982201:05:037:0050"},"geometry":{"type":"Polygon","coordinates":[[[35.351535,47.547573],[35.35155,47.547699],[35.351564,47.547695],[35.351582,47.547747],[35.35165,47.54795],[35.35172,47.548078],[35.351754,47.548098],[35.351853,47.548078],[35.351874,47.548086],[35.352205,47.547926],[35.351947,47.547374],[35.351535,47.547573]]]}},{"type":"Feature","properties":{"cadnum":"2320982201:05:037:1050"},"geometry":{"type":"Polygon","coordinates":[[[35.351497,47.547228],[35.351591,47.547405],[35.351519,47.547423],[35.351535,47.547573],[35.351947,47.547374],[35.351841,47.547145],[35.351497,47.547228]]]}},{"type":"Feature","properties":{"cadnum":"2320982201:07:005:0002"},"geometry":{"type":"Polygon","coordinates":[[[35.391914,47.533679],[35.392296,47.533716],[35.392362,47.533722],[35.39237,47.533723],[35.393192,47.533797],[35.393282,47.533805],[35.393322,47.533604],[35.393565,47.533228],[35.393623,47.533153],[35.392542,47.533124],[35.392026,47.533109],[35.391914,47.533679]]]}},{"type":"Feature","properties":{"cadnum":"2320982201:07:005:0001"},"geometry":{"type":"Polygon","coordinates":[[[35.395219,47.533525],[35.395738,47.533607],[35.39583,47.533345],[35.39583,47.533344],[35.396293,47.533402],[35.396293,47.533401],[35.396423,47.533053],[35.395448,47.532914],[35.395219,47.533525]]]}},{"type":"Feature","properties":{"cadnum":"2320982201:07:005:0003"},"geometry":{"type":"Polygon","coordinates":[[[35.394524,47.532114],[35.394539,47.532141],[35.394846,47.5327],[35.395284,47.532572],[35.395048,47.532141],[35.39491,47.531888],[35.394685,47.531955],[35.394614,47.532025],[35.394524,47.532114]]]}},{"type":"Feature","properties":{"cadnum":"2320982201:07:005:0011"},"geometry":{"type":"Polygon","coordinates":[[[35.394131,47.534561],[35.395201,47.534512],[35.395114,47.534245],[35.394194,47.534139],[35.394131,47.534561]]]}},{"type":"Feature","properties":{"cadnum":"2320982201:07:005:0010"},"geometry":{"type":"Polygon","coordinates":[[[35.393376,47.534384],[35.39343,47.534908],[35.393907,47.534886],[35.393876,47.534572],[35.394131,47.534561],[35.394194,47.534139],[35.394118,47.534326],[35.393886,47.534418],[35.393376,47.534384]]]}},{"type":"Feature","properties":{"cadnum":"2320982201:05:027:0009"},"geometry":{"type":"Polygon","coordinates":[[[35.37581,47.547516],[35.375891,47.547538],[35.375981,47.547563],[35.376062,47.547585],[35.376063,47.547585],[35.376383,47.547672],[35.37631,47.546989],[35.376124,47.546991],[35.375949,47.547285],[35.37581,47.547516]]]}},{"type":"Feature","properties":{"cadnum":"2320982201:05:013:0004"},"geometry":{"type":"Polygon","coordinates":[[[35.373682,47.550789],[35.374091,47.550919],[35.374061,47.550966],[35.375055,47.551258],[35.375311,47.550882],[35.374654,47.550697],[35.374505,47.550604],[35.374387,47.550531],[35.373977,47.550385],[35.373845,47.550566],[35.373844,47.550566],[35.373772,47.550665],[35.37376,47.550682],[35.373682,47.550789]]]}},{"type":"Feature","properties":{"cadnum":"2320982201:05:013:0008"},"geometry":{"type":"Polygon","coordinates":[[[35.370117,47.548631],[35.370397,47.54871],[35.370398,47.54871],[35.370398,47.548711],[35.370471,47.548731],[35.370569,47.548583],[35.370569,47.548582],[35.370722,47.548351],[35.370569,47.548314],[35.37036,47.548263],[35.37021,47.548492],[35.370186,47.548526],[35.370117,47.548631]]]}},{"type":"Feature","properties":{"cadnum":"2320982201:05:027:0012"},"geometry":{"type":"Polygon","coordinates":[[[35.371226,47.54896],[35.371945,47.549151],[35.372042,47.548998],[35.371269,47.548784],[35.371226,47.54896]]]}},{"type":"Feature","properties":{"cadnum":"2320982201:05:027:0002"},"geometry":{"type":"Polygon","coordinates":[[[35.371269,47.548784],[35.372042,47.548998],[35.372156,47.548814],[35.37133,47.548584],[35.371269,47.548784]]]}},{"type":"Feature","properties":{"cadnum":"2320982201:05:013:0001"},"geometry":{"type":"Polygon","coordinates":[[[35.369136,47.550349],[35.369883,47.550566],[35.370398,47.550716],[35.372492,47.551324],[35.372832,47.551068],[35.373166,47.550566],[35.373165,47.550566],[35.373667,47.549815],[35.370569,47.5489],[35.370096,47.548759],[35.369136,47.550349]]]}},{"type":"Feature","properties":{"cadnum":"2320982201:05:013:0014"},"geometry":{"type":"Polygon","coordinates":[[[35.372176,47.549227],[35.37279,47.549398],[35.373044,47.548981],[35.372429,47.54881],[35.372176,47.549227]]]}},{"type":"Feature","properties":{"cadnum":"2320982201:05:027:0003"},"geometry":{"type":"Polygon","coordinates":[[[35.371771,47.547865],[35.3726,47.54809],[35.372712,47.547904],[35.371885,47.547669],[35.371859,47.547708],[35.371771,47.547865]]]}},{"type":"Feature","properties":{"cadnum":"2320982201:05:017:0012"},"geometry":{"type":"Polygon","coordinates":[[[35.370962,47.547444],[35.371536,47.547561],[35.371631,47.547225],[35.371269,47.547251],[35.371218,47.547268],[35.371053,47.547334],[35.370998,47.547364],[35.370976,47.547387],[35.370962,47.547444]]]}},{"type":"Feature","properties":{"cadnum":"2320982201:05:033:0009"},"geometry":{"type":"Polygon","coordinates":[[[35.366606,47.547614],[35.366632,47.547693],[35.369346,47.54772],[35.369352,47.547643],[35.369356,47.547537],[35.369317,47.547483],[35.369299,47.547423],[35.370397,47.547451],[35.370398,47.547451],[35.370517,47.547454],[35.370569,47.547333],[35.370723,47.546975],[35.370723,47.546974],[35.37087,47.546636],[35.370398,47.546591],[35.370397,47.546591],[35.368896,47.546446],[35.367493,47.54631],[35.367227,47.546317],[35.367141,47.546573],[35.367144,47.54664],[35.366879,47.546624],[35.366822,47.546974],[35.366823,47.546974],[35.366823,47.546975],[35.366818,47.547008],[35.366814,47.547046],[35.366673,47.547356],[35.366612,47.547547],[35.366606,47.547614]],[[35.368592,47.546564],[35.368592,47.546563],[35.368593,47.546563],[35.368858,47.546572],[35.368855,47.546617],[35.36859,47.546609],[35.368592,47.546564]]]}},{"type":"Feature","properties":{"cadnum":"2320982201:06:049:0012"},"geometry":{"type":"Polygon","coordinates":[[[35.34134,47.530227],[35.341356,47.53032],[35.341383,47.53046],[35.342183,47.530419],[35.342212,47.530418],[35.342177,47.530182],[35.342153,47.530183],[35.34134,47.530227]]]}},{"type":"Feature","properties":{"cadnum":"2320982201:03:101:0005"},"geometry":{"type":"Polygon","coordinates":[[[35.340448,47.528211],[35.340476,47.528432],[35.340477,47.528432],[35.340483,47.528476],[35.340785,47.528328],[35.340608,47.528143],[35.340448,47.528211]]]}},{"type":"Feature","properties":{"cadnum":"2320982201:06:049:0014"},"geometry":{"type":"Polygon","coordinates":[[[35.338837,47.532013],[35.338842,47.532025],[35.338841,47.532025],[35.338871,47.532091],[35.339212,47.532024],[35.339277,47.532011],[35.339283,47.532025],[35.339372,47.53223],[35.339348,47.532291],[35.339366,47.532348],[35.339444,47.532394],[35.339572,47.532398],[35.339689,47.532386],[35.339845,47.532368],[35.339696,47.532025],[35.339603,47.53181],[35.339512,47.531778],[35.339406,47.531818],[35.339346,47.531824],[35.339257,47.531833],[35.339173,47.531841],[35.339177,47.531945],[35.339177,47.531946],[35.338837,47.532013]]]}},{"type":"Feature","properties":{"cadnum":"2320982201:06:049:0007"},"geometry":{"type":"Polygon","coordinates":[[[35.342492,47.530974],[35.342547,47.531117],[35.342932,47.531083],[35.342949,47.531081],[35.343103,47.531067],[35.343616,47.53102],[35.343582,47.530858],[35.34315,47.530892],[35.343026,47.530907],[35.342492,47.530974]]]}},{"type":"Feature","properties":{"cadnum":"2320982201:05:033:0010"},"geometry":{"type":"Polygon","coordinates":[[[35.364819,47.528676],[35.364904,47.528774],[35.364904,47.528775],[35.364937,47.528812],[35.365024,47.528778],[35.365076,47.528758],[35.365206,47.528708],[35.365688,47.528524],[35.365569,47.528385],[35.365489,47.528292],[35.365457,47.528256],[35.365364,47.528316],[35.365363,47.528316],[35.365319,47.528346],[35.365187,47.528432],[35.365188,47.528432],[35.365036,47.528532],[35.364819,47.528676]]]}},{"type":"Feature","properties":{"cadnum":"2320982201:06:043:0003"},"geometry":{"type":"Polygon","coordinates":[[[35.363106,47.529916],[35.363217,47.53017],[35.363535,47.530109],[35.363882,47.529829],[35.363703,47.529224],[35.363422,47.529325],[35.363449,47.529403],[35.363118,47.529528],[35.363106,47.529916]]]}},{"type":"Feature","properties":{"cadnum":"2320982201:06:043:0002"},"geometry":{"type":"Polygon","coordinates":[[[35.362368,47.531265],[35.362375,47.531345],[35.362403,47.531688],[35.362559,47.531672],[35.362505,47.531255],[35.362368,47.531265]]]}},{"type":"Feature","properties":{"cadnum":"2320982201:06:009:0013"},"geometry":{"type":"Polygon","coordinates":[[[35.362629,47.527752],[35.362681,47.528084],[35.362693,47.528158],[35.362792,47.528316],[35.362791,47.528316],[35.362834,47.528383],[35.362866,47.528432],[35.363193,47.528922],[35.363268,47.528911],[35.363406,47.528892],[35.363543,47.528874],[35.363638,47.528861],[35.363515,47.528316],[35.363397,47.527791],[35.363392,47.527682],[35.363381,47.52766],[35.363357,47.527665],[35.36296,47.527709],[35.362827,47.527725],[35.362705,47.527738],[35.362629,47.527752]]]}},{"type":"Feature","properties":{"cadnum":"2320982201:06:009:0012"},"geometry":{"type":"Polygon","coordinates":[[[35.36076,47.528393],[35.361816,47.528424],[35.361857,47.528374],[35.361883,47.528356],[35.361998,47.528366],[35.362008,47.528374],[35.362049,47.528409],[35.362064,47.528432],[35.362065,47.528432],[35.362065,47.528433],[35.36208,47.528472],[35.362048,47.528548],[35.361973,47.529295],[35.361963,47.529398],[35.36316,47.528927],[35.36313,47.528906],[35.363106,47.528869],[35.362811,47.528397],[35.362659,47.528154],[35.362653,47.5281],[35.362603,47.527754],[35.36215,47.527776],[35.361619,47.528091],[35.361117,47.528212],[35.361006,47.528275],[35.360875,47.528316],[35.360874,47.528316],[35.360807,47.528337],[35.360805,47.528338],[35.360776,47.528374],[35.36076,47.528393]]]}},{"type":"Feature","properties":{"cadnum":"2320982201:06:009:0010"},"geometry":{"type":"Polygon","coordinates":[[[35.360951,47.528415],[35.361058,47.528713],[35.361084,47.528783],[35.361184,47.529004],[35.361435,47.529564],[35.361895,47.529398],[35.361988,47.52856],[35.361994,47.528474],[35.361714,47.528444],[35.361632,47.528436],[35.361078,47.528414],[35.360951,47.528415]]]}},{"type":"Feature","properties":{"cadnum":"2320982201:06:045:0004"},"geometry":{"type":"Polygon","coordinates":[[[35.357506,47.531281],[35.357641,47.531313],[35.357715,47.531315],[35.35803,47.531283],[35.35832,47.531174],[35.359411,47.530712],[35.359411,47.530713],[35.359651,47.530611],[35.359498,47.530482],[35.359352,47.53036],[35.358314,47.530223],[35.358206,47.530596],[35.35824,47.530601],[35.358231,47.530631],[35.35851,47.530668],[35.358472,47.530795],[35.35816,47.530753],[35.358062,47.531091],[35.357888,47.531068],[35.357894,47.531042],[35.357575,47.530999],[35.357506,47.531281]]]}},{"type":"Feature","properties":{"cadnum":"2320982201:06:043:0001"},"geometry":{"type":"Polygon","coordinates":[[[35.362505,47.531255],[35.362559,47.531672],[35.363299,47.531594],[35.363212,47.531198],[35.362505,47.531255]]]}},{"type":"Feature","properties":{"cadnum":"2320982201:06:043:0006"},"geometry":{"type":"Polygon","coordinates":[[[35.362802,47.532037],[35.362804,47.532141],[35.362805,47.532141],[35.36282,47.532631],[35.363342,47.532597],[35.363292,47.532126],[35.363282,47.532014],[35.363051,47.532025],[35.362889,47.532033],[35.362802,47.532037]]]}},{"type":"Feature","properties":{"cadnum":"2320982201:06:045:0001"},"geometry":{"type":"Polygon","coordinates":[[[35.360051,47.531245],[35.36055,47.531267],[35.360954,47.531297],[35.361038,47.530978],[35.360654,47.530963],[35.360058,47.530921],[35.360051,47.531245]]]}},{"type":"Feature","properties":{"cadnum":"2320982201:05:029:0001"},"geometry":{"type":"Polygon","coordinates":[[[35.375325,47.541733],[35.375582,47.542253],[35.375891,47.542171],[35.375982,47.542146],[35.376062,47.542125],[35.376125,47.542108],[35.375891,47.541755],[35.375791,47.541605],[35.375325,47.541733]]]}},{"type":"Feature","properties":{"cadnum":"2320982201:05:029:0011"},"geometry":{"type":"Polygon","coordinates":[[[35.370548,47.543046],[35.370554,47.543151],[35.370553,47.543151],[35.370567,47.543388],[35.37095,47.543391],[35.370943,47.543267],[35.370933,47.543049],[35.370548,47.543046]]]}},{"type":"Feature","properties":{"cadnum":"2320982201:05:029:0009"},"geometry":{"type":"Polygon","coordinates":[[[35.373229,47.543411],[35.373481,47.543686],[35.37428,47.543399],[35.374158,47.543267],[35.374012,47.543108],[35.373906,47.543151],[35.373905,47.543151],[35.373669,47.543246],[35.373668,47.543246],[35.373612,47.543267],[35.373613,47.543267],[35.373229,47.543411]]]}},{"type":"Feature","properties":{"cadnum":"2320982201:05:029:0005"},"geometry":{"type":"Polygon","coordinates":[[[35.371653,47.542901],[35.371729,47.543151],[35.371728,47.543151],[35.371796,47.543372],[35.372455,47.543255],[35.372458,47.543255],[35.372457,47.543254],[35.372266,47.542836],[35.371653,47.542901]]]}},{"type":"Feature","properties":{"cadnum":"2320982201:05:029:0020"},"geometry":{"type":"Polygon","coordinates":[[[35.375732,47.542506],[35.375891,47.542701],[35.375891,47.542702],[35.375919,47.542736],[35.376062,47.542917],[35.376062,47.542916],[35.376063,47.542916],[35.376129,47.543],[35.376317,47.542951],[35.376514,47.542898],[35.376054,47.54232],[35.375944,47.542346],[35.375993,47.542446],[35.375732,47.542506]]]}},{"type":"Feature","properties":{"cadnum":"2320982201:05:031:1026"},"geometry":{"type":"Polygon","coordinates":[[[35.375802,47.543087],[35.375836,47.54315],[35.375836,47.543151],[35.375856,47.543189],[35.375897,47.543267],[35.375898,47.543267],[35.37597,47.543401],[35.376062,47.543379],[35.3763,47.54332],[35.37623,47.543191],[35.376129,47.543],[35.376052,47.543021],[35.375802,47.543087]]]}},{"type":"Feature","properties":{"cadnum":"2320982201:07:007:0005"},"geometry":{"type":"Polygon","coordinates":[[[35.373242,47.540053],[35.373298,47.540254],[35.374049,47.54022],[35.374075,47.539908],[35.373964,47.539871],[35.373946,47.539848],[35.373282,47.539868],[35.373242,47.540053]]]}},{"type":"Feature","properties":{"cadnum":"2320982201:05:013:0002"},"geometry":{"type":"Polygon","coordinates":[[[35.370642,47.54003],[35.37069,47.540415],[35.371351,47.540404],[35.3713,47.539987],[35.371061,47.540002],[35.370642,47.54003]]]}},{"type":"Feature","properties":{"cadnum":"2320982201:07:007:0006"},"geometry":{"type":"Polygon","coordinates":[[[35.373057,47.540345],[35.373108,47.540727],[35.374029,47.54067],[35.374025,47.540524],[35.374049,47.54022],[35.373298,47.540254],[35.373318,47.540325],[35.373057,47.540345]]]}},{"type":"Feature","properties":{"cadnum":"2320982201:05:029:0002"},"geometry":{"type":"Polygon","coordinates":[[[35.375582,47.542253],[35.37566,47.542409],[35.375891,47.542358],[35.376239,47.54228],[35.376125,47.542108],[35.375982,47.542146],[35.375582,47.542253]]]}},{"type":"Feature","properties":{"cadnum":"2320982201:05:031:0026"},"geometry":{"type":"Polygon","coordinates":[[[35.376129,47.543],[35.376209,47.54315],[35.376209,47.543151],[35.37623,47.543191],[35.37627,47.543267],[35.376271,47.543267],[35.3763,47.54332],[35.376806,47.543194],[35.377137,47.543113],[35.376905,47.542795],[35.376317,47.542951],[35.376129,47.543]]]}},{"type":"Feature","properties":{"cadnum":"2320982201:05:033:0012"},"geometry":{"type":"Polygon","coordinates":[[[35.367507,47.539088],[35.367731,47.539442],[35.36773,47.539442],[35.367769,47.539502],[35.367808,47.539552],[35.367809,47.539558],[35.36781,47.539558],[35.367816,47.539576],[35.367896,47.539565],[35.367906,47.539607],[35.367937,47.539606],[35.367941,47.539642],[35.368107,47.539629],[35.36826,47.539617],[35.36825,47.539577],[35.368236,47.539519],[35.368155,47.539194],[35.3681,47.539011],[35.367507,47.539088]]]}},{"type":"Feature","properties":{"cadnum":"2320982201:05:007:0023"},"geometry":{"type":"Polygon","coordinates":[[[35.36904,47.53886],[35.369067,47.538916],[35.36913,47.53892],[35.369307,47.539347],[35.369711,47.539116],[35.369625,47.538906],[35.369575,47.53883],[35.369388,47.538785],[35.36904,47.53886]]]}},{"type":"Feature","properties":{"cadnum":"2320982201:05:033:0013"},"geometry":{"type":"Polygon","coordinates":[[[35.367463,47.539019],[35.367507,47.539088],[35.3681,47.539011],[35.368092,47.538983],[35.368076,47.538939],[35.367733,47.538982],[35.367463,47.539019]]]}},{"type":"Feature","properties":{"cadnum":"2320982201:05:034:0002"},"geometry":{"type":"Polygon","coordinates":[[[35.366475,47.536725],[35.366903,47.538538],[35.367042,47.538948],[35.367463,47.538934],[35.367764,47.538892],[35.368619,47.538707],[35.368976,47.538664],[35.368925,47.538525],[35.369345,47.538478],[35.369327,47.538401],[35.369406,47.538398],[35.369484,47.538394],[35.369739,47.538381],[35.369993,47.538368],[35.370397,47.538311],[35.370398,47.538311],[35.370398,47.538312],[35.370484,47.538299],[35.370569,47.538287],[35.370579,47.538285],[35.370907,47.538308],[35.370968,47.538293],[35.371068,47.538258],[35.371365,47.538208],[35.371614,47.538144],[35.371839,47.538097],[35.372094,47.538083],[35.372374,47.538042],[35.372749,47.538024],[35.372754,47.537911],[35.372993,47.53791],[35.373026,47.537749],[35.373238,47.537749],[35.373461,47.537721],[35.37354,47.537708],[35.373978,47.537718],[35.374438,47.537667],[35.374834,47.537652],[35.375036,47.537645],[35.375038,47.537427],[35.375065,47.537189],[35.37469,47.535734],[35.374363,47.534458],[35.373927,47.53455],[35.372922,47.53476],[35.37214,47.535014],[35.372002,47.534976],[35.37196,47.534984],[35.371029,47.535211],[35.370591,47.535201],[35.370569,47.535197],[35.369896,47.535081],[35.368964,47.535069],[35.36857,47.535138],[35.368356,47.535205],[35.368169,47.535281],[35.36814,47.5353],[35.368052,47.535334],[35.367954,47.535344],[35.367817,47.535388],[35.367685,47.535432],[35.367544,47.535479],[35.367402,47.53551],[35.367332,47.535535],[35.367255,47.535561],[35.367054,47.53573],[35.367054,47.535734],[35.367053,47.535734],[35.367047,47.535813],[35.367043,47.53585],[35.367044,47.53585],[35.367031,47.536013],[35.367029,47.536054],[35.367025,47.536068],[35.36703,47.536111],[35.367034,47.536214],[35.367049,47.536417],[35.367018,47.53649],[35.366954,47.536551],[35.366475,47.536725]]]}},{"type":"Feature","properties":{"cadnum":"2320982201:05:029:0003"},"geometry":{"type":"Polygon","coordinates":[[[35.383618,47.54296],[35.383941,47.543072],[35.383904,47.543139],[35.384175,47.543187],[35.384316,47.542983],[35.384423,47.542983],[35.384454,47.542886],[35.383814,47.54251],[35.383618,47.54296]]]}},{"type":"Feature","properties":{"cadnum":"2320982201:05:029:0017"},"geometry":{"type":"Polygon","coordinates":[[[35.382364,47.54262],[35.383243,47.542832],[35.383412,47.54254],[35.382544,47.542331],[35.382364,47.54262]]]}},{"type":"Feature","properties":{"cadnum":"2320982201:05:029:0016"},"geometry":{"type":"Polygon","coordinates":[[[35.382544,47.542331],[35.383412,47.54254],[35.383527,47.54234],[35.382796,47.541928],[35.382544,47.542331]]]}},{"type":"Feature","properties":{"cadnum":"2320982201:05:029:0004"},"geometry":{"type":"Polygon","coordinates":[[[35.383243,47.542832],[35.383618,47.54296],[35.383814,47.54251],[35.383527,47.54234],[35.383243,47.542832]]]}},{"type":"Feature","properties":{"cadnum":"2320982201:03:112:0002"},"geometry":{"type":"Polygon","coordinates":[[[35.33889,47.521162],[35.339072,47.521333],[35.33933,47.52118],[35.339146,47.521009],[35.33889,47.521162]]]}},{"type":"Feature","properties":{"cadnum":"2320982201:06:047:0012"},"geometry":{"type":"Polygon","coordinates":[[[35.353749,47.534649],[35.353918,47.534671],[35.354332,47.534723],[35.354464,47.534315],[35.353999,47.53424],[35.35386,47.534217],[35.353749,47.534649]]]}},{"type":"Feature","properties":{"cadnum":"2320982201:06:039:0011"},"geometry":{"type":"Polygon","coordinates":[[[35.349327,47.535368],[35.349672,47.535429],[35.350007,47.534721],[35.34972,47.534639],[35.349327,47.535368]]]}},{"type":"Feature","properties":{"cadnum":"2320982201:06:047:0013"},"geometry":{"type":"Polygon","coordinates":[[[35.35386,47.534217],[35.353918,47.534227],[35.353999,47.53424],[35.35409,47.534255],[35.354464,47.534315],[35.354476,47.534273],[35.354503,47.534185],[35.354522,47.534121],[35.35409,47.534061],[35.353911,47.534035],[35.353901,47.534072],[35.353877,47.534158],[35.35386,47.534217]]]}},{"type":"Feature","properties":{"cadnum":"2320982201:06:047:0007"},"geometry":{"type":"Polygon","coordinates":[[[35.353128,47.534965],[35.353666,47.534975],[35.353713,47.534704],[35.353174,47.534675],[35.353128,47.534965]]]}},{"type":"Feature","properties":{"cadnum":"2320982201:06:039:0009"},"geometry":{"type":"Polygon","coordinates":[[[35.348178,47.53441],[35.348272,47.535143],[35.348597,47.535125],[35.348657,47.535122],[35.348656,47.534746],[35.34866,47.534589],[35.34866,47.534573],[35.348642,47.534527],[35.34858,47.534461],[35.348296,47.534407],[35.348178,47.53441]]]}},{"type":"Feature","properties":{"cadnum":"2320982201:06:047:0006"},"geometry":{"type":"Polygon","coordinates":[[[35.353174,47.534675],[35.353713,47.534704],[35.353729,47.53461],[35.35383,47.534217],[35.353265,47.534103],[35.353174,47.534675]]]}},{"type":"Feature","properties":{"cadnum":"2320982201:05:013:0011"},"geometry":{"type":"Polygon","coordinates":[[[35.364959,47.555206],[35.365076,47.55524],[35.36532,47.555312],[35.36572,47.554742],[35.365641,47.554717],[35.365374,47.55463],[35.364959,47.555206]]]}},{"type":"Feature","properties":{"cadnum":"2320982201:07:005:0007"},"geometry":{"type":"Polygon","coordinates":[[[35.370482,47.532592],[35.370569,47.532607],[35.371265,47.53273],[35.371385,47.532633],[35.371426,47.532601],[35.370848,47.5325],[35.370517,47.532442],[35.37049,47.532547],[35.370482,47.532592]]]}},{"type":"Feature","properties":{"cadnum":"2320982201:07:005:0006"},"geometry":{"type":"Polygon","coordinates":[[[35.370388,47.533105],[35.370397,47.533107],[35.370398,47.533107],[35.370474,47.53312],[35.370569,47.533137],[35.370733,47.533165],[35.371265,47.53273],[35.370482,47.532592],[35.370388,47.533105]]]}},{"type":"Feature","properties":{"cadnum":"2320982201:07:005:0008"},"geometry":{"type":"Polygon","coordinates":[[[35.370848,47.5325],[35.371426,47.532601],[35.371862,47.532278],[35.371103,47.532145],[35.370946,47.532117],[35.370848,47.5325]]]}},{"type":"Feature","properties":{"cadnum":"2320982201:07:007:0003"},"geometry":{"type":"Polygon","coordinates":[[[35.377264,47.537977],[35.377269,47.538462],[35.377367,47.538455],[35.377363,47.537974],[35.377264,47.537977]]]}},{"type":"Feature","properties":{"cadnum":"2320982201:07:007:0002"},"geometry":{"type":"Polygon","coordinates":[[[35.376648,47.538035],[35.37669,47.538506],[35.377269,47.538462],[35.377264,47.537977],[35.376703,47.537992],[35.376648,47.538035]]]}},{"type":"Feature","properties":{"cadnum":"2320982201:05:007:0021"},"geometry":{"type":"Polygon","coordinates":[[[35.377869,47.537958],[35.377912,47.538146],[35.377918,47.538258],[35.377932,47.538358],[35.37796,47.538439],[35.378511,47.53839],[35.378588,47.537934],[35.377869,47.537958]]]}},{"type":"Feature","properties":{"cadnum":"2320982201:05:007:0022"},"geometry":{"type":"Polygon","coordinates":[[[35.37796,47.538439],[35.377968,47.538463],[35.378507,47.538416],[35.378511,47.53839],[35.37796,47.538439]]]}},{"type":"Feature","properties":{"cadnum":"2320982201:05:007:0015"},"geometry":{"type":"Polygon","coordinates":[[[35.37706,47.539472],[35.377315,47.5395],[35.377496,47.53952],[35.377548,47.538875],[35.377508,47.538686],[35.377402,47.53859],[35.377369,47.538577],[35.377387,47.539288],[35.377216,47.539303],[35.377106,47.539315],[35.377069,47.539442],[35.377068,47.539442],[35.37706,47.539472]]]}},{"type":"Feature","properties":{"cadnum":"2320982201:07:001:0064"},"geometry":{"type":"Polygon","coordinates":[[[35.399068,47.536816],[35.399573,47.538763],[35.399773,47.538675],[35.3993,47.536765],[35.399068,47.536816]]]}},{"type":"Feature","properties":{"cadnum":"2320982201:07:005:0014"},"geometry":{"type":"Polygon","coordinates":[[[35.368473,47.533257],[35.36876,47.533303],[35.368806,47.533043],[35.370293,47.533173],[35.370325,47.532025],[35.370332,47.531801],[35.369055,47.531646],[35.368806,47.531613],[35.368722,47.532025],[35.368721,47.532025],[35.368473,47.533257]]]}},{"type":"Feature","properties":{"cadnum":"2320982201:06:007:0010"},"geometry":{"type":"Polygon","coordinates":[[[35.332399,47.547032],[35.332792,47.547158],[35.332843,47.547174],[35.33289,47.54719],[35.332936,47.547205],[35.333057,47.547106],[35.333067,47.547111],[35.333399,47.546872],[35.333394,47.546867],[35.333575,47.546642],[35.333559,47.546634],[35.333705,47.546469],[35.33372,47.546467],[35.333745,47.546438],[35.333587,47.54636],[35.333413,47.546461],[35.333238,47.546429],[35.332939,47.546446],[35.33282,47.546631],[35.33275,47.546725],[35.33281,47.546746],[35.33278,47.546786],[35.332493,47.546706],[35.332448,47.546859],[35.332442,47.546881],[35.332415,47.546974],[35.332415,47.546975],[35.332399,47.547032]]]}},{"type":"Feature","properties":{"cadnum":"2320982201:05:037:0008"},"geometry":{"type":"Polygon","coordinates":[[[35.342516,47.547253],[35.342611,47.547359],[35.342627,47.547652],[35.342932,47.54765],[35.342984,47.547649],[35.343103,47.547648],[35.343104,47.547648],[35.343282,47.547645],[35.343264,47.547253],[35.342516,47.547253]]]}},{"type":"Feature","properties":{"cadnum":"2320982201:05:037:0023"},"geometry":{"type":"Polygon","coordinates":[[[35.340622,47.548221],[35.341278,47.548379],[35.341348,47.547967],[35.340738,47.547745],[35.340622,47.548221]]]}},{"type":"Feature","properties":{"cadnum":"2320982201:05:037:0024"},"geometry":{"type":"Polygon","coordinates":[[[35.340738,47.547745],[35.341348,47.547967],[35.341377,47.547789],[35.341326,47.547786],[35.341326,47.547785],[35.341274,47.547698],[35.341152,47.547653],[35.340742,47.547728],[35.340738,47.547745]]]}},{"type":"Feature","properties":{"cadnum":"2320982201:06:007:0001"},"geometry":{"type":"Polygon","coordinates":[[[35.328457,47.541793],[35.328574,47.542034],[35.328617,47.542106],[35.328633,47.542132],[35.328775,47.542101],[35.328996,47.541943],[35.328788,47.541738],[35.328605,47.541785],[35.328457,47.541793]]]}},{"type":"Feature","properties":{"cadnum":"2320982201:05:007:0018"},"geometry":{"type":"Polygon","coordinates":[[[35.35783,47.542884],[35.357892,47.543151],[35.357913,47.543239],[35.358116,47.543209],[35.358455,47.543157],[35.358635,47.543071],[35.358664,47.543043],[35.358743,47.542824],[35.358738,47.542746],[35.35783,47.542884]]]}},{"type":"Feature","properties":{"cadnum":"2320982201:05:007:0007"},"geometry":{"type":"Polygon","coordinates":[[[35.356457,47.542972],[35.356667,47.54315],[35.356667,47.543151],[35.356666,47.543151],[35.356701,47.54318],[35.356727,47.543209],[35.356728,47.543209],[35.356823,47.543267],[35.356834,47.543273],[35.357423,47.543266],[35.357507,47.543265],[35.357414,47.542872],[35.356457,47.542972]]]}},{"type":"Feature","properties":{"cadnum":"2320982201:05:013:0006"},"geometry":{"type":"Polygon","coordinates":[[[35.366213,47.554666],[35.366821,47.55484],[35.366954,47.554633],[35.366349,47.554458],[35.366213,47.554666]]]}},{"type":"Feature","properties":{"cadnum":"2320982201:05:013:0009"},"geometry":{"type":"Polygon","coordinates":[[[35.369146,47.554628],[35.369444,47.554717],[35.369582,47.554503],[35.369719,47.554288],[35.369428,47.554201],[35.36938,47.554274],[35.369314,47.554374],[35.369303,47.55439],[35.369146,47.554628]]]}},{"type":"Feature","properties":{"cadnum":"2320982201:05:013:0028"},"geometry":{"type":"Polygon","coordinates":[[[35.368751,47.554469],[35.369026,47.554549],[35.369126,47.55439],[35.369292,47.554127],[35.369006,47.554044],[35.369005,47.554044],[35.368798,47.55439],[35.368751,47.554469]]]}},{"type":"Feature","properties":{"cadnum":"2320982201:05:013:0015"},"geometry":{"type":"Polygon","coordinates":[[[35.367742,47.555849],[35.368039,47.555929],[35.368559,47.555061],[35.368264,47.55498],[35.367742,47.555849]]]}},{"type":"Feature","properties":{"cadnum":"2320982201:05:019:0005"},"geometry":{"type":"Polygon","coordinates":[[[35.369401,47.554798],[35.370014,47.554981],[35.370204,47.554691],[35.36959,47.554507],[35.369401,47.554798]]]}},{"type":"Feature","properties":{"cadnum":"2320982201:05:013:0007"},"geometry":{"type":"Polygon","coordinates":[[[35.365765,47.55544],[35.366036,47.555522],[35.366331,47.555035],[35.366063,47.554954],[35.365765,47.55544]]]}},{"type":"Feature","properties":{"cadnum":"2320982201:05:019:0023"},"geometry":{"type":"Polygon","coordinates":[[[35.369781,47.553957],[35.370397,47.554137],[35.370398,47.554137],[35.370398,47.554138],[35.370412,47.554142],[35.370542,47.55394],[35.369915,47.553749],[35.369781,47.553957]]]}},{"type":"Feature","properties":{"cadnum":"2320982201:05:019:0003"},"geometry":{"type":"Polygon","coordinates":[[[35.373528,47.552008],[35.37419,47.552207],[35.374229,47.551957],[35.373679,47.551797],[35.373528,47.552008]]]}},{"type":"Feature","properties":{"cadnum":"2320982201:05:019:0007"},"geometry":{"type":"Polygon","coordinates":[[[35.372161,47.552063],[35.373451,47.552441],[35.373505,47.55222],[35.372283,47.551861],[35.372161,47.552063]]]}},{"type":"Feature","properties":{"cadnum":"2320982201:05:011:0021"},"geometry":{"type":"Polygon","coordinates":[[[35.370111,47.551938],[35.370397,47.55203],[35.370398,47.55203],[35.370404,47.552032],[35.370569,47.551785],[35.370706,47.55158],[35.370423,47.55149],[35.370111,47.551938]]]}},{"type":"Feature","properties":{"cadnum":"2320982201:05:019:0002"},"geometry":{"type":"Polygon","coordinates":[[[35.372344,47.551653],[35.373528,47.552008],[35.373679,47.551797],[35.37255,47.551468],[35.372483,47.551448],[35.372344,47.551653]]]}},{"type":"Feature","properties":{"cadnum":"2320982201:06:039:0003"},"geometry":{"type":"Polygon","coordinates":[[[35.358632,47.53593],[35.358961,47.536025],[35.358986,47.53585],[35.359073,47.535257],[35.358704,47.535221],[35.358652,47.535734],[35.358651,47.535734],[35.358632,47.53593]]]}},{"type":"Feature","properties":{"cadnum":"2320982201:06:039:0019"},"geometry":{"type":"Polygon","coordinates":[[[35.355518,47.536153],[35.356042,47.536195],[35.356084,47.53585],[35.356109,47.535642],[35.355597,47.535569],[35.355558,47.53585],[35.355559,47.53585],[35.355518,47.536153]]]}},{"type":"Feature","properties":{"cadnum":"2320982201:06:039:0020"},"geometry":{"type":"Polygon","coordinates":[[[35.35549,47.53636],[35.356017,47.536402],[35.356042,47.536195],[35.355518,47.536153],[35.35549,47.53636]]]}},{"type":"Feature","properties":{"cadnum":"2320982201:06:039:0008"},"geometry":{"type":"Polygon","coordinates":[[[35.354672,47.53633],[35.354829,47.536329],[35.354944,47.535734],[35.355081,47.535753],[35.355089,47.535733],[35.355172,47.535502],[35.354988,47.535471],[35.354762,47.535464],[35.354733,47.535734],[35.354731,47.535758],[35.354721,47.53585],[35.354672,47.53633]]]}},{"type":"Feature","properties":{"cadnum":"2320982201:06:039:0006"},"geometry":{"type":"Polygon","coordinates":[[[35.357872,47.535233],[35.357878,47.53529],[35.357882,47.535734],[35.357881,47.535734],[35.357882,47.535795],[35.35821,47.53585],[35.358354,47.535874],[35.358364,47.535734],[35.358381,47.53548],[35.358427,47.53525],[35.357872,47.535233]]]}},{"type":"Feature","properties":{"cadnum":"2320982201:05:015:0007"},"geometry":{"type":"Polygon","coordinates":[[[35.366329,47.550309],[35.366563,47.550383],[35.36692,47.549846],[35.366675,47.549768],[35.366329,47.550309]]]}},{"type":"Feature","properties":{"cadnum":"2320982201:05:015:0004"},"geometry":{"type":"Polygon","coordinates":[[[35.366971,47.549433],[35.367021,47.549447],[35.367251,47.549513],[35.367588,47.54897],[35.367588,47.548969],[35.367308,47.54889],[35.366971,47.549433]]]}},{"type":"Feature","properties":{"cadnum":"2320982201:05:015:0003"},"geometry":{"type":"Polygon","coordinates":[[[35.366563,47.550383],[35.366806,47.550459],[35.367167,47.549921],[35.36692,47.549846],[35.366563,47.550383]]]}},{"type":"Feature","properties":{"cadnum":"2320982201:05:015:0001"},"geometry":{"type":"Polygon","coordinates":[[[35.366078,47.550252],[35.366319,47.550325],[35.366673,47.549768],[35.366448,47.549696],[35.366078,47.550252]]]}},{"type":"Feature","properties":{"cadnum":"2320982201:05:027:0005"},"geometry":{"type":"Polygon","coordinates":[[[35.368753,47.548641],[35.36883,47.548654],[35.369248,47.548731],[35.369306,47.548578],[35.369343,47.548483],[35.369087,47.54847],[35.368782,47.548454],[35.368753,47.548641]]]}},{"type":"Feature","properties":{"cadnum":"2320982201:05:013:0012"},"geometry":{"type":"Polygon","coordinates":[[[35.369698,47.548486],[35.369991,47.548541],[35.370133,47.54823],[35.369755,47.548206],[35.369698,47.548486]]]}},{"type":"Feature","properties":{"cadnum":"2320982201:05:027:0008"},"geometry":{"type":"Polygon","coordinates":[[[35.369314,47.548559],[35.369389,47.548573],[35.369467,47.548593],[35.36952,47.548607],[35.369601,47.548624],[35.369673,47.54864],[35.369743,47.548654],[35.369817,47.548673],[35.369908,47.548694],[35.369991,47.548541],[35.36971,47.548489],[35.369343,47.548483],[35.369314,47.548559]]]}},{"type":"Feature","properties":{"cadnum":"2320982201:05:027:0004"},"geometry":{"type":"Polygon","coordinates":[[[35.367827,47.54786],[35.367832,47.5484],[35.367882,47.54841],[35.368146,47.54846],[35.368146,47.547864],[35.367827,47.54786]]]}},{"type":"Feature","properties":{"cadnum":"2320982201:05:015:0002"},"geometry":{"type":"Polygon","coordinates":[[[35.36584,47.550162],[35.36609,47.550236],[35.366448,47.549696],[35.366022,47.54957],[35.365909,47.549753],[35.366071,47.5498],[35.366071,47.549801],[35.36595,47.54999],[35.36584,47.550162]]]}},{"type":"Feature","properties":{"cadnum":"2320982201:06:049:0010"},"geometry":{"type":"Polygon","coordinates":[[[35.340731,47.532919],[35.340903,47.532943],[35.340904,47.53265],[35.340735,47.532625],[35.340731,47.532919]]]}},{"type":"Feature","properties":{"cadnum":"2320982201:06:049:0001"},"geometry":{"type":"Polygon","coordinates":[[[35.339477,47.53241],[35.339702,47.532503],[35.339706,47.53253],[35.339714,47.532594],[35.339765,47.53266],[35.339791,47.53269],[35.339959,47.532661],[35.33993,47.532589],[35.339851,47.532371],[35.339714,47.532386],[35.339591,47.532397],[35.339477,47.53241]]]}},{"type":"Feature","properties":{"cadnum":"2320982201:06:049:0051"},"geometry":{"type":"Polygon","coordinates":[[[35.34147,47.535116],[35.341859,47.535358],[35.341998,47.535113],[35.341651,47.53498],[35.341587,47.534956],[35.34147,47.535116]]]}},{"type":"Feature","properties":{"cadnum":"2320982201:06:049:0009"},"geometry":{"type":"Polygon","coordinates":[[[35.341513,47.533002],[35.341782,47.533037],[35.341849,47.53307],[35.342181,47.5331],[35.342301,47.532789],[35.342212,47.532779],[35.341686,47.532722],[35.341573,47.53271],[35.341513,47.533002]]]}},{"type":"Feature","properties":{"cadnum":"2320982201:06:045:0003"},"geometry":{"type":"Polygon","coordinates":[[[35.360181,47.534541],[35.360241,47.534819],[35.360602,47.534712],[35.360681,47.534683],[35.360738,47.534657],[35.360778,47.534567],[35.360613,47.534578],[35.360609,47.534534],[35.360392,47.534551],[35.360392,47.53455],[35.360381,47.534486],[35.360192,47.534503],[35.360181,47.534541]]]}},{"type":"Feature","properties":{"cadnum":"2320982201:06:043:0005"},"geometry":{"type":"Polygon","coordinates":[[[35.364439,47.534002],[35.36484,47.534004],[35.364802,47.533526],[35.364458,47.533527],[35.364439,47.534002]]]}},{"type":"Feature","properties":{"cadnum":"2320982201:06:043:0004"},"geometry":{"type":"Polygon","coordinates":[[[35.363767,47.533992],[35.364207,47.534004],[35.364351,47.534002],[35.364439,47.534002],[35.364458,47.533527],[35.363858,47.533532],[35.363767,47.533992]]]}},{"type":"Feature","properties":{"cadnum":"2320982201:05:029:0012"},"geometry":{"type":"Polygon","coordinates":[[[35.373183,47.543793],[35.373324,47.543956],[35.37445,47.543592],[35.37428,47.543399],[35.373481,47.543686],[35.3733,47.543751],[35.373183,47.543793]]]}},{"type":"Feature","properties":{"cadnum":"2320982201:05:029:0010"},"geometry":{"type":"Polygon","coordinates":[[[35.373049,47.543478],[35.3733,47.543751],[35.373481,47.543686],[35.373229,47.543411],[35.373049,47.543478]]]}},{"type":"Feature","properties":{"cadnum":"2320982201:05:017:0014"},"geometry":{"type":"Polygon","coordinates":[[[35.370544,47.546433],[35.37126,47.546458],[35.37139,47.546146],[35.370593,47.546123],[35.370544,47.546433]]]}},{"type":"Feature","properties":{"cadnum":"2320982201:05:025:0003"},"geometry":{"type":"Polygon","coordinates":[[[35.370556,47.545297],[35.371263,47.545381],[35.371307,47.545209],[35.370601,47.545124],[35.370556,47.545297]]]}},{"type":"Feature","properties":{"cadnum":"2320982201:05:029:0006"},"geometry":{"type":"Polygon","coordinates":[[[35.371796,47.543372],[35.371851,47.54355],[35.372537,47.543429],[35.372458,47.543255],[35.371796,47.543372]]]}},{"type":"Feature","properties":{"cadnum":"2320982201:06:051:0006"},"geometry":{"type":"Polygon","coordinates":[[[35.344565,47.53024],[35.344634,47.530417],[35.345571,47.530348],[35.345533,47.530169],[35.344565,47.53024]]]}},{"type":"Feature","properties":{"cadnum":"2320982201:06:051:0004"},"geometry":{"type":"Polygon","coordinates":[[[35.343767,47.530551],[35.343774,47.530611],[35.343786,47.530726],[35.344648,47.530692],[35.344608,47.530506],[35.343767,47.530551]]]}},{"type":"Feature","properties":{"cadnum":"2320982201:06:055:0015"},"geometry":{"type":"Polygon","coordinates":[[[35.346234,47.530655],[35.346311,47.53097],[35.346951,47.530882],[35.346816,47.530622],[35.346234,47.530655]]]}},{"type":"Feature","properties":{"cadnum":"2320982201:06:055:0007"},"geometry":{"type":"Polygon","coordinates":[[[35.346671,47.531282],[35.346694,47.531588],[35.347459,47.531561],[35.347281,47.531272],[35.346671,47.531282]]]}},{"type":"Feature","properties":{"cadnum":"2320982201:06:051:0017"},"geometry":{"type":"Polygon","coordinates":[[[35.345778,47.528947],[35.345908,47.52912],[35.346107,47.529119],[35.347225,47.529113],[35.347302,47.528923],[35.346209,47.528951],[35.346124,47.528913],[35.346083,47.528959],[35.345778,47.528947]]]}},{"type":"Feature","properties":{"cadnum":"2320982201:06:051:0018"},"geometry":{"type":"Polygon","coordinates":[[[35.344529,47.530017],[35.344565,47.53024],[35.345351,47.530182],[35.345315,47.529959],[35.344529,47.530017]]]}},{"type":"Feature","properties":{"cadnum":"2320982201:06:051:0007"},"geometry":{"type":"Polygon","coordinates":[[[35.344666,47.530674],[35.344698,47.530855],[35.345115,47.530819],[35.345112,47.530844],[35.346209,47.530821],[35.346165,47.530615],[35.34528,47.53065],[35.344666,47.530674]]]}},{"type":"Feature","properties":{"cadnum":"2320982201:06:051:0005"},"geometry":{"type":"Polygon","coordinates":[[[35.343272,47.531051],[35.343317,47.531205],[35.343661,47.531175],[35.343636,47.531065],[35.343636,47.531064],[35.344736,47.531015],[35.344679,47.530854],[35.343586,47.53088],[35.343616,47.53102],[35.343272,47.531051]]]}},{"type":"Feature","properties":{"cadnum":"2320982201:06:051:0009"},"geometry":{"type":"Polygon","coordinates":[[[35.343636,47.531064],[35.343661,47.531175],[35.343958,47.531151],[35.343985,47.531228],[35.344791,47.531191],[35.344736,47.531015],[35.343636,47.531064]]]}},{"type":"Feature","properties":{"cadnum":"2320982201:06:049:0003"},"geometry":{"type":"Polygon","coordinates":[[[35.343346,47.532176],[35.343413,47.532271],[35.344202,47.532157],[35.344427,47.532126],[35.344431,47.532126],[35.344431,47.532125],[35.344387,47.532011],[35.344296,47.532025],[35.344134,47.532051],[35.343567,47.532141],[35.343346,47.532176]]]}},{"type":"Feature","properties":{"cadnum":"2320982201:05:013:0003"},"geometry":{"type":"Polygon","coordinates":[[[35.3779,47.548495],[35.37791,47.548731],[35.378491,47.548733],[35.378518,47.548494],[35.3779,47.548495]]]}},{"type":"Feature","properties":{"cadnum":"2320982201:06:047:0010"},"geometry":{"type":"Polygon","coordinates":[[[35.356085,47.529177],[35.356599,47.529471],[35.356961,47.529043],[35.356555,47.528795],[35.356085,47.529177]]]}},{"type":"Feature","properties":{"cadnum":"2320982201:06:047:0011"},"geometry":{"type":"Polygon","coordinates":[[[35.356599,47.529471],[35.357109,47.529761],[35.35746,47.529348],[35.356961,47.529043],[35.356599,47.529471]]]}},{"type":"Feature","properties":{"cadnum":"2320982201:06:045:0005"},"geometry":{"type":"Polygon","coordinates":[[[35.357617,47.530862],[35.357935,47.530904],[35.357976,47.530763],[35.357895,47.530752],[35.357894,47.530752],[35.357936,47.530608],[35.358018,47.530619],[35.358137,47.530212],[35.357821,47.530193],[35.357617,47.530862]]]}},{"type":"Feature","properties":{"cadnum":"2320982201:06:047:0002"},"geometry":{"type":"Polygon","coordinates":[[[35.357575,47.530999],[35.357894,47.531042],[35.357888,47.531068],[35.358062,47.531091],[35.35816,47.530753],[35.358472,47.530795],[35.35851,47.530668],[35.358231,47.530631],[35.35824,47.530601],[35.358206,47.530596],[35.358314,47.530223],[35.358137,47.530212],[35.358018,47.530619],[35.357936,47.530608],[35.357894,47.530752],[35.357976,47.530763],[35.357935,47.530904],[35.357617,47.530862],[35.357575,47.530999]]]}},{"type":"Feature","properties":{"cadnum":"2320982201:06:049:1024"},"geometry":{"type":"Polygon","coordinates":[[[35.367643,47.540283],[35.367693,47.54054],[35.367958,47.540517],[35.367918,47.54026],[35.367643,47.540283]]]}},{"type":"Feature","properties":{"cadnum":"2320982201:05:033:0003"},"geometry":{"type":"Polygon","coordinates":[[[35.366138,47.542964],[35.366396,47.543008],[35.366396,47.543009],[35.36638,47.543053],[35.36641,47.543058],[35.366553,47.54266],[35.366223,47.542607],[35.366138,47.542964]]]}},{"type":"Feature","properties":{"cadnum":"2320982201:05:033:1035"},"geometry":{"type":"Polygon","coordinates":[[[35.365686,47.542761],[35.36617,47.542829],[35.366227,47.542591],[35.365773,47.542529],[35.365686,47.542761]]]}},{"type":"Feature","properties":{"cadnum":"2320982201:07:007:0004"},"geometry":{"type":"Polygon","coordinates":[[[35.36871,47.540767],[35.368896,47.5414],[35.369523,47.541309],[35.369533,47.5408],[35.368929,47.540757],[35.368775,47.540755],[35.36871,47.540767]]]}},{"type":"Feature","properties":{"cadnum":"2320982201:05:033:0035"},"geometry":{"type":"Polygon","coordinates":[[[35.365579,47.542938],[35.366111,47.543028],[35.366122,47.543008],[35.36638,47.543053],[35.366396,47.543008],[35.366138,47.542964],[35.36617,47.542829],[35.365686,47.542761],[35.365666,47.542816],[35.365666,47.542817],[35.365627,47.54281],[35.365579,47.542938]]]}},{"type":"Feature","properties":{"cadnum":"2320982201:06:007:0009"},"geometry":{"type":"Polygon","coordinates":[[[35.333767,47.546573],[35.33387,47.546608],[35.334091,47.546667],[35.334172,47.546569],[35.333861,47.546452],[35.333767,47.546573]]]}},{"type":"Feature","properties":{"cadnum":"2320982201:06:007:0012"},"geometry":{"type":"Polygon","coordinates":[[[35.335391,47.544749],[35.335608,47.544824],[35.335678,47.54478],[35.335743,47.544846],[35.33579,47.544894],[35.335916,47.545021],[35.336229,47.544885],[35.335612,47.544545],[35.335391,47.544749]]]}},{"type":"Feature","properties":{"cadnum":"2320982201:06:047:0008"},"geometry":{"type":"Polygon","coordinates":[[[35.361033,47.525091],[35.361983,47.525566],[35.362205,47.525363],[35.361254,47.524887],[35.361033,47.525091]]]}},{"type":"Feature","properties":{"cadnum":"2320982201:06:009:0004"},"geometry":{"type":"Polygon","coordinates":[[[35.36006,47.527132],[35.360864,47.527324],[35.36146,47.527278],[35.362258,47.526886],[35.362555,47.526741],[35.362555,47.52674],[35.362552,47.526727],[35.362537,47.526635],[35.362332,47.525362],[35.361428,47.525986],[35.361407,47.526],[35.361317,47.526076],[35.361207,47.526167],[35.36006,47.527132]]]}},{"type":"Feature","properties":{"cadnum":"2320982201:06:009:0011"},"geometry":{"type":"Polygon","coordinates":[[[35.36146,47.527278],[35.361565,47.527402],[35.361565,47.527403],[35.361578,47.52748],[35.36158,47.527537],[35.36156,47.527754],[35.362051,47.527739],[35.362175,47.527735],[35.362325,47.527722],[35.362552,47.527701],[35.362559,47.52743],[35.362557,47.527033],[35.362555,47.526821],[35.362555,47.526741],[35.362254,47.526888],[35.36146,47.527278]]]}},{"type":"Feature","properties":{"cadnum":"2320982201:05:033:0033"},"geometry":{"type":"Polygon","coordinates":[[[35.362767,47.526726],[35.362958,47.527671],[35.363359,47.527615],[35.363079,47.526683],[35.362767,47.526726]]]}},{"type":"Feature","properties":{"cadnum":"2320982201:05:029:0019"},"geometry":{"type":"Polygon","coordinates":[[[35.376054,47.54232],[35.376514,47.542898],[35.376905,47.542795],[35.376513,47.542187],[35.376239,47.54228],[35.376054,47.54232]]]}},{"type":"Feature","properties":{"cadnum":"2320982201:07:005:0015"},"geometry":{"type":"Polygon","coordinates":[[[35.368765,47.533267],[35.370259,47.533346],[35.37025,47.533333],[35.370293,47.533173],[35.368806,47.533043],[35.368765,47.533267]]]}},{"type":"Feature","properties":{"cadnum":"2320982201:05:033:0007"},"geometry":{"type":"Polygon","coordinates":[[[35.365996,47.53455],[35.366129,47.534978],[35.366553,47.534901],[35.366537,47.53484],[35.36672,47.534815],[35.366691,47.534727],[35.3665,47.534752],[35.3665,47.534751],[35.366429,47.534516],[35.366353,47.534522],[35.366353,47.534521],[35.366338,47.534458],[35.366299,47.534454],[35.366146,47.534467],[35.366158,47.534536],[35.365996,47.53455]]]}},{"type":"Feature","properties":{"cadnum":"2320982201:06:049:0024"},"geometry":{"type":"Polygon","coordinates":[[[35.334833,47.536163],[35.334842,47.536494],[35.335587,47.536421],[35.335831,47.536427],[35.335835,47.536135],[35.334833,47.536163]]]}},{"type":"Feature","properties":{"cadnum":"2320982201:05:037:0007"},"geometry":{"type":"Polygon","coordinates":[[[35.346907,47.548949],[35.346924,47.549848],[35.347257,47.549846],[35.34725,47.549502],[35.347239,47.548946],[35.346907,47.548949]]]}},{"type":"Feature","properties":{"cadnum":"2320982201:05:037:0003"},"geometry":{"type":"Polygon","coordinates":[[[35.345873,47.547778],[35.345961,47.548264],[35.346546,47.548256],[35.346531,47.547979],[35.346484,47.547763],[35.345873,47.547778]]]}},{"type":"Feature","properties":{"cadnum":"2320982201:05:037:0014"},"geometry":{"type":"Polygon","coordinates":[[[35.343864,47.548226],[35.344541,47.548162],[35.344471,47.547721],[35.343901,47.547764],[35.343864,47.548226]]]}},{"type":"Feature","properties":{"cadnum":"2320982201:05:037:0004"},"geometry":{"type":"Polygon","coordinates":[[[35.345798,47.54737],[35.345873,47.547778],[35.346484,47.547763],[35.346412,47.547432],[35.345991,47.547468],[35.345798,47.54737]]]}},{"type":"Feature","properties":{"cadnum":"2320982201:05:037:0010"},"geometry":{"type":"Polygon","coordinates":[[[35.36096,47.551573],[35.361904,47.551932],[35.362,47.551775],[35.361663,47.551647],[35.36109,47.551429],[35.36096,47.551573]]]}},{"type":"Feature","properties":{"cadnum":"2320982201:05:009:0006"},"geometry":{"type":"Polygon","coordinates":[[[35.364485,47.552592],[35.364766,47.552679],[35.364904,47.552485],[35.365052,47.552277],[35.364758,47.552186],[35.364485,47.552592]]]}},{"type":"Feature","properties":{"cadnum":"2320982201:05:021:0002"},"geometry":{"type":"Polygon","coordinates":[[[35.363659,47.552238],[35.36373,47.55244],[35.364384,47.552349],[35.364321,47.552143],[35.363992,47.552187],[35.363659,47.552238]]]}},{"type":"Feature","properties":{"cadnum":"2320982201:05:023:0012"},"geometry":{"type":"Polygon","coordinates":[[[35.364734,47.553877],[35.364904,47.553931],[35.364904,47.553932],[35.365018,47.553967],[35.365076,47.553882],[35.365291,47.553564],[35.364998,47.553473],[35.364734,47.553877]]]}},{"type":"Feature","properties":{"cadnum":"2320982201:06:007:0011"},"geometry":{"type":"Polygon","coordinates":[[[35.353238,47.543684],[35.353359,47.544285],[35.35345,47.544556],[35.353736,47.544505],[35.353654,47.544141],[35.353594,47.543663],[35.353238,47.543684]]]}},{"type":"Feature","properties":{"cadnum":"2320982201:05:007:0008"},"geometry":{"type":"Polygon","coordinates":[[[35.356178,47.542932],[35.356457,47.542972],[35.357414,47.542872],[35.357381,47.542729],[35.357192,47.542108],[35.356426,47.542119],[35.356249,47.542308],[35.356178,47.542932]]]}},{"type":"Feature","properties":{"cadnum":"2320982201:05:007:0019"},"geometry":{"type":"Polygon","coordinates":[[[35.357809,47.54279],[35.35783,47.542884],[35.358738,47.542746],[35.358731,47.542651],[35.357809,47.54279]]]}},{"type":"Feature","properties":{"cadnum":"2320982201:05:011:0008"},"geometry":{"type":"Polygon","coordinates":[[[35.365499,47.551298],[35.365745,47.551364],[35.365791,47.551378],[35.366081,47.550955],[35.365779,47.55086],[35.365499,47.551298]]]}},{"type":"Feature","properties":{"cadnum":"2320982201:05:011:0012"},"geometry":{"type":"Polygon","coordinates":[[[35.366329,47.551491],[35.366562,47.551568],[35.366661,47.551598],[35.366724,47.551492],[35.366861,47.551206],[35.366864,47.551202],[35.3666,47.551103],[35.366329,47.551491]]]}},{"type":"Feature","properties":{"cadnum":"2320982201:05:021:0001"},"geometry":{"type":"Polygon","coordinates":[[[35.366624,47.552054],[35.366708,47.552078],[35.36674,47.552088],[35.366883,47.552127],[35.36692,47.552137],[35.366933,47.552116],[35.367054,47.551921],[35.367188,47.551698],[35.366998,47.551647],[35.366888,47.551622],[35.366624,47.552054]]]}},{"type":"Feature","properties":{"cadnum":"2320982201:05:013:0013"},"geometry":{"type":"Polygon","coordinates":[[[35.366537,47.552746],[35.367141,47.55294],[35.367277,47.552738],[35.366676,47.552541],[35.366537,47.552746]]]}},{"type":"Feature","properties":{"cadnum":"2320982201:05:013:0029"},"geometry":{"type":"Polygon","coordinates":[[[35.365996,47.553108],[35.366613,47.553275],[35.366734,47.553071],[35.366117,47.552904],[35.365996,47.553108]]]}},{"type":"Feature","properties":{"cadnum":"2320982201:05:013:0010"},"geometry":{"type":"Polygon","coordinates":[[[35.366896,47.552175],[35.367502,47.552357],[35.367638,47.55214],[35.36703,47.551959],[35.366896,47.552175]]]}},{"type":"Feature","properties":{"cadnum":"2320982201:05:011:0011"},"geometry":{"type":"Polygon","coordinates":[[[35.366998,47.551647],[35.367093,47.551672],[35.367418,47.551757],[35.36762,47.551382],[35.367634,47.551362],[35.367329,47.55128],[35.367151,47.551552],[35.367066,47.551534],[35.366998,47.551647]]]}},{"type":"Feature","properties":{"cadnum":"2320982201:05:021:1011"},"geometry":{"type":"Polygon","coordinates":[[[35.366272,47.551994],[35.366559,47.552079],[35.366833,47.551648],[35.366661,47.551598],[35.366562,47.551568],[35.366272,47.551994]]]}},{"type":"Feature","properties":{"cadnum":"2320982201:05:011:0006"},"geometry":{"type":"Polygon","coordinates":[[[35.366032,47.551408],[35.36625,47.551474],[35.366329,47.551491],[35.3666,47.551103],[35.366298,47.551008],[35.36628,47.551034],[35.366032,47.551408]]]}},{"type":"Feature","properties":{"cadnum":"2320982201:05:021:0005"},"geometry":{"type":"Polygon","coordinates":[[[35.365052,47.552275],[35.365344,47.552363],[35.365608,47.551951],[35.365317,47.551863],[35.365052,47.552275]]]}},{"type":"Feature","properties":{"cadnum":"2320982201:05:011:0003"},"geometry":{"type":"Polygon","coordinates":[[[35.367006,47.551428],[35.367192,47.551481],[35.36731,47.551303],[35.367104,47.551246],[35.367022,47.551401],[35.367006,47.551428]]]}},{"type":"Feature","properties":{"cadnum":"2320982201:05:013:0020"},"geometry":{"type":"Polygon","coordinates":[[[35.367895,47.551232],[35.368187,47.551325],[35.36848,47.550887],[35.368178,47.5508],[35.367953,47.551142],[35.367895,47.551232]]]}},{"type":"Feature","properties":{"cadnum":"2320982201:05:009:0001"},"geometry":{"type":"Polygon","coordinates":[[[35.368823,47.553894],[35.369113,47.553984],[35.369382,47.553576],[35.369095,47.55349],[35.368823,47.553894]]]}},{"type":"Feature","properties":{"cadnum":"2320982201:05:011:0002"},"geometry":{"type":"Polygon","coordinates":[[[35.369433,47.552434],[35.369723,47.552519],[35.369986,47.552125],[35.369699,47.552035],[35.369433,47.552434]]]}},{"type":"Feature","properties":{"cadnum":"2320982201:05:011:0007"},"geometry":{"type":"Polygon","coordinates":[[[35.369022,47.551629],[35.369195,47.551679],[35.369302,47.551708],[35.369415,47.551545],[35.369563,47.55132],[35.369267,47.55123],[35.369022,47.551629]]]}},{"type":"Feature","properties":{"cadnum":"2320982201:05:021:0003"},"geometry":{"type":"Polygon","coordinates":[[[35.368846,47.552824],[35.369141,47.55291],[35.36939,47.552499],[35.369111,47.552409],[35.368846,47.552824]]]}},{"type":"Feature","properties":{"cadnum":"2320982201:05:013:0027"},"geometry":{"type":"Polygon","coordinates":[[[35.367031,47.551958],[35.367639,47.552138],[35.367782,47.551909],[35.367491,47.551827],[35.367171,47.551738],[35.367031,47.551958]]]}},{"type":"Feature","properties":{"cadnum":"2320982201:05:013:0018"},"geometry":{"type":"Polygon","coordinates":[[[35.369262,47.551215],[35.369557,47.551297],[35.369884,47.550818],[35.369577,47.550724],[35.369262,47.551215]]]}},{"type":"Feature","properties":{"cadnum":"2320982201:06:039:0002"},"geometry":{"type":"Polygon","coordinates":[[[35.347564,47.533586],[35.348334,47.533689],[35.348348,47.53367],[35.348402,47.533588],[35.347591,47.533469],[35.347564,47.533586]]]}},{"type":"Feature","properties":{"cadnum":"2320982201:06:049:0015"},"geometry":{"type":"Polygon","coordinates":[[[35.343901,47.532839],[35.343912,47.532907],[35.344029,47.533127],[35.344579,47.533019],[35.344514,47.532742],[35.34451,47.532726],[35.344052,47.532775],[35.343951,47.532795],[35.343919,47.532811],[35.343901,47.532839]]]}},{"type":"Feature","properties":{"cadnum":"2320982201:06:039:0005"},"geometry":{"type":"Polygon","coordinates":[[[35.345352,47.533753],[35.345446,47.534015],[35.3459,47.533945],[35.345787,47.533589],[35.345352,47.533753]]]}},{"type":"Feature","properties":{"cadnum":"2320982201:06:053:0001"},"geometry":{"type":"Polygon","coordinates":[[[35.345386,47.53282],[35.345476,47.53321],[35.346085,47.533208],[35.346177,47.532744],[35.345386,47.53282]]]}},{"type":"Feature","properties":{"cadnum":"2320982201:06:039:0001"},"geometry":{"type":"Polygon","coordinates":[[[35.347489,47.533917],[35.34752,47.533947],[35.347623,47.534063],[35.34804,47.534095],[35.348116,47.533995],[35.348188,47.533899],[35.348243,47.533823],[35.348306,47.533727],[35.348334,47.533689],[35.347564,47.533586],[35.347489,47.533917]]]}},{"type":"Feature","properties":{"cadnum":"2320982201:06:039:0010"},"geometry":{"type":"Polygon","coordinates":[[[35.347864,47.534516],[35.347977,47.535159],[35.348272,47.535143],[35.348178,47.53441],[35.348008,47.534416],[35.347864,47.534516]]]}},{"type":"Feature","properties":{"cadnum":"2320982201:06:053:0002"},"geometry":{"type":"Polygon","coordinates":[[[35.345476,47.53321],[35.345513,47.533374],[35.346051,47.533377],[35.346085,47.533208],[35.345476,47.53321]]]}},{"type":"Feature","properties":{"cadnum":"2320982201:06:049:0008"},"geometry":{"type":"Polygon","coordinates":[[[35.34377,47.535294],[35.343785,47.535376],[35.343921,47.535357],[35.343922,47.535357],[35.343998,47.535693],[35.344361,47.535671],[35.344235,47.535264],[35.34377,47.535294]]]}},{"type":"Feature","properties":{"cadnum":"2320982201:06:049:0002"},"geometry":{"type":"Polygon","coordinates":[[[35.344288,47.53505],[35.34438,47.53535],[35.344915,47.535355],[35.344977,47.535097],[35.344978,47.535074],[35.344288,47.53505]]]}},{"type":"Feature","properties":{"cadnum":"2320982201:06:049:0006"},"geometry":{"type":"Polygon","coordinates":[[[35.344194,47.533417],[35.344347,47.533637],[35.345378,47.533363],[35.345248,47.53325],[35.345159,47.533105],[35.344194,47.533417]]]}},{"type":"Feature","properties":{"cadnum":"2320982201:06:039:0004"},"geometry":{"type":"Polygon","coordinates":[[[35.345446,47.534015],[35.345492,47.534145],[35.345685,47.534558],[35.346054,47.534714],[35.346082,47.534265],[35.345985,47.534214],[35.3459,47.533945],[35.345446,47.534015]]]}},{"type":"Feature","properties":{"cadnum":"2320982201:06:053:0045"},"geometry":{"type":"Polygon","coordinates":[[[35.345833,47.532561],[35.345873,47.532695],[35.34649,47.532685],[35.34648,47.532544],[35.345833,47.532561]]]}},{"type":"Feature","properties":{"cadnum":"2320982201:05:007:0009"},"geometry":{"type":"Polygon","coordinates":[[[35.370605,47.538521],[35.370609,47.538992],[35.371222,47.53906],[35.371079,47.538492],[35.370605,47.538521]]]}},{"type":"Feature","properties":{"cadnum":"2320982201:06:039:0013"},"geometry":{"type":"Polygon","coordinates":[[[35.355097,47.534943],[35.355777,47.534961],[35.355777,47.534895],[35.355098,47.534878],[35.355097,47.534943]]]}},{"type":"Feature","properties":{"cadnum":"2320982201:06:045:0002"},"geometry":{"type":"Polygon","coordinates":[[[35.357884,47.532875],[35.358452,47.532916],[35.35902,47.532957],[35.35903,47.532898],[35.35905,47.532706],[35.357916,47.532625],[35.357884,47.532875]]]}},{"type":"Feature","properties":{"cadnum":"2320982201:06:039:0007"},"geometry":{"type":"Polygon","coordinates":[[[35.357815,47.534753],[35.357823,47.534833],[35.357872,47.535233],[35.358427,47.53525],[35.358442,47.535176],[35.35849,47.534805],[35.357815,47.534753]]]}},{"type":"Feature","properties":{"cadnum":"2320982201:06:039:0012"},"geometry":{"type":"Polygon","coordinates":[[[35.355088,47.535386],[35.355632,47.535396],[35.355776,47.535359],[35.355777,47.534961],[35.355097,47.534943],[35.355088,47.535386]]]}},{"type":"Feature","properties":{"cadnum":"2320982201:05:031:0002"},"geometry":{"type":"Polygon","coordinates":[[[35.367188,47.54617],[35.367526,47.546247],[35.367493,47.54631],[35.368414,47.546399],[35.369031,47.546458],[35.369504,47.546505],[35.369566,47.546436],[35.369596,47.546038],[35.369616,47.545767],[35.3685,47.545754],[35.367634,47.545752],[35.367423,47.545755],[35.367389,47.545787],[35.367345,47.545871],[35.367294,47.545971],[35.367265,47.546023],[35.367242,47.546064],[35.36719,47.546166],[35.367188,47.54617]]]}},{"type":"Feature","properties":{"cadnum":"2320982201:05:033:0004"},"geometry":{"type":"Polygon","coordinates":[[[35.36859,47.546609],[35.368855,47.546617],[35.368858,47.546572],[35.368592,47.546563],[35.36859,47.546609]]]}},{"type":"Feature","properties":{"cadnum":"2320982201:05:031:0005"},"geometry":{"type":"Polygon","coordinates":[[[35.368759,47.544975],[35.368765,47.545631],[35.369137,47.545646],[35.36903,47.544968],[35.368759,47.544975]]]}},{"type":"Feature","properties":{"cadnum":"2320982201:06:007:0006"},"geometry":{"type":"Polygon","coordinates":[[[35.342476,47.551312],[35.342649,47.551572],[35.342863,47.551624],[35.342975,47.551424],[35.343007,47.551318],[35.342476,47.551312]]]}}]}