{"type":"FeatureCollection","features":[{"type":"Feature","properties":{"cadnum":"2320983302:17:001:0008"},"geometry":{"type":"Polygon","coordinates":[[[34.925206,47.291543],[34.925451,47.291572],[34.925451,47.291573],[34.925856,47.29162],[34.925946,47.291265],[34.925587,47.291224],[34.925296,47.291189],[34.925206,47.291543]]]}},{"type":"Feature","properties":{"cadnum":"2320983302:17:002:0001"},"geometry":{"type":"Polygon","coordinates":[[[34.926493,47.291718],[34.926641,47.291737],[34.92668,47.291589],[34.926534,47.29157],[34.926493,47.291718]]]}},{"type":"Feature","properties":{"cadnum":"2320983302:17:003:0002"},"geometry":{"type":"Polygon","coordinates":[[[34.92688,47.290684],[34.927629,47.290749],[34.927712,47.290395],[34.927754,47.290217],[34.926999,47.290109],[34.926939,47.290395],[34.926928,47.290448],[34.926914,47.290511],[34.926915,47.290511],[34.92688,47.290684]]]}},{"type":"Feature","properties":{"cadnum":"2320983302:17:003:0001"},"geometry":{"type":"Polygon","coordinates":[[[34.926491,47.291036],[34.926814,47.291075],[34.92688,47.290684],[34.926928,47.290448],[34.926999,47.290109],[34.926715,47.290068],[34.926638,47.290395],[34.926614,47.290499],[34.926611,47.290511],[34.926491,47.291036]]]}},{"type":"Feature","properties":{"cadnum":"2320983302:17:001:0009"},"geometry":{"type":"Polygon","coordinates":[[[34.928414,47.29307],[34.929735,47.293254],[34.92987,47.292666],[34.928587,47.292451],[34.928414,47.29307]]]}},{"type":"Feature","properties":{"cadnum":"2320983302:17:001:0005"},"geometry":{"type":"Polygon","coordinates":[[[34.922837,47.29491],[34.923665,47.295038],[34.924918,47.295189],[34.925103,47.294553],[34.924493,47.294512],[34.924492,47.294512],[34.924578,47.294237],[34.924649,47.294009],[34.924106,47.293932],[34.924055,47.29412],[34.924054,47.29412],[34.923959,47.294477],[34.923491,47.294419],[34.922943,47.294351],[34.922837,47.29491]]]}},{"type":"Feature","properties":{"cadnum":"2320983302:17:005:0003"},"geometry":{"type":"Polygon","coordinates":[[[34.922074,47.292386],[34.922636,47.292458],[34.922801,47.291875],[34.922237,47.291814],[34.922074,47.292386]]]}},{"type":"Feature","properties":{"cadnum":"2320983302:17:005:0002"},"geometry":{"type":"Polygon","coordinates":[[[34.922636,47.292458],[34.923131,47.29252],[34.923287,47.291927],[34.922801,47.291875],[34.922636,47.292458]]]}},{"type":"Feature","properties":{"cadnum":"2320983302:17:005:0004"},"geometry":{"type":"Polygon","coordinates":[[[34.921637,47.294182],[34.922373,47.294237],[34.922375,47.294237],[34.922682,47.29426],[34.922719,47.29412],[34.922823,47.293743],[34.921777,47.293639],[34.921653,47.29412],[34.921652,47.29412],[34.921637,47.294182]]]}},{"type":"Feature","properties":{"cadnum":"2320983302:17:001:0007"},"geometry":{"type":"Polygon","coordinates":[[[34.923111,47.293822],[34.923647,47.293892],[34.923579,47.29412],[34.923578,47.294122],[34.923544,47.294237],[34.923545,47.294237],[34.923491,47.294419],[34.923959,47.294477],[34.924023,47.294237],[34.924106,47.293932],[34.924251,47.293401],[34.923681,47.293362],[34.923267,47.293329],[34.923111,47.293822]]]}},{"type":"Feature","properties":{"cadnum":"2320983302:17:001:0006"},"geometry":{"type":"Polygon","coordinates":[[[34.922943,47.294351],[34.923491,47.294419],[34.923578,47.294122],[34.923647,47.293892],[34.923111,47.293822],[34.923017,47.29412],[34.923016,47.29412],[34.922943,47.294351]]]}},{"type":"Feature","properties":{"cadnum":"2320983302:17:001:0004"},"geometry":{"type":"Polygon","coordinates":[[[34.924492,47.294512],[34.925103,47.294553],[34.925225,47.294133],[34.925237,47.294094],[34.924649,47.294009],[34.924615,47.29412],[34.924614,47.29412],[34.924492,47.294512]]]}}]}