{"type":"FeatureCollection","features":[{"type":"Feature","properties":{"cadnum":"2320684502:01:011:0005"},"geometry":{"type":"Polygon","coordinates":[[[37.045864,46.879186],[37.045984,46.879245],[37.046417,46.879459],[37.046482,46.87941],[37.045915,46.879134],[37.045864,46.879186]]]}},{"type":"Feature","properties":{"cadnum":"2320684502:01:011:0024"},"geometry":{"type":"Polygon","coordinates":[[[37.044341,46.878878],[37.044771,46.879072],[37.045079,46.87921],[37.045202,46.879119],[37.04532,46.879032],[37.04532,46.879031],[37.044532,46.878681],[37.044341,46.878878]]]}},{"type":"Feature","properties":{"cadnum":"2320684502:01:011:0008"},"geometry":{"type":"Polygon","coordinates":[[[37.045657,46.879011],[37.045783,46.879072],[37.045784,46.879072],[37.045813,46.879086],[37.045915,46.879134],[37.045984,46.879169],[37.045984,46.879168],[37.046482,46.87941],[37.046517,46.879389],[37.046641,46.879279],[37.04662,46.87924],[37.046686,46.879189],[37.046472,46.879037],[37.046471,46.879037],[37.045906,46.87877],[37.045716,46.878955],[37.045715,46.878955],[37.045657,46.879011]]]}},{"type":"Feature","properties":{"cadnum":"2320684502:01:011:0023"},"geometry":{"type":"Polygon","coordinates":[[[37.045731,46.880251],[37.045798,46.880275],[37.045812,46.88027],[37.045813,46.88027],[37.045813,46.880271],[37.045939,46.880233],[37.045984,46.880233],[37.046263,46.880228],[37.046497,46.880028],[37.04647,46.879918],[37.04656,46.879779],[37.046326,46.879663],[37.045813,46.88017],[37.045731,46.880251]]]}},{"type":"Feature","properties":{"cadnum":"2320684502:01:008:0006"},"geometry":{"type":"Polygon","coordinates":[[[37.043542,46.879794],[37.043793,46.879898],[37.044206,46.880068],[37.044362,46.87994],[37.044439,46.879877],[37.043767,46.879572],[37.043542,46.879794]]]}},{"type":"Feature","properties":{"cadnum":"2320684502:01:008:0001"},"geometry":{"type":"Polygon","coordinates":[[[37.042707,46.882098],[37.043604,46.882481],[37.04382,46.882253],[37.043797,46.882242],[37.042933,46.881859],[37.042707,46.882098]]]}},{"type":"Feature","properties":{"cadnum":"2320684502:01:004:0009"},"geometry":{"type":"Polygon","coordinates":[[[37.040623,46.883113],[37.040906,46.883135],[37.04126,46.88274],[37.041032,46.882654],[37.040982,46.882709],[37.040888,46.882815],[37.040877,46.882827],[37.040623,46.883113]]]}},{"type":"Feature","properties":{"cadnum":"2320684502:01:008:0007"},"geometry":{"type":"Polygon","coordinates":[[[37.042087,46.882209],[37.042426,46.882368],[37.042638,46.882129],[37.042676,46.882085],[37.042404,46.881968],[37.042347,46.881944],[37.04232,46.881976],[37.042204,46.882099],[37.042087,46.882209]]]}},{"type":"Feature","properties":{"cadnum":"2320684502:01:008:0004"},"geometry":{"type":"Polygon","coordinates":[[[37.041331,46.882068],[37.041771,46.882279],[37.041918,46.882135],[37.041477,46.881924],[37.041331,46.882068]]]}},{"type":"Feature","properties":{"cadnum":"2320684502:01:006:0002"},"geometry":{"type":"Polygon","coordinates":[[[37.044909,46.882852],[37.045103,46.883151],[37.045383,46.883086],[37.045409,46.883072],[37.045031,46.88276],[37.044942,46.882827],[37.044909,46.882852]]]}},{"type":"Feature","properties":{"cadnum":"2320684502:01:006:0001"},"geometry":{"type":"Polygon","coordinates":[[[37.045031,46.88276],[37.045111,46.882827],[37.045112,46.882827],[37.045409,46.883072],[37.045812,46.882854],[37.045813,46.882854],[37.045813,46.882855],[37.045865,46.882827],[37.045982,46.882763],[37.045984,46.882762],[37.045984,46.882761],[37.04599,46.882758],[37.045991,46.882758],[37.045864,46.882652],[37.045622,46.882453],[37.045322,46.882646],[37.045284,46.882652],[37.045284,46.882651],[37.045223,46.882618],[37.045099,46.882709],[37.045098,46.882709],[37.045031,46.88276]]]}},{"type":"Feature","properties":{"cadnum":"2320684502:01:006:0003"},"geometry":{"type":"Polygon","coordinates":[[[37.045622,46.882454],[37.045984,46.882708],[37.045986,46.882709],[37.046026,46.882737],[37.046053,46.882719],[37.046054,46.88272],[37.046216,46.882827],[37.046217,46.882827],[37.046254,46.88285],[37.046312,46.882802],[37.046608,46.882553],[37.046372,46.882412],[37.046094,46.882247],[37.045918,46.882325],[37.045622,46.882454]]]}},{"type":"Feature","properties":{"cadnum":"2320684502:01:008:0008"},"geometry":{"type":"Polygon","coordinates":[[[37.043071,46.881895],[37.043777,46.882222],[37.04406,46.881937],[37.043374,46.881607],[37.043071,46.881895]]]}},{"type":"Feature","properties":{"cadnum":"2320684502:01:008:0009"},"geometry":{"type":"Polygon","coordinates":[[[37.042637,46.881728],[37.042944,46.881865],[37.043081,46.881926],[37.043373,46.881633],[37.042929,46.881429],[37.042637,46.881728]]]}},{"type":"Feature","properties":{"cadnum":"2320684502:01:008:0002"},"geometry":{"type":"Polygon","coordinates":[[[37.042404,46.881969],[37.042676,46.882085],[37.042707,46.882098],[37.042933,46.881859],[37.042646,46.881731],[37.042404,46.881969]]]}},{"type":"Feature","properties":{"cadnum":"2320684502:01:004:0010"},"geometry":{"type":"Polygon","coordinates":[[[37.041477,46.881924],[37.041918,46.882136],[37.042039,46.882033],[37.041591,46.881814],[37.041477,46.881924]]]}},{"type":"Feature","properties":{"cadnum":"2320684502:01:004:0003"},"geometry":{"type":"Polygon","coordinates":[[[37.041703,46.881687],[37.042172,46.881913],[37.042288,46.881796],[37.041816,46.881572],[37.041703,46.881687]]]}},{"type":"Feature","properties":{"cadnum":"2320684502:01:007:0001"},"geometry":{"type":"Polygon","coordinates":[[[37.043425,46.881657],[37.044069,46.881953],[37.044384,46.88164],[37.043742,46.881344],[37.043425,46.881657]]]}},{"type":"Feature","properties":{"cadnum":"2320684502:01:008:0012"},"geometry":{"type":"Polygon","coordinates":[[[37.043727,46.881338],[37.043742,46.881344],[37.044384,46.88164],[37.044531,46.881491],[37.043883,46.881179],[37.043727,46.881338]]]}},{"type":"Feature","properties":{"cadnum":"2320684502:01:008:0011"},"geometry":{"type":"Polygon","coordinates":[[[37.043456,46.880975],[37.044531,46.881491],[37.044722,46.881278],[37.043606,46.880804],[37.043456,46.880975]]]}},{"type":"Feature","properties":{"cadnum":"2320684502:01:008:0015"},"geometry":{"type":"Polygon","coordinates":[[[37.042511,46.880963],[37.043024,46.881218],[37.043171,46.881068],[37.042943,46.880946],[37.042943,46.880945],[37.043104,46.88076],[37.042928,46.880738],[37.042886,46.880742],[37.04267,46.880794],[37.042511,46.880963]]]}},{"type":"Feature","properties":{"cadnum":"2320684502:01:008:0014"},"geometry":{"type":"Polygon","coordinates":[[[37.043274,46.881129],[37.043727,46.881338],[37.043883,46.881179],[37.043738,46.88111],[37.043456,46.880975],[37.043435,46.880964],[37.043274,46.881129]]]}},{"type":"Feature","properties":{"cadnum":"2320684502:01:008:0020"},"geometry":{"type":"Polygon","coordinates":[[[37.042976,46.880363],[37.043505,46.880601],[37.043637,46.880456],[37.043122,46.880207],[37.042976,46.880363]]]}},{"type":"Feature","properties":{"cadnum":"2320684502:01:011:0004"},"geometry":{"type":"Polygon","coordinates":[[[37.045695,46.87936],[37.045813,46.879418],[37.045822,46.879423],[37.045984,46.879504],[37.045984,46.879503],[37.046203,46.879611],[37.046211,46.879609],[37.046417,46.879459],[37.045864,46.879186],[37.045695,46.87936]]]}},{"type":"Feature","properties":{"cadnum":"2320684502:01:011:0003"},"geometry":{"type":"Polygon","coordinates":[[[37.045202,46.879119],[37.045695,46.87936],[37.045812,46.879238],[37.045813,46.879238],[37.045813,46.879239],[37.045864,46.879186],[37.045915,46.879134],[37.04568,46.879022],[37.045468,46.878921],[37.045423,46.878955],[37.045422,46.878955],[37.04532,46.879032],[37.045265,46.879072],[37.045266,46.879072],[37.045202,46.879119]]]}},{"type":"Feature","properties":{"cadnum":"2320684502:01:011:0002"},"geometry":{"type":"Polygon","coordinates":[[[37.044966,46.879294],[37.0455,46.879558],[37.045695,46.87936],[37.045202,46.879119],[37.045033,46.879243],[37.044966,46.879294]]]}},{"type":"Feature","properties":{"cadnum":"2320684502:01:011:0015"},"geometry":{"type":"Polygon","coordinates":[[[37.043754,46.879242],[37.044421,46.87964],[37.044687,46.879429],[37.044022,46.879031],[37.043754,46.879242]]]}},{"type":"Feature","properties":{"cadnum":"2320684502:01:011:0025"},"geometry":{"type":"Polygon","coordinates":[[[37.044305,46.878916],[37.04439,46.878954],[37.04439,46.878955],[37.044634,46.879064],[37.044651,46.879072],[37.045033,46.879243],[37.045079,46.87921],[37.04451,46.878955],[37.044341,46.878878],[37.044305,46.878916]]]}},{"type":"Feature","properties":{"cadnum":"2320684502:01:008:0005"},"geometry":{"type":"Polygon","coordinates":[[[37.043122,46.880207],[37.043403,46.880332],[37.043557,46.880417],[37.043718,46.880483],[37.043985,46.880266],[37.044206,46.880068],[37.043793,46.879898],[37.043463,46.880246],[37.043201,46.880129],[37.043122,46.880207]]]}},{"type":"Feature","properties":{"cadnum":"2320684502:01:008:0029"},"geometry":{"type":"Polygon","coordinates":[[[37.043767,46.879572],[37.044439,46.879877],[37.044545,46.879924],[37.044776,46.879705],[37.044724,46.879682],[37.043989,46.879349],[37.043767,46.879572]]]}},{"type":"Feature","properties":{"cadnum":"2320684502:01:008:0018"},"geometry":{"type":"Polygon","coordinates":[[[37.043802,46.880889],[37.044622,46.881211],[37.044789,46.881046],[37.044045,46.880674],[37.044026,46.880665],[37.043802,46.880889]]]}},{"type":"Feature","properties":{"cadnum":"2320684502:01:008:0021"},"geometry":{"type":"Polygon","coordinates":[[[37.043201,46.880129],[37.043463,46.880246],[37.043793,46.879898],[37.043542,46.879794],[37.043201,46.880129]]]}},{"type":"Feature","properties":{"cadnum":"2320684502:01:008:0026"},"geometry":{"type":"Polygon","coordinates":[[[37.043782,46.880543],[37.043833,46.880569],[37.04399,46.880647],[37.044213,46.880397],[37.044033,46.880304],[37.043782,46.880543]]]}},{"type":"Feature","properties":{"cadnum":"2320684502:01:008:0017"},"geometry":{"type":"Polygon","coordinates":[[[37.043564,46.880795],[37.043802,46.880889],[37.044026,46.880665],[37.04399,46.880647],[37.043833,46.880569],[37.043814,46.880559],[37.043564,46.880795]]]}},{"type":"Feature","properties":{"cadnum":"2320684502:01:008:0022"},"geometry":{"type":"Polygon","coordinates":[[[37.04399,46.880647],[37.044045,46.880674],[37.044789,46.881046],[37.045017,46.880782],[37.044213,46.880397],[37.04399,46.880647]]]}},{"type":"Feature","properties":{"cadnum":"2320684502:01:008:0016"},"geometry":{"type":"Polygon","coordinates":[[[37.043392,46.880728],[37.043564,46.880795],[37.043814,46.880559],[37.043644,46.880474],[37.043392,46.880728]]]}},{"type":"Feature","properties":{"cadnum":"2320684502:01:008:0019"},"geometry":{"type":"Polygon","coordinates":[[[37.042943,46.880946],[37.043171,46.881068],[37.043401,46.880828],[37.043281,46.880782],[37.043104,46.88076],[37.042943,46.880946]]]}},{"type":"Feature","properties":{"cadnum":"2320684502:01:007:0002"},"geometry":{"type":"Polygon","coordinates":[[[37.042943,46.881434],[37.043425,46.881657],[37.043742,46.881344],[37.043258,46.881122],[37.042943,46.881434]]]}},{"type":"Feature","properties":{"cadnum":"2320684502:01:008:0003"},"geometry":{"type":"Polygon","coordinates":[[[37.042767,46.880686],[37.043191,46.880623],[37.043407,46.880707],[37.043505,46.880601],[37.042976,46.880363],[37.042853,46.880495],[37.042767,46.880686]]]}},{"type":"Feature","properties":{"cadnum":"2320684502:01:025:0003"},"geometry":{"type":"Polygon","coordinates":[[[36.854669,46.834638],[36.854898,46.834668],[36.855079,46.834125],[36.855089,46.834107],[36.855136,46.833983],[36.854986,46.833937],[36.854878,46.833903],[36.854851,46.833995],[36.854852,46.833995],[36.854669,46.834638]]]}},{"type":"Feature","properties":{"cadnum":"2320684502:01:041:0019"},"geometry":{"type":"Polygon","coordinates":[[[36.899202,46.81726],[36.899411,46.817292],[36.899738,46.817318],[36.899741,46.817319],[36.899746,46.817201],[36.899294,46.817152],[36.899202,46.81726]]]}},{"type":"Feature","properties":{"cadnum":"2320684502:01:001:0015"},"geometry":{"type":"Polygon","coordinates":[[[37.040727,46.886685],[37.041345,46.886916],[37.041524,46.886696],[37.04091,46.886466],[37.040907,46.886465],[37.04086,46.886522],[37.040848,46.886537],[37.040812,46.886581],[37.040727,46.886685]]]}},{"type":"Feature","properties":{"cadnum":"2320684502:01:001:0016"},"geometry":{"type":"Polygon","coordinates":[[[37.040907,46.886464],[37.040907,46.886465],[37.04091,46.886466],[37.041215,46.886581],[37.041217,46.886581],[37.041524,46.886696],[37.041701,46.886479],[37.041087,46.886243],[37.040908,46.886464],[37.040907,46.886464]]]}},{"type":"Feature","properties":{"cadnum":"2320684502:01:005:0002"},"geometry":{"type":"Polygon","coordinates":[[[37.04415,46.884059],[37.044528,46.884359],[37.044974,46.883883],[37.044654,46.883622],[37.04415,46.884059]]]}},{"type":"Feature","properties":{"cadnum":"2320684502:01:005:0012"},"geometry":{"type":"Polygon","coordinates":[[[37.042351,46.884261],[37.043187,46.884634],[37.04326,46.884564],[37.043388,46.884442],[37.043344,46.884417],[37.042862,46.884161],[37.042601,46.884019],[37.04259,46.884017],[37.042497,46.884113],[37.042481,46.884105],[37.04245,46.884135],[37.042468,46.884144],[37.042351,46.884261]]]}},{"type":"Feature","properties":{"cadnum":"2320684502:01:005:0010"},"geometry":{"type":"Polygon","coordinates":[[[37.042601,46.884019],[37.042862,46.884161],[37.043344,46.884417],[37.043613,46.884166],[37.043427,46.884067],[37.043122,46.883901],[37.042872,46.883767],[37.042601,46.884019]]]}},{"type":"Feature","properties":{"cadnum":"2320684502:01:005:0003"},"geometry":{"type":"Polygon","coordinates":[[[37.043843,46.884352],[37.044421,46.884472],[37.044528,46.884359],[37.04415,46.884059],[37.044032,46.884162],[37.044085,46.884204],[37.043843,46.884352]]]}},{"type":"Feature","properties":{"cadnum":"2320684502:01:004:0005"},"geometry":{"type":"Polygon","coordinates":[[[37.042053,46.883234],[37.042251,46.883297],[37.042357,46.883279],[37.042505,46.883231],[37.042641,46.88314],[37.042272,46.883091],[37.042201,46.883108],[37.042125,46.88317],[37.042117,46.883167],[37.042083,46.883196],[37.042053,46.883234]]]}},{"type":"Feature","properties":{"cadnum":"2320684502:01:004:0001"},"geometry":{"type":"Polygon","coordinates":[[[37.041577,46.883699],[37.042041,46.883936],[37.042369,46.883635],[37.042492,46.88346],[37.042546,46.883396],[37.042068,46.883359],[37.042023,46.883355],[37.041919,46.883437],[37.04173,46.883584],[37.041577,46.883699]]]}},{"type":"Feature","properties":{"cadnum":"2320684502:01:004:0002"},"geometry":{"type":"Polygon","coordinates":[[[37.041301,46.884112],[37.04167,46.884279],[37.042041,46.883936],[37.041577,46.883699],[37.041498,46.88376],[37.041563,46.883808],[37.041585,46.883826],[37.041301,46.884112]]]}},{"type":"Feature","properties":{"cadnum":"2320684502:01:008:0010"},"geometry":{"type":"Polygon","coordinates":[[[37.040808,46.883886],[37.041229,46.884104],[37.041563,46.883808],[37.041498,46.88376],[37.041577,46.883699],[37.04173,46.883584],[37.041749,46.883569],[37.041345,46.883438],[37.040808,46.883886]]]}},{"type":"Feature","properties":{"cadnum":"2320684502:01:001:0023"},"geometry":{"type":"Polygon","coordinates":[[[37.045489,46.883844],[37.045668,46.884041],[37.045736,46.884131],[37.045795,46.884225],[37.045812,46.884216],[37.045813,46.884216],[37.045884,46.884177],[37.045984,46.884123],[37.045984,46.884122],[37.046384,46.883904],[37.045968,46.883567],[37.045489,46.883844]]]}},{"type":"Feature","properties":{"cadnum":"2320684502:01:009:0006"},"geometry":{"type":"Polygon","coordinates":[[[37.045495,46.883102],[37.04575,46.883314],[37.045812,46.883269],[37.045813,46.883269],[37.045927,46.883187],[37.04566,46.882997],[37.045495,46.883102]]]}},{"type":"Feature","properties":{"cadnum":"2320684502:01:005:0006"},"geometry":{"type":"Polygon","coordinates":[[[37.043707,46.883924],[37.044073,46.884126],[37.04415,46.884059],[37.044654,46.883622],[37.044372,46.883413],[37.043719,46.883907],[37.043707,46.883924]]]}},{"type":"Feature","properties":{"cadnum":"2320684502:01:005:0011"},"geometry":{"type":"Polygon","coordinates":[[[37.04287,46.883766],[37.043122,46.883901],[37.043427,46.884067],[37.043613,46.884166],[37.043657,46.88419],[37.043753,46.884247],[37.043824,46.884173],[37.043892,46.88411],[37.043855,46.884088],[37.043263,46.883736],[37.043008,46.883628],[37.04287,46.883766]]]}},{"type":"Feature","properties":{"cadnum":"2320684502:01:005:0009"},"geometry":{"type":"Polygon","coordinates":[[[37.044502,46.884386],[37.045105,46.884511],[37.045377,46.884214],[37.044974,46.883883],[37.044528,46.884359],[37.044502,46.884386]]]}},{"type":"Feature","properties":{"cadnum":"2320684502:01:005:0013"},"geometry":{"type":"Polygon","coordinates":[[[37.043436,46.883261],[37.043812,46.883512],[37.044199,46.883262],[37.043834,46.883003],[37.043784,46.883025],[37.043641,46.883114],[37.043436,46.883261]]]}},{"type":"Feature","properties":{"cadnum":"2320684502:01:009:0005"},"geometry":{"type":"Polygon","coordinates":[[[37.045617,46.882965],[37.04566,46.882997],[37.045813,46.883106],[37.045927,46.883187],[37.045984,46.883224],[37.046037,46.883258],[37.046354,46.883062],[37.046451,46.883001],[37.046244,46.882861],[37.046041,46.88273],[37.046041,46.882729],[37.045979,46.882767],[37.045617,46.882965]]]}},{"type":"Feature","properties":{"cadnum":"2320684502:01:003:0003"},"geometry":{"type":"Polygon","coordinates":[[[37.039568,46.885913],[37.039914,46.88609],[37.040319,46.885721],[37.040427,46.885622],[37.040491,46.885564],[37.040514,46.885543],[37.040384,46.885477],[37.040171,46.885366],[37.039568,46.885913]]]}},{"type":"Feature","properties":{"cadnum":"2320684502:01:001:0018"},"geometry":{"type":"Polygon","coordinates":[[[37.039878,46.886505],[37.039882,46.886506],[37.040081,46.886581],[37.040319,46.886671],[37.040439,46.886715],[37.040491,46.886735],[37.040641,46.886791],[37.040727,46.886685],[37.040848,46.886537],[37.040847,46.886537],[37.040446,46.886387],[37.040184,46.886289],[37.039937,46.886464],[37.039936,46.886464],[37.039878,46.886505]]]}},{"type":"Feature","properties":{"cadnum":"2320684502:01:001:0019"},"geometry":{"type":"Polygon","coordinates":[[[37.040184,46.886289],[37.040319,46.88634],[37.040446,46.886387],[37.040491,46.886404],[37.040651,46.886463],[37.040651,46.886464],[37.040847,46.886537],[37.040848,46.886537],[37.04086,46.886522],[37.040907,46.886465],[37.041087,46.886243],[37.040514,46.886023],[37.040417,46.886123],[37.040184,46.886289]]]}},{"type":"Feature","properties":{"cadnum":"2320684502:01:003:0005"},"geometry":{"type":"Polygon","coordinates":[[[37.041038,46.885553],[37.041517,46.88581],[37.041772,46.885948],[37.041989,46.885707],[37.04123,46.885368],[37.041038,46.885553]]]}},{"type":"Feature","properties":{"cadnum":"2320684502:01:005:0001"},"geometry":{"type":"Polygon","coordinates":[[[37.042106,46.884513],[37.042957,46.884874],[37.043187,46.884634],[37.042351,46.884261],[37.042106,46.884513]]]}},{"type":"Feature","properties":{"cadnum":"2320684502:01:004:0004"},"geometry":{"type":"Polygon","coordinates":[[[37.039995,46.88472],[37.040319,46.884881],[37.040319,46.884882],[37.040991,46.885213],[37.041195,46.885026],[37.040491,46.884667],[37.040491,46.884666],[37.040209,46.884522],[37.039995,46.88472]]]}},{"type":"Feature","properties":{"cadnum":"2320684502:01:004:0015"},"geometry":{"type":"Polygon","coordinates":[[[37.040085,46.884458],[37.040491,46.884666],[37.041091,46.884971],[37.041281,46.884774],[37.04039,46.884343],[37.040258,46.884278],[37.040085,46.884458]]]}},{"type":"Feature","properties":{"cadnum":"2320684502:01:003:0001"},"geometry":{"type":"Polygon","coordinates":[[[37.040628,46.885949],[37.041107,46.886206],[37.041517,46.88581],[37.041038,46.885553],[37.040628,46.885949]]]}},{"type":"Feature","properties":{"cadnum":"2320684502:01:003:0002"},"geometry":{"type":"Polygon","coordinates":[[[37.041107,46.886206],[37.041361,46.886343],[37.041772,46.885948],[37.041517,46.88581],[37.041107,46.886206]]]}},{"type":"Feature","properties":{"cadnum":"2320684502:01:004:0013"},"geometry":{"type":"Polygon","coordinates":[[[37.039984,46.885269],[37.040319,46.885443],[37.040352,46.88546],[37.040491,46.885532],[37.040514,46.885543],[37.040893,46.885164],[37.04038,46.88491],[37.039984,46.885269]]]}},{"type":"Feature","properties":{"cadnum":"2320684502:01:011:0006"},"geometry":{"type":"Polygon","coordinates":[[[37.046506,46.878851],[37.04676,46.878954],[37.04676,46.878955],[37.046759,46.878955],[37.047047,46.879071],[37.047049,46.879072],[37.047375,46.87868],[37.046856,46.878431],[37.046506,46.878851]]]}},{"type":"Feature","properties":{"cadnum":"2320684502:01:009:0002"},"geometry":{"type":"Polygon","coordinates":[[[37.047394,46.883027],[37.047616,46.883144],[37.047746,46.883031],[37.047747,46.883031],[37.047866,46.883083],[37.048218,46.882754],[37.048308,46.88267],[37.047972,46.882533],[37.047766,46.882709],[37.047765,46.882709],[37.047394,46.883027]]]}},{"type":"Feature","properties":{"cadnum":"2320684502:01:010:0013"},"geometry":{"type":"Polygon","coordinates":[[[37.047866,46.883083],[37.048142,46.883223],[37.048565,46.882829],[37.048379,46.882714],[37.048308,46.88267],[37.048266,46.882709],[37.048265,46.882709],[37.048218,46.882754],[37.048139,46.882827],[37.04814,46.882827],[37.047866,46.883083]]]}},{"type":"Feature","properties":{"cadnum":"2320684502:01:010:0018"},"geometry":{"type":"Polygon","coordinates":[[[37.048225,46.882495],[37.048244,46.882502],[37.048447,46.882586],[37.048524,46.882619],[37.048717,46.882627],[37.048756,46.88259],[37.048782,46.88256],[37.048943,46.882364],[37.049101,46.882174],[37.048679,46.881996],[37.048225,46.882495]]]}},{"type":"Feature","properties":{"cadnum":"2320684502:01:010:0015"},"geometry":{"type":"Polygon","coordinates":[[[37.04723,46.881766],[37.047415,46.881849],[37.047689,46.881568],[37.047662,46.881556],[37.047819,46.88139],[37.047675,46.881326],[37.04723,46.881766]]]}},{"type":"Feature","properties":{"cadnum":"2320684502:01:010:0010"},"geometry":{"type":"Polygon","coordinates":[[[37.047123,46.881872],[37.047563,46.882071],[37.047678,46.881966],[37.04723,46.881766],[37.047123,46.881872]]]}},{"type":"Feature","properties":{"cadnum":"2320684502:01:010:0011"},"geometry":{"type":"Polygon","coordinates":[[[37.04809,46.881435],[37.048445,46.881552],[37.048515,46.881571],[37.04859,46.881208],[37.048386,46.881096],[37.04809,46.881435]]]}},{"type":"Feature","properties":{"cadnum":"2320684502:01:010:0014"},"geometry":{"type":"Polygon","coordinates":[[[37.047415,46.881849],[37.047678,46.881966],[37.048151,46.881538],[37.047819,46.88139],[37.047662,46.881556],[37.047689,46.881568],[37.047415,46.881849]]]}},{"type":"Feature","properties":{"cadnum":"2320684502:01:011:0021"},"geometry":{"type":"Polygon","coordinates":[[[37.046902,46.879315],[37.046981,46.879362],[37.047269,46.879303],[37.047325,46.879186],[37.04713,46.879105],[37.046902,46.879315]]]}},{"type":"Feature","properties":{"cadnum":"2320684502:01:010:0001"},"geometry":{"type":"Polygon","coordinates":[[[37.048561,46.879833],[37.048763,46.87995],[37.049274,46.880178],[37.049742,46.879806],[37.049518,46.879698],[37.049393,46.879824],[37.049169,46.879776],[37.049045,46.879723],[37.049026,46.879738],[37.048945,46.879697],[37.048865,46.879769],[37.04877,46.879719],[37.048642,46.879763],[37.048561,46.879833]]]}},{"type":"Feature","properties":{"cadnum":"2320684502:01:010:0002"},"geometry":{"type":"Polygon","coordinates":[[[37.04888,46.880928],[37.049763,46.881299],[37.049764,46.881299],[37.050068,46.880933],[37.050509,46.880614],[37.049837,46.879853],[37.049742,46.879806],[37.049274,46.880178],[37.049404,46.880229],[37.04888,46.880928]]]}},{"type":"Feature","properties":{"cadnum":"2320684502:01:011:0017"},"geometry":{"type":"Polygon","coordinates":[[[37.046326,46.879662],[37.04656,46.879779],[37.046637,46.879725],[37.046939,46.879725],[37.046969,46.879678],[37.046553,46.879555],[37.046417,46.879578],[37.046326,46.879662]]]}},{"type":"Feature","properties":{"cadnum":"2320684502:01:010:0008"},"geometry":{"type":"Polygon","coordinates":[[[37.048342,46.880703],[37.048723,46.880916],[37.049063,46.880631],[37.048668,46.880431],[37.048342,46.880703]]]}},{"type":"Feature","properties":{"cadnum":"2320684502:01:009:0008"},"geometry":{"type":"Polygon","coordinates":[[[37.047108,46.881061],[37.047624,46.881258],[37.047978,46.880859],[37.047521,46.880605],[37.047108,46.881061]]]}},{"type":"Feature","properties":{"cadnum":"2320684502:01:009:0007"},"geometry":{"type":"Polygon","coordinates":[[[37.04655,46.881642],[37.04691,46.881773],[37.0473,46.881208],[37.0468,46.88105],[37.04655,46.881642]]]}},{"type":"Feature","properties":{"cadnum":"2320684502:01:010:0017"},"geometry":{"type":"Polygon","coordinates":[[[37.047893,46.88136],[37.04809,46.881435],[37.048386,46.881096],[37.048393,46.881088],[37.048216,46.88099],[37.047893,46.88136]]]}},{"type":"Feature","properties":{"cadnum":"2320684502:01:010:0016"},"geometry":{"type":"Polygon","coordinates":[[[37.047624,46.881258],[37.047893,46.88136],[37.048216,46.88099],[37.047978,46.880859],[37.047624,46.881258]]]}},{"type":"Feature","properties":{"cadnum":"2320684502:01:010:0003"},"geometry":{"type":"Polygon","coordinates":[[[37.048721,46.881121],[37.048809,46.881304],[37.049065,46.881504],[37.049243,46.881081],[37.048814,46.880901],[37.048721,46.881121]]]}},{"type":"Feature","properties":{"cadnum":"2320684502:01:010:0004"},"geometry":{"type":"Polygon","coordinates":[[[37.049065,46.881504],[37.049077,46.881512],[37.04958,46.881762],[37.049763,46.881299],[37.049243,46.881081],[37.049065,46.881504]]]}},{"type":"Feature","properties":{"cadnum":"2320684502:01:010:0019"},"geometry":{"type":"Polygon","coordinates":[[[37.048679,46.881996],[37.049101,46.882174],[37.049171,46.88209],[37.049383,46.881839],[37.04905,46.881627],[37.048976,46.881694],[37.048829,46.881829],[37.048679,46.881996]]]}},{"type":"Feature","properties":{"cadnum":"2320684502:01:010:0005"},"geometry":{"type":"Polygon","coordinates":[[[37.047905,46.880742],[37.048561,46.881109],[37.048723,46.880916],[37.048158,46.880599],[37.048129,46.880603],[37.047905,46.880742]]]}},{"type":"Feature","properties":{"cadnum":"2320684502:01:010:0012"},"geometry":{"type":"Polygon","coordinates":[[[37.047956,46.880485],[37.048158,46.880599],[37.048342,46.880703],[37.048668,46.880431],[37.048557,46.880375],[37.048401,46.880484],[37.048122,46.880345],[37.047956,46.880485]]]}},{"type":"Feature","properties":{"cadnum":"2320684502:01:011:0009"},"geometry":{"type":"Polygon","coordinates":[[[37.045468,46.878921],[37.045657,46.879011],[37.045813,46.878861],[37.045906,46.87877],[37.045758,46.8787],[37.045602,46.878818],[37.045468,46.878921]]]}},{"type":"Feature","properties":{"cadnum":"2320684502:01:011:0011"},"geometry":{"type":"Polygon","coordinates":[[[37.045064,46.878513],[37.045343,46.878657],[37.045605,46.87846],[37.045812,46.878304],[37.045813,46.878304],[37.045813,46.878305],[37.045942,46.878207],[37.045984,46.878175],[37.046035,46.878137],[37.045936,46.87808],[37.045768,46.877983],[37.045338,46.878307],[37.045064,46.878513]]]}},{"type":"Feature","properties":{"cadnum":"2320684502:01:011:0014"},"geometry":{"type":"Polygon","coordinates":[[[37.044797,46.878371],[37.045064,46.878513],[37.045768,46.877983],[37.045496,46.877833],[37.044797,46.878371]]]}},{"type":"Feature","properties":{"cadnum":"2320684502:01:011:0013"},"geometry":{"type":"Polygon","coordinates":[[[37.045343,46.878657],[37.045622,46.878801],[37.045756,46.878699],[37.045812,46.878656],[37.045813,46.878656],[37.045813,46.878657],[37.045913,46.878581],[37.045984,46.878528],[37.045984,46.878527],[37.046088,46.87845],[37.046306,46.878287],[37.046035,46.878137],[37.045949,46.878202],[37.045343,46.878657]]]}},{"type":"Feature","properties":{"cadnum":"2320684502:01:006:0004"},"geometry":{"type":"Polygon","coordinates":[[[37.04752,46.883343],[37.047595,46.883382],[37.047642,46.88341],[37.04771,46.88345],[37.047875,46.883526],[37.047902,46.883541],[37.048025,46.883422],[37.047983,46.8834],[37.047708,46.883257],[37.047645,46.883224],[37.04752,46.883343]]]}},{"type":"Feature","properties":{"cadnum":"2320684502:01:005:0005"},"geometry":{"type":"Polygon","coordinates":[[[37.046789,46.884199],[37.047012,46.88435],[37.047178,46.884157],[37.047036,46.884051],[37.046789,46.884199]]]}},{"type":"Feature","properties":{"cadnum":"2320684502:01:001:0024"},"geometry":{"type":"Polygon","coordinates":[[[37.045968,46.883567],[37.046384,46.883904],[37.046675,46.883745],[37.046427,46.883542],[37.046247,46.883406],[37.045968,46.883567]]]}},{"type":"Feature","properties":{"cadnum":"2320684502:01:005:0004"},"geometry":{"type":"Polygon","coordinates":[[[37.04603,46.884655],[37.046421,46.884867],[37.046661,46.884714],[37.046662,46.884714],[37.046678,46.884727],[37.047012,46.88435],[37.046789,46.884199],[37.04603,46.884655]]]}},{"type":"Feature","properties":{"cadnum":"2320684502:01:009:0001"},"geometry":{"type":"Polygon","coordinates":[[[37.047156,46.883755],[37.047466,46.883931],[37.047881,46.88353],[37.04771,46.88345],[37.047596,46.883383],[37.047372,46.883564],[37.047273,46.883652],[37.047156,46.883755]]]}},{"type":"Feature","properties":{"cadnum":"2320684502:01:009:0003"},"geometry":{"type":"Polygon","coordinates":[[[37.046058,46.883257],[37.046261,46.883415],[37.04644,46.883551],[37.04679,46.883336],[37.046377,46.883061],[37.046058,46.883257]]]}},{"type":"Feature","properties":{"cadnum":"2320684502:01:001:0012"},"geometry":{"type":"Polygon","coordinates":[[[37.039122,46.888662],[37.039739,46.888893],[37.039917,46.888673],[37.0393,46.888442],[37.039253,46.8885],[37.039122,46.888662]]]}},{"type":"Feature","properties":{"cadnum":"2320684502:01:001:0002"},"geometry":{"type":"Polygon","coordinates":[[[37.039248,46.886949],[37.040218,46.887312],[37.040319,46.887187],[37.040319,46.887188],[37.040417,46.887067],[37.039544,46.88674],[37.039248,46.886949]]]}},{"type":"Feature","properties":{"cadnum":"2320684502:01:001:0005"},"geometry":{"type":"Polygon","coordinates":[[[37.0393,46.888442],[37.039917,46.888673],[37.040095,46.888453],[37.039479,46.888223],[37.03937,46.888355],[37.0393,46.888442]]]}},{"type":"Feature","properties":{"cadnum":"2320684502:01:001:0004"},"geometry":{"type":"Polygon","coordinates":[[[37.039061,46.887188],[37.04003,46.887543],[37.040218,46.887312],[37.039248,46.886949],[37.039243,46.886953],[37.039061,46.887188]]]}},{"type":"Feature","properties":{"cadnum":"2320684502:01:001:0009"},"geometry":{"type":"Polygon","coordinates":[[[37.039479,46.888223],[37.040095,46.888453],[37.040275,46.888234],[37.039657,46.888003],[37.039605,46.888067],[37.039488,46.888211],[37.039479,46.888223]]]}},{"type":"Feature","properties":{"cadnum":"2320684502:01:001:0013"},"geometry":{"type":"Polygon","coordinates":[[[37.040014,46.887563],[37.040319,46.887678],[37.040435,46.887721],[37.040491,46.887742],[37.040632,46.887794],[37.04081,46.887575],[37.040376,46.887412],[37.040192,46.887344],[37.04003,46.887543],[37.040014,46.887563]]]}},{"type":"Feature","properties":{"cadnum":"2320684502:01:001:0017"},"geometry":{"type":"Polygon","coordinates":[[[37.04037,46.887124],[37.040491,46.887169],[37.040989,46.887355],[37.041167,46.887136],[37.040549,46.886904],[37.040417,46.887067],[37.04037,46.887124]]]}},{"type":"Feature","properties":{"cadnum":"2320684502:01:001:0003"},"geometry":{"type":"Polygon","coordinates":[[[37.038879,46.887426],[37.039838,46.88778],[37.04003,46.887543],[37.039061,46.887188],[37.038879,46.887426]]]}},{"type":"Feature","properties":{"cadnum":"2320684502:01:001:0010"},"geometry":{"type":"Polygon","coordinates":[[[37.039657,46.888003],[37.040275,46.888234],[37.040319,46.888179],[37.040454,46.888014],[37.039835,46.887783],[37.039721,46.887924],[37.039657,46.888003]]]}},{"type":"Feature","properties":{"cadnum":"2320684502:01:001:0008"},"geometry":{"type":"Polygon","coordinates":[[[37.040192,46.887344],[37.040319,46.887391],[37.040376,46.887412],[37.040491,46.887455],[37.04081,46.887575],[37.040989,46.887355],[37.04037,46.887124],[37.040218,46.887312],[37.040192,46.887344]]]}},{"type":"Feature","properties":{"cadnum":"2320684502:01:001:0011"},"geometry":{"type":"Polygon","coordinates":[[[37.039835,46.887783],[37.040319,46.887963],[37.040319,46.887964],[37.040454,46.888014],[37.040491,46.887968],[37.040491,46.887967],[37.040632,46.887794],[37.040435,46.887721],[37.040014,46.887563],[37.039838,46.88778],[37.039835,46.887783]]]}},{"type":"Feature","properties":{"cadnum":"2320684502:01:001:0021"},"geometry":{"type":"Polygon","coordinates":[[[37.038769,46.887568],[37.039721,46.887924],[37.039835,46.887783],[37.039838,46.88778],[37.038879,46.887426],[37.038769,46.887568]]]}},{"type":"Feature","properties":{"cadnum":"2320684502:01:001:0006"},"geometry":{"type":"Polygon","coordinates":[[[37.038434,46.888004],[37.03937,46.888355],[37.039479,46.888223],[37.039488,46.888211],[37.038547,46.887858],[37.038434,46.888004]]]}},{"type":"Feature","properties":{"cadnum":"2320684502:01:001:0001"},"geometry":{"type":"Polygon","coordinates":[[[37.039544,46.88674],[37.040319,46.88703],[37.040319,46.887031],[37.040417,46.887067],[37.040491,46.886976],[37.040641,46.886791],[37.040439,46.886715],[37.039882,46.886506],[37.039878,46.886505],[37.03977,46.886581],[37.039544,46.88674]]]}},{"type":"Feature","properties":{"cadnum":"2320684502:01:001:0007"},"geometry":{"type":"Polygon","coordinates":[[[37.038547,46.887858],[37.039488,46.888211],[37.039605,46.888067],[37.038658,46.887713],[37.038547,46.887858]]]}},{"type":"Feature","properties":{"cadnum":"2320684502:01:001:0022"},"geometry":{"type":"Polygon","coordinates":[[[37.038194,46.888314],[37.039122,46.888662],[37.039253,46.8885],[37.03832,46.888151],[37.038194,46.888314]]]}},{"type":"Feature","properties":{"cadnum":"2320684502:01:001:0020"},"geometry":{"type":"Polygon","coordinates":[[[37.038658,46.887713],[37.039605,46.888067],[37.039657,46.888003],[37.039721,46.887924],[37.038769,46.887568],[37.038658,46.887713]]]}},{"type":"Feature","properties":{"cadnum":"2320684502:01:011:0010"},"geometry":{"type":"Polygon","coordinates":[[[37.046165,46.878669],[37.046399,46.878768],[37.046729,46.87837],[37.046564,46.878287],[37.046165,46.878669]]]}},{"type":"Feature","properties":{"cadnum":"2320684502:01:011:0007"},"geometry":{"type":"Polygon","coordinates":[[[37.046375,46.878797],[37.046506,46.878851],[37.046856,46.878431],[37.046729,46.87837],[37.046375,46.878797]]]}},{"type":"Feature","properties":{"cadnum":"2320684502:01:011:0012"},"geometry":{"type":"Polygon","coordinates":[[[37.045932,46.87857],[37.046165,46.878669],[37.046564,46.878287],[37.046411,46.878208],[37.045932,46.87857]]]}},{"type":"Feature","properties":{"cadnum":"2320684502:01:001:0014"},"geometry":{"type":"Polygon","coordinates":[[[37.040549,46.886904],[37.041167,46.887136],[37.041345,46.886916],[37.040727,46.886685],[37.040641,46.886791],[37.040549,46.886904]]]}},{"type":"Feature","properties":{"cadnum":"2320684502:01:002:0001"},"geometry":{"type":"Polygon","coordinates":[[[37.037694,46.885705],[37.038143,46.885964],[37.038368,46.885797],[37.037861,46.885532],[37.037694,46.885705]]]}},{"type":"Feature","properties":{"cadnum":"2320684502:01:002:0002"},"geometry":{"type":"Polygon","coordinates":[[[37.037861,46.885532],[37.038368,46.885797],[37.038765,46.885472],[37.038215,46.885177],[37.037861,46.885532]]]}},{"type":"Feature","properties":{"cadnum":"2320684502:01:004:0007"},"geometry":{"type":"Polygon","coordinates":[[[37.038406,46.884988],[37.038981,46.885297],[37.039012,46.885313],[37.039264,46.885097],[37.038642,46.884751],[37.038406,46.884988]]]}},{"type":"Feature","properties":{"cadnum":"2320684502:01:004:0008"},"geometry":{"type":"Polygon","coordinates":[[[37.038215,46.885177],[37.038765,46.885472],[37.038981,46.885297],[37.038898,46.885253],[37.038406,46.884988],[37.038215,46.885177]]]}},{"type":"Feature","properties":{"cadnum":"2320684502:01:004:0011"},"geometry":{"type":"Polygon","coordinates":[[[37.039369,46.883971],[37.04004,46.884285],[37.040218,46.884104],[37.039546,46.883791],[37.039369,46.883971]]]}},{"type":"Feature","properties":{"cadnum":"2320684502:01:004:0012"},"geometry":{"type":"Polygon","coordinates":[[[37.039189,46.884153],[37.039489,46.884289],[37.039861,46.884466],[37.04004,46.884285],[37.039369,46.883971],[37.039189,46.884153]]]}},{"type":"Feature","properties":{"cadnum":"2320684502:01:002:0003"},"geometry":{"type":"Polygon","coordinates":[[[37.037472,46.885927],[37.037952,46.886206],[37.038195,46.885994],[37.038143,46.885964],[37.037694,46.885705],[37.037472,46.885927]]]}},{"type":"Feature","properties":{"cadnum":"2320684502:01:003:0004"},"geometry":{"type":"Polygon","coordinates":[[[37.039126,46.885686],[37.039568,46.885913],[37.040171,46.885366],[37.039733,46.88514],[37.039126,46.885686]]]}},{"type":"Feature","properties":{"cadnum":"2320684502:01:004:0014"},"geometry":{"type":"Polygon","coordinates":[[[37.039739,46.885142],[37.039984,46.885269],[37.04038,46.88491],[37.040129,46.884786],[37.039739,46.885142]]]}}]}