{"type":"FeatureCollection","features":[{"type":"Feature","properties":{"cadnum":"2320682002:01:002:0021"},"geometry":{"type":"Polygon","coordinates":[[[36.49308,47.016894],[36.496263,47.016912],[36.496252,47.016685],[36.493117,47.016668],[36.49308,47.016894]]]}},{"type":"Feature","properties":{"cadnum":"2320682002:01:002:0015"},"geometry":{"type":"Polygon","coordinates":[[[36.495004,47.014801],[36.496299,47.014774],[36.4963,47.014626],[36.4963,47.014556],[36.495013,47.01456],[36.495004,47.014801]]]}},{"type":"Feature","properties":{"cadnum":"2320682002:01:002:0019"},"geometry":{"type":"Polygon","coordinates":[[[36.493146,47.015901],[36.495494,47.015926],[36.495486,47.015506],[36.495293,47.015484],[36.494542,47.015519],[36.49319,47.015485],[36.493146,47.015901]]]}},{"type":"Feature","properties":{"cadnum":"2320682002:01:002:0016"},"geometry":{"type":"Polygon","coordinates":[[[36.493315,47.014835],[36.495004,47.014801],[36.495013,47.01456],[36.49332,47.014566],[36.493315,47.014835]]]}},{"type":"Feature","properties":{"cadnum":"2320682002:01:005:0001"},"geometry":{"type":"Polygon","coordinates":[[[36.457394,46.969855],[36.457679,46.969869],[36.457691,46.969753],[36.457587,46.969748],[36.457584,46.969774],[36.457403,46.969765],[36.457394,46.969855]]]}},{"type":"Feature","properties":{"cadnum":"2320682002:01:001:0006"},"geometry":{"type":"Polygon","coordinates":[[[36.492877,47.025737],[36.495793,47.026002],[36.495842,47.025848],[36.49294,47.025585],[36.492877,47.025737]]]}},{"type":"Feature","properties":{"cadnum":"2320682002:01:001:0007"},"geometry":{"type":"Polygon","coordinates":[[[36.49294,47.025585],[36.495842,47.025848],[36.495866,47.025774],[36.492964,47.025524],[36.49294,47.025585]]]}},{"type":"Feature","properties":{"cadnum":"2320682002:01:003:0007"},"geometry":{"type":"Polygon","coordinates":[[[36.495583,47.013491],[36.495745,47.013562],[36.496496,47.013099],[36.49654,47.013072],[36.496668,47.012993],[36.496994,47.012791],[36.497116,47.012706],[36.496553,47.0124],[36.496421,47.012484],[36.496496,47.012524],[36.496525,47.012538],[36.496668,47.012613],[36.496716,47.012638],[36.496657,47.012683],[36.495583,47.013491]]]}},{"type":"Feature","properties":{"cadnum":"2320682002:01:003:0008"},"geometry":{"type":"Polygon","coordinates":[[[36.4964,47.012317],[36.496496,47.01237],[36.496592,47.012422],[36.496668,47.012463],[36.497116,47.012706],[36.497397,47.012538],[36.498099,47.012051],[36.498446,47.011802],[36.498366,47.011803],[36.497848,47.011748],[36.49698,47.01168],[36.496601,47.012097],[36.4964,47.012317]]]}},{"type":"Feature","properties":{"cadnum":"2320682002:01:003:0004"},"geometry":{"type":"Polygon","coordinates":[[[36.497848,47.011748],[36.497975,47.011762],[36.498366,47.011803],[36.498446,47.011802],[36.498498,47.011632],[36.498499,47.011632],[36.498681,47.01165],[36.498775,47.011611],[36.498924,47.011473],[36.497937,47.011369],[36.497848,47.011748]]]}},{"type":"Feature","properties":{"cadnum":"2320682002:01:003:0006"},"geometry":{"type":"Polygon","coordinates":[[[36.497329,47.011249],[36.497874,47.01132],[36.498928,47.011411],[36.498975,47.011425],[36.499331,47.011153],[36.499027,47.011035],[36.499008,47.01111],[36.497553,47.010865],[36.497329,47.011249]]]}},{"type":"Feature","properties":{"cadnum":"2320682002:01:003:0005"},"geometry":{"type":"Polygon","coordinates":[[[36.49698,47.01168],[36.497848,47.011748],[36.497937,47.011369],[36.498924,47.011473],[36.498975,47.011425],[36.498928,47.011411],[36.497874,47.01132],[36.497329,47.011249],[36.49698,47.01168]]]}},{"type":"Feature","properties":{"cadnum":"2320682002:01:001:0012"},"geometry":{"type":"Polygon","coordinates":[[[36.495549,47.021695],[36.495614,47.021711],[36.495863,47.021727],[36.496143,47.021731],[36.496145,47.02153],[36.49615,47.021232],[36.495556,47.021216],[36.495553,47.021448],[36.495552,47.021448],[36.495551,47.021549],[36.495551,47.021565],[36.495549,47.021695]]]}},{"type":"Feature","properties":{"cadnum":"2320682002:01:001:0003"},"geometry":{"type":"Polygon","coordinates":[[[36.494749,47.021042],[36.49574,47.02107],[36.495862,47.021029],[36.495865,47.020991],[36.49475,47.020951],[36.494749,47.021042]]]}},{"type":"Feature","properties":{"cadnum":"2320682002:01:001:0013"},"geometry":{"type":"Polygon","coordinates":[[[36.493707,47.02117],[36.493817,47.021379],[36.493855,47.021448],[36.493854,47.021448],[36.493906,47.021539],[36.493907,47.021539],[36.494259,47.021565],[36.49426,47.021565],[36.495332,47.021642],[36.495415,47.021662],[36.495549,47.021695],[36.495551,47.021549],[36.495556,47.021216],[36.49615,47.021232],[36.496156,47.021078],[36.49574,47.02107],[36.495158,47.021054],[36.4951,47.021188],[36.493707,47.02117]]]}},{"type":"Feature","properties":{"cadnum":"2320682002:01:001:0014"},"geometry":{"type":"Polygon","coordinates":[[[36.493707,47.02117],[36.4951,47.021188],[36.495158,47.021054],[36.494749,47.021042],[36.49475,47.020951],[36.493728,47.020917],[36.493707,47.02117]]]}},{"type":"Feature","properties":{"cadnum":"2320682002:01:001:0016"},"geometry":{"type":"Polygon","coordinates":[[[36.495213,47.01938],[36.49565,47.019386],[36.495975,47.01939],[36.496228,47.019387],[36.49624,47.019138],[36.495623,47.019076],[36.495229,47.019072],[36.495213,47.01938]]]}},{"type":"Feature","properties":{"cadnum":"2320682002:01:002:0001"},"geometry":{"type":"Polygon","coordinates":[[[36.495199,47.019958],[36.496193,47.019936],[36.496219,47.019645],[36.495226,47.019654],[36.495199,47.019958]]]}},{"type":"Feature","properties":{"cadnum":"2320682002:01:002:0002"},"geometry":{"type":"Polygon","coordinates":[[[36.494585,47.019659],[36.494695,47.019877],[36.494793,47.019967],[36.494793,47.019968],[36.494798,47.020268],[36.49619,47.020261],[36.496193,47.019936],[36.495199,47.019958],[36.495226,47.019654],[36.494585,47.019659]]]}},{"type":"Feature","properties":{"cadnum":"2320682002:01:001:0015"},"geometry":{"type":"Polygon","coordinates":[[[36.493916,47.018866],[36.494073,47.019366],[36.495213,47.01938],[36.495229,47.019072],[36.495623,47.019076],[36.495666,47.018879],[36.493916,47.018866]]]}},{"type":"Feature","properties":{"cadnum":"2320682002:01:002:0018"},"geometry":{"type":"Polygon","coordinates":[[[36.494073,47.019366],[36.494097,47.019595],[36.494175,47.019643],[36.494585,47.019659],[36.495111,47.019655],[36.495099,47.019379],[36.494073,47.019366]]]}},{"type":"Feature","properties":{"cadnum":"2320682002:01:002:0003"},"geometry":{"type":"Polygon","coordinates":[[[36.493268,47.017851],[36.493322,47.018046],[36.493794,47.018227],[36.496448,47.018259],[36.496447,47.017904],[36.493268,47.017851]]]}},{"type":"Feature","properties":{"cadnum":"2320682002:01:003:0002"},"geometry":{"type":"Polygon","coordinates":[[[36.493071,47.013473],[36.493907,47.013416],[36.493915,47.012933],[36.493181,47.01305],[36.493071,47.013473]]]}},{"type":"Feature","properties":{"cadnum":"2320682002:01:003:0003"},"geometry":{"type":"Polygon","coordinates":[[[36.493036,47.013032],[36.493789,47.013037],[36.493893,47.013035],[36.49421,47.013075],[36.494289,47.013142],[36.494354,47.013295],[36.494887,47.013288],[36.495087,47.012886],[36.494432,47.012884],[36.49366,47.012718],[36.493204,47.012678],[36.493036,47.013032]]]}},{"type":"Feature","properties":{"cadnum":"2320682002:01:001:0008"},"geometry":{"type":"Polygon","coordinates":[[[36.495317,47.024054],[36.495461,47.024059],[36.496127,47.024062],[36.496139,47.023699],[36.495329,47.02369],[36.495317,47.024054]]]}},{"type":"Feature","properties":{"cadnum":"2320682002:01:001:0010"},"geometry":{"type":"Polygon","coordinates":[[[36.492392,47.024666],[36.494301,47.024663],[36.494447,47.024701],[36.494769,47.024812],[36.49578,47.024885],[36.495598,47.024616],[36.495155,47.024602],[36.495217,47.024451],[36.492437,47.024387],[36.492399,47.024532],[36.492392,47.024666]]]}},{"type":"Feature","properties":{"cadnum":"2320682002:01:001:0009"},"geometry":{"type":"Polygon","coordinates":[[[36.492808,47.023982],[36.493776,47.024011],[36.495317,47.024054],[36.495329,47.02369],[36.49533,47.02369],[36.496139,47.023699],[36.496142,47.023543],[36.494619,47.023531],[36.493551,47.023493],[36.492808,47.023982]]]}},{"type":"Feature","properties":{"cadnum":"2320682002:01:001:0011"},"geometry":{"type":"Polygon","coordinates":[[[36.492437,47.024387],[36.495217,47.024451],[36.495223,47.024284],[36.49456,47.024266],[36.492521,47.024248],[36.492437,47.024387]]]}},{"type":"Feature","properties":{"cadnum":"2320682002:01:001:0004"},"geometry":{"type":"Polygon","coordinates":[[[36.492394,47.024704],[36.492402,47.024866],[36.495907,47.025106],[36.495881,47.024988],[36.49506,47.024887],[36.492394,47.024704]]]}},{"type":"Feature","properties":{"cadnum":"2320682002:01:002:0020"},"geometry":{"type":"Polygon","coordinates":[[[36.494283,47.021866],[36.494286,47.022066],[36.496143,47.021988],[36.496127,47.021817],[36.494283,47.021866]]]}},{"type":"Feature","properties":{"cadnum":"2320682002:01:001:0005"},"geometry":{"type":"Polygon","coordinates":[[[36.494037,47.022077],[36.494101,47.02236],[36.496139,47.022307],[36.496143,47.021988],[36.494037,47.022077]]]}}]}