{"type":"FeatureCollection","features":[{"type":"Feature","properties":{"cadnum":"2320988801:05:007:0005"},"geometry":{"type":"Polygon","coordinates":[[[35.410128,47.41772],[35.410475,47.418371],[35.410881,47.418279],[35.410538,47.417626],[35.410128,47.41772]]]}},{"type":"Feature","properties":{"cadnum":"2320988801:05:005:0004"},"geometry":{"type":"Polygon","coordinates":[[[35.413223,47.420146],[35.413332,47.420641],[35.413333,47.420646],[35.413357,47.420757],[35.413384,47.420877],[35.413765,47.420779],[35.413742,47.420669],[35.413624,47.420059],[35.413223,47.420146]]]}},{"type":"Feature","properties":{"cadnum":"2320988801:05:005:0002"},"geometry":{"type":"Polygon","coordinates":[[[35.410228,47.420698],[35.410248,47.420757],[35.410249,47.420757],[35.410279,47.420844],[35.410298,47.420899],[35.410342,47.421045],[35.410773,47.422282],[35.410953,47.42225],[35.410464,47.420838],[35.410426,47.420846],[35.410425,47.420846],[35.410409,47.420804],[35.410389,47.420757],[35.410389,47.420756],[35.410416,47.420751],[35.410392,47.420699],[35.410376,47.420665],[35.410228,47.420698]]]}},{"type":"Feature","properties":{"cadnum":"2320988801:05:005:0058"},"geometry":{"type":"Polygon","coordinates":[[[35.410381,47.419664],[35.410652,47.420393],[35.410895,47.42035],[35.410831,47.420179],[35.410804,47.420184],[35.410766,47.420085],[35.41078,47.420083],[35.410623,47.419625],[35.410381,47.419664]]]}},{"type":"Feature","properties":{"cadnum":"2320988801:05:007:0068"},"geometry":{"type":"Polygon","coordinates":[[[35.413568,47.417812],[35.413836,47.418377],[35.414131,47.418358],[35.413845,47.417751],[35.413568,47.417812]]]}},{"type":"Feature","properties":{"cadnum":"2320988801:05:007:0006"},"geometry":{"type":"Polygon","coordinates":[[[35.409259,47.416147],[35.409353,47.416315],[35.409362,47.416333],[35.409688,47.416924],[35.410128,47.41772],[35.410538,47.417626],[35.410219,47.417041],[35.410219,47.41704],[35.41022,47.41704],[35.409772,47.416216],[35.409763,47.416199],[35.409673,47.416031],[35.409259,47.416147]]]}},{"type":"Feature","properties":{"cadnum":"2320988801:05:005:0059"},"geometry":{"type":"Polygon","coordinates":[[[35.411494,47.417373],[35.411891,47.417985],[35.41273,47.417764],[35.412542,47.417454],[35.412342,47.417128],[35.411494,47.417373]]]}},{"type":"Feature","properties":{"cadnum":"2320988801:05:005:0008"},"geometry":{"type":"Polygon","coordinates":[[[35.414037,47.417614],[35.414312,47.418236],[35.414319,47.418252],[35.414515,47.418208],[35.414934,47.418113],[35.414965,47.418163],[35.415091,47.418373],[35.415429,47.418278],[35.415412,47.418249],[35.415385,47.418207],[35.415307,47.418084],[35.415266,47.418018],[35.414924,47.417473],[35.414379,47.417547],[35.414273,47.41756],[35.414037,47.417614]]]}},{"type":"Feature","properties":{"cadnum":"2320988801:05:005:0015"},"geometry":{"type":"Polygon","coordinates":[[[35.409001,47.417952],[35.409441,47.418657],[35.409441,47.418658],[35.409797,47.418566],[35.409366,47.417851],[35.409001,47.417952]]]}},{"type":"Feature","properties":{"cadnum":"2320988801:05:005:0016"},"geometry":{"type":"Polygon","coordinates":[[[35.408197,47.416662],[35.408359,47.416924],[35.40841,47.417007],[35.408431,47.41704],[35.40885,47.41771],[35.409001,47.417952],[35.409021,47.417947],[35.409366,47.417851],[35.40885,47.416991],[35.408587,47.416552],[35.408197,47.416662]]]}},{"type":"Feature","properties":{"cadnum":"2320988801:05:005:0038"},"geometry":{"type":"Polygon","coordinates":[[[35.417229,47.420263],[35.417454,47.420757],[35.417455,47.420757],[35.417839,47.421595],[35.418376,47.421476],[35.417961,47.420646],[35.417718,47.420157],[35.417229,47.420263]]]}},{"type":"Feature","properties":{"cadnum":"2320988801:05:005:1113"},"geometry":{"type":"Polygon","coordinates":[[[35.415959,47.420641],[35.416006,47.420757],[35.416007,47.420757],[35.416086,47.420951],[35.416332,47.42093],[35.416248,47.420665],[35.416232,47.420615],[35.415959,47.420641]]]}},{"type":"Feature","properties":{"cadnum":"2320988801:05:005:0039"},"geometry":{"type":"Polygon","coordinates":[[[35.418907,47.418882],[35.419102,47.419104],[35.419191,47.419072],[35.419813,47.419804],[35.419836,47.419796],[35.419999,47.41974],[35.420008,47.419736],[35.420047,47.419723],[35.419993,47.419663],[35.419199,47.418772],[35.418907,47.418882]]]}},{"type":"Feature","properties":{"cadnum":"2320988801:05:005:0001"},"geometry":{"type":"Polygon","coordinates":[[[35.419412,47.41864],[35.420008,47.419373],[35.420008,47.419372],[35.420162,47.419561],[35.420358,47.419501],[35.419862,47.418834],[35.419636,47.418555],[35.419412,47.41864]]]}},{"type":"Feature","properties":{"cadnum":"2320988801:05:005:0067"},"geometry":{"type":"Polygon","coordinates":[[[35.425196,47.417795],[35.425329,47.417859],[35.425329,47.41786],[35.425449,47.417918],[35.425475,47.417834],[35.425223,47.41771],[35.425196,47.417795]]]}},{"type":"Feature","properties":{"cadnum":"2320988801:05:005:0040"},"geometry":{"type":"Polygon","coordinates":[[[35.419813,47.419804],[35.419836,47.41983],[35.419836,47.419831],[35.41998,47.419999],[35.420008,47.41999],[35.420008,47.419989],[35.42022,47.419916],[35.420047,47.419723],[35.419999,47.41974],[35.419813,47.419804]]]}},{"type":"Feature","properties":{"cadnum":"2320988801:05:005:0010"},"geometry":{"type":"Polygon","coordinates":[[[35.421896,47.419377],[35.422074,47.419387],[35.422394,47.419394],[35.422553,47.419378],[35.422394,47.418781],[35.421897,47.418817],[35.421896,47.419377]]]}},{"type":"Feature","properties":{"cadnum":"2320988801:05:005:0042"},"geometry":{"type":"Polygon","coordinates":[[[35.42429,47.417226],[35.42488,47.4173],[35.424883,47.41717],[35.424291,47.417154],[35.42429,47.417226]]]}},{"type":"Feature","properties":{"cadnum":"2320988801:05:005:0009"},"geometry":{"type":"Polygon","coordinates":[[[35.421857,47.418079],[35.421897,47.418424],[35.421897,47.418817],[35.422394,47.418781],[35.422314,47.418483],[35.422271,47.418343],[35.422273,47.418292],[35.422194,47.41812],[35.422141,47.41807],[35.422093,47.418063],[35.421857,47.418079]]]}},{"type":"Feature","properties":{"cadnum":"2320988801:05:005:0041"},"geometry":{"type":"Polygon","coordinates":[[[35.424291,47.417154],[35.424883,47.41717],[35.424887,47.416991],[35.424895,47.416662],[35.424617,47.416653],[35.424299,47.416671],[35.424295,47.416924],[35.424294,47.416924],[35.424291,47.417154]]]}},{"type":"Feature","properties":{"cadnum":"2320988801:05:007:0002"},"geometry":{"type":"Polygon","coordinates":[[[35.414611,47.416259],[35.414869,47.416693],[35.415447,47.416534],[35.415188,47.4161],[35.414611,47.416259]]]}},{"type":"Feature","properties":{"cadnum":"2320988801:05:007:0001"},"geometry":{"type":"Polygon","coordinates":[[[35.414972,47.416889],[35.414993,47.416924],[35.414992,47.416924],[35.41505,47.417019],[35.415182,47.416982],[35.415393,47.416924],[35.415479,47.416901],[35.415402,47.416771],[35.414972,47.416889]]]}},{"type":"Feature","properties":{"cadnum":"2320988801:05:007:0066"},"geometry":{"type":"Polygon","coordinates":[[[35.415056,47.417078],[35.415239,47.417386],[35.416149,47.41714],[35.416077,47.417018],[35.416022,47.416923],[35.416019,47.416924],[35.416018,47.416924],[35.415705,47.417009],[35.415587,47.41704],[35.415587,47.417041],[35.415221,47.417139],[35.415168,47.417048],[35.415056,47.417078]]]}},{"type":"Feature","properties":{"cadnum":"2320988801:05:005:0043"},"geometry":{"type":"Polygon","coordinates":[[[35.425974,47.417766],[35.426271,47.417778],[35.426326,47.416924],[35.426325,47.416924],[35.426336,47.41676],[35.426056,47.41673],[35.42604,47.416924],[35.426037,47.416961],[35.426031,47.41704],[35.426031,47.417041],[35.425974,47.417766]]]}},{"type":"Feature","properties":{"cadnum":"2320988801:05:005:0054"},"geometry":{"type":"Polygon","coordinates":[[[35.425398,47.415509],[35.425501,47.415923],[35.425599,47.416316],[35.425933,47.416285],[35.425804,47.415502],[35.425398,47.415509]]]}},{"type":"Feature","properties":{"cadnum":"2320988801:05:005:0055"},"geometry":{"type":"Polygon","coordinates":[[[35.42534,47.415281],[35.425398,47.415509],[35.425501,47.415508],[35.425501,47.415507],[35.425804,47.415502],[35.425766,47.415274],[35.42534,47.415281]]]}},{"type":"Feature","properties":{"cadnum":"2320988801:05:005:0056"},"geometry":{"type":"Polygon","coordinates":[[[35.424981,47.415882],[35.425073,47.416366],[35.425501,47.416327],[35.425533,47.416324],[35.425418,47.415865],[35.424981,47.415882]]]}},{"type":"Feature","properties":{"cadnum":"2320988801:05:002:0001"},"geometry":{"type":"Polygon","coordinates":[[[35.429641,47.416927],[35.429689,47.41704],[35.42969,47.41704],[35.42969,47.417041],[35.42974,47.417158],[35.430771,47.417376],[35.430822,47.417371],[35.430822,47.417372],[35.430894,47.417364],[35.430994,47.417354],[35.431119,47.417341],[35.431383,47.417325],[35.431808,47.417293],[35.431767,47.41693],[35.430994,47.416929],[35.429641,47.416927]]]}},{"type":"Feature","properties":{"cadnum":"2320988801:05:005:0087"},"geometry":{"type":"Polygon","coordinates":[[[35.401279,47.420011],[35.401549,47.420634],[35.401997,47.420529],[35.401712,47.419922],[35.401279,47.420011]]]}},{"type":"Feature","properties":{"cadnum":"2320988801:05:005:0088"},"geometry":{"type":"Polygon","coordinates":[[[35.400575,47.418481],[35.401197,47.419824],[35.401279,47.420011],[35.401712,47.419922],[35.400994,47.418393],[35.400575,47.418481]]]}},{"type":"Feature","properties":{"cadnum":"2320988801:05:007:0049"},"geometry":{"type":"Polygon","coordinates":[[[35.402331,47.419677],[35.402709,47.420338],[35.403107,47.42024],[35.402855,47.41981],[35.402754,47.41963],[35.402728,47.41958],[35.402331,47.419677]]]}},{"type":"Feature","properties":{"cadnum":"2320988801:05:007:1047"},"geometry":{"type":"Polygon","coordinates":[[[35.401963,47.418133],[35.40271,47.419548],[35.40309,47.419465],[35.402285,47.418066],[35.401963,47.418133]]]}},{"type":"Feature","properties":{"cadnum":"2320988801:05:005:0046"},"geometry":{"type":"Polygon","coordinates":[[[35.403422,47.418076],[35.403528,47.418249],[35.404126,47.419225],[35.404492,47.419122],[35.4038,47.417971],[35.403422,47.418076]]]}},{"type":"Feature","properties":{"cadnum":"2320988801:05:007:1049"},"geometry":{"type":"Polygon","coordinates":[[[35.401699,47.418485],[35.402331,47.419677],[35.402728,47.41958],[35.402099,47.418388],[35.401699,47.418485]]]}},{"type":"Feature","properties":{"cadnum":"2320988801:05:007:0047"},"geometry":{"type":"Polygon","coordinates":[[[35.40271,47.419548],[35.402754,47.41963],[35.402855,47.41981],[35.403107,47.42024],[35.403356,47.420178],[35.403357,47.420178],[35.403488,47.420145],[35.40313,47.419536],[35.40309,47.419465],[35.40271,47.419548]]]}},{"type":"Feature","properties":{"cadnum":"2320988801:05:005:0028"},"geometry":{"type":"Polygon","coordinates":[[[35.405068,47.422338],[35.405096,47.42247],[35.405535,47.422405],[35.405508,47.422274],[35.405068,47.422338]]]}},{"type":"Feature","properties":{"cadnum":"2320988801:05:005:0032"},"geometry":{"type":"Polygon","coordinates":[[[35.407488,47.421944],[35.407548,47.422106],[35.407859,47.422957],[35.408284,47.422899],[35.407938,47.421883],[35.407488,47.421944]]]}},{"type":"Feature","properties":{"cadnum":"2320988801:05:005:0029"},"geometry":{"type":"Polygon","coordinates":[[[35.406913,47.421383],[35.407149,47.422139],[35.407548,47.422106],[35.407488,47.421944],[35.407263,47.421329],[35.406913,47.421383]]]}},{"type":"Feature","properties":{"cadnum":"2320988801:05:005:0027"},"geometry":{"type":"Polygon","coordinates":[[[35.40493,47.421692],[35.405068,47.422338],[35.405508,47.422274],[35.405383,47.421625],[35.40493,47.421692]]]}},{"type":"Feature","properties":{"cadnum":"2320988801:05:005:0069"},"geometry":{"type":"Polygon","coordinates":[[[35.405383,47.421625],[35.405502,47.42224],[35.405859,47.422188],[35.40574,47.42157],[35.405383,47.421625]]]}},{"type":"Feature","properties":{"cadnum":"2320988801:05:005:0031"},"geometry":{"type":"Polygon","coordinates":[[[35.407263,47.421329],[35.407488,47.421944],[35.407938,47.421883],[35.407739,47.421303],[35.407761,47.4213],[35.407746,47.421254],[35.407263,47.421329]]]}},{"type":"Feature","properties":{"cadnum":"2320988801:05:005:0006"},"geometry":{"type":"Polygon","coordinates":[[[35.404483,47.421725],[35.404672,47.422262],[35.405028,47.422204],[35.404845,47.421669],[35.404483,47.421725]]]}},{"type":"Feature","properties":{"cadnum":"2320988801:05:005:0030"},"geometry":{"type":"Polygon","coordinates":[[[35.407149,47.422139],[35.407574,47.423288],[35.407957,47.423243],[35.407859,47.422957],[35.407548,47.422106],[35.407149,47.422139]]]}},{"type":"Feature","properties":{"cadnum":"2320988801:05:005:0053"},"geometry":{"type":"Polygon","coordinates":[[[35.40357,47.421982],[35.403762,47.422432],[35.404046,47.422345],[35.403885,47.421925],[35.40357,47.421982]]]}},{"type":"Feature","properties":{"cadnum":"2320988801:05:005:0035"},"geometry":{"type":"Polygon","coordinates":[[[35.408481,47.421103],[35.40885,47.421805],[35.40885,47.421806],[35.409009,47.422109],[35.409021,47.422107],[35.409286,47.422048],[35.408903,47.421352],[35.408738,47.42105],[35.408481,47.421103]]]}},{"type":"Feature","properties":{"cadnum":"2320988801:05:005:0003"},"geometry":{"type":"Polygon","coordinates":[[[35.410746,47.422302],[35.410888,47.422713],[35.411071,47.422687],[35.410926,47.422271],[35.410746,47.422302]]]}},{"type":"Feature","properties":{"cadnum":"2320988801:05:005:0048"},"geometry":{"type":"Polygon","coordinates":[[[35.409224,47.421611],[35.409241,47.421648],[35.409383,47.421877],[35.40932,47.421895],[35.409381,47.422009],[35.409475,47.422186],[35.409947,47.422068],[35.409876,47.421886],[35.409736,47.421551],[35.40972,47.421514],[35.409224,47.421611]]]}},{"type":"Feature","properties":{"cadnum":"2320988801:05:005:0005"},"geometry":{"type":"Polygon","coordinates":[[[35.413384,47.420877],[35.413434,47.421105],[35.413743,47.422291],[35.414051,47.422231],[35.413765,47.420779],[35.413384,47.420877]]]}},{"type":"Feature","properties":{"cadnum":"2320988801:05:005:0007"},"geometry":{"type":"Polygon","coordinates":[[[35.40918,47.420931],[35.409334,47.421303],[35.409417,47.421514],[35.409683,47.421474],[35.409589,47.421241],[35.409554,47.421148],[35.409487,47.421014],[35.409477,47.421017],[35.409409,47.420881],[35.40918,47.420931]]]}},{"type":"Feature","properties":{"cadnum":"2320988801:05:005:0036"},"geometry":{"type":"Polygon","coordinates":[[[35.409009,47.422109],[35.409501,47.423042],[35.409797,47.422977],[35.409286,47.422048],[35.409009,47.422109]]]}},{"type":"Feature","properties":{"cadnum":"2320988801:05:005:0018"},"geometry":{"type":"Polygon","coordinates":[[[35.407242,47.416925],[35.40731,47.41704],[35.407311,47.41704],[35.407311,47.417041],[35.408006,47.418193],[35.408362,47.418093],[35.407676,47.416933],[35.407611,47.416822],[35.407245,47.416924],[35.407244,47.416924],[35.407242,47.416925]]]}},{"type":"Feature","properties":{"cadnum":"2320988801:05:005:0020"},"geometry":{"type":"Polygon","coordinates":[[[35.406359,47.416993],[35.406389,47.41704],[35.40639,47.41704],[35.40727,47.418416],[35.407639,47.418313],[35.40678,47.416971],[35.406729,47.41689],[35.406398,47.416982],[35.406359,47.416993]]]}},{"type":"Feature","properties":{"cadnum":"2320988801:05:005:0037"},"geometry":{"type":"Polygon","coordinates":[[[35.4169,47.419548],[35.417229,47.420263],[35.417718,47.420157],[35.417504,47.419728],[35.417234,47.41979],[35.417179,47.419687],[35.417229,47.419675],[35.417134,47.419497],[35.4169,47.419548]]]}},{"type":"Feature","properties":{"cadnum":"2320988801:05:005:0113"},"geometry":{"type":"Polygon","coordinates":[[[35.415587,47.419718],[35.415696,47.419997],[35.415959,47.420641],[35.416232,47.420615],[35.416025,47.41995],[35.415892,47.419678],[35.415587,47.419718]]]}},{"type":"Feature","properties":{"cadnum":"2320988801:05:005:0044"},"geometry":{"type":"Polygon","coordinates":[[[35.425949,47.418085],[35.426251,47.418096],[35.426271,47.417778],[35.425974,47.417766],[35.425949,47.418085]]]}},{"type":"Feature","properties":{"cadnum":"2320988801:05:005:0047"},"geometry":{"type":"Polygon","coordinates":[[[35.432627,47.415194],[35.43287,47.416033],[35.433255,47.41599],[35.433003,47.415138],[35.432628,47.415194],[35.432627,47.415194]]]}},{"type":"Feature","properties":{"cadnum":"2320988801:05:005:0079"},"geometry":{"type":"Polygon","coordinates":[[[35.435448,47.414965],[35.435504,47.415551],[35.435928,47.415512],[35.435861,47.414942],[35.435448,47.414965]]]}},{"type":"Feature","properties":{"cadnum":"2320988801:05:005:0078"},"geometry":{"type":"Polygon","coordinates":[[[35.435504,47.415551],[35.435569,47.416235],[35.436008,47.416194],[35.435928,47.415512],[35.435504,47.415551]]]}},{"type":"Feature","properties":{"cadnum":"2320988801:05:005:0051"},"geometry":{"type":"Polygon","coordinates":[[[35.402371,47.422205],[35.402656,47.422886],[35.403084,47.422785],[35.403007,47.422605],[35.402721,47.422121],[35.402371,47.422205]]]}},{"type":"Feature","properties":{"cadnum":"2320988801:05:005:0068"},"geometry":{"type":"Polygon","coordinates":[[[35.39839,47.422898],[35.398747,47.422921],[35.398817,47.422326],[35.398462,47.422298],[35.39839,47.422898]]]}},{"type":"Feature","properties":{"cadnum":"2320988801:05:005:0052"},"geometry":{"type":"Polygon","coordinates":[[[35.402656,47.422886],[35.40271,47.423012],[35.403138,47.422912],[35.403084,47.422785],[35.402656,47.422886]]]}},{"type":"Feature","properties":{"cadnum":"2320988801:05:005:0060"},"geometry":{"type":"Polygon","coordinates":[[[35.399238,47.423133],[35.399607,47.423144],[35.399631,47.42296],[35.399673,47.422635],[35.399706,47.422391],[35.39938,47.422359],[35.399331,47.422604],[35.399269,47.42295],[35.399238,47.423133]]]}},{"type":"Feature","properties":{"cadnum":"2320988801:05:005:0025"},"geometry":{"type":"Polygon","coordinates":[[[35.398059,47.421386],[35.398079,47.422003],[35.398555,47.42201],[35.39855,47.421393],[35.398059,47.421386]]]}},{"type":"Feature","properties":{"cadnum":"2320988801:05:005:0026"},"geometry":{"type":"Polygon","coordinates":[[[35.39804,47.420832],[35.398059,47.421386],[35.39855,47.421393],[35.398546,47.421074],[35.398545,47.420892],[35.39804,47.420832]]]}},{"type":"Feature","properties":{"cadnum":"2320988801:05:005:0045"},"geometry":{"type":"Polygon","coordinates":[[[35.398546,47.421074],[35.39855,47.421393],[35.398555,47.42201],[35.398954,47.422008],[35.398912,47.42107],[35.398546,47.421074]]]}},{"type":"Feature","properties":{"cadnum":"2320988801:05:001:0001"},"geometry":{"type":"Polygon","coordinates":[[[35.387865,47.4244],[35.388502,47.424416],[35.389738,47.424446],[35.389773,47.42411],[35.38789,47.423965],[35.387868,47.424358],[35.387867,47.424358],[35.387865,47.4244]]]}},{"type":"Feature","properties":{"cadnum":"2320988801:05:007:0027"},"geometry":{"type":"Polygon","coordinates":[[[35.406188,47.418646],[35.406595,47.419444],[35.406967,47.419437],[35.406555,47.418638],[35.406188,47.418646]]]}},{"type":"Feature","properties":{"cadnum":"2320988801:05:005:0019"},"geometry":{"type":"Polygon","coordinates":[[[35.40727,47.418416],[35.407708,47.4191],[35.408079,47.419003],[35.407639,47.418313],[35.40727,47.418416]]]}},{"type":"Feature","properties":{"cadnum":"2320988801:05:005:0023"},"geometry":{"type":"Polygon","coordinates":[[[35.404126,47.419225],[35.404554,47.419923],[35.404918,47.419829],[35.404492,47.419122],[35.404126,47.419225]]]}},{"type":"Feature","properties":{"cadnum":"2320988801:05:005:0017"},"geometry":{"type":"Polygon","coordinates":[[[35.408006,47.418193],[35.408441,47.418913],[35.408795,47.418825],[35.408362,47.418093],[35.408006,47.418193]]]}},{"type":"Feature","properties":{"cadnum":"2320988801:05:007:1027"},"geometry":{"type":"Polygon","coordinates":[[[35.405608,47.417531],[35.406188,47.418646],[35.406555,47.418638],[35.405989,47.417517],[35.405608,47.417531]]]}},{"type":"Feature","properties":{"cadnum":"2320988801:05:005:0022"},"geometry":{"type":"Polygon","coordinates":[[[35.404539,47.417623],[35.40523,47.418914],[35.405591,47.418822],[35.404908,47.417528],[35.404539,47.417623]]]}},{"type":"Feature","properties":{"cadnum":"2320988801:05:005:0049"},"geometry":{"type":"Polygon","coordinates":[[[35.404788,47.419082],[35.405184,47.419759],[35.40558,47.419671],[35.405198,47.419016],[35.404788,47.419082]]]}},{"type":"Feature","properties":{"cadnum":"2320988801:05:005:0021"},"geometry":{"type":"Polygon","coordinates":[[[35.40523,47.418914],[35.405623,47.419648],[35.405977,47.419557],[35.405591,47.418822],[35.40523,47.418914]]]}},{"type":"Feature","properties":{"cadnum":"2320988801:05:005:0033"},"geometry":{"type":"Polygon","coordinates":[[[35.4229,47.41563],[35.423281,47.416505],[35.423574,47.416451],[35.423241,47.415569],[35.4229,47.41563]]]}},{"type":"Feature","properties":{"cadnum":"2320988801:05:005:0034"},"geometry":{"type":"Polygon","coordinates":[[[35.422737,47.415252],[35.4229,47.41563],[35.423241,47.415569],[35.423098,47.415187],[35.422737,47.415252]]]}},{"type":"Feature","properties":{"cadnum":"2320988801:05:005:0014"},"geometry":{"type":"Polygon","coordinates":[[[35.431041,47.417597],[35.431544,47.418535],[35.432016,47.418439],[35.431579,47.417488],[35.431041,47.417597]]]}},{"type":"Feature","properties":{"cadnum":"2320988801:05:005:0013"},"geometry":{"type":"Polygon","coordinates":[[[35.431544,47.418535],[35.431866,47.419133],[35.432294,47.41904],[35.432016,47.418439],[35.431544,47.418535]]]}}]}