{"type":"FeatureCollection","features":[{"type":"Feature","properties":{"cadnum":"2320988808:10:003:0039"},"geometry":{"type":"Polygon","coordinates":[[[35.524018,47.471333],[35.524206,47.471357],[35.524321,47.471371],[35.524378,47.471378],[35.524733,47.47142],[35.524791,47.471098],[35.524317,47.47104],[35.524022,47.471004],[35.52402,47.471014],[35.52406,47.471018],[35.524018,47.471333]]]}},{"type":"Feature","properties":{"cadnum":"2320988808:10:003:0007"},"geometry":{"type":"Polygon","coordinates":[[[35.527827,47.471417],[35.52835,47.47147],[35.528453,47.470899],[35.527933,47.470861],[35.527827,47.471417]]]}},{"type":"Feature","properties":{"cadnum":"2320988808:10:003:0038"},"geometry":{"type":"Polygon","coordinates":[[[35.524022,47.471004],[35.524206,47.471027],[35.524317,47.47104],[35.524378,47.471048],[35.524791,47.471098],[35.524862,47.470704],[35.524315,47.470659],[35.524087,47.470639],[35.524022,47.471004]]]}},{"type":"Feature","properties":{"cadnum":"2320988808:10:003:0036"},"geometry":{"type":"Polygon","coordinates":[[[35.528854,47.471585],[35.529516,47.471488],[35.529571,47.471159],[35.529552,47.471124],[35.529506,47.471104],[35.529467,47.471093],[35.528935,47.471047],[35.528854,47.471585]]]}},{"type":"Feature","properties":{"cadnum":"2320988808:10:003:0037"},"geometry":{"type":"Polygon","coordinates":[[[35.528676,47.472766],[35.528677,47.472766],[35.528676,47.472771],[35.529199,47.472694],[35.529326,47.472621],[35.529516,47.471488],[35.528854,47.471585],[35.528694,47.47265],[35.528693,47.47265],[35.528692,47.472663],[35.528676,47.472766]]]}},{"type":"Feature","properties":{"cadnum":"2320988808:10:003:0008"},"geometry":{"type":"Polygon","coordinates":[[[35.52758,47.472695],[35.527682,47.472708],[35.528115,47.472762],[35.52835,47.47147],[35.527827,47.471417],[35.527589,47.47265],[35.527588,47.47265],[35.52758,47.472695]]]}},{"type":"Feature","properties":{"cadnum":"2320988808:10:003:1016"},"geometry":{"type":"Polygon","coordinates":[[[35.525651,47.469618],[35.526061,47.469656],[35.526207,47.468937],[35.526207,47.468936],[35.526255,47.468703],[35.525845,47.468664],[35.525765,47.469053],[35.525651,47.469618]]]}},{"type":"Feature","properties":{"cadnum":"2320988808:10:003:0020"},"geometry":{"type":"Polygon","coordinates":[[[35.524756,47.47026],[35.525082,47.47029],[35.525264,47.469393],[35.524938,47.469362],[35.524756,47.47026]]]}},{"type":"Feature","properties":{"cadnum":"2320988808:10:003:1022"},"geometry":{"type":"Polygon","coordinates":[[[35.524254,47.469717],[35.524378,47.469729],[35.524855,47.469773],[35.525001,47.469053],[35.525095,47.468594],[35.524495,47.468538],[35.524494,47.468538],[35.524389,47.469053],[35.524254,47.469717]]]}},{"type":"Feature","properties":{"cadnum":"2320988808:10:003:0035"},"geometry":{"type":"Polygon","coordinates":[[[35.528867,47.470699],[35.529386,47.470746],[35.529528,47.469783],[35.529018,47.469738],[35.528867,47.470699]]]}},{"type":"Feature","properties":{"cadnum":"2320988808:10:003:0025"},"geometry":{"type":"Polygon","coordinates":[[[35.527822,47.470664],[35.528144,47.470692],[35.528279,47.469759],[35.527969,47.469733],[35.527822,47.470664]]]}},{"type":"Feature","properties":{"cadnum":"2320988808:10:003:0034"},"geometry":{"type":"Polygon","coordinates":[[[35.529018,47.469738],[35.529528,47.469783],[35.529613,47.469201],[35.529109,47.469158],[35.529018,47.469738]]]}},{"type":"Feature","properties":{"cadnum":"2320988808:10:003:0016"},"geometry":{"type":"Polygon","coordinates":[[[35.525506,47.47033],[35.525916,47.470369],[35.526061,47.469656],[35.525651,47.469618],[35.525506,47.47033]]]}},{"type":"Feature","properties":{"cadnum":"2320988808:10:003:1020"},"geometry":{"type":"Polygon","coordinates":[[[35.524938,47.469362],[35.525264,47.469393],[35.525357,47.468937],[35.525357,47.468936],[35.525421,47.468624],[35.525095,47.468594],[35.525025,47.468936],[35.525025,47.468937],[35.525024,47.468937],[35.524938,47.469362]]]}},{"type":"Feature","properties":{"cadnum":"2320988808:10:003:0026"},"geometry":{"type":"Polygon","coordinates":[[[35.527971,47.469732],[35.52828,47.469757],[35.528376,47.469099],[35.528075,47.469074],[35.527971,47.469732]]]}},{"type":"Feature","properties":{"cadnum":"2320988808:10:003:0022"},"geometry":{"type":"Polygon","coordinates":[[[35.524155,47.470204],[35.524206,47.470209],[35.524756,47.47026],[35.524855,47.469773],[35.524254,47.469717],[35.524155,47.470204]]]}},{"type":"Feature","properties":{"cadnum":"2320988808:10:001:0046"},"geometry":{"type":"Polygon","coordinates":[[[35.54601,47.475262],[35.546096,47.475724],[35.546179,47.47571],[35.546196,47.475707],[35.54635,47.475682],[35.546351,47.475682],[35.546797,47.475609],[35.546687,47.475226],[35.546351,47.475245],[35.54635,47.475245],[35.54635,47.475244],[35.54601,47.475262]]]}},{"type":"Feature","properties":{"cadnum":"2320988808:10:001:0047"},"geometry":{"type":"Polygon","coordinates":[[[35.545846,47.474387],[35.54601,47.475262],[35.546179,47.475253],[35.546179,47.475254],[35.546687,47.475226],[35.546438,47.474355],[35.546179,47.474369],[35.546179,47.47437],[35.545846,47.474387]]]}},{"type":"Feature","properties":{"cadnum":"2320988808:10:003:1066"},"geometry":{"type":"Polygon","coordinates":[[[35.540246,47.474407],[35.540686,47.474426],[35.540782,47.47443],[35.540857,47.474434],[35.541077,47.474443],[35.541154,47.473626],[35.540686,47.473597],[35.540295,47.473573],[35.540246,47.474407]]]}},{"type":"Feature","properties":{"cadnum":"2320988808:10:003:0024"},"geometry":{"type":"Polygon","coordinates":[[[35.54031,47.472242],[35.540632,47.472283],[35.540668,47.472022],[35.540349,47.471981],[35.54031,47.472242]]]}},{"type":"Feature","properties":{"cadnum":"2320988808:10:003:0023"},"geometry":{"type":"Polygon","coordinates":[[[35.540172,47.473143],[35.540511,47.473161],[35.540581,47.472654],[35.540632,47.472283],[35.54031,47.472242],[35.540248,47.47265],[35.540247,47.47265],[35.540172,47.473143]]]}},{"type":"Feature","properties":{"cadnum":"2320988808:10:003:0017"},"geometry":{"type":"Polygon","coordinates":[[[35.539307,47.473091],[35.539744,47.473119],[35.539856,47.47279],[35.539876,47.47265],[35.539875,47.47265],[35.539886,47.472576],[35.539409,47.472546],[35.539389,47.47265],[35.539312,47.47306],[35.539307,47.473091]]]}},{"type":"Feature","properties":{"cadnum":"2320988808:10:003:0006"},"geometry":{"type":"Polygon","coordinates":[[[35.536306,47.472596],[35.537219,47.47265],[35.537349,47.471862],[35.536467,47.471773],[35.536306,47.472596]]]}},{"type":"Feature","properties":{"cadnum":"2320988808:10:003:0015"},"geometry":{"type":"Polygon","coordinates":[[[35.539409,47.472546],[35.539886,47.472576],[35.539975,47.471939],[35.53953,47.471903],[35.539409,47.472546]]]}},{"type":"Feature","properties":{"cadnum":"2320988808:10:003:0005"},"geometry":{"type":"Polygon","coordinates":[[[35.53624,47.472928],[35.536279,47.47292],[35.537165,47.472972],[35.537219,47.47265],[35.536306,47.472596],[35.536271,47.472766],[35.536272,47.472766],[35.53624,47.472928]]]}},{"type":"Feature","properties":{"cadnum":"2320988808:10:001:0001"},"geometry":{"type":"Polygon","coordinates":[[[35.51513,47.472943],[35.515882,47.473048],[35.515741,47.472718],[35.515651,47.472508],[35.515481,47.47265],[35.515426,47.472695],[35.515341,47.472766],[35.51513,47.472943]]]}},{"type":"Feature","properties":{"cadnum":"2320988808:10:003:0002"},"geometry":{"type":"Polygon","coordinates":[[[35.512742,47.4694],[35.513185,47.469474],[35.51322,47.469381],[35.51322,47.469382],[35.513343,47.469053],[35.513391,47.468926],[35.513391,47.468925],[35.513392,47.468925],[35.513426,47.468832],[35.513293,47.46881],[35.512977,47.468756],[35.512911,47.468937],[35.51291,47.468937],[35.512742,47.4694]]]}},{"type":"Feature","properties":{"cadnum":"2320988808:10:001:0003"},"geometry":{"type":"Polygon","coordinates":[[[35.508546,47.470978],[35.509184,47.471037],[35.50927,47.470579],[35.508624,47.470524],[35.508546,47.470978]]]}},{"type":"Feature","properties":{"cadnum":"2320988808:10:001:0004"},"geometry":{"type":"Polygon","coordinates":[[[35.508436,47.471624],[35.509065,47.471688],[35.509184,47.471037],[35.508546,47.470978],[35.508436,47.471624]]]}},{"type":"Feature","properties":{"cadnum":"2320988808:10:001:0012"},"geometry":{"type":"Polygon","coordinates":[[[35.546852,47.476189],[35.546965,47.476363],[35.547025,47.476455],[35.547026,47.476458],[35.547036,47.476479],[35.547037,47.476479],[35.547288,47.476994],[35.547603,47.477684],[35.548621,47.477315],[35.548456,47.476941],[35.54819,47.476363],[35.548149,47.476272],[35.548024,47.476035],[35.546852,47.476189]]]}},{"type":"Feature","properties":{"cadnum":"2320988808:10:001:0039"},"geometry":{"type":"Polygon","coordinates":[[[35.548659,47.476024],[35.548802,47.476363],[35.548831,47.476431],[35.548852,47.476479],[35.549006,47.476837],[35.549656,47.476724],[35.549507,47.476363],[35.549321,47.475909],[35.548659,47.476024]]]}},{"type":"Feature","properties":{"cadnum":"2320988808:10:001:0011"},"geometry":{"type":"Polygon","coordinates":[[[35.546733,47.476002],[35.546852,47.476189],[35.548024,47.476035],[35.547877,47.475753],[35.546733,47.476002]]]}},{"type":"Feature","properties":{"cadnum":"2320988808:10:001:0038"},"geometry":{"type":"Polygon","coordinates":[[[35.548486,47.47562],[35.548659,47.476024],[35.549321,47.475909],[35.549143,47.475477],[35.548486,47.47562]]]}},{"type":"Feature","properties":{"cadnum":"2320988808:10:001:0033"},"geometry":{"type":"Polygon","coordinates":[[[35.547877,47.475753],[35.548149,47.476272],[35.548243,47.476479],[35.548244,47.476479],[35.548456,47.476941],[35.548561,47.477179],[35.549112,47.477084],[35.548822,47.47641],[35.548486,47.47562],[35.547877,47.475753]]]}},{"type":"Feature","properties":{"cadnum":"2320988808:10:001:0044"},"geometry":{"type":"Polygon","coordinates":[[[35.51976,47.472425],[35.520424,47.472513],[35.520542,47.472069],[35.519861,47.472007],[35.51976,47.472425]]]}},{"type":"Feature","properties":{"cadnum":"2320988808:10:001:0045"},"geometry":{"type":"Polygon","coordinates":[[[35.519671,47.472798],[35.520324,47.472886],[35.520356,47.472766],[35.520424,47.472513],[35.51976,47.472425],[35.519706,47.47265],[35.519705,47.47265],[35.519702,47.472665],[35.519677,47.472766],[35.519678,47.472766],[35.519671,47.472798]]]}},{"type":"Feature","properties":{"cadnum":"2320988808:10:001:0053"},"geometry":{"type":"Polygon","coordinates":[[[35.514393,47.471799],[35.514928,47.47185],[35.51502,47.471297],[35.514515,47.471229],[35.514393,47.471799]]]}},{"type":"Feature","properties":{"cadnum":"2320988808:10:001:0055"},"geometry":{"type":"Polygon","coordinates":[[[35.514624,47.471077],[35.515105,47.471138],[35.515214,47.470788],[35.5147,47.470724],[35.514624,47.471077]]]}},{"type":"Feature","properties":{"cadnum":"2320988808:10:001:0054"},"geometry":{"type":"Polygon","coordinates":[[[35.514298,47.472246],[35.514857,47.472286],[35.514928,47.47185],[35.514393,47.471799],[35.514298,47.472246]]]}},{"type":"Feature","properties":{"cadnum":"2320988808:10:003:0027"},"geometry":{"type":"Polygon","coordinates":[[[35.53229,47.47431],[35.533437,47.474399],[35.53346,47.474294],[35.532783,47.474255],[35.532968,47.473086],[35.532903,47.47308],[35.532512,47.473055],[35.532466,47.473365],[35.532442,47.473367],[35.53229,47.47431]]]}},{"type":"Feature","properties":{"cadnum":"2320988808:10:001:0026"},"geometry":{"type":"Polygon","coordinates":[[[35.533507,47.474421],[35.533901,47.474445],[35.533796,47.475104],[35.534158,47.475123],[35.534187,47.47484],[35.534244,47.474129],[35.533583,47.474034],[35.533507,47.474421]]]}},{"type":"Feature","properties":{"cadnum":"2320988808:10:001:0016"},"geometry":{"type":"Polygon","coordinates":[[[35.532919,47.475112],[35.533352,47.475144],[35.533462,47.474408],[35.533031,47.474375],[35.532919,47.475112]]]}},{"type":"Feature","properties":{"cadnum":"2320988808:10:003:0021"},"geometry":{"type":"Polygon","coordinates":[[[35.533619,47.473661],[35.534205,47.473709],[35.534251,47.473396],[35.533644,47.473345],[35.533619,47.473661]]]}},{"type":"Feature","properties":{"cadnum":"2320988808:10:003:0018"},"geometry":{"type":"Polygon","coordinates":[[[35.535175,47.473498],[35.535192,47.473501],[35.535256,47.47351],[35.535364,47.473525],[35.535364,47.473524],[35.535874,47.473593],[35.535941,47.473027],[35.535249,47.472982],[35.535175,47.473498]]]}},{"type":"Feature","properties":{"cadnum":"2320988808:10:001:0021"},"geometry":{"type":"Polygon","coordinates":[[[35.532596,47.476633],[35.533126,47.476642],[35.533143,47.476479],[35.533193,47.476021],[35.532781,47.476012],[35.532741,47.476246],[35.532675,47.476237],[35.532626,47.476479],[35.532627,47.476479],[35.532596,47.476633]]]}},{"type":"Feature","properties":{"cadnum":"2320988808:10:001:0028"},"geometry":{"type":"Polygon","coordinates":[[[35.534117,47.47554],[35.534951,47.475591],[35.535018,47.474926],[35.534184,47.47487],[35.534117,47.47554]]]}},{"type":"Feature","properties":{"cadnum":"2320988808:10:001:0036"},"geometry":{"type":"Polygon","coordinates":[[[35.534038,47.476656],[35.53451,47.47668],[35.534542,47.476363],[35.534574,47.476052],[35.534109,47.47602],[35.534057,47.476479],[35.534038,47.476656]]]}},{"type":"Feature","properties":{"cadnum":"2320988808:10:001:0042"},"geometry":{"type":"Polygon","coordinates":[[[35.530336,47.475647],[35.530756,47.475678],[35.530892,47.474989],[35.530465,47.47495],[35.530336,47.475647]]]}},{"type":"Feature","properties":{"cadnum":"2320988808:10:001:0015"},"geometry":{"type":"Polygon","coordinates":[[[35.532817,47.475794],[35.533249,47.475826],[35.533352,47.475144],[35.532919,47.475112],[35.532817,47.475794]]]}},{"type":"Feature","properties":{"cadnum":"2320988808:10:001:0024"},"geometry":{"type":"Polygon","coordinates":[[[35.531543,47.47509],[35.531991,47.475109],[35.53212,47.474256],[35.531672,47.474219],[35.531543,47.47509]]]}},{"type":"Feature","properties":{"cadnum":"2320988808:10:001:0041"},"geometry":{"type":"Polygon","coordinates":[[[35.531121,47.473765],[35.531896,47.473809],[35.532065,47.472905],[35.531272,47.47286],[35.531121,47.473765]]]}},{"type":"Feature","properties":{"cadnum":"2320988808:10:001:0043"},"geometry":{"type":"Polygon","coordinates":[[[35.530465,47.47495],[35.530892,47.474989],[35.531058,47.474139],[35.531118,47.473778],[35.530689,47.473738],[35.530465,47.47495]]]}},{"type":"Feature","properties":{"cadnum":"2320988808:10:001:0023"},"geometry":{"type":"Polygon","coordinates":[[[35.531444,47.475753],[35.531891,47.475773],[35.531991,47.475109],[35.531543,47.47509],[35.531444,47.475753]]]}},{"type":"Feature","properties":{"cadnum":"2320988808:10:001:0027"},"geometry":{"type":"Polygon","coordinates":[[[35.534081,47.475894],[35.534916,47.475947],[35.534951,47.475591],[35.534117,47.47554],[35.534081,47.475894]]]}},{"type":"Feature","properties":{"cadnum":"2320988808:10:001:0025"},"geometry":{"type":"Polygon","coordinates":[[[35.533674,47.475873],[35.534081,47.475894],[35.534158,47.475123],[35.533796,47.475104],[35.533674,47.475873]]]}},{"type":"Feature","properties":{"cadnum":"2320988808:10:003:0003"},"geometry":{"type":"Polygon","coordinates":[[[35.533795,47.47271],[35.534545,47.472754],[35.53461,47.472364],[35.533863,47.472313],[35.533842,47.472417],[35.533805,47.47265],[35.533804,47.47265],[35.533795,47.47271]]]}},{"type":"Feature","properties":{"cadnum":"2320988808:10:001:0040"},"geometry":{"type":"Polygon","coordinates":[[[35.531058,47.474139],[35.531824,47.4742],[35.531896,47.473809],[35.531121,47.473765],[35.531118,47.473778],[35.531058,47.474139]]]}},{"type":"Feature","properties":{"cadnum":"2320988808:10:003:0019"},"geometry":{"type":"Polygon","coordinates":[[[35.533644,47.473345],[35.534251,47.473396],[35.534321,47.472921],[35.53368,47.472874],[35.533644,47.473345]]]}},{"type":"Feature","properties":{"cadnum":"2320988808:10:001:0032"},"geometry":{"type":"Polygon","coordinates":[[[35.52945,47.474617],[35.529699,47.47466],[35.52976,47.47467],[35.529871,47.474385],[35.529871,47.474384],[35.53013,47.473719],[35.529816,47.473665],[35.52945,47.474617]]]}},{"type":"Feature","properties":{"cadnum":"2320988808:10:001:0018"},"geometry":{"type":"Polygon","coordinates":[[[35.524914,47.473703],[35.525728,47.473813],[35.525824,47.473476],[35.525035,47.473313],[35.524914,47.473703]]]}},{"type":"Feature","properties":{"cadnum":"2320988808:10:001:0017"},"geometry":{"type":"Polygon","coordinates":[[[35.525035,47.473313],[35.525824,47.473476],[35.525925,47.473116],[35.525145,47.472956],[35.525035,47.473313]]]}},{"type":"Feature","properties":{"cadnum":"2320988808:10:001:0002"},"geometry":{"type":"Polygon","coordinates":[[[35.529575,47.476268],[35.529677,47.476268],[35.529677,47.476198],[35.529575,47.476198],[35.529575,47.476268]]]}},{"type":"Feature","properties":{"cadnum":"2320988808:10:001:0019"},"geometry":{"type":"Polygon","coordinates":[[[35.526021,47.473951],[35.526381,47.474259],[35.527,47.473966],[35.52665,47.473669],[35.526341,47.473806],[35.526046,47.473896],[35.526021,47.473951]]]}},{"type":"Feature","properties":{"cadnum":"2320988808:10:001:0020"},"geometry":{"type":"Polygon","coordinates":[[[35.526021,47.473951],[35.526156,47.474111],[35.526353,47.474273],[35.526381,47.474259],[35.526021,47.473951]]]}},{"type":"Feature","properties":{"cadnum":"2320988808:10:001:0031"},"geometry":{"type":"Polygon","coordinates":[[[35.529191,47.475506],[35.529223,47.475532],[35.529321,47.47556],[35.529491,47.475588],[35.529573,47.475152],[35.52976,47.47467],[35.52945,47.474617],[35.529247,47.475143],[35.529191,47.475506]]]}},{"type":"Feature","properties":{"cadnum":"2320988808:10:001:0022"},"geometry":{"type":"Polygon","coordinates":[[[35.532013,47.47755],[35.533008,47.477631],[35.533126,47.476642],[35.532596,47.476633],[35.532463,47.477325],[35.532053,47.477307],[35.532013,47.47755]]]}},{"type":"Feature","properties":{"cadnum":"2320988808:10:001:0037"},"geometry":{"type":"Polygon","coordinates":[[[35.534007,47.477177],[35.534551,47.477216],[35.53458,47.476684],[35.534038,47.476656],[35.534007,47.477177]]]}},{"type":"Feature","properties":{"cadnum":"2320988808:10:003:0014"},"geometry":{"type":"Polygon","coordinates":[[[35.53937,47.474488],[35.540234,47.474527],[35.540289,47.473582],[35.539437,47.473526],[35.539365,47.474264],[35.53937,47.474488]]]}},{"type":"Feature","properties":{"cadnum":"2320988808:10:001:0013"},"geometry":{"type":"Polygon","coordinates":[[[35.538465,47.476168],[35.539345,47.476215],[35.539369,47.475876],[35.53849,47.475832],[35.538465,47.476168]]]}},{"type":"Feature","properties":{"cadnum":"2320988808:10:003:0011"},"geometry":{"type":"Polygon","coordinates":[[[35.538575,47.473473],[35.539437,47.473522],[35.539471,47.473176],[35.53862,47.473127],[35.538575,47.473473]]]}},{"type":"Feature","properties":{"cadnum":"2320988808:10:003:0012"},"geometry":{"type":"Polygon","coordinates":[[[35.538476,47.474226],[35.539365,47.474264],[35.539437,47.473522],[35.538575,47.473473],[35.538476,47.474226]]]}},{"type":"Feature","properties":{"cadnum":"2320988808:10:003:0013"},"geometry":{"type":"Polygon","coordinates":[[[35.539437,47.473526],[35.540289,47.473582],[35.54031,47.473231],[35.539471,47.473176],[35.539437,47.473526]]]}},{"type":"Feature","properties":{"cadnum":"2320988808:10:001:0006"},"geometry":{"type":"Polygon","coordinates":[[[35.537653,47.476492],[35.537889,47.476507],[35.537893,47.476479],[35.537919,47.476306],[35.537682,47.476291],[35.537671,47.476363],[35.537663,47.476421],[35.537655,47.476479],[35.537653,47.476492]]]}},{"type":"Feature","properties":{"cadnum":"2320988808:10:001:0007"},"geometry":{"type":"Polygon","coordinates":[[[35.536747,47.476064],[35.537686,47.476121],[35.537714,47.475805],[35.53677,47.475748],[35.536747,47.476064]]]}},{"type":"Feature","properties":{"cadnum":"2320988808:10:001:0008"},"geometry":{"type":"Polygon","coordinates":[[[35.53677,47.475748],[35.537714,47.475805],[35.537806,47.474793],[35.536839,47.474743],[35.53677,47.475748]]]}},{"type":"Feature","properties":{"cadnum":"2320988808:10:001:0009"},"geometry":{"type":"Polygon","coordinates":[[[35.538713,47.476661],[35.539546,47.476733],[35.539552,47.476674],[35.539591,47.476375],[35.538785,47.476304],[35.538775,47.476328],[35.538768,47.476363],[35.538751,47.476456],[35.538746,47.476479],[35.538713,47.476661]]]}},{"type":"Feature","properties":{"cadnum":"2320988808:10:001:0029"},"geometry":{"type":"Polygon","coordinates":[[[35.537818,47.474801],[35.538651,47.474854],[35.538757,47.474239],[35.537919,47.47423],[35.537837,47.474652],[35.537818,47.474801]]]}},{"type":"Feature","properties":{"cadnum":"2320988808:10:001:0014"},"geometry":{"type":"Polygon","coordinates":[[[35.53849,47.475832],[35.539369,47.475876],[35.539436,47.474896],[35.538567,47.474852],[35.53849,47.475832]]]}},{"type":"Feature","properties":{"cadnum":"2320988808:10:003:0030"},"geometry":{"type":"Polygon","coordinates":[[[35.533115,47.472667],[35.533445,47.472686],[35.533606,47.471799],[35.533277,47.471768],[35.533115,47.472667]]]}},{"type":"Feature","properties":{"cadnum":"2320988808:10:003:0031"},"geometry":{"type":"Polygon","coordinates":[[[35.533277,47.471768],[35.533606,47.471799],[35.533669,47.471447],[35.53334,47.471415],[35.533277,47.471768]]]}},{"type":"Feature","properties":{"cadnum":"2320988808:10:003:0028"},"geometry":{"type":"Polygon","coordinates":[[[35.533495,47.472281],[35.533847,47.472305],[35.533998,47.471474],[35.533646,47.47144],[35.533495,47.472281]]]}},{"type":"Feature","properties":{"cadnum":"2320988808:10:003:0033"},"geometry":{"type":"Polygon","coordinates":[[[35.531964,47.47228],[35.532892,47.472343],[35.533045,47.471411],[35.532152,47.47135],[35.531964,47.47228]]]}},{"type":"Feature","properties":{"cadnum":"2320988808:10:003:0029"},"geometry":{"type":"Polygon","coordinates":[[[35.533424,47.472679],[35.533776,47.472704],[35.533847,47.472305],[35.533495,47.472281],[35.533424,47.472679]]]}},{"type":"Feature","properties":{"cadnum":"2320988808:10:003:0032"},"geometry":{"type":"Polygon","coordinates":[[[35.5319,47.472602],[35.532842,47.472653],[35.532892,47.472343],[35.531964,47.47228],[35.5319,47.472602]]]}},{"type":"Feature","properties":{"cadnum":"2320988808:10:003:0004"},"geometry":{"type":"Polygon","coordinates":[[[35.533863,47.472313],[35.53461,47.472364],[35.534801,47.47155],[35.534045,47.471442],[35.533863,47.472313]]]}},{"type":"Feature","properties":{"cadnum":"2320988808:10:001:0010"},"geometry":{"type":"Polygon","coordinates":[[[35.538516,47.47773],[35.539442,47.47777],[35.539546,47.476733],[35.538713,47.476661],[35.538516,47.47773]]]}}]}