{"type":"FeatureCollection","features":[{"type":"Feature","properties":{"cadnum":"2320986605:10:012:0012"},"geometry":{"type":"Polygon","coordinates":[[[35.188639,47.410979],[35.188734,47.410986],[35.189019,47.411013],[35.189063,47.410698],[35.188681,47.410673],[35.188639,47.410979]]]}},{"type":"Feature","properties":{"cadnum":"2320986605:10:010:0022"},"geometry":{"type":"Polygon","coordinates":[[[35.184669,47.413679],[35.185223,47.413714],[35.185249,47.413207],[35.185248,47.413207],[35.185251,47.413155],[35.184699,47.413121],[35.184694,47.413207],[35.184693,47.413207],[35.184669,47.413679]]]}},{"type":"Feature","properties":{"cadnum":"2320986605:10:011:0014"},"geometry":{"type":"Polygon","coordinates":[[[35.188643,47.41349],[35.18893,47.41351],[35.188981,47.413224],[35.188705,47.413206],[35.188705,47.413207],[35.188704,47.413207],[35.188703,47.413207],[35.188643,47.41349]]]}},{"type":"Feature","properties":{"cadnum":"2320986605:10:011:0013"},"geometry":{"type":"Polygon","coordinates":[[[35.18893,47.41351],[35.189123,47.413524],[35.189123,47.413525],[35.189955,47.413583],[35.190006,47.413294],[35.189578,47.413265],[35.189199,47.41324],[35.188981,47.413224],[35.188962,47.413323],[35.188963,47.413323],[35.18893,47.41351]]]}},{"type":"Feature","properties":{"cadnum":"2320986605:10:010:0004"},"geometry":{"type":"Polygon","coordinates":[[[35.183755,47.410621],[35.184295,47.410663],[35.184382,47.410112],[35.183858,47.410067],[35.183755,47.410621]]]}},{"type":"Feature","properties":{"cadnum":"2320986605:10:010:0009"},"geometry":{"type":"Polygon","coordinates":[[[35.184592,47.410573],[35.185128,47.410614],[35.186075,47.41068],[35.186103,47.410474],[35.185172,47.410412],[35.184999,47.410401],[35.184998,47.410416],[35.184931,47.410413],[35.184934,47.410396],[35.184805,47.410399],[35.184752,47.410404],[35.18472,47.41041],[35.184617,47.410402],[35.184592,47.410573]]]}},{"type":"Feature","properties":{"cadnum":"2320986605:10:010:0005"},"geometry":{"type":"Polygon","coordinates":[[[35.183116,47.41057],[35.18363,47.410611],[35.18363,47.410612],[35.183755,47.410621],[35.183802,47.410369],[35.183858,47.410067],[35.184382,47.410112],[35.184474,47.409531],[35.18446,47.409529],[35.184098,47.40949],[35.18363,47.409439],[35.183281,47.409401],[35.183274,47.40949],[35.183273,47.40949],[35.18323,47.410009],[35.183116,47.41057]]]}},{"type":"Feature","properties":{"cadnum":"2320986605:10:001:0002"},"geometry":{"type":"Polygon","coordinates":[[[35.186268,47.410448],[35.186668,47.410471],[35.186775,47.409895],[35.18637,47.409854],[35.186268,47.410448]]]}},{"type":"Feature","properties":{"cadnum":"2320986605:10:012:0035"},"geometry":{"type":"Polygon","coordinates":[[[35.188534,47.409845],[35.18875,47.409853],[35.188788,47.409606],[35.188817,47.409415],[35.188601,47.409404],[35.188588,47.40949],[35.188534,47.409845]]]}},{"type":"Feature","properties":{"cadnum":"2320986605:10:010:0034"},"geometry":{"type":"Polygon","coordinates":[[[35.183296,47.411555],[35.18363,47.411579],[35.18363,47.41158],[35.184279,47.411625],[35.184323,47.411323],[35.183802,47.411287],[35.18335,47.411255],[35.183296,47.411555]]]}},{"type":"Feature","properties":{"cadnum":"2320986605:10:001:0020"},"geometry":{"type":"Polygon","coordinates":[[[35.187354,47.412087],[35.18747,47.412134],[35.187873,47.412153],[35.187954,47.411594],[35.187416,47.411563],[35.187354,47.412087]]]}},{"type":"Feature","properties":{"cadnum":"2320986605:10:010:0013"},"geometry":{"type":"Polygon","coordinates":[[[35.184321,47.41218],[35.185086,47.412243],[35.18516,47.411861],[35.184388,47.411799],[35.184321,47.41218]]]}},{"type":"Feature","properties":{"cadnum":"2320986605:10:001:1020"},"geometry":{"type":"Polygon","coordinates":[[[35.187873,47.412153],[35.188398,47.412178],[35.188478,47.411623],[35.187954,47.411594],[35.187873,47.412153]]]}},{"type":"Feature","properties":{"cadnum":"2320986605:10:012:0034"},"geometry":{"type":"Polygon","coordinates":[[[35.187867,47.409818],[35.188534,47.409845],[35.18857,47.409606],[35.188571,47.409606],[35.188601,47.409404],[35.187935,47.409372],[35.187917,47.40949],[35.187916,47.40949],[35.187867,47.409818]]]}},{"type":"Feature","properties":{"cadnum":"2320986605:10:012:0029"},"geometry":{"type":"Polygon","coordinates":[[[35.187793,47.410174],[35.188215,47.410214],[35.188842,47.410249],[35.188887,47.409997],[35.188225,47.409934],[35.188231,47.409839],[35.188099,47.409835],[35.188093,47.409921],[35.187846,47.409895],[35.187793,47.410174]]]}},{"type":"Feature","properties":{"cadnum":"2320986605:10:010:0010"},"geometry":{"type":"Polygon","coordinates":[[[35.186075,47.41068],[35.18623,47.410691],[35.186267,47.410485],[35.186103,47.410474],[35.186075,47.41068]]]}},{"type":"Feature","properties":{"cadnum":"2320986605:10:012:0011"},"geometry":{"type":"Polygon","coordinates":[[[35.187657,47.410913],[35.187983,47.410927],[35.188639,47.410979],[35.188681,47.410673],[35.18796,47.410627],[35.1877,47.410605],[35.187657,47.410913]]]}},{"type":"Feature","properties":{"cadnum":"2320986605:10:001:0001"},"geometry":{"type":"Polygon","coordinates":[[[35.186668,47.410471],[35.186956,47.410488],[35.18733,47.410513],[35.187394,47.410075],[35.18694,47.410073],[35.186834,47.409902],[35.186775,47.409895],[35.186668,47.410471]]]}},{"type":"Feature","properties":{"cadnum":"2320986605:10:010:0014"},"geometry":{"type":"Polygon","coordinates":[[[35.185086,47.412243],[35.185917,47.412311],[35.185985,47.411927],[35.18516,47.411861],[35.185086,47.412243]]]}},{"type":"Feature","properties":{"cadnum":"2320986605:10:010:0021"},"geometry":{"type":"Polygon","coordinates":[[[35.184103,47.413643],[35.184669,47.413679],[35.184688,47.413323],[35.184699,47.413121],[35.184199,47.413091],[35.184158,47.413323],[35.184103,47.413643]]]}},{"type":"Feature","properties":{"cadnum":"2320986605:10:010:0032"},"geometry":{"type":"Polygon","coordinates":[[[35.186027,47.401971],[35.186955,47.402043],[35.187051,47.401754],[35.186067,47.40165],[35.186027,47.401971]]]}},{"type":"Feature","properties":{"cadnum":"2320986605:10:010:0033"},"geometry":{"type":"Polygon","coordinates":[[[35.186955,47.402043],[35.187093,47.402054],[35.187993,47.402125],[35.188007,47.402126],[35.188095,47.401864],[35.187051,47.401754],[35.186955,47.402043]]]}},{"type":"Feature","properties":{"cadnum":"2320986605:10:010:0012"},"geometry":{"type":"Polygon","coordinates":[[[35.18225,47.417107],[35.182852,47.417141],[35.182886,47.416987],[35.182994,47.416499],[35.182384,47.416467],[35.182288,47.416924],[35.182274,47.416991],[35.182263,47.41704],[35.182264,47.41704],[35.182264,47.417041],[35.18225,47.417107]]]}},{"type":"Feature","properties":{"cadnum":"2320986605:10:010:0011"},"geometry":{"type":"Polygon","coordinates":[[[35.182852,47.417141],[35.183327,47.417168],[35.183367,47.416924],[35.183434,47.416521],[35.182994,47.416499],[35.1829,47.416924],[35.182899,47.416924],[35.182886,47.416987],[35.182874,47.41704],[35.182874,47.417041],[35.182852,47.417141]]]}},{"type":"Feature","properties":{"cadnum":"2320986605:10:010:0017"},"geometry":{"type":"Polygon","coordinates":[[[35.183374,47.408884],[35.18363,47.40891],[35.18363,47.408911],[35.183701,47.408918],[35.183802,47.408928],[35.184201,47.408967],[35.184279,47.408613],[35.183802,47.408567],[35.183453,47.408532],[35.183374,47.408884]]]}},{"type":"Feature","properties":{"cadnum":"2320986605:10:011:0005"},"geometry":{"type":"Polygon","coordinates":[[[35.190881,47.40921],[35.191146,47.409235],[35.191391,47.409257],[35.1915,47.408677],[35.191274,47.408658],[35.190993,47.408637],[35.190881,47.40921]]]}},{"type":"Feature","properties":{"cadnum":"2320986605:10:011:0018"},"geometry":{"type":"Polygon","coordinates":[[[35.189798,47.408313],[35.189985,47.408326],[35.190026,47.407994],[35.189838,47.407984],[35.189798,47.408313]]]}},{"type":"Feature","properties":{"cadnum":"2320986605:10:011:0006"},"geometry":{"type":"Polygon","coordinates":[[[35.191391,47.409257],[35.191938,47.409305],[35.192037,47.408723],[35.1915,47.408677],[35.191391,47.409257]]]}},{"type":"Feature","properties":{"cadnum":"2320986605:10:012:0016"},"geometry":{"type":"Polygon","coordinates":[[[35.188878,47.406643],[35.189123,47.406655],[35.189465,47.406672],[35.189544,47.406112],[35.189295,47.406098],[35.188953,47.406078],[35.188878,47.406643]]]}},{"type":"Feature","properties":{"cadnum":"2320986605:10:012:0004"},"geometry":{"type":"Polygon","coordinates":[[[35.185284,47.416797],[35.185761,47.416834],[35.185863,47.416239],[35.185356,47.416196],[35.185284,47.416797]]]}},{"type":"Feature","properties":{"cadnum":"2320986605:10:012:0008"},"geometry":{"type":"Polygon","coordinates":[[[35.185592,47.414413],[35.186108,47.414461],[35.18621,47.413891],[35.185693,47.413851],[35.185592,47.414413]]]}},{"type":"Feature","properties":{"cadnum":"2320986605:10:010:0008"},"geometry":{"type":"Polygon","coordinates":[[[35.184343,47.415409],[35.184916,47.415453],[35.185023,47.414895],[35.184448,47.414862],[35.184343,47.415409]]]}},{"type":"Feature","properties":{"cadnum":"2320986605:10:012:0021"},"geometry":{"type":"Polygon","coordinates":[[[35.185977,47.415519],[35.186495,47.415547],[35.186587,47.414977],[35.186069,47.414947],[35.185977,47.415519]]]}},{"type":"Feature","properties":{"cadnum":"2320986605:10:012:0006"},"geometry":{"type":"Polygon","coordinates":[[[35.188117,47.416604],[35.188355,47.416627],[35.188308,47.416924],[35.188296,47.417001],[35.188713,47.417034],[35.188813,47.416457],[35.188154,47.416397],[35.188117,47.416604]]]}},{"type":"Feature","properties":{"cadnum":"2320986605:10:010:0003"},"geometry":{"type":"Polygon","coordinates":[[[35.184259,47.416776],[35.184679,47.416811],[35.184777,47.41622],[35.184369,47.416189],[35.184259,47.416776]]]}},{"type":"Feature","properties":{"cadnum":"2320986605:10:010:0002"},"geometry":{"type":"Polygon","coordinates":[[[35.183765,47.416736],[35.184259,47.416776],[35.184369,47.416189],[35.183861,47.416151],[35.183765,47.416736]]]}},{"type":"Feature","properties":{"cadnum":"2320986605:10:012:0005"},"geometry":{"type":"Polygon","coordinates":[[[35.186662,47.416463],[35.188117,47.416604],[35.188154,47.416397],[35.1867,47.416267],[35.186662,47.416463]]]}},{"type":"Feature","properties":{"cadnum":"2320986605:10:012:0022"},"geometry":{"type":"Polygon","coordinates":[[[35.185461,47.41549],[35.185977,47.415519],[35.186069,47.414947],[35.185553,47.414918],[35.185461,47.41549]]]}},{"type":"Feature","properties":{"cadnum":"2320986605:10:010:0020"},"geometry":{"type":"Polygon","coordinates":[[[35.184539,47.414867],[35.185196,47.414905],[35.185286,47.414439],[35.184628,47.414401],[35.184539,47.414867]]]}},{"type":"Feature","properties":{"cadnum":"2320986605:10:001:0063"},"geometry":{"type":"Polygon","coordinates":[[[35.187649,47.403404],[35.188463,47.403464],[35.188522,47.403099],[35.187691,47.403052],[35.187649,47.403404]]]}},{"type":"Feature","properties":{"cadnum":"2320986605:10:010:0016"},"geometry":{"type":"Polygon","coordinates":[[[35.187267,47.40324],[35.187428,47.403249],[35.187451,47.40304],[35.187283,47.403033],[35.187267,47.40324]]]}},{"type":"Feature","properties":{"cadnum":"2320986605:10:001:1063"},"geometry":{"type":"Polygon","coordinates":[[[35.187463,47.403644],[35.187663,47.403666],[35.187702,47.403671],[35.187773,47.40332],[35.187535,47.403297],[35.187492,47.403507],[35.187463,47.403644]]]}},{"type":"Feature","properties":{"cadnum":"2320986605:10:010:0029"},"geometry":{"type":"Polygon","coordinates":[[[35.18521,47.40281],[35.185742,47.402843],[35.185813,47.402278],[35.185309,47.402238],[35.18521,47.40281]]]}},{"type":"Feature","properties":{"cadnum":"2320986605:10:010:0007"},"geometry":{"type":"Polygon","coordinates":[[[35.186362,47.403641],[35.186804,47.403655],[35.187376,47.403687],[35.187381,47.40361],[35.187428,47.403249],[35.186419,47.403191],[35.186362,47.403641]]]}},{"type":"Feature","properties":{"cadnum":"2320986605:10:010:0030"},"geometry":{"type":"Polygon","coordinates":[[[35.1847,47.402779],[35.18521,47.40281],[35.185309,47.402238],[35.184801,47.402197],[35.1847,47.402779]]]}},{"type":"Feature","properties":{"cadnum":"2320986605:10:012:0019"},"geometry":{"type":"Polygon","coordinates":[[[35.188988,47.40309],[35.189123,47.403102],[35.189123,47.403103],[35.189567,47.403141],[35.189654,47.402641],[35.189295,47.40261],[35.18906,47.402589],[35.188988,47.40309]]]}},{"type":"Feature","properties":{"cadnum":"2320986605:10:010:0006"},"geometry":{"type":"Polygon","coordinates":[[[35.18573,47.403621],[35.186362,47.403641],[35.186419,47.403191],[35.18576,47.403153],[35.18573,47.403621]]]}},{"type":"Feature","properties":{"cadnum":"2320986605:10:010:0015"},"geometry":{"type":"Polygon","coordinates":[[[35.185772,47.403137],[35.186269,47.403183],[35.187267,47.40324],[35.187283,47.403033],[35.186442,47.402997],[35.185804,47.402943],[35.185772,47.403137]]]}},{"type":"Feature","properties":{"cadnum":"2320986605:10:010:0035"},"geometry":{"type":"Polygon","coordinates":[[[35.183059,47.411539],[35.183296,47.411555],[35.18335,47.411255],[35.183112,47.411238],[35.183059,47.411539]]]}},{"type":"Feature","properties":{"cadnum":"2320986605:10:011:1020"},"geometry":{"type":"Polygon","coordinates":[[[35.191065,47.411677],[35.191634,47.41172],[35.191737,47.411134],[35.191175,47.41109],[35.191065,47.411677]]]}},{"type":"Feature","properties":{"cadnum":"2320986605:10:011:0020"},"geometry":{"type":"Polygon","coordinates":[[[35.190568,47.41164],[35.191065,47.411677],[35.191175,47.41109],[35.190673,47.41105],[35.190568,47.41164]]]}},{"type":"Feature","properties":{"cadnum":"2320986605:10:011:0016"},"geometry":{"type":"Polygon","coordinates":[[[35.191509,47.410665],[35.19154,47.410668],[35.191595,47.410282],[35.191564,47.41028],[35.191509,47.410665]]]}},{"type":"Feature","properties":{"cadnum":"2320986605:10:010:0024"},"geometry":{"type":"Polygon","coordinates":[[[35.185627,47.407592],[35.186245,47.407605],[35.186261,47.407016],[35.185643,47.406987],[35.185627,47.407592]]]}},{"type":"Feature","properties":{"cadnum":"2320986605:10:010:0025"},"geometry":{"type":"Polygon","coordinates":[[[35.185194,47.406965],[35.185702,47.406989],[35.185789,47.406413],[35.185267,47.406391],[35.185194,47.406965]]]}},{"type":"Feature","properties":{"cadnum":"2320986605:10:010:0023"},"geometry":{"type":"Polygon","coordinates":[[[35.185104,47.40758],[35.185627,47.407592],[35.185643,47.406987],[35.185194,47.406965],[35.185104,47.40758]]]}},{"type":"Feature","properties":{"cadnum":"2320986605:10:010:0018"},"geometry":{"type":"Polygon","coordinates":[[[35.184201,47.408967],[35.184562,47.409004],[35.184641,47.408648],[35.184279,47.408613],[35.184201,47.408967]]]}},{"type":"Feature","properties":{"cadnum":"2320986605:10:012:0017"},"geometry":{"type":"Polygon","coordinates":[[[35.187445,47.406531],[35.187665,47.406569],[35.187985,47.406583],[35.188062,47.406023],[35.187692,47.406006],[35.187545,47.405982],[35.187445,47.406531]]]}},{"type":"Feature","properties":{"cadnum":"2320986605:10:012:0049"},"geometry":{"type":"Polygon","coordinates":[[[35.186664,47.406603],[35.186669,47.407165],[35.187193,47.407204],[35.187188,47.406631],[35.186664,47.406603]]]}},{"type":"Feature","properties":{"cadnum":"2320986605:10:010:0028"},"geometry":{"type":"Polygon","coordinates":[[[35.186174,47.406211],[35.186998,47.406263],[35.187007,47.4062],[35.186375,47.40616],[35.186411,47.405893],[35.18622,47.405877],[35.186174,47.406211]]]}},{"type":"Feature","properties":{"cadnum":"2320986605:10:010:0026"},"geometry":{"type":"Polygon","coordinates":[[[35.185702,47.406989],[35.186214,47.407014],[35.186301,47.406436],[35.185789,47.406413],[35.185702,47.406989]]]}},{"type":"Feature","properties":{"cadnum":"2320986605:10:012:0015"},"geometry":{"type":"Polygon","coordinates":[[[35.188356,47.406622],[35.188878,47.406643],[35.188953,47.406078],[35.188432,47.406051],[35.188356,47.406622]]]}},{"type":"Feature","properties":{"cadnum":"2320986605:10:012:0018"},"geometry":{"type":"Polygon","coordinates":[[[35.18698,47.406452],[35.187445,47.406531],[35.187545,47.405982],[35.187061,47.405903],[35.187007,47.4062],[35.186998,47.406263],[35.18698,47.406452]]]}},{"type":"Feature","properties":{"cadnum":"2320986605:10:012:0048"},"geometry":{"type":"Polygon","coordinates":[[[35.187188,47.406631],[35.187193,47.407204],[35.187798,47.407251],[35.187841,47.40692],[35.187558,47.406908],[35.187559,47.406651],[35.187188,47.406631]]]}},{"type":"Feature","properties":{"cadnum":"2320986605:10:001:0003"},"geometry":{"type":"Polygon","coordinates":[[[35.186992,47.409342],[35.186992,47.409345],[35.186995,47.409408],[35.186996,47.409476],[35.186996,47.409481],[35.187466,47.409474],[35.187464,47.409416],[35.187535,47.409415],[35.187534,47.409409],[35.187534,47.409392],[35.187463,47.409393],[35.187462,47.409335],[35.186992,47.409342]]]}},{"type":"Feature","properties":{"cadnum":"2320986605:10:012:0020"},"geometry":{"type":"Polygon","coordinates":[[[35.189567,47.403141],[35.190154,47.403192],[35.190242,47.402692],[35.189654,47.402641],[35.189567,47.403141]]]}},{"type":"Feature","properties":{"cadnum":"2320986605:10:011:0003"},"geometry":{"type":"Polygon","coordinates":[[[35.191768,47.40507],[35.192315,47.405109],[35.192414,47.404581],[35.19185,47.404543],[35.191789,47.404861],[35.191803,47.404863],[35.191768,47.40507]]]}},{"type":"Feature","properties":{"cadnum":"2320986605:10:011:0004"},"geometry":{"type":"Polygon","coordinates":[[[35.192315,47.405109],[35.192701,47.405137],[35.192888,47.405094],[35.192961,47.404618],[35.192414,47.404581],[35.192315,47.405109]]]}},{"type":"Feature","properties":{"cadnum":"2320986605:10:012:0051"},"geometry":{"type":"Polygon","coordinates":[[[35.189257,47.404466],[35.189778,47.404524],[35.189884,47.403953],[35.189357,47.403898],[35.189257,47.404466]]]}},{"type":"Feature","properties":{"cadnum":"2320986605:10:011:0012"},"geometry":{"type":"Polygon","coordinates":[[[35.19084,47.41388],[35.191083,47.413901],[35.191152,47.413466],[35.19091,47.413444],[35.19084,47.41388]]]}},{"type":"Feature","properties":{"cadnum":"2320986605:10:011:2002"},"geometry":{"type":"Polygon","coordinates":[[[35.191078,47.41581],[35.192004,47.415887],[35.192032,47.415715],[35.191104,47.415622],[35.191078,47.41581]]]}},{"type":"Feature","properties":{"cadnum":"2320986605:10:011:0002"},"geometry":{"type":"Polygon","coordinates":[[[35.189858,47.415917],[35.19025,47.415931],[35.190256,47.415986],[35.190356,47.41599],[35.190456,47.415367],[35.189948,47.41534],[35.189858,47.415917]]]}},{"type":"Feature","properties":{"cadnum":"2320986605:10:011:1002"},"geometry":{"type":"Polygon","coordinates":[[[35.190356,47.41599],[35.190883,47.416016],[35.190982,47.415394],[35.190456,47.415367],[35.190356,47.41599]]]}},{"type":"Feature","properties":{"cadnum":"2320986605:10:011:0011"},"geometry":{"type":"Polygon","coordinates":[[[35.190164,47.413819],[35.19084,47.41388],[35.19091,47.413444],[35.190235,47.413384],[35.190164,47.413819]]]}}]}