{"type":"FeatureCollection","features":[{"type":"Feature","properties":{"cadnum":"2320680502:01:016:0005"},"geometry":{"type":"Polygon","coordinates":[[[36.637496,46.935226],[36.637503,46.935247],[36.63752,46.935295],[36.637544,46.935364],[36.637545,46.935364],[36.637572,46.935439],[36.638324,46.935306],[36.638926,46.9352],[36.638854,46.935003],[36.637496,46.935226]]]}},{"type":"Feature","properties":{"cadnum":"2320680502:01:017:0001"},"geometry":{"type":"Polygon","coordinates":[[[36.637057,46.934109],[36.637139,46.934321],[36.638496,46.934072],[36.638427,46.933894],[36.637057,46.934109]]]}},{"type":"Feature","properties":{"cadnum":"2320680502:01:016:0004"},"geometry":{"type":"Polygon","coordinates":[[[36.639069,46.93472],[36.639145,46.934945],[36.639318,46.934917],[36.639318,46.934918],[36.639397,46.934905],[36.63949,46.93489],[36.640287,46.934762],[36.640196,46.934495],[36.639318,46.93467],[36.639069,46.93472]]]}},{"type":"Feature","properties":{"cadnum":"2320680502:01:016:0006"},"geometry":{"type":"Polygon","coordinates":[[[36.637035,46.935302],[36.637056,46.935364],[36.637057,46.935364],[36.637114,46.935525],[36.637461,46.935459],[36.637572,46.935439],[36.63752,46.935295],[36.637496,46.935226],[36.637368,46.935247],[36.637367,46.935247],[36.637035,46.935302]]]}},{"type":"Feature","properties":{"cadnum":"2320680502:01:016:0009"},"geometry":{"type":"Polygon","coordinates":[[[36.638738,46.933824],[36.638798,46.933996],[36.639221,46.933916],[36.639318,46.933894],[36.639318,46.933895],[36.639435,46.933869],[36.63949,46.933859],[36.640147,46.933738],[36.640071,46.933519],[36.639367,46.933656],[36.638738,46.933824]]]}},{"type":"Feature","properties":{"cadnum":"2320680502:01:016:0001"},"geometry":{"type":"Polygon","coordinates":[[[36.639145,46.934945],[36.639221,46.935177],[36.639318,46.93516],[36.63939,46.935148],[36.63949,46.935131],[36.640464,46.934963],[36.640393,46.934745],[36.639444,46.934897],[36.639145,46.934945]]]}},{"type":"Feature","properties":{"cadnum":"2320680502:01:016:0011"},"geometry":{"type":"Polygon","coordinates":[[[36.638798,46.933996],[36.638884,46.934222],[36.639318,46.934143],[36.639318,46.934144],[36.639455,46.934118],[36.63949,46.934113],[36.63949,46.934112],[36.640064,46.934014],[36.639972,46.93377],[36.639435,46.933869],[36.639221,46.933916],[36.638798,46.933996]]]}},{"type":"Feature","properties":{"cadnum":"2320680502:01:016:0008"},"geometry":{"type":"Polygon","coordinates":[[[36.639367,46.935525],[36.63949,46.935847],[36.639504,46.935882],[36.640261,46.935771],[36.640116,46.935391],[36.639367,46.935525]]]}},{"type":"Feature","properties":{"cadnum":"2320680502:01:014:0002"},"geometry":{"type":"Polygon","coordinates":[[[36.638022,46.936367],[36.638046,46.936466],[36.638063,46.936521],[36.639318,46.936301],[36.639459,46.936276],[36.639398,46.936113],[36.638022,46.936367]]]}},{"type":"Feature","properties":{"cadnum":"2320680502:01:009:0001"},"geometry":{"type":"Polygon","coordinates":[[[36.640247,46.935773],[36.640371,46.936143],[36.641297,46.935986],[36.641172,46.935638],[36.640247,46.935773]]]}},{"type":"Feature","properties":{"cadnum":"2320680502:01:009:0003"},"geometry":{"type":"Polygon","coordinates":[[[36.639634,46.936268],[36.639698,46.936435],[36.639748,46.936564],[36.640647,46.93645],[36.640515,46.936119],[36.640371,46.936143],[36.639634,46.936268]]]}},{"type":"Feature","properties":{"cadnum":"2320680502:01:016:0007"},"geometry":{"type":"Polygon","coordinates":[[[36.639504,46.935882],[36.639634,46.936268],[36.640371,46.936143],[36.640247,46.935773],[36.639504,46.935882]]]}},{"type":"Feature","properties":{"cadnum":"2320680502:01:009:0002"},"geometry":{"type":"Polygon","coordinates":[[[36.640116,46.935391],[36.640261,46.935771],[36.641172,46.935638],[36.641138,46.935365],[36.641138,46.935364],[36.641122,46.935225],[36.641027,46.935228],[36.640919,46.935247],[36.640918,46.935247],[36.640499,46.935322],[36.640264,46.935364],[36.640264,46.935365],[36.640116,46.935391]]]}},{"type":"Feature","properties":{"cadnum":"2320680502:01:007:0001"},"geometry":{"type":"Polygon","coordinates":[[[36.634723,46.939382],[36.634863,46.939746],[36.634989,46.939727],[36.635605,46.939612],[36.635441,46.939231],[36.634723,46.939382]]]}},{"type":"Feature","properties":{"cadnum":"2320680502:01:007:0002"},"geometry":{"type":"Polygon","coordinates":[[[36.634033,46.939527],[36.634043,46.939871],[36.634863,46.939746],[36.634723,46.939382],[36.634722,46.939382],[36.634033,46.939527]]]}},{"type":"Feature","properties":{"cadnum":"2320680502:01:016:0003"},"geometry":{"type":"Polygon","coordinates":[[[36.640196,46.934495],[36.640287,46.934762],[36.640877,46.934668],[36.640759,46.934384],[36.640196,46.934495]]]}},{"type":"Feature","properties":{"cadnum":"2320680502:01:016:0002"},"geometry":{"type":"Polygon","coordinates":[[[36.640393,46.934745],[36.640464,46.934963],[36.64094,46.934882],[36.640877,46.934668],[36.640393,46.934745]]]}},{"type":"Feature","properties":{"cadnum":"2320680502:01:016:0012"},"geometry":{"type":"Polygon","coordinates":[[[36.639972,46.93377],[36.640064,46.934014],[36.640559,46.933929],[36.640464,46.933679],[36.639972,46.93377]]]}},{"type":"Feature","properties":{"cadnum":"2320680502:01:016:0010"},"geometry":{"type":"Polygon","coordinates":[[[36.640071,46.933519],[36.640147,46.933738],[36.640634,46.933648],[36.640544,46.933428],[36.640071,46.933519]]]}}]}