{"type":"FeatureCollection","features":[{"type":"Feature","properties":{"cadnum":"2320955703:06:001:0002"},"geometry":{"type":"Polygon","coordinates":[[[35.495551,47.543985],[35.496117,47.543988],[35.49617,47.54333],[35.495591,47.54331],[35.495551,47.543985]]]}},{"type":"Feature","properties":{"cadnum":"2320955703:06:001:0001"},"geometry":{"type":"Polygon","coordinates":[[[35.495591,47.54331],[35.49617,47.54333],[35.496182,47.543178],[35.496229,47.542833],[35.495621,47.542802],[35.495599,47.543151],[35.495597,47.543182],[35.495592,47.543267],[35.495593,47.543267],[35.495591,47.54331]]]}},{"type":"Feature","properties":{"cadnum":"2320955703:06:001:0005"},"geometry":{"type":"Polygon","coordinates":[[[35.465055,47.539443],[35.465227,47.539451],[35.465202,47.539558],[35.465105,47.539982],[35.465454,47.540006],[35.465454,47.539883],[35.46551,47.53945],[35.465515,47.539409],[35.465354,47.539383],[35.46535,47.539418],[35.46508,47.53938],[35.465056,47.539442],[35.465055,47.539442],[35.465055,47.539443]]]}},{"type":"Feature","properties":{"cadnum":"2320955703:06:002:0001"},"geometry":{"type":"Polygon","coordinates":[[[35.465452,47.539989],[35.465916,47.540027],[35.465996,47.539496],[35.465522,47.539458],[35.465511,47.539558],[35.465512,47.539558],[35.465501,47.539668],[35.465452,47.539989]]]}},{"type":"Feature","properties":{"cadnum":"2320955703:06:001:0003"},"geometry":{"type":"Polygon","coordinates":[[[35.473472,47.544764],[35.47398,47.544768],[35.47405,47.544185],[35.473535,47.54418],[35.473472,47.544764]]]}},{"type":"Feature","properties":{"cadnum":"2320955703:06:001:0004"},"geometry":{"type":"Polygon","coordinates":[[[35.473384,47.545579],[35.473883,47.545583],[35.47398,47.544768],[35.473472,47.544764],[35.473384,47.545579]]]}},{"type":"Feature","properties":{"cadnum":"2320955703:06:002:0005"},"geometry":{"type":"Polygon","coordinates":[[[35.462612,47.540496],[35.463328,47.540545],[35.463395,47.540136],[35.462668,47.540086],[35.462612,47.540496]]]}},{"type":"Feature","properties":{"cadnum":"2320955703:06:002:0004"},"geometry":{"type":"Polygon","coordinates":[[[35.462568,47.540827],[35.462797,47.541086],[35.462993,47.54109],[35.462973,47.5414],[35.463185,47.541407],[35.463328,47.540545],[35.462612,47.540496],[35.462568,47.540827]]]}}]}