{"type":"FeatureCollection","features":[{"type":"Feature","properties":{"cadnum":"2320984402:10:003:0047"},"geometry":{"type":"Polygon","coordinates":[[[35.008759,47.327373],[35.008997,47.327373],[35.009264,47.326125],[35.009026,47.326124],[35.008759,47.327373]]]}},{"type":"Feature","properties":{"cadnum":"2320984402:10:003:0048"},"geometry":{"type":"Polygon","coordinates":[[[35.008554,47.32833],[35.008792,47.328334],[35.008939,47.327641],[35.008997,47.327373],[35.008759,47.327373],[35.008676,47.327757],[35.008677,47.327757],[35.008554,47.32833]]]}},{"type":"Feature","properties":{"cadnum":"2320984402:10:007:0001"},"geometry":{"type":"Polygon","coordinates":[[[35.0289,47.328812],[35.029821,47.328937],[35.029821,47.328938],[35.031649,47.329185],[35.031885,47.328264],[35.029821,47.328097],[35.029175,47.328044],[35.0289,47.328812]]]}},{"type":"Feature","properties":{"cadnum":"2320984402:10:003:0033"},"geometry":{"type":"Polygon","coordinates":[[[35.0466,47.328588],[35.047897,47.328741],[35.047933,47.328514],[35.046652,47.328363],[35.0466,47.328588]]]}},{"type":"Feature","properties":{"cadnum":"2320984402:10:003:0032"},"geometry":{"type":"Polygon","coordinates":[[[35.046574,47.328694],[35.047541,47.328809],[35.047445,47.329231],[35.047838,47.329274],[35.047851,47.329145],[35.047839,47.329094],[35.047897,47.328741],[35.0466,47.328588],[35.046574,47.328694]]]}},{"type":"Feature","properties":{"cadnum":"2320984402:10:003:0052"},"geometry":{"type":"Polygon","coordinates":[[[35.037482,47.328532],[35.037993,47.328624],[35.038638,47.32875],[35.038823,47.327883],[35.037651,47.327713],[35.037482,47.328532]]]}},{"type":"Feature","properties":{"cadnum":"2320984402:10:003:0014"},"geometry":{"type":"Polygon","coordinates":[[[35.03928,47.328794],[35.039936,47.328851],[35.040085,47.328237],[35.039437,47.328181],[35.03928,47.328794]]]}},{"type":"Feature","properties":{"cadnum":"2320984402:10:003:0051"},"geometry":{"type":"Polygon","coordinates":[[[35.037651,47.327713],[35.037951,47.327757],[35.037952,47.327757],[35.038823,47.327883],[35.038862,47.327682],[35.038875,47.327614],[35.037699,47.327489],[35.037666,47.327641],[35.037651,47.327713]]]}},{"type":"Feature","properties":{"cadnum":"2320984402:10:003:0013"},"geometry":{"type":"Polygon","coordinates":[[[35.039437,47.328181],[35.040085,47.328237],[35.040191,47.327801],[35.039556,47.327714],[35.039437,47.328181]]]}},{"type":"Feature","properties":{"cadnum":"2320984402:10:001:0019"},"geometry":{"type":"Polygon","coordinates":[[[35.041729,47.326307],[35.042205,47.326361],[35.042386,47.325738],[35.041913,47.325708],[35.041729,47.326307]]]}},{"type":"Feature","properties":{"cadnum":"2320984402:10:001:0020"},"geometry":{"type":"Polygon","coordinates":[[[35.041545,47.326905],[35.042031,47.32696],[35.042205,47.326361],[35.041729,47.326307],[35.041545,47.326905]]]}},{"type":"Feature","properties":{"cadnum":"2320984402:10:001:0013"},"geometry":{"type":"Polygon","coordinates":[[[35.040511,47.324696],[35.040808,47.324738],[35.040919,47.324753],[35.040979,47.324762],[35.041001,47.324765],[35.041183,47.32412],[35.040808,47.32408],[35.040688,47.324067],[35.040511,47.324696]]]}},{"type":"Feature","properties":{"cadnum":"2320984402:10:001:0024"},"geometry":{"type":"Polygon","coordinates":[[[35.041132,47.32484],[35.041646,47.324887],[35.041777,47.324368],[35.041261,47.324321],[35.041132,47.32484]]]}},{"type":"Feature","properties":{"cadnum":"2320984402:10:001:0026"},"geometry":{"type":"Polygon","coordinates":[[[35.043617,47.325071],[35.04412,47.325126],[35.044307,47.324498],[35.043782,47.324441],[35.043617,47.325071]]]}},{"type":"Feature","properties":{"cadnum":"2320984402:10:001:0012"},"geometry":{"type":"Polygon","coordinates":[[[35.040345,47.325286],[35.040808,47.325343],[35.040808,47.325344],[35.040835,47.325346],[35.040979,47.32484],[35.041001,47.324765],[35.040919,47.324753],[35.040511,47.324696],[35.040345,47.325286]]]}},{"type":"Feature","properties":{"cadnum":"2320984402:10:001:0023"},"geometry":{"type":"Polygon","coordinates":[[[35.040991,47.325404],[35.041501,47.325456],[35.041646,47.324887],[35.041132,47.32484],[35.040991,47.325404]]]}},{"type":"Feature","properties":{"cadnum":"2320984402:10:001:0022"},"geometry":{"type":"Polygon","coordinates":[[[35.044536,47.325257],[35.045031,47.325315],[35.04519,47.324637],[35.044712,47.324587],[35.044536,47.325257]]]}},{"type":"Feature","properties":{"cadnum":"2320984402:10:001:0004"},"geometry":{"type":"Polygon","coordinates":[[[35.045558,47.325389],[35.04607,47.32545],[35.046285,47.324764],[35.045767,47.324702],[35.045558,47.325389]]]}},{"type":"Feature","properties":{"cadnum":"2320984402:10:003:0027"},"geometry":{"type":"Polygon","coordinates":[[[35.042975,47.327462],[35.043522,47.327518],[35.043589,47.327236],[35.043033,47.327178],[35.042975,47.327462]]]}},{"type":"Feature","properties":{"cadnum":"2320984402:10:003:0026"},"geometry":{"type":"Polygon","coordinates":[[[35.042865,47.328006],[35.043395,47.328056],[35.043493,47.327641],[35.043522,47.327518],[35.042975,47.327462],[35.042915,47.327757],[35.042865,47.328006]]]}},{"type":"Feature","properties":{"cadnum":"2320984402:10:001:0003"},"geometry":{"type":"Polygon","coordinates":[[[35.045386,47.325951],[35.045893,47.326013],[35.04607,47.32545],[35.045558,47.325389],[35.045386,47.325951]]]}},{"type":"Feature","properties":{"cadnum":"2320984402:10:001:0021"},"geometry":{"type":"Polygon","coordinates":[[[35.044386,47.325831],[35.044897,47.325892],[35.045031,47.325315],[35.044536,47.325257],[35.044386,47.325831]]]}},{"type":"Feature","properties":{"cadnum":"2320984402:10:001:0025"},"geometry":{"type":"Polygon","coordinates":[[[35.043464,47.325656],[35.043943,47.325716],[35.04412,47.325126],[35.043617,47.325071],[35.043464,47.325656]]]}},{"type":"Feature","properties":{"cadnum":"2320984402:10:001:0027"},"geometry":{"type":"Polygon","coordinates":[[[35.021591,47.329707],[35.021918,47.32971],[35.022099,47.32883],[35.021759,47.328816],[35.021591,47.329707]]]}},{"type":"Feature","properties":{"cadnum":"2320984402:10:001:0028"},"geometry":{"type":"Polygon","coordinates":[[[35.021759,47.328816],[35.022099,47.32883],[35.022315,47.327765],[35.021956,47.32777],[35.021759,47.328816]]]}},{"type":"Feature","properties":{"cadnum":"2320984402:10:003:0012"},"geometry":{"type":"Polygon","coordinates":[[[35.032485,47.327873],[35.033159,47.327933],[35.033221,47.327666],[35.033272,47.327443],[35.0326,47.327376],[35.032539,47.327641],[35.032538,47.327641],[35.032485,47.327873]]]}},{"type":"Feature","properties":{"cadnum":"2320984402:10:003:0057"},"geometry":{"type":"Polygon","coordinates":[[[35.029496,47.325994],[35.029821,47.326038],[35.029964,47.326057],[35.029993,47.326061],[35.030145,47.326081],[35.030273,47.325639],[35.029842,47.325583],[35.029623,47.325554],[35.029496,47.325994]]]}},{"type":"Feature","properties":{"cadnum":"2320984402:10:003:0010"},"geometry":{"type":"Polygon","coordinates":[[[35.029042,47.325832],[35.029514,47.325898],[35.02975,47.325062],[35.029314,47.324994],[35.029042,47.325832]]]}},{"type":"Feature","properties":{"cadnum":"2320984402:10:003:0056"},"geometry":{"type":"Polygon","coordinates":[[[35.029367,47.326435],[35.029821,47.326497],[35.02993,47.326511],[35.029993,47.32652],[35.030016,47.326523],[35.030145,47.326081],[35.029964,47.326057],[35.029496,47.325994],[35.029447,47.326163],[35.029367,47.326435]]]}},{"type":"Feature","properties":{"cadnum":"2320984402:10:003:0009"},"geometry":{"type":"Polygon","coordinates":[[[35.028706,47.326375],[35.029158,47.326455],[35.029262,47.326181],[35.029426,47.326214],[35.029514,47.325898],[35.029042,47.325832],[35.028975,47.32604],[35.028836,47.326014],[35.028706,47.326375]]]}},{"type":"Feature","properties":{"cadnum":"2320984402:10:001:0011"},"geometry":{"type":"Polygon","coordinates":[[[35.047018,47.326823],[35.04754,47.326881],[35.047673,47.326326],[35.04715,47.326267],[35.047018,47.326823]]]}},{"type":"Feature","properties":{"cadnum":"2320984402:10:001:0005"},"geometry":{"type":"Polygon","coordinates":[[[35.047964,47.326965],[35.04851,47.327032],[35.048629,47.32649],[35.048099,47.326431],[35.047964,47.326965]]]}},{"type":"Feature","properties":{"cadnum":"2320984402:10:001:0006"},"geometry":{"type":"Polygon","coordinates":[[[35.047795,47.327633],[35.048362,47.327696],[35.04851,47.327032],[35.047964,47.326965],[35.047795,47.327633]]]}},{"type":"Feature","properties":{"cadnum":"2320984402:10:001:0032"},"geometry":{"type":"Polygon","coordinates":[[[35.004825,47.329907],[35.005189,47.329946],[35.005307,47.329492],[35.005392,47.329167],[35.005016,47.32912],[35.004905,47.329586],[35.004825,47.329907]]]}},{"type":"Feature","properties":{"cadnum":"2320984402:10:003:0002"},"geometry":{"type":"Polygon","coordinates":[[[35.006639,47.327963],[35.006993,47.328001],[35.007091,47.327641],[35.007298,47.326884],[35.006915,47.326878],[35.006721,47.327641],[35.006693,47.327752],[35.006691,47.327757],[35.006639,47.327963]]]}},{"type":"Feature","properties":{"cadnum":"2320984402:10:001:0033"},"geometry":{"type":"Polygon","coordinates":[[[35.005016,47.32912],[35.005392,47.329167],[35.005539,47.328589],[35.005156,47.328541],[35.005016,47.32912]]]}},{"type":"Feature","properties":{"cadnum":"2320984402:10:003:0042"},"geometry":{"type":"Polygon","coordinates":[[[35.005301,47.327927],[35.005617,47.327936],[35.00569,47.327641],[35.005689,47.327641],[35.005842,47.327017],[35.005518,47.327007],[35.00534,47.327757],[35.005301,47.327927]]]}},{"type":"Feature","properties":{"cadnum":"2320984402:10:003:0017"},"geometry":{"type":"Polygon","coordinates":[[[35.006218,47.32806],[35.006615,47.32806],[35.006639,47.327963],[35.006693,47.327752],[35.006887,47.326989],[35.006532,47.326948],[35.006302,47.327757],[35.006303,47.327757],[35.006218,47.32806]]]}},{"type":"Feature","properties":{"cadnum":"2320984402:10:001:0002"},"geometry":{"type":"Polygon","coordinates":[[[35.034124,47.324061],[35.034608,47.324122],[35.034663,47.323917],[35.034797,47.323429],[35.034329,47.323365],[35.034166,47.323917],[35.034165,47.323917],[35.034124,47.324061]]]}},{"type":"Feature","properties":{"cadnum":"2320984402:10:003:0054"},"geometry":{"type":"Polygon","coordinates":[[[35.036711,47.327295],[35.037399,47.327384],[35.037515,47.326967],[35.036827,47.326878],[35.036711,47.327295]]]}},{"type":"Feature","properties":{"cadnum":"2320984402:10:003:0034"},"geometry":{"type":"Polygon","coordinates":[[[35.035233,47.327134],[35.035314,47.327144],[35.035315,47.327144],[35.035403,47.327154],[35.035486,47.327164],[35.03617,47.327243],[35.036212,47.327006],[35.035911,47.326994],[35.035911,47.326993],[35.035945,47.326854],[35.035321,47.326782],[35.035233,47.327134]]]}},{"type":"Feature","properties":{"cadnum":"2320984402:10:003:0031"},"geometry":{"type":"Polygon","coordinates":[[[35.039043,47.327096],[35.039664,47.327174],[35.03974,47.326743],[35.039145,47.32667],[35.039043,47.327096]]]}},{"type":"Feature","properties":{"cadnum":"2320984402:10:003:0035"},"geometry":{"type":"Polygon","coordinates":[[[35.035321,47.326782],[35.035486,47.326801],[35.035945,47.326854],[35.036055,47.326387],[35.035438,47.326315],[35.035321,47.326782]]]}},{"type":"Feature","properties":{"cadnum":"2320984402:10:003:0055"},"geometry":{"type":"Polygon","coordinates":[[[35.036827,47.326878],[35.037515,47.326967],[35.037649,47.32649],[35.036959,47.326411],[35.036827,47.326878]]]}},{"type":"Feature","properties":{"cadnum":"2320984402:10:003:0030"},"geometry":{"type":"Polygon","coordinates":[[[35.038934,47.327551],[35.039582,47.327633],[35.039664,47.327174],[35.039043,47.327096],[35.038934,47.327551]]]}},{"type":"Feature","properties":{"cadnum":"2320984402:10:005:0001"},"geometry":{"type":"Polygon","coordinates":[[[35.017049,47.328055],[35.017247,47.32846],[35.017267,47.329227],[35.017671,47.329235],[35.017709,47.329235],[35.017973,47.329238],[35.018104,47.329241],[35.018383,47.328104],[35.01789,47.328086],[35.017624,47.328076],[35.017603,47.328075],[35.017287,47.328064],[35.017049,47.328055]]]}},{"type":"Feature","properties":{"cadnum":"2320984402:10:001:0014"},"geometry":{"type":"Polygon","coordinates":[[[35.014176,47.329777],[35.014582,47.32974],[35.014577,47.329412],[35.014609,47.328999],[35.014206,47.329035],[35.01418,47.329353],[35.014176,47.329777]]]}},{"type":"Feature","properties":{"cadnum":"2320984402:10:005:1009"},"geometry":{"type":"Polygon","coordinates":[[[35.017837,47.329613],[35.018072,47.330665],[35.018378,47.330612],[35.018081,47.329577],[35.017837,47.329613]]]}},{"type":"Feature","properties":{"cadnum":"2320984402:10:001:0015"},"geometry":{"type":"Polygon","coordinates":[[[35.014206,47.329035],[35.014609,47.328999],[35.014684,47.328003],[35.014289,47.327997],[35.014206,47.329035]]]}},{"type":"Feature","properties":{"cadnum":"2320984402:10:005:0009"},"geometry":{"type":"Polygon","coordinates":[[[35.018072,47.330665],[35.018254,47.33148],[35.018255,47.33148],[35.018268,47.331535],[35.018609,47.331466],[35.018622,47.331464],[35.018378,47.330612],[35.018072,47.330665]]]}},{"type":"Feature","properties":{"cadnum":"2320984402:10:003:0050"},"geometry":{"type":"Polygon","coordinates":[[[35.021154,47.324849],[35.021647,47.324886],[35.021798,47.32417],[35.021288,47.324191],[35.021154,47.324849]]]}},{"type":"Feature","properties":{"cadnum":"2320984402:10:003:0049"},"geometry":{"type":"Polygon","coordinates":[[[35.021026,47.325473],[35.021529,47.325452],[35.021647,47.324886],[35.021154,47.324849],[35.021026,47.325473]]]}},{"type":"Feature","properties":{"cadnum":"2320984402:10:003:0040"},"geometry":{"type":"Polygon","coordinates":[[[35.023777,47.32629],[35.024232,47.326264],[35.024368,47.325606],[35.023981,47.325544],[35.023934,47.325839],[35.023884,47.325832],[35.023777,47.32629]]]}},{"type":"Feature","properties":{"cadnum":"2320984402:10:003:0041"},"geometry":{"type":"Polygon","coordinates":[[[35.02354,47.327312],[35.02402,47.327285],[35.024096,47.326916],[35.024232,47.326264],[35.023777,47.32629],[35.023625,47.326942],[35.02354,47.327312]]]}},{"type":"Feature","properties":{"cadnum":"2320984402:10:003:0036"},"geometry":{"type":"Polygon","coordinates":[[[35.0225,47.325394],[35.022978,47.325364],[35.02308,47.32471],[35.022638,47.324737],[35.0225,47.325394]]]}},{"type":"Feature","properties":{"cadnum":"2320984402:10:003:0037"},"geometry":{"type":"Polygon","coordinates":[[[35.022638,47.324737],[35.02308,47.32471],[35.023204,47.324014],[35.022777,47.324048],[35.022638,47.324737]]]}},{"type":"Feature","properties":{"cadnum":"2320984402:10:001:0001"},"geometry":{"type":"Polygon","coordinates":[[[35.033952,47.32465],[35.034435,47.324709],[35.034533,47.324401],[35.034608,47.324122],[35.034124,47.324061],[35.034046,47.324324],[35.033952,47.32465]]]}},{"type":"Feature","properties":{"cadnum":"2320984402:10:003:0011"},"geometry":{"type":"Polygon","coordinates":[[[35.0326,47.327376],[35.033272,47.327443],[35.033366,47.327037],[35.032671,47.326938],[35.032667,47.326955],[35.032622,47.327161],[35.032611,47.327224],[35.032634,47.327228],[35.0326,47.327376]]]}},{"type":"Feature","properties":{"cadnum":"2320984402:10:003:0023"},"geometry":{"type":"Polygon","coordinates":[[[35.012026,47.329964],[35.012386,47.329947],[35.012451,47.329144],[35.012067,47.329163],[35.012026,47.329964]]]}},{"type":"Feature","properties":{"cadnum":"2320984402:10:003:0022"},"geometry":{"type":"Polygon","coordinates":[[[35.012067,47.329163],[35.012451,47.329144],[35.012518,47.328317],[35.0121,47.328487],[35.012067,47.329163]]]}},{"type":"Feature","properties":{"cadnum":"2320984402:10:003:0016"},"geometry":{"type":"Polygon","coordinates":[[[35.006532,47.326948],[35.006887,47.326989],[35.006915,47.326878],[35.007106,47.326125],[35.006762,47.326132],[35.006532,47.326948]]]}},{"type":"Feature","properties":{"cadnum":"2320984402:10:003:0001"},"geometry":{"type":"Polygon","coordinates":[[[35.006915,47.326878],[35.007298,47.326884],[35.007507,47.326113],[35.007106,47.326125],[35.006915,47.326878]]]}},{"type":"Feature","properties":{"cadnum":"2320984402:10:003:0058"},"geometry":{"type":"Polygon","coordinates":[[[35.043666,47.328497],[35.044785,47.328695],[35.044788,47.328585],[35.044749,47.328494],[35.044692,47.328445],[35.043702,47.328183],[35.043666,47.328497]]]}},{"type":"Feature","properties":{"cadnum":"2320984402:10:003:0006"},"geometry":{"type":"Polygon","coordinates":[[[35.043271,47.329137],[35.044509,47.32929],[35.044555,47.329105],[35.043298,47.328854],[35.043279,47.329047],[35.043271,47.329137]]]}},{"type":"Feature","properties":{"cadnum":"2320984402:10:003:0059"},"geometry":{"type":"Polygon","coordinates":[[[35.043627,47.328851],[35.044578,47.32904],[35.044728,47.329069],[35.044737,47.329037],[35.044785,47.328857],[35.044785,47.328695],[35.043666,47.328497],[35.043627,47.328851]],[[35.044186,47.328817],[35.044178,47.328801],[35.044203,47.328796],[35.04421,47.328813],[35.044186,47.328817]]]}},{"type":"Feature","properties":{"cadnum":"2320984402:10:003:0019"},"geometry":{"type":"Polygon","coordinates":[[[35.041351,47.328989],[35.041832,47.329054],[35.042,47.328311],[35.042078,47.327896],[35.041655,47.327838],[35.041351,47.328989]]]}},{"type":"Feature","properties":{"cadnum":"2320984402:10:003:0039"},"geometry":{"type":"Polygon","coordinates":[[[35.045149,47.329812],[35.045975,47.329894],[35.046066,47.329543],[35.045241,47.329461],[35.045149,47.329812]]]}},{"type":"Feature","properties":{"cadnum":"2320984402:10:003:0008"},"geometry":{"type":"Polygon","coordinates":[[[35.042535,47.329042],[35.043279,47.329047],[35.043317,47.328656],[35.042688,47.328562],[35.042535,47.329042]]]}},{"type":"Feature","properties":{"cadnum":"2320984402:10:003:0005"},"geometry":{"type":"Polygon","coordinates":[[[35.043298,47.328854],[35.044555,47.329105],[35.044571,47.329041],[35.043619,47.328852],[35.043619,47.328851],[35.043694,47.328184],[35.043367,47.32815],[35.043298,47.328854]]]}},{"type":"Feature","properties":{"cadnum":"2320984402:10:003:0007"},"geometry":{"type":"Polygon","coordinates":[[[35.042688,47.328562],[35.043317,47.328656],[35.043367,47.32815],[35.042845,47.328066],[35.042688,47.328562]]]}},{"type":"Feature","properties":{"cadnum":"2320984402:10:003:0038"},"geometry":{"type":"Polygon","coordinates":[[[35.045241,47.329461],[35.046066,47.329543],[35.046159,47.329191],[35.045333,47.32911],[35.045241,47.329461]]]}},{"type":"Feature","properties":{"cadnum":"2320984402:10:003:0003"},"geometry":{"type":"Polygon","coordinates":[[[35.016099,47.326864],[35.016444,47.326873],[35.016465,47.326648],[35.016507,47.326014],[35.016168,47.326016],[35.01611,47.326639],[35.016099,47.326864]]]}},{"type":"Feature","properties":{"cadnum":"2320984402:10:003:0028"},"geometry":{"type":"Polygon","coordinates":[[[35.01799,47.325702],[35.018625,47.32565],[35.018649,47.325177],[35.018022,47.325226],[35.01799,47.325702]]]}},{"type":"Feature","properties":{"cadnum":"2320984402:10:003:0004"},"geometry":{"type":"Polygon","coordinates":[[[35.016063,47.327691],[35.016365,47.327674],[35.016444,47.326873],[35.016099,47.326864],[35.016063,47.327691]]]}},{"type":"Feature","properties":{"cadnum":"2320984402:10:003:0029"},"geometry":{"type":"Polygon","coordinates":[[[35.018022,47.325226],[35.018649,47.325177],[35.018673,47.324696],[35.018055,47.324745],[35.018022,47.325226]]]}}]}