{"type":"FeatureCollection","features":[{"type":"Feature","properties":{"cadnum":"2320685501:03:029:0002"},"geometry":{"type":"Polygon","coordinates":[[[36.830105,46.919701],[36.830616,46.9197],[36.830496,46.919304],[36.830131,46.919307],[36.830105,46.919701]]]}},{"type":"Feature","properties":{"cadnum":"2320685501:03:040:0001"},"geometry":{"type":"Polygon","coordinates":[[[36.817656,46.912723],[36.817656,46.912737],[36.817671,46.913191],[36.818003,46.913183],[36.818324,46.913176],[36.818337,46.912759],[36.818085,46.912745],[36.817656,46.912723]]]}},{"type":"Feature","properties":{"cadnum":"2320685501:03:036:0003"},"geometry":{"type":"Polygon","coordinates":[[[36.815711,46.912743],[36.815712,46.912744],[36.815762,46.912855],[36.815832,46.913007],[36.816116,46.912954],[36.816158,46.912896],[36.816622,46.912816],[36.816659,46.91281],[36.816641,46.912597],[36.815746,46.912737],[36.815715,46.912742],[36.815711,46.912743]]]}},{"type":"Feature","properties":{"cadnum":"2320685501:03:040:0003"},"geometry":{"type":"Polygon","coordinates":[[[36.813166,46.913177],[36.813218,46.913312],[36.813556,46.91324],[36.8151,46.912907],[36.8151,46.912908],[36.815125,46.912901],[36.815124,46.912898],[36.815247,46.912874],[36.815271,46.91287],[36.81553,46.912827],[36.815534,46.912826],[36.815487,46.912707],[36.815341,46.912737],[36.815135,46.91278],[36.81512,46.912783],[36.815124,46.912793],[36.8151,46.912798],[36.814811,46.912855],[36.814308,46.912953],[36.813398,46.913127],[36.813166,46.913177]]]}},{"type":"Feature","properties":{"cadnum":"2320685501:03:040:0004"},"geometry":{"type":"Polygon","coordinates":[[[36.818082,46.912742],[36.818341,46.91276],[36.818356,46.912758],[36.818383,46.91252],[36.818482,46.912062],[36.818335,46.91204],[36.818334,46.91204],[36.818337,46.912027],[36.818245,46.912014],[36.818239,46.912026],[36.818163,46.912015],[36.818119,46.912341],[36.818082,46.912742]]]}},{"type":"Feature","properties":{"cadnum":"2320685501:03:040:0002"},"geometry":{"type":"Polygon","coordinates":[[[36.816705,46.912773],[36.817349,46.912768],[36.817372,46.91278],[36.817523,46.912778],[36.817482,46.912432],[36.816756,46.91242],[36.816721,46.912642],[36.816705,46.912773]]]}},{"type":"Feature","properties":{"cadnum":"2320685501:02:002:0003"},"geometry":{"type":"Polygon","coordinates":[[[36.814384,46.912201],[36.8151,46.912293],[36.8151,46.912294],[36.815182,46.912304],[36.815271,46.912298],[36.815414,46.912287],[36.815432,46.912075],[36.8151,46.912058],[36.814856,46.912046],[36.814853,46.912069],[36.814398,46.91204],[36.814384,46.912201]]]}},{"type":"Feature","properties":{"cadnum":"2320685501:03:033:0004"},"geometry":{"type":"Polygon","coordinates":[[[36.827635,46.912603],[36.827724,46.912753],[36.828016,46.912672],[36.827927,46.912522],[36.827635,46.912603]]]}},{"type":"Feature","properties":{"cadnum":"2320685501:03:042:0007"},"geometry":{"type":"Polygon","coordinates":[[[36.82995,46.909165],[36.830238,46.909218],[36.830257,46.909173],[36.830298,46.909079],[36.830408,46.908827],[36.830409,46.908827],[36.830488,46.908847],[36.830683,46.908451],[36.830269,46.908376],[36.829974,46.909102],[36.829975,46.909102],[36.82997,46.909115],[36.82995,46.909165]]]}},{"type":"Feature","properties":{"cadnum":"2320685501:03:033:0003"},"geometry":{"type":"Polygon","coordinates":[[[36.828626,46.912409],[36.828658,46.912614],[36.828726,46.912737],[36.828725,46.912737],[36.82879,46.912851],[36.82942,46.912841],[36.82942,46.91284],[36.829227,46.912373],[36.828626,46.912409]]]}},{"type":"Feature","properties":{"cadnum":"2320685501:01:007:0004"},"geometry":{"type":"Polygon","coordinates":[[[36.782337,46.924244],[36.782347,46.924424],[36.783134,46.924416],[36.783123,46.924093],[36.783116,46.92385],[36.782599,46.924111],[36.7826,46.924111],[36.782337,46.924244]]]}},{"type":"Feature","properties":{"cadnum":"2320685501:02:006:0007"},"geometry":{"type":"Polygon","coordinates":[[[36.818198,46.903763],[36.818642,46.903809],[36.819364,46.903896],[36.819375,46.90384],[36.819385,46.903664],[36.819051,46.90361],[36.818219,46.903496],[36.818198,46.903763]]]}},{"type":"Feature","properties":{"cadnum":"2320685501:02:006:0002"},"geometry":{"type":"Polygon","coordinates":[[[36.820643,46.903066],[36.820765,46.903081],[36.821184,46.903133],[36.821321,46.90261],[36.820779,46.902543],[36.820643,46.903066]]]}},{"type":"Feature","properties":{"cadnum":"2320685501:02:006:0005"},"geometry":{"type":"Polygon","coordinates":[[[36.818899,46.902712],[36.820093,46.902842],[36.82018,46.902469],[36.818981,46.90236],[36.818899,46.902712]]]}},{"type":"Feature","properties":{"cadnum":"2320685501:02:006:0006"},"geometry":{"type":"Polygon","coordinates":[[[36.818034,46.905655],[36.818282,46.90569],[36.818348,46.905232],[36.818375,46.905049],[36.818077,46.905027],[36.818062,46.905232],[36.818058,46.905293],[36.818054,46.905349],[36.818034,46.905655]]]}},{"type":"Feature","properties":{"cadnum":"2320685501:02:007:0003"},"geometry":{"type":"Polygon","coordinates":[[[36.820008,46.905051],[36.820593,46.90513],[36.820725,46.905148],[36.820765,46.905153],[36.821377,46.905235],[36.821423,46.905084],[36.820593,46.904971],[36.820044,46.904895],[36.820016,46.905014],[36.820008,46.905051]]]}},{"type":"Feature","properties":{"cadnum":"2320685501:02:004:0004"},"geometry":{"type":"Polygon","coordinates":[[[36.814436,46.901678],[36.815271,46.901792],[36.815271,46.901791],[36.815833,46.901867],[36.815931,46.901876],[36.816017,46.901721],[36.815271,46.901615],[36.815271,46.901614],[36.81449,46.901503],[36.814456,46.901498],[36.814444,46.901596],[36.814445,46.901596],[36.814436,46.901678]]]}},{"type":"Feature","properties":{"cadnum":"2320685501:02:004:0006"},"geometry":{"type":"Polygon","coordinates":[[[36.814456,46.901853],[36.815271,46.901948],[36.815392,46.901962],[36.815349,46.902148],[36.815692,46.902198],[36.815833,46.901867],[36.815271,46.901792],[36.814481,46.901685],[36.814456,46.901853]]]}},{"type":"Feature","properties":{"cadnum":"2320685501:02:006:0004"},"geometry":{"type":"Polygon","coordinates":[[[36.818062,46.902621],[36.818899,46.902712],[36.818981,46.90236],[36.818434,46.90231],[36.818431,46.902323],[36.818431,46.902324],[36.818171,46.9023],[36.818174,46.902286],[36.818141,46.902283],[36.818062,46.902621]]]}},{"type":"Feature","properties":{"cadnum":"2320685501:02:007:0008"},"geometry":{"type":"Polygon","coordinates":[[[36.820232,46.90332],[36.820593,46.903363],[36.820593,46.903364],[36.821069,46.90342],[36.821115,46.903281],[36.820663,46.903233],[36.820246,46.903189],[36.820232,46.90332]]]}},{"type":"Feature","properties":{"cadnum":"2320685501:02:007:0007"},"geometry":{"type":"Polygon","coordinates":[[[36.818151,46.903132],[36.818224,46.903136],[36.818224,46.903145],[36.818459,46.903161],[36.818481,46.903156],[36.818864,46.903204],[36.820187,46.903313],[36.820232,46.90332],[36.820246,46.903189],[36.819394,46.903097],[36.819132,46.90309],[36.818219,46.902991],[36.818164,46.902999],[36.818151,46.903132]]]}},{"type":"Feature","properties":{"cadnum":"2320685501:02:006:0008"},"geometry":{"type":"Polygon","coordinates":[[[36.819375,46.90384],[36.820593,46.904009],[36.820694,46.904024],[36.820765,46.904033],[36.820983,46.904064],[36.821048,46.903903],[36.820593,46.903838],[36.819407,46.903668],[36.819385,46.903664],[36.819375,46.90384]]]}},{"type":"Feature","properties":{"cadnum":"2320685501:02:008:0004"},"geometry":{"type":"Polygon","coordinates":[[[36.817094,46.905522],[36.817645,46.905628],[36.817691,46.905433],[36.817699,46.905349],[36.817728,46.905052],[36.817294,46.904973],[36.8172,46.905232],[36.817199,46.905232],[36.817094,46.905522]]]}},{"type":"Feature","properties":{"cadnum":"2320685501:03:050:0004"},"geometry":{"type":"Polygon","coordinates":[[[36.830795,46.903563],[36.831579,46.903634],[36.83159,46.903635],[36.831701,46.903291],[36.831378,46.903249],[36.830918,46.903184],[36.830795,46.903563]]]}},{"type":"Feature","properties":{"cadnum":"2320685501:03:003:0003"},"geometry":{"type":"Polygon","coordinates":[[[36.788346,46.92446],[36.788526,46.924853],[36.788531,46.924864],[36.788907,46.924848],[36.788876,46.924776],[36.78872,46.924435],[36.788346,46.92446]]]}},{"type":"Feature","properties":{"cadnum":"2320685501:03:004:0003"},"geometry":{"type":"Polygon","coordinates":[[[36.787466,46.9224],[36.787525,46.922522],[36.787806,46.923161],[36.787922,46.923425],[36.788197,46.924111],[36.788198,46.924111],[36.788284,46.924326],[36.788346,46.92446],[36.78872,46.924435],[36.788641,46.924263],[36.788532,46.923993],[36.788279,46.923363],[36.787874,46.922445],[36.787862,46.922418],[36.787656,46.922409],[36.787466,46.9224]]]}},{"type":"Feature","properties":{"cadnum":"2320685501:01:011:0004"},"geometry":{"type":"Polygon","coordinates":[[[36.803955,46.920247],[36.803956,46.920248],[36.804135,46.920359],[36.804136,46.920359],[36.804203,46.9204],[36.804285,46.920451],[36.80447,46.920566],[36.804893,46.920245],[36.804363,46.919937],[36.804243,46.920028],[36.803962,46.920242],[36.803955,46.920247]]]}},{"type":"Feature","properties":{"cadnum":"2320685501:01:011:0005"},"geometry":{"type":"Polygon","coordinates":[[[36.80447,46.920566],[36.804716,46.920717],[36.805146,46.920389],[36.804896,46.920247],[36.804893,46.920245],[36.804742,46.920359],[36.804743,46.920359],[36.80447,46.920566]]]}},{"type":"Feature","properties":{"cadnum":"2320685501:03:018:0007"},"geometry":{"type":"Polygon","coordinates":[[[36.82047,46.928076],[36.820593,46.928172],[36.820593,46.928173],[36.820726,46.928275],[36.820765,46.928258],[36.820765,46.928257],[36.820881,46.928204],[36.820901,46.928195],[36.821001,46.928139],[36.821243,46.928028],[36.821217,46.928003],[36.821216,46.928003],[36.821089,46.927792],[36.820909,46.927862],[36.820868,46.927879],[36.820732,46.927945],[36.820523,46.928045],[36.82047,46.928076]]]}},{"type":"Feature","properties":{"cadnum":"2320685501:03:018:0001"},"geometry":{"type":"Polygon","coordinates":[[[36.820019,46.928032],[36.820247,46.9282],[36.820469,46.928076],[36.820523,46.928045],[36.820593,46.928012],[36.820732,46.927945],[36.820765,46.927929],[36.820868,46.927879],[36.821089,46.927792],[36.820979,46.927573],[36.82062,46.927745],[36.820618,46.927745],[36.820019,46.928032]]]}},{"type":"Feature","properties":{"cadnum":"2320685501:01:023:0001"},"geometry":{"type":"Polygon","coordinates":[[[36.817723,46.894209],[36.81814,46.894251],[36.818788,46.894311],[36.818837,46.894042],[36.818808,46.894039],[36.817774,46.893935],[36.817767,46.893972],[36.817766,46.893972],[36.817749,46.894066],[36.817744,46.894089],[36.817745,46.894089],[36.817723,46.894209]]]}},{"type":"Feature","properties":{"cadnum":"2320685501:01:023:0002"},"geometry":{"type":"Polygon","coordinates":[[[36.81719,46.896173],[36.817205,46.896364],[36.817789,46.89642],[36.817798,46.896368],[36.817892,46.896378],[36.817955,46.896384],[36.817944,46.896436],[36.818124,46.896453],[36.818191,46.896255],[36.817191,46.896173],[36.81719,46.896173]]]}},{"type":"Feature","properties":{"cadnum":"2320685501:01:023:0003"},"geometry":{"type":"Polygon","coordinates":[[[36.817789,46.89642],[36.817944,46.896436],[36.817955,46.896384],[36.817798,46.896368],[36.817789,46.89642]]]}},{"type":"Feature","properties":{"cadnum":"2320685501:02:023:0001"},"geometry":{"type":"Polygon","coordinates":[[[36.817262,46.895484],[36.81799,46.89557],[36.818073,46.895182],[36.817347,46.895083],[36.817262,46.895484]]]}},{"type":"Feature","properties":{"cadnum":"2320685501:02:023:0002"},"geometry":{"type":"Polygon","coordinates":[[[36.81799,46.89557],[36.818473,46.89563],[36.818583,46.895252],[36.818073,46.895182],[36.81799,46.89557]]]}},{"type":"Feature","properties":{"cadnum":"2320685501:02:015:0008"},"geometry":{"type":"Polygon","coordinates":[[[36.816075,46.898176],[36.816544,46.898206],[36.816615,46.897843],[36.816665,46.897592],[36.816211,46.897535],[36.816171,46.897725],[36.81617,46.897725],[36.816075,46.898176]]]}},{"type":"Feature","properties":{"cadnum":"2320685501:02:013:0003"},"geometry":{"type":"Polygon","coordinates":[[[36.825311,46.897771],[36.825526,46.897784],[36.825972,46.897811],[36.825991,46.897693],[36.825331,46.897654],[36.825319,46.897725],[36.825318,46.897725],[36.825311,46.897771]]]}},{"type":"Feature","properties":{"cadnum":"2320685501:02:022:0003"},"geometry":{"type":"Polygon","coordinates":[[[36.823736,46.898162],[36.826258,46.898425],[36.826258,46.898424],[36.826281,46.898426],[36.826291,46.898383],[36.826163,46.898361],[36.825928,46.898319],[36.825827,46.898308],[36.824479,46.89818],[36.823746,46.898122],[36.823736,46.898162]]]}},{"type":"Feature","properties":{"cadnum":"2320685501:02:007:0005"},"geometry":{"type":"Polygon","coordinates":[[[36.824249,46.901957],[36.824638,46.902003],[36.824739,46.901596],[36.82474,46.901596],[36.824823,46.901264],[36.824435,46.901218],[36.824339,46.901596],[36.82434,46.901596],[36.824249,46.901957]]]}},{"type":"Feature","properties":{"cadnum":"2320685501:02:007:0001"},"geometry":{"type":"Polygon","coordinates":[[[36.821922,46.901245],[36.822799,46.901371],[36.822883,46.901035],[36.822,46.900931],[36.821922,46.901245]]]}},{"type":"Feature","properties":{"cadnum":"2320685501:02:014:0009"},"geometry":{"type":"Polygon","coordinates":[[[36.820583,46.898237],[36.820593,46.898237],[36.820593,46.898238],[36.821343,46.898259],[36.821384,46.897988],[36.820659,46.897981],[36.820583,46.898237]]]}},{"type":"Feature","properties":{"cadnum":"2320685501:02:013:0005"},"geometry":{"type":"Polygon","coordinates":[[[36.823775,46.897866],[36.824162,46.897902],[36.824182,46.897791],[36.824249,46.897428],[36.824306,46.897146],[36.823917,46.897109],[36.823876,46.897361],[36.823803,46.897725],[36.823802,46.897725],[36.823787,46.897803],[36.823779,46.897843],[36.82378,46.897843],[36.823775,46.897866]]]}},{"type":"Feature","properties":{"cadnum":"2320685501:00:000:0000"},"geometry":{"type":"Polygon","coordinates":[[[36.823913,46.897891],[36.824302,46.897917],[36.824315,46.897808],[36.824359,46.897439],[36.8244,46.897157],[36.824009,46.897132],[36.823983,46.897384],[36.823919,46.897843],[36.82392,46.897843],[36.823913,46.897891]]]}},{"type":"Feature","properties":{"cadnum":"2320685501:02:014:0002"},"geometry":{"type":"Polygon","coordinates":[[[36.819975,46.899223],[36.820765,46.899332],[36.820765,46.899331],[36.82081,46.899337],[36.820873,46.899107],[36.820908,46.898977],[36.820765,46.898959],[36.82007,46.89887],[36.819975,46.899223]]]}},{"type":"Feature","properties":{"cadnum":"2320685501:02:022:0004"},"geometry":{"type":"Polygon","coordinates":[[[36.823711,46.898267],[36.826086,46.89853],[36.826252,46.898548],[36.826258,46.898525],[36.826281,46.898426],[36.826086,46.898406],[36.826086,46.898407],[36.823736,46.898162],[36.823711,46.898267]]]}},{"type":"Feature","properties":{"cadnum":"2320685501:03:042:0001"},"geometry":{"type":"Polygon","coordinates":[[[36.834193,46.90986],[36.834583,46.90993],[36.834876,46.909253],[36.834457,46.909177],[36.834193,46.90986]]]}},{"type":"Feature","properties":{"cadnum":"2320685501:03:042:0002"},"geometry":{"type":"Polygon","coordinates":[[[36.834109,46.910078],[36.83432,46.910111],[36.834499,46.910138],[36.834583,46.90993],[36.834193,46.90986],[36.834109,46.910078]]]}},{"type":"Feature","properties":{"cadnum":"2320685501:03:033:0002"},"geometry":{"type":"Polygon","coordinates":[[[36.832138,46.912572],[36.832239,46.912855],[36.83224,46.912855],[36.832295,46.913007],[36.833016,46.912856],[36.832995,46.91281],[36.832847,46.912472],[36.832138,46.912572]]]}},{"type":"Feature","properties":{"cadnum":"2320685501:03:033:0001"},"geometry":{"type":"Polygon","coordinates":[[[36.83199,46.912161],[36.832121,46.912526],[36.832138,46.912572],[36.832847,46.912472],[36.832674,46.912078],[36.83199,46.912161]]]}},{"type":"Feature","properties":{"cadnum":"2320685501:03:012:0001"},"geometry":{"type":"Polygon","coordinates":[[[36.828004,46.928545],[36.828315,46.9289],[36.828837,46.928714],[36.828589,46.928305],[36.828004,46.928545]]]}},{"type":"Feature","properties":{"cadnum":"2320685501:03:017:0005"},"geometry":{"type":"Polygon","coordinates":[[[36.828061,46.927838],[36.828083,46.927862],[36.828457,46.928273],[36.828896,46.928127],[36.828552,46.927745],[36.828475,46.927658],[36.828275,46.927745],[36.828061,46.927838]]]}},{"type":"Feature","properties":{"cadnum":"2320685501:03:012:0003"},"geometry":{"type":"Polygon","coordinates":[[[36.827298,46.929303],[36.827572,46.929591],[36.827614,46.92958],[36.827646,46.92957],[36.827371,46.92928],[36.827298,46.929303]]]}},{"type":"Feature","properties":{"cadnum":"2320685501:03:017:0000"},"geometry":{"type":"Polygon","coordinates":[[[36.827547,46.928116],[36.827923,46.928453],[36.828457,46.928273],[36.828061,46.927838],[36.827547,46.928116]]]}},{"type":"Feature","properties":{"cadnum":"2320685501:03:012:0002"},"geometry":{"type":"Polygon","coordinates":[[[36.827371,46.92928],[36.827646,46.92957],[36.827925,46.929482],[36.828416,46.929325],[36.828418,46.929299],[36.828167,46.929035],[36.827371,46.92928]]]}},{"type":"Feature","properties":{"cadnum":"2320685501:02:013:0001"},"geometry":{"type":"Polygon","coordinates":[[[36.826074,46.897516],[36.826086,46.897517],[36.82651,46.897536],[36.826553,46.897335],[36.826118,46.897294],[36.826074,46.897516]]]}},{"type":"Feature","properties":{"cadnum":"2320685501:02:022:0001"},"geometry":{"type":"Polygon","coordinates":[[[36.825272,46.894989],[36.826086,46.895082],[36.826129,46.895087],[36.826195,46.894817],[36.825855,46.894778],[36.825304,46.894775],[36.825272,46.894989]]]}},{"type":"Feature","properties":{"cadnum":"2320685501:03:048:0001"},"geometry":{"type":"Polygon","coordinates":[[[36.833481,46.907137],[36.835015,46.907279],[36.835023,46.907238],[36.835004,46.907214],[36.835012,46.907181],[36.83538,46.906362],[36.837244,46.906659],[36.837703,46.906732],[36.837594,46.905232],[36.83746,46.903371],[36.837072,46.903304],[36.836518,46.903208],[36.835772,46.905349],[36.835534,46.906033],[36.835534,46.906034],[36.835419,46.906014],[36.835061,46.906917],[36.834971,46.907143],[36.834957,46.907168],[36.834931,46.907196],[36.8349,46.90721],[36.834856,46.907223],[36.833492,46.907097],[36.833481,46.907137]]]}},{"type":"Feature","properties":{"cadnum":"2320685501:03:019:0001"},"geometry":{"type":"Polygon","coordinates":[[[36.819716,46.923489],[36.819846,46.923647],[36.820593,46.923423],[36.820593,46.923424],[36.820858,46.923343],[36.820692,46.923134],[36.819716,46.923489]]]}},{"type":"Feature","properties":{"cadnum":"2320685501:03:028:0007"},"geometry":{"type":"Polygon","coordinates":[[[36.820372,46.919969],[36.820474,46.920241],[36.820474,46.920242],[36.82051,46.920337],[36.82051,46.920338],[36.820593,46.920326],[36.820593,46.920327],[36.821052,46.920262],[36.82092,46.919904],[36.820631,46.919938],[36.820372,46.919969]]]}},{"type":"Feature","properties":{"cadnum":"2320685501:01:004:0001"},"geometry":{"type":"Polygon","coordinates":[[[36.814099,46.923143],[36.81463,46.923624],[36.81484,46.923523],[36.815019,46.923432],[36.8151,46.923386],[36.8151,46.923387],[36.815247,46.923303],[36.814106,46.92314],[36.814099,46.923143]]]}},{"type":"Feature","properties":{"cadnum":"2320685501:03:019:0003"},"geometry":{"type":"Polygon","coordinates":[[[36.818255,46.921358],[36.818544,46.921682],[36.818676,46.921626],[36.818694,46.921612],[36.81923,46.921395],[36.818931,46.921059],[36.818794,46.921147],[36.818765,46.921165],[36.818745,46.921184],[36.818255,46.921358]]]}},{"type":"Feature","properties":{"cadnum":"2320685501:03:019:0002"},"geometry":{"type":"Polygon","coordinates":[[[36.816107,46.921924],[36.816477,46.92211],[36.816709,46.921859],[36.816359,46.921682],[36.816107,46.921924]]]}},{"type":"Feature","properties":{"cadnum":"2320685501:03:017:0001"},"geometry":{"type":"Polygon","coordinates":[[[36.824347,46.924742],[36.82439,46.924996],[36.824702,46.924978],[36.824668,46.924722],[36.824347,46.924742]]]}},{"type":"Feature","properties":{"cadnum":"2320685501:03:018:0003"},"geometry":{"type":"Polygon","coordinates":[[[36.822108,46.927581],[36.822382,46.927862],[36.822457,46.927939],[36.822617,46.927862],[36.822618,46.927862],[36.823051,46.927655],[36.822753,46.927337],[36.822108,46.927581]]]}},{"type":"Feature","properties":{"cadnum":"2320685501:03:018:0002"},"geometry":{"type":"Polygon","coordinates":[[[36.822753,46.927337],[36.823051,46.927655],[36.823396,46.92749],[36.82347,46.92745],[36.823904,46.92723],[36.823743,46.927061],[36.82329,46.927267],[36.823162,46.927183],[36.822753,46.927337]]]}},{"type":"Feature","properties":{"cadnum":"2320685501:03:018:0009"},"geometry":{"type":"Polygon","coordinates":[[[36.820514,46.926991],[36.820593,46.927054],[36.82061,46.927068],[36.820765,46.926996],[36.821591,46.926607],[36.821525,46.926526],[36.820826,46.926845],[36.820693,46.926907],[36.820514,46.926991]]]}},{"type":"Feature","properties":{"cadnum":"2320685501:03:018:0008"},"geometry":{"type":"Polygon","coordinates":[[[36.82094,46.925592],[36.821053,46.925773],[36.821434,46.925657],[36.822342,46.92537],[36.822229,46.92522],[36.82221,46.925227],[36.822213,46.92523],[36.822074,46.925274],[36.822073,46.925274],[36.822071,46.925269],[36.822016,46.92528],[36.822013,46.925276],[36.82193,46.925299],[36.821933,46.925303],[36.821709,46.925364],[36.82094,46.925592]]]}},{"type":"Feature","properties":{"cadnum":"2320685501:03:017:0002"},"geometry":{"type":"Polygon","coordinates":[[[36.822491,46.925557],[36.822686,46.925822],[36.822764,46.925842],[36.823478,46.925642],[36.82333,46.925396],[36.823275,46.925304],[36.822491,46.925557]]]}},{"type":"Feature","properties":{"cadnum":"2320685501:03:005:0003"},"geometry":{"type":"Polygon","coordinates":[[[36.833054,46.935376],[36.83349,46.935874],[36.83415,46.935512],[36.833989,46.935361],[36.833628,46.93502],[36.833073,46.935364],[36.833073,46.935365],[36.833054,46.935376]]]}},{"type":"Feature","properties":{"cadnum":"2320685501:03:005:0002"},"geometry":{"type":"Polygon","coordinates":[[[36.83349,46.935874],[36.833736,46.936156],[36.834455,46.935798],[36.83415,46.935512],[36.83349,46.935874]]]}},{"type":"Feature","properties":{"cadnum":"2320685501:03:005:0001"},"geometry":{"type":"Polygon","coordinates":[[[36.833847,46.936187],[36.834154,46.936516],[36.834181,46.936979],[36.834296,46.936993],[36.834389,46.936197],[36.834213,46.936023],[36.833847,46.936187]]]}},{"type":"Feature","properties":{"cadnum":"2320685501:01:002:0001"},"geometry":{"type":"Polygon","coordinates":[[[36.835985,46.937396],[36.836127,46.937629],[36.836262,46.937596],[36.837025,46.937386],[36.837072,46.937373],[36.837723,46.937187],[36.838545,46.93695],[36.83924,46.936748],[36.839612,46.936641],[36.839449,46.936415],[36.839096,46.936516],[36.838401,46.936718],[36.837581,46.936955],[36.837072,46.937101],[36.836886,46.937154],[36.836131,46.937361],[36.835985,46.937396]]]}},{"type":"Feature","properties":{"cadnum":"2320685501:02:024:0006"},"geometry":{"type":"Polygon","coordinates":[[[36.825702,46.89357],[36.826086,46.893593],[36.826196,46.8936],[36.826258,46.893391],[36.826289,46.893286],[36.826401,46.893303],[36.826444,46.893085],[36.826128,46.893068],[36.825811,46.893049],[36.825702,46.89357]]]}},{"type":"Feature","properties":{"cadnum":"2320685501:02:024:0003"},"geometry":{"type":"Polygon","coordinates":[[[36.822473,46.890825],[36.822583,46.891447],[36.823065,46.891407],[36.822928,46.890787],[36.822473,46.890825]]]}},{"type":"Feature","properties":{"cadnum":"2320685501:02:024:0004"},"geometry":{"type":"Polygon","coordinates":[[[36.822382,46.890316],[36.822473,46.890825],[36.822928,46.890787],[36.822816,46.89028],[36.822382,46.890316]]]}},{"type":"Feature","properties":{"cadnum":"2320685501:02:024:0005"},"geometry":{"type":"Polygon","coordinates":[[[36.823974,46.893496],[36.824581,46.893518],[36.824664,46.893036],[36.824057,46.893014],[36.823974,46.893496]]]}},{"type":"Feature","properties":{"cadnum":"2320685501:03:049:0004"},"geometry":{"type":"Polygon","coordinates":[[[36.834567,46.902852],[36.835026,46.90292],[36.835164,46.902508],[36.834705,46.902442],[36.834567,46.902852]]]}},{"type":"Feature","properties":{"cadnum":"2320685501:03:049:0002"},"geometry":{"type":"Polygon","coordinates":[[[36.833356,46.90429],[36.834066,46.904403],[36.8342,46.904008],[36.833489,46.903895],[36.833356,46.90429]]]}},{"type":"Feature","properties":{"cadnum":"2320685501:03:049:0001"},"geometry":{"type":"Polygon","coordinates":[[[36.833885,46.90275],[36.834567,46.902852],[36.834705,46.902442],[36.834021,46.902344],[36.833885,46.90275]]]}},{"type":"Feature","properties":{"cadnum":"2320685501:02:009:0001"},"geometry":{"type":"Polygon","coordinates":[[[36.833213,46.901592],[36.833241,46.901596],[36.833242,46.901596],[36.833957,46.901686],[36.833989,46.901479],[36.834017,46.901299],[36.833254,46.901209],[36.833225,46.901479],[36.833213,46.901592]]]}},{"type":"Feature","properties":{"cadnum":"2320685501:03:037:0005"},"geometry":{"type":"Polygon","coordinates":[[[36.81251,46.9189],[36.81314,46.919352],[36.813474,46.919114],[36.81278,46.918678],[36.81251,46.9189]]]}},{"type":"Feature","properties":{"cadnum":"2320685501:03:027:0007"},"geometry":{"type":"Polygon","coordinates":[[[36.813716,46.919093],[36.813937,46.919367],[36.814408,46.919163],[36.814617,46.919086],[36.814334,46.91875],[36.814284,46.918782],[36.814272,46.918771],[36.814098,46.918874],[36.814089,46.918868],[36.813716,46.919093]]]}},{"type":"Feature","properties":{"cadnum":"2320685501:03:027:0012"},"geometry":{"type":"Polygon","coordinates":[[[36.814003,46.919447],[36.814056,46.919507],[36.8151,46.919398],[36.8151,46.919399],[36.815234,46.919384],[36.815265,46.919373],[36.815271,46.919364],[36.815278,46.919354],[36.81527,46.919335],[36.815019,46.918999],[36.814468,46.919242],[36.814003,46.919447]]]}},{"type":"Feature","properties":{"cadnum":"2320685501:03:027:0003"},"geometry":{"type":"Polygon","coordinates":[[[36.814518,46.918923],[36.814604,46.919456],[36.815161,46.919414],[36.815085,46.918944],[36.814932,46.918955],[36.814919,46.918873],[36.814518,46.918923]]]}},{"type":"Feature","properties":{"cadnum":"2320685501:03:027:0004"},"geometry":{"type":"Polygon","coordinates":[[[36.814337,46.918753],[36.814617,46.919086],[36.814617,46.919087],[36.814408,46.919163],[36.814468,46.919242],[36.815019,46.918999],[36.814726,46.918486],[36.814337,46.918753]]]}},{"type":"Feature","properties":{"cadnum":"2320685501:03:027:0013"},"geometry":{"type":"Polygon","coordinates":[[[36.813933,46.919369],[36.814003,46.919447],[36.814468,46.919242],[36.814408,46.919163],[36.813933,46.919369]]]}},{"type":"Feature","properties":{"cadnum":"2320685501:03:029:0003"},"geometry":{"type":"Polygon","coordinates":[[[36.82973,46.920788],[36.829896,46.921172],[36.830557,46.921043],[36.830746,46.921434],[36.831184,46.921333],[36.83085,46.920609],[36.830359,46.920649],[36.82973,46.920788]]]}},{"type":"Feature","properties":{"cadnum":"2320685501:03:025:0001"},"geometry":{"type":"Polygon","coordinates":[[[36.827329,46.921801],[36.827411,46.922071],[36.828547,46.921917],[36.828475,46.921688],[36.827329,46.921801]]]}},{"type":"Feature","properties":{"cadnum":"2320685501:03:021:0001"},"geometry":{"type":"Polygon","coordinates":[[[36.829715,46.923122],[36.829865,46.92351],[36.830576,46.923382],[36.830427,46.922993],[36.829715,46.923122]]]}},{"type":"Feature","properties":{"cadnum":"2320685501:03:021:0002"},"geometry":{"type":"Polygon","coordinates":[[[36.829149,46.923223],[36.829286,46.923611],[36.829865,46.92351],[36.829715,46.923122],[36.829149,46.923223]]]}},{"type":"Feature","properties":{"cadnum":"2320685501:03:004:0006"},"geometry":{"type":"Polygon","coordinates":[[[36.840362,46.933341],[36.8407,46.933691],[36.84131,46.933465],[36.840962,46.933102],[36.840362,46.933341]]]}},{"type":"Feature","properties":{"cadnum":"2320685501:03:004:0007"},"geometry":{"type":"Polygon","coordinates":[[[36.839666,46.933619],[36.839953,46.933969],[36.8407,46.933691],[36.840362,46.933341],[36.839666,46.933619]]]}},{"type":"Feature","properties":{"cadnum":"2320685501:03:006:0001"},"geometry":{"type":"Polygon","coordinates":[[[36.836704,46.933561],[36.837072,46.933847],[36.837072,46.933848],[36.837197,46.933944],[36.837244,46.933917],[36.837244,46.933916],[36.83763,46.933683],[36.837138,46.933299],[36.836704,46.933561]]]}},{"type":"Feature","properties":{"cadnum":"2320685501:03:017:0003"},"geometry":{"type":"Polygon","coordinates":[[[36.837908,46.934483],[36.838395,46.934884],[36.838837,46.93465],[36.838338,46.934239],[36.837908,46.934483]]]}},{"type":"Feature","properties":{"cadnum":"2320685501:03:006:0002"},"geometry":{"type":"Polygon","coordinates":[[[36.836289,46.933809],[36.837244,46.934553],[36.837417,46.934687],[36.838265,46.934176],[36.83763,46.933683],[36.837197,46.933944],[36.836702,46.93356],[36.836289,46.933809]]]}},{"type":"Feature","properties":{"cadnum":"2320685501:03:036:0004"},"geometry":{"type":"Polygon","coordinates":[[[36.816677,46.915375],[36.816828,46.91574],[36.817353,46.915616],[36.817284,46.915396],[36.817239,46.915284],[36.816677,46.915375]]]}},{"type":"Feature","properties":{"cadnum":"2320685501:03:035:0004"},"geometry":{"type":"Polygon","coordinates":[[[36.818959,46.915941],[36.81902,46.91609],[36.819389,46.91601],[36.81932,46.915863],[36.818959,46.915941]]]}},{"type":"Feature","properties":{"cadnum":"2320685501:03:035:0005"},"geometry":{"type":"Polygon","coordinates":[[[36.818668,46.91534],[36.818718,46.915497],[36.818745,46.915492],[36.818742,46.915486],[36.818742,46.915485],[36.818798,46.915476],[36.818797,46.915472],[36.818843,46.915464],[36.818934,46.915452],[36.819193,46.915418],[36.819559,46.915367],[36.819511,46.915235],[36.819493,46.915221],[36.819079,46.915281],[36.81908,46.915286],[36.818942,46.915307],[36.818938,46.915305],[36.818668,46.91534]]]}},{"type":"Feature","properties":{"cadnum":"2320685501:03:038:0003"},"geometry":{"type":"Polygon","coordinates":[[[36.815831,46.916787],[36.815861,46.91685],[36.815986,46.917146],[36.816068,46.917129],[36.816426,46.917033],[36.816537,46.917016],[36.817113,46.916937],[36.817035,46.916607],[36.816971,46.916332],[36.816146,46.916462],[36.816153,46.916489],[36.816153,46.91649],[36.816152,46.91649],[36.816218,46.916729],[36.816218,46.91673],[36.815831,46.916787]]]}},{"type":"Feature","properties":{"cadnum":"2320685501:03:036:0002"},"geometry":{"type":"Polygon","coordinates":[[[36.818128,46.914301],[36.81814,46.91436],[36.818277,46.914345],[36.818265,46.914286],[36.818128,46.914301]]]}},{"type":"Feature","properties":{"cadnum":"2320685501:03:038:0004"},"geometry":{"type":"Polygon","coordinates":[[[36.815322,46.915253],[36.815436,46.915497],[36.816442,46.91531],[36.816348,46.915106],[36.816339,46.915102],[36.816304,46.915098],[36.816214,46.915107],[36.816076,46.915127],[36.815879,46.915158],[36.815322,46.915253]]]}},{"type":"Feature","properties":{"cadnum":"2320685501:03:040:0008"},"geometry":{"type":"Polygon","coordinates":[[[36.816859,46.913582],[36.816891,46.913706],[36.817302,46.913675],[36.817365,46.913671],[36.817641,46.913647],[36.817634,46.913591],[36.817624,46.913502],[36.817385,46.913527],[36.816859,46.913582]]]}},{"type":"Feature","properties":{"cadnum":"2320685501:03:028:0016"},"geometry":{"type":"Polygon","coordinates":[[[36.822488,46.919749],[36.822548,46.919934],[36.823451,46.919756],[36.82333,46.919482],[36.823117,46.919526],[36.82293,46.919565],[36.822963,46.919645],[36.822962,46.919645],[36.822488,46.919749]]]}},{"type":"Feature","properties":{"cadnum":"2320685501:03:028:0017"},"geometry":{"type":"Polygon","coordinates":[[[36.823061,46.919397],[36.823117,46.919526],[36.82333,46.919482],[36.823256,46.919357],[36.823061,46.919397]]]}},{"type":"Feature","properties":{"cadnum":"2320685501:03:028:0015"},"geometry":{"type":"Polygon","coordinates":[[[36.822812,46.919271],[36.82293,46.919565],[36.823117,46.919526],[36.823061,46.919397],[36.823256,46.919357],[36.823176,46.919187],[36.822812,46.919271]]]}},{"type":"Feature","properties":{"cadnum":"2320685501:03:009:0005"},"geometry":{"type":"Polygon","coordinates":[[[36.832086,46.930368],[36.832588,46.930707],[36.832781,46.930625],[36.832892,46.930569],[36.833135,46.930452],[36.83269,46.930151],[36.83247,46.930238],[36.832086,46.930368]]]}},{"type":"Feature","properties":{"cadnum":"2320685501:01:009:0001"},"geometry":{"type":"Polygon","coordinates":[[[36.8448,46.934874],[36.844997,46.935091],[36.847957,46.934237],[36.848059,46.934208],[36.848059,46.934209],[36.848134,46.934187],[36.84823,46.93416],[36.848422,46.934105],[36.848507,46.934086],[36.848342,46.933858],[36.84828,46.933873],[36.848059,46.933936],[36.847816,46.934004],[36.8448,46.934874]]]}},{"type":"Feature","properties":{"cadnum":"2320685501:02:019:0001"},"geometry":{"type":"Polygon","coordinates":[[[36.832297,46.897615],[36.832376,46.897609],[36.832631,46.897648],[36.832731,46.897341],[36.832731,46.89734],[36.832951,46.897374],[36.833036,46.897096],[36.832411,46.896992],[36.832377,46.897172],[36.832297,46.897615]]]}},{"type":"Feature","properties":{"cadnum":"2320685501:03:039:0001"},"geometry":{"type":"Polygon","coordinates":[[[36.810244,46.911036],[36.810632,46.911139],[36.811054,46.911256],[36.811224,46.910757],[36.810882,46.910664],[36.810737,46.910942],[36.810305,46.910845],[36.810244,46.911036]]]}},{"type":"Feature","properties":{"cadnum":"2320685501:03:046:0002"},"geometry":{"type":"Polygon","coordinates":[[[36.814371,46.909572],[36.814519,46.909631],[36.814797,46.909227],[36.814951,46.908996],[36.815035,46.908855],[36.81476,46.908815],[36.814613,46.909102],[36.814526,46.909274],[36.814371,46.909572]]]}},{"type":"Feature","properties":{"cadnum":"2320685501:03:046:0001"},"geometry":{"type":"Polygon","coordinates":[[[36.813372,46.909996],[36.813826,46.910137],[36.814156,46.910241],[36.814353,46.910283],[36.814425,46.910076],[36.814272,46.910047],[36.814256,46.910082],[36.814124,46.910042],[36.814123,46.910042],[36.814156,46.90997],[36.8135,46.909813],[36.813372,46.909996]]]}},{"type":"Feature","properties":{"cadnum":"2320685501:03:047:0001"},"geometry":{"type":"Polygon","coordinates":[[[36.810341,46.910469],[36.810734,46.910579],[36.811123,46.909926],[36.81073,46.909816],[36.810341,46.910469]]]}},{"type":"Feature","properties":{"cadnum":"2320685501:03:015:0005"},"geometry":{"type":"Polygon","coordinates":[[[36.836258,46.925764],[36.836355,46.926036],[36.836726,46.925974],[36.836968,46.925922],[36.836968,46.925899],[36.837017,46.925891],[36.837072,46.925886],[36.837072,46.925887],[36.837076,46.925886],[36.837076,46.92588],[36.837121,46.925881],[36.837121,46.92589],[36.83718,46.925884],[36.837244,46.925878],[36.837282,46.925875],[36.837384,46.925865],[36.837294,46.925584],[36.837234,46.925594],[36.836811,46.925663],[36.836258,46.925764]]]}},{"type":"Feature","properties":{"cadnum":"2320685501:02:002:0013"},"geometry":{"type":"Polygon","coordinates":[[[36.81625,46.906259],[36.816426,46.906302],[36.816453,46.90631],[36.816598,46.906165],[36.816921,46.905881],[36.817062,46.905754],[36.816512,46.905637],[36.816363,46.905955],[36.81625,46.906259]]]}},{"type":"Feature","properties":{"cadnum":"2320685501:02:002:0006"},"geometry":{"type":"Polygon","coordinates":[[[36.814999,46.905967],[36.815097,46.905987],[36.8151,46.905987],[36.8151,46.905988],[36.815151,46.905998],[36.815271,46.906023],[36.815275,46.906023],[36.81554,46.905426],[36.815261,46.905378],[36.814999,46.905967]]]}},{"type":"Feature","properties":{"cadnum":"2320685501:02:002:0009"},"geometry":{"type":"Polygon","coordinates":[[[36.816261,46.90794],[36.816372,46.907964],[36.816983,46.908099],[36.817178,46.908134],[36.817299,46.907872],[36.816853,46.907762],[36.81645,46.907585],[36.816354,46.907766],[36.816261,46.90794]]]}},{"type":"Feature","properties":{"cadnum":"2320685501:02:001:0007"},"geometry":{"type":"Polygon","coordinates":[[[36.820581,46.906182],[36.820593,46.906184],[36.820593,46.906185],[36.82142,46.906345],[36.821426,46.906335],[36.821537,46.906041],[36.820891,46.905878],[36.820714,46.905834],[36.820581,46.906182]]]}},{"type":"Feature","properties":{"cadnum":"2320685501:02:002:0001"},"geometry":{"type":"Polygon","coordinates":[[[36.816264,46.908309],[36.816304,46.908313],[36.817094,46.908402],[36.817121,46.90833],[36.817109,46.908327],[36.817176,46.908133],[36.816983,46.908099],[36.816372,46.907964],[36.816264,46.908309]]]}},{"type":"Feature","properties":{"cadnum":"2320685501:03:027:0016"},"geometry":{"type":"Polygon","coordinates":[[[36.814503,46.90665],[36.814904,46.906734],[36.8151,46.906447],[36.81522,46.90627],[36.815271,46.906194],[36.815296,46.906158],[36.815219,46.906125],[36.81503,46.906043],[36.814676,46.906254],[36.814503,46.90665]]]}},{"type":"Feature","properties":{"cadnum":"2320685501:02:002:0002"},"geometry":{"type":"Polygon","coordinates":[[[36.815026,46.907805],[36.815271,46.907873],[36.815272,46.907873],[36.815294,46.907879],[36.815283,46.907889],[36.816016,46.908141],[36.815938,46.908449],[36.816044,46.908461],[36.816157,46.908117],[36.816045,46.908092],[36.816139,46.907918],[36.815778,46.90779],[36.81519,46.90758],[36.815026,46.907805]]]}},{"type":"Feature","properties":{"cadnum":"2320685501:02:001:0006"},"geometry":{"type":"Polygon","coordinates":[[[36.818399,46.908042],[36.819171,46.908138],[36.819289,46.907902],[36.818505,46.907767],[36.818399,46.908042]]]}},{"type":"Feature","properties":{"cadnum":"2320685501:02:001:0005"},"geometry":{"type":"Polygon","coordinates":[[[36.817402,46.907867],[36.817558,46.907898],[36.817933,46.907983],[36.818399,46.908042],[36.818505,46.907767],[36.81845,46.907757],[36.817774,46.907641],[36.81777,46.90765],[36.817563,46.907609],[36.817532,46.907599],[36.817465,46.907757],[36.817402,46.907867]]]}},{"type":"Feature","properties":{"cadnum":"2320685501:02:002:0010"},"geometry":{"type":"Polygon","coordinates":[[[36.815992,46.907639],[36.816354,46.907766],[36.816466,46.907554],[36.816096,46.907432],[36.815992,46.907639]]]}},{"type":"Feature","properties":{"cadnum":"2320685501:02:002:0005"},"geometry":{"type":"Polygon","coordinates":[[[36.814889,46.905944],[36.814999,46.905967],[36.8151,46.905741],[36.815261,46.905378],[36.815129,46.905356],[36.814889,46.905944]]]}},{"type":"Feature","properties":{"cadnum":"2320685501:03:041:0001"},"geometry":{"type":"Polygon","coordinates":[[[36.821214,46.911628],[36.821719,46.911685],[36.821719,46.911686],[36.821674,46.911971],[36.821989,46.911972],[36.821939,46.911506],[36.821568,46.911508],[36.821568,46.91152],[36.821568,46.911521],[36.821516,46.911521],[36.821516,46.91152],[36.821516,46.911508],[36.821288,46.911522],[36.821214,46.911628]]]}},{"type":"Feature","properties":{"cadnum":"2320685501:03:044:0006"},"geometry":{"type":"Polygon","coordinates":[[[36.823967,46.911162],[36.824068,46.911191],[36.824226,46.910935],[36.824205,46.910924],[36.824361,46.91072],[36.824972,46.909854],[36.824867,46.909818],[36.824159,46.910875],[36.824103,46.910975],[36.824061,46.911035],[36.824018,46.911091],[36.823982,46.911142],[36.823967,46.911162]]]}},{"type":"Feature","properties":{"cadnum":"2320685501:03:044:0001"},"geometry":{"type":"Polygon","coordinates":[[[36.824369,46.911218],[36.824608,46.911295],[36.824741,46.910994],[36.82472,46.910984],[36.825395,46.909999],[36.825241,46.909948],[36.824565,46.910933],[36.824369,46.911218]]]}},{"type":"Feature","properties":{"cadnum":"2320685501:02:001:0001"},"geometry":{"type":"Polygon","coordinates":[[[36.821719,46.910005],[36.82206,46.910109],[36.822477,46.909468],[36.822106,46.909355],[36.821719,46.910005]]]}},{"type":"Feature","properties":{"cadnum":"2320685501:03:041:0002"},"geometry":{"type":"Polygon","coordinates":[[[36.822244,46.912199],[36.822295,46.912602],[36.82302,46.912559],[36.822969,46.912155],[36.822244,46.912199]]]}},{"type":"Feature","properties":{"cadnum":"2320685501:03:045:0004"},"geometry":{"type":"Polygon","coordinates":[[[36.820816,46.91069],[36.821007,46.910737],[36.821112,46.910544],[36.820924,46.910488],[36.820816,46.91069]]]}},{"type":"Feature","properties":{"cadnum":"2320685501:02:001:0002"},"geometry":{"type":"Polygon","coordinates":[[[36.821878,46.909285],[36.822106,46.909355],[36.822477,46.909468],[36.822642,46.909214],[36.822256,46.909096],[36.822256,46.909095],[36.822347,46.908956],[36.822119,46.908887],[36.822059,46.908985],[36.82202,46.909049],[36.821988,46.909102],[36.821878,46.909285]]]}},{"type":"Feature","properties":{"cadnum":"2320685501:03:045:0002"},"geometry":{"type":"Polygon","coordinates":[[[36.820924,46.910488],[36.821112,46.910544],[36.821218,46.910346],[36.82103,46.910291],[36.820924,46.910488]]]}},{"type":"Feature","properties":{"cadnum":"2320685501:03:030:0001"},"geometry":{"type":"Polygon","coordinates":[[[36.824221,46.913041],[36.824757,46.913043],[36.824779,46.912855],[36.82478,46.912855],[36.824821,46.912518],[36.82429,46.912466],[36.824242,46.912855],[36.824243,46.912855],[36.824234,46.912931],[36.824221,46.913041]]]}},{"type":"Feature","properties":{"cadnum":"2320685501:03:030:0002"},"geometry":{"type":"Polygon","coordinates":[[[36.823816,46.912316],[36.823837,46.912855],[36.823838,46.912855],[36.82384,46.912887],[36.824234,46.912931],[36.824257,46.912737],[36.82429,46.912466],[36.824821,46.912518],[36.824833,46.912416],[36.823816,46.912316]]]}},{"type":"Feature","properties":{"cadnum":"2320685501:03:021:0003"},"geometry":{"type":"Polygon","coordinates":[[[36.83234,46.922761],[36.832487,46.923157],[36.833211,46.923026],[36.833072,46.922652],[36.832557,46.922741],[36.83255,46.922724],[36.83234,46.922761]]]}},{"type":"Feature","properties":{"cadnum":"2320685501:01:009:0004"},"geometry":{"type":"Polygon","coordinates":[[[36.801553,46.923613],[36.801819,46.923993],[36.801828,46.924006],[36.801884,46.923982],[36.801885,46.923982],[36.801895,46.923993],[36.801894,46.923993],[36.801963,46.924067],[36.802004,46.924111],[36.802068,46.924178],[36.802432,46.924035],[36.801915,46.923469],[36.801553,46.923613]]]}},{"type":"Feature","properties":{"cadnum":"2320685501:01:005:0002"},"geometry":{"type":"Polygon","coordinates":[[[36.800785,46.924526],[36.800789,46.924699],[36.800999,46.924697],[36.800995,46.924524],[36.800785,46.924526]]]}},{"type":"Feature","properties":{"cadnum":"2320685501:01:003:0005"},"geometry":{"type":"Polygon","coordinates":[[[36.798678,46.924541],[36.798736,46.925358],[36.798792,46.925358],[36.798792,46.925357],[36.799051,46.925354],[36.799045,46.925188],[36.799028,46.924537],[36.798678,46.924541]]]}},{"type":"Feature","properties":{"cadnum":"2320685501:01:003:0006"},"geometry":{"type":"Polygon","coordinates":[[[36.799383,46.925351],[36.799385,46.925638],[36.800441,46.925608],[36.800436,46.925339],[36.800173,46.925342],[36.799906,46.925344],[36.799383,46.925351]]]}},{"type":"Feature","properties":{"cadnum":"2320685501:01:003:0007"},"geometry":{"type":"Polygon","coordinates":[[[36.798736,46.925358],[36.798737,46.925655],[36.799385,46.925638],[36.799383,46.925351],[36.799051,46.925354],[36.798736,46.925358]]]}},{"type":"Feature","properties":{"cadnum":"2320685501:02:002:0004"},"geometry":{"type":"Polygon","coordinates":[[[36.814417,46.905848],[36.814637,46.905892],[36.814889,46.905944],[36.815129,46.905356],[36.814675,46.905279],[36.814658,46.905276],[36.814626,46.905349],[36.814627,46.905349],[36.814417,46.905848]]]}},{"type":"Feature","properties":{"cadnum":"2320685501:02:008:0002"},"geometry":{"type":"Polygon","coordinates":[[[36.813181,46.904514],[36.813695,46.904603],[36.813696,46.904603],[36.813669,46.904674],[36.813819,46.904699],[36.813806,46.904736],[36.814176,46.904798],[36.814287,46.904485],[36.813229,46.904308],[36.813181,46.904514]]]}},{"type":"Feature","properties":{"cadnum":"2320685501:02:008:0001"},"geometry":{"type":"Polygon","coordinates":[[[36.814101,46.905006],[36.814654,46.905098],[36.814818,46.904639],[36.814667,46.904613],[36.814696,46.904534],[36.814287,46.904485],[36.814101,46.905006]]]}},{"type":"Feature","properties":{"cadnum":"2320685501:02:004:0003"},"geometry":{"type":"Polygon","coordinates":[[[36.812839,46.901511],[36.812981,46.901517],[36.813257,46.901537],[36.813533,46.901558],[36.81382,46.901596],[36.813821,46.901596],[36.814436,46.901678],[36.814456,46.901498],[36.813886,46.901416],[36.813757,46.901402],[36.812869,46.901317],[36.812861,46.901317],[36.812842,46.901479],[36.812841,46.901479],[36.812839,46.901511]]]}},{"type":"Feature","properties":{"cadnum":"2320685501:02:004:0005"},"geometry":{"type":"Polygon","coordinates":[[[36.812813,46.901678],[36.813508,46.901743],[36.814456,46.901853],[36.814481,46.901685],[36.813533,46.901558],[36.813257,46.901537],[36.812981,46.901517],[36.812839,46.901511],[36.812825,46.901596],[36.812826,46.901596],[36.812813,46.901678]]]}},{"type":"Feature","properties":{"cadnum":"2320685501:02:003:0003"},"geometry":{"type":"Polygon","coordinates":[[[36.826723,46.90736],[36.827139,46.90745],[36.827281,46.906984],[36.8269,46.906934],[36.826723,46.90736]]]}},{"type":"Feature","properties":{"cadnum":"2320685501:03:050:0003"},"geometry":{"type":"Polygon","coordinates":[[[36.829232,46.907947],[36.831402,46.908403],[36.831579,46.908069],[36.831599,46.908031],[36.831751,46.908052],[36.833171,46.908245],[36.833481,46.907137],[36.833492,46.907097],[36.832193,46.906973],[36.831751,46.906908],[36.830983,46.906794],[36.830982,46.906794],[36.831133,46.906344],[36.830231,46.906227],[36.830113,46.906211],[36.829852,46.90619],[36.829369,46.90756],[36.829271,46.907839],[36.829232,46.907947]]]}},{"type":"Feature","properties":{"cadnum":"2320685501:02:005:0003"},"geometry":{"type":"Polygon","coordinates":[[[36.828817,46.906289],[36.829551,46.906369],[36.82969,46.905984],[36.828994,46.905888],[36.828817,46.906289]]]}},{"type":"Feature","properties":{"cadnum":"2320685501:02:003:0002"},"geometry":{"type":"Polygon","coordinates":[[[36.827139,46.90745],[36.827241,46.907475],[36.827538,46.907547],[36.827698,46.907587],[36.827844,46.907056],[36.827281,46.906984],[36.827139,46.90745]]]}},{"type":"Feature","properties":{"cadnum":"2320685501:02:005:0002"},"geometry":{"type":"Polygon","coordinates":[[[36.828327,46.90623],[36.828817,46.906289],[36.828994,46.905888],[36.828496,46.905819],[36.828467,46.90589],[36.828327,46.90623]]]}},{"type":"Feature","properties":{"cadnum":"2320685501:01:009:0003"},"geometry":{"type":"Polygon","coordinates":[[[36.803498,46.922024],[36.804113,46.922763],[36.804154,46.922811],[36.804285,46.922979],[36.804292,46.922988],[36.804314,46.923014],[36.804289,46.923027],[36.804382,46.92315],[36.804614,46.923061],[36.804273,46.922657],[36.803714,46.921941],[36.803498,46.922024]]]}},{"type":"Feature","properties":{"cadnum":"2320685501:01:005:0004"},"geometry":{"type":"Polygon","coordinates":[[[36.804096,46.923592],[36.804113,46.923611],[36.80445,46.92398],[36.804462,46.923993],[36.804461,46.923993],[36.804558,46.924107],[36.804561,46.924111],[36.804744,46.924323],[36.805051,46.92419],[36.804989,46.924111],[36.80484,46.923917],[36.804768,46.923911],[36.804744,46.923885],[36.804458,46.92356],[36.804379,46.923469],[36.804167,46.923562],[36.804096,46.923592]]]}},{"type":"Feature","properties":{"cadnum":"2320685501:02:015:0005"},"geometry":{"type":"Polygon","coordinates":[[[36.816981,46.900132],[36.817241,46.900156],[36.817492,46.898937],[36.817235,46.898913],[36.817111,46.899718],[36.816981,46.900132]]]}},{"type":"Feature","properties":{"cadnum":"2320685501:02:015:0009"},"geometry":{"type":"Polygon","coordinates":[[[36.815961,46.898714],[36.816438,46.898744],[36.816496,46.89845],[36.816544,46.898206],[36.816075,46.898176],[36.815961,46.898714]]]}},{"type":"Feature","properties":{"cadnum":"2320685501:02:015:0004"},"geometry":{"type":"Polygon","coordinates":[[[36.816083,46.89995],[36.816265,46.899976],[36.816607,46.900017],[36.816622,46.899969],[36.816642,46.899901],[36.81663,46.899899],[36.816638,46.899846],[36.816649,46.899792],[36.816689,46.899532],[36.816701,46.899455],[36.816203,46.899387],[36.816163,46.899609],[36.816083,46.89995]]]}},{"type":"Feature","properties":{"cadnum":"2320685501:02:014:0008"},"geometry":{"type":"Polygon","coordinates":[[[36.819433,46.898142],[36.820032,46.898221],[36.820583,46.898237],[36.820659,46.897981],[36.820173,46.897976],[36.819505,46.897897],[36.819433,46.898142]]]}},{"type":"Feature","properties":{"cadnum":"2320685501:02:014:0001"},"geometry":{"type":"Polygon","coordinates":[[[36.819159,46.899111],[36.819975,46.899223],[36.82007,46.89887],[36.819252,46.898765],[36.819159,46.899111]]]}},{"type":"Feature","properties":{"cadnum":"2320685501:02:015:0003"},"geometry":{"type":"Polygon","coordinates":[[[36.816203,46.899387],[36.816701,46.899455],[36.816741,46.899173],[36.81676,46.899023],[36.8168,46.898794],[36.816638,46.898775],[36.816354,46.898744],[36.816317,46.898741],[36.816205,46.899379],[36.816203,46.899387]]]}},{"type":"Feature","properties":{"cadnum":"2320685501:02:007:0010"},"geometry":{"type":"Polygon","coordinates":[[[36.824018,46.90299],[36.825249,46.903151],[36.825285,46.903012],[36.824054,46.90285],[36.824018,46.90299]]]}},{"type":"Feature","properties":{"cadnum":"2320685501:02:007:0006"},"geometry":{"type":"Polygon","coordinates":[[[36.82416,46.905357],[36.824525,46.905399],[36.82458,46.905238],[36.824221,46.905178],[36.824202,46.905232],[36.824166,46.90534],[36.824163,46.905349],[36.82416,46.905357]]]}},{"type":"Feature","properties":{"cadnum":"2320685501:02:007:0002"},"geometry":{"type":"Polygon","coordinates":[[[36.821377,46.905235],[36.821583,46.905262],[36.822236,46.905349],[36.822861,46.905432],[36.823263,46.905498],[36.823313,46.905509],[36.823368,46.905509],[36.823289,46.905403],[36.823305,46.905331],[36.822932,46.90529],[36.822873,46.905284],[36.821423,46.905084],[36.821378,46.905232],[36.821377,46.905232],[36.821377,46.905235]]]}},{"type":"Feature","properties":{"cadnum":"2320685501:03:003:0005"},"geometry":{"type":"Polygon","coordinates":[[[36.844414,46.937449],[36.844623,46.93757],[36.844872,46.937342],[36.845413,46.936749],[36.845169,46.936621],[36.844414,46.937449]]]}},{"type":"Feature","properties":{"cadnum":"2320685501:03:003:0004"},"geometry":{"type":"Polygon","coordinates":[[[36.844077,46.937254],[36.844414,46.937449],[36.845169,46.936621],[36.844731,46.93639],[36.844368,46.936851],[36.844495,46.936927],[36.844363,46.937075],[36.844293,46.937044],[36.844077,46.937254]]]}},{"type":"Feature","properties":{"cadnum":"2320685501:01:005:0003"},"geometry":{"type":"Polygon","coordinates":[[[36.839449,46.936415],[36.839612,46.936641],[36.839882,46.936564],[36.840515,46.936383],[36.841149,46.9362],[36.842737,46.935743],[36.842737,46.935742],[36.844265,46.935302],[36.844997,46.935091],[36.8448,46.934874],[36.843099,46.935364],[36.843101,46.935364],[36.843101,46.935365],[36.842587,46.935513],[36.841007,46.935968],[36.840373,46.93615],[36.839741,46.936331],[36.839449,46.936415]]]}},{"type":"Feature","properties":{"cadnum":"2320685501:03:003:0002"},"geometry":{"type":"Polygon","coordinates":[[[36.843314,46.937032],[36.843406,46.937096],[36.843499,46.937033],[36.843406,46.936969],[36.843314,46.937032]]]}},{"type":"Feature","properties":{"cadnum":"2320685501:03:004:0001"},"geometry":{"type":"Polygon","coordinates":[[[36.842539,46.937616],[36.842565,46.937636],[36.842566,46.937636],[36.842718,46.937747],[36.842737,46.937737],[36.842737,46.937736],[36.8435,46.9373],[36.843154,46.937062],[36.842737,46.937438],[36.842539,46.937616]]]}},{"type":"Feature","properties":{"cadnum":"2320685501:03:004:0004"},"geometry":{"type":"Polygon","coordinates":[[[36.841996,46.937795],[36.842237,46.937901],[36.842539,46.937616],[36.842565,46.937591],[36.842566,46.937591],[36.842635,46.937525],[36.842737,46.937434],[36.843154,46.937062],[36.842899,46.936949],[36.842737,46.937106],[36.842356,46.937475],[36.841996,46.937795]]]}},{"type":"Feature","properties":{"cadnum":"2320685501:03:003:0001"},"geometry":{"type":"Polygon","coordinates":[[[36.842032,46.936157],[36.842076,46.936178],[36.842227,46.936008],[36.842228,46.936008],[36.842288,46.936113],[36.84246,46.936067],[36.842415,46.935992],[36.842565,46.935965],[36.842566,46.935965],[36.842566,46.935966],[36.842692,46.935943],[36.842708,46.935966],[36.842737,46.935978],[36.842737,46.935977],[36.842741,46.935979],[36.842807,46.93596],[36.842886,46.935911],[36.843005,46.935876],[36.842985,46.935843],[36.842945,46.935781],[36.843075,46.935633],[36.843003,46.935654],[36.842878,46.935797],[36.842602,46.935862],[36.842213,46.935953],[36.842032,46.936157]]]}},{"type":"Feature","properties":{"cadnum":"2320685501:03:009:0001"},"geometry":{"type":"Polygon","coordinates":[[[36.831662,46.933343],[36.831751,46.933405],[36.831751,46.933404],[36.831982,46.933563],[36.832267,46.933366],[36.8324,46.933463],[36.832588,46.933343],[36.832152,46.933028],[36.831662,46.933343]]]}},{"type":"Feature","properties":{"cadnum":"2320685501:03:005:0004"},"geometry":{"type":"Polygon","coordinates":[[[36.831489,46.934708],[36.831579,46.934775],[36.831579,46.934776],[36.831835,46.934967],[36.832195,46.93477],[36.832495,46.934995],[36.833242,46.934528],[36.832967,46.934322],[36.832349,46.93468],[36.831994,46.934416],[36.831634,46.934622],[36.831548,46.934673],[36.831489,46.934708]]]}},{"type":"Feature","properties":{"cadnum":"2320685501:03:010:0003"},"geometry":{"type":"Polygon","coordinates":[[[36.829887,46.934104],[36.83017,46.934364],[36.831075,46.933974],[36.830758,46.933749],[36.829887,46.934104]]]}},{"type":"Feature","properties":{"cadnum":"2320685501:03:005:0006"},"geometry":{"type":"Polygon","coordinates":[[[36.831397,46.934448],[36.831489,46.934536],[36.831751,46.934406],[36.831751,46.934405],[36.832059,46.934251],[36.832523,46.933982],[36.832416,46.933902],[36.831955,46.934167],[36.831579,46.934356],[36.831397,46.934448]]]}},{"type":"Feature","properties":{"cadnum":"2320685501:03:010:0002"},"geometry":{"type":"Polygon","coordinates":[[[36.830758,46.933749],[36.831075,46.933974],[36.831579,46.93376],[36.831641,46.933734],[36.831751,46.933687],[36.831751,46.933686],[36.831908,46.933619],[36.831602,46.933399],[36.831158,46.933586],[36.830776,46.933742],[36.830758,46.933749]]]}},{"type":"Feature","properties":{"cadnum":"2320685501:02:015:0006"},"geometry":{"type":"Polygon","coordinates":[[[36.814,46.897121],[36.814337,46.897157],[36.81453,46.896268],[36.814219,46.896234],[36.814,46.897121]]]}},{"type":"Feature","properties":{"cadnum":"2320685501:01:011:0003"},"geometry":{"type":"Polygon","coordinates":[[[36.806569,46.915982],[36.806771,46.916115],[36.80794,46.915367],[36.807753,46.915245],[36.807541,46.915377],[36.806569,46.915982]]]}},{"type":"Feature","properties":{"cadnum":"2320685501:03:037:0003"},"geometry":{"type":"Polygon","coordinates":[[[36.806142,46.915701],[36.80633,46.915827],[36.806336,46.915824],[36.807308,46.915218],[36.807658,46.915],[36.807886,46.914858],[36.8077,46.914732],[36.807699,46.914732],[36.806142,46.915701]]]}},{"type":"Feature","properties":{"cadnum":"2320685501:01:011:0006"},"geometry":{"type":"Polygon","coordinates":[[[36.806336,46.915824],[36.806569,46.915982],[36.807541,46.915377],[36.807308,46.915218],[36.806336,46.915824]]]}},{"type":"Feature","properties":{"cadnum":"2320685501:01:011:0007"},"geometry":{"type":"Polygon","coordinates":[[[36.807308,46.915218],[36.807541,46.915377],[36.807753,46.915245],[36.807891,46.915158],[36.807658,46.915],[36.807308,46.915218]]]}},{"type":"Feature","properties":{"cadnum":"2320685501:03:018:0006"},"geometry":{"type":"Polygon","coordinates":[[[36.82304,46.928802],[36.823157,46.928924],[36.824116,46.928453],[36.824635,46.928238],[36.824485,46.928066],[36.824203,46.928192],[36.824179,46.928212],[36.824172,46.928227],[36.824135,46.928261],[36.823735,46.928437],[36.82304,46.928802]]]}},{"type":"Feature","properties":{"cadnum":"2320685501:02:013:0002"},"geometry":{"type":"Polygon","coordinates":[[[36.825331,46.897654],[36.825991,46.897693],[36.826011,46.897577],[36.826063,46.89758],[36.826074,46.897516],[36.826118,46.897294],[36.825389,46.897224],[36.825379,46.897363],[36.825331,46.897654]]]}},{"type":"Feature","properties":{"cadnum":"2320685501:02:018:0004"},"geometry":{"type":"Polygon","coordinates":[[[36.821469,46.896761],[36.821902,46.896804],[36.822016,46.896368],[36.8221,46.896141],[36.821698,46.896085],[36.821556,46.896463],[36.821489,46.896646],[36.821478,46.896703],[36.821469,46.896761]]]}},{"type":"Feature","properties":{"cadnum":"2320685501:01:008:0002"},"geometry":{"type":"Polygon","coordinates":[[[36.811086,46.922845],[36.811385,46.923066],[36.811991,46.923467],[36.812521,46.923186],[36.812263,46.92299],[36.811984,46.923142],[36.811747,46.92296],[36.811594,46.92305],[36.811219,46.922772],[36.811086,46.922845]]]}},{"type":"Feature","properties":{"cadnum":"2320685501:01:008:0003"},"geometry":{"type":"Polygon","coordinates":[[[36.811331,46.923979],[36.811346,46.923993],[36.811347,46.923994],[36.811464,46.924111],[36.811465,46.924111],[36.81208,46.924717],[36.812346,46.924586],[36.811864,46.924111],[36.811597,46.923848],[36.811331,46.923979]]]}},{"type":"Feature","properties":{"cadnum":"2320685501:01:008:0001"},"geometry":{"type":"Polygon","coordinates":[[[36.811219,46.922772],[36.811594,46.92305],[36.811747,46.92296],[36.811984,46.923142],[36.812263,46.92299],[36.812263,46.922989],[36.811662,46.922532],[36.811219,46.922772]]]}},{"type":"Feature","properties":{"cadnum":"2320685501:03:026:0009"},"geometry":{"type":"Polygon","coordinates":[[[36.821693,46.921156],[36.8218,46.921431],[36.821903,46.921417],[36.822086,46.921814],[36.822495,46.921738],[36.822323,46.921294],[36.822183,46.920919],[36.822075,46.920939],[36.8218,46.920986],[36.821859,46.921122],[36.821693,46.921156]]]}},{"type":"Feature","properties":{"cadnum":"2320685501:03:026:0008"},"geometry":{"type":"Polygon","coordinates":[[[36.820972,46.921627],[36.821129,46.922009],[36.821835,46.921843],[36.821672,46.921461],[36.820972,46.921627]]]}},{"type":"Feature","properties":{"cadnum":"2320685501:03:026:0003"},"geometry":{"type":"Polygon","coordinates":[[[36.822539,46.921823],[36.822669,46.922089],[36.822816,46.922339],[36.823321,46.922233],[36.823035,46.921708],[36.822539,46.921823]]]}},{"type":"Feature","properties":{"cadnum":"2320685501:03:028:0009"},"geometry":{"type":"Polygon","coordinates":[[[36.821192,46.923643],[36.821376,46.923869],[36.822301,46.923596],[36.822436,46.923556],[36.82232,46.923356],[36.822142,46.9234],[36.821491,46.92356],[36.821426,46.923567],[36.821308,46.923597],[36.821192,46.923643]]]}},{"type":"Feature","properties":{"cadnum":"2320685501:03:026:0010"},"geometry":{"type":"Polygon","coordinates":[[[36.82235,46.922503],[36.82244,46.922913],[36.822493,46.923107],[36.822803,46.923056],[36.822796,46.923035],[36.822897,46.923016],[36.822859,46.922939],[36.82281,46.922728],[36.822739,46.922453],[36.82235,46.922503]]]}},{"type":"Feature","properties":{"cadnum":"2320685501:03:026:0001"},"geometry":{"type":"Polygon","coordinates":[[[36.823858,46.920797],[36.82403,46.921305],[36.824572,46.921235],[36.824396,46.920718],[36.823858,46.920797]]]}},{"type":"Feature","properties":{"cadnum":"2320685501:03:026:0002"},"geometry":{"type":"Polygon","coordinates":[[[36.824396,46.920718],[36.824572,46.921235],[36.825088,46.921169],[36.824938,46.920648],[36.824396,46.920718]]]}},{"type":"Feature","properties":{"cadnum":"2320685501:03:009:0002"},"geometry":{"type":"Polygon","coordinates":[[[36.832152,46.933028],[36.832588,46.933343],[36.833075,46.933033],[36.832661,46.9327],[36.832152,46.933028]]]}},{"type":"Feature","properties":{"cadnum":"2320685501:03:005:0005"},"geometry":{"type":"Polygon","coordinates":[[[36.831994,46.934416],[36.832349,46.93468],[36.832967,46.934322],[36.832604,46.93405],[36.832395,46.934174],[36.832281,46.934239],[36.832114,46.934346],[36.831994,46.934416]]]}},{"type":"Feature","properties":{"cadnum":"2320685501:02:025:0002"},"geometry":{"type":"Polygon","coordinates":[[[36.822213,46.889177],[36.822338,46.889175],[36.822338,46.889125],[36.822214,46.889127],[36.822213,46.889177]]]}},{"type":"Feature","properties":{"cadnum":"2320685501:02:025:0001"},"geometry":{"type":"Polygon","coordinates":[[[36.821809,46.890032],[36.821941,46.890036],[36.822006,46.889112],[36.821876,46.889107],[36.821809,46.890032]]]}},{"type":"Feature","properties":{"cadnum":"2320685501:03:037:0001"},"geometry":{"type":"Polygon","coordinates":[[[36.812363,46.916107],[36.812379,46.916249],[36.813453,46.916226],[36.813708,46.916196],[36.813729,46.916219],[36.813783,46.916211],[36.813717,46.916022],[36.812562,46.916097],[36.812363,46.916107]]]}},{"type":"Feature","properties":{"cadnum":"2320685501:03:040:0005"},"geometry":{"type":"Polygon","coordinates":[[[36.812982,46.91336],[36.813042,46.913743],[36.813767,46.913652],[36.813767,46.913651],[36.813696,46.913491],[36.81368,46.913493],[36.813679,46.913493],[36.813619,46.913378],[36.813556,46.91324],[36.813218,46.913312],[36.813016,46.913355],[36.812982,46.91336]]]}},{"type":"Feature","properties":{"cadnum":"2320685501:03:031:0002"},"geometry":{"type":"Polygon","coordinates":[[[36.838759,46.917332],[36.838915,46.917686],[36.839374,46.91757],[36.839226,46.917234],[36.838759,46.917332]]]}},{"type":"Feature","properties":{"cadnum":"2320685501:03:031:0001"},"geometry":{"type":"Polygon","coordinates":[[[36.838026,46.917486],[36.838198,46.917868],[36.838915,46.917686],[36.838759,46.917332],[36.838026,46.917486]]]}},{"type":"Feature","properties":{"cadnum":"2320685501:03:034:0003"},"geometry":{"type":"Polygon","coordinates":[[[36.824561,46.914423],[36.824595,46.91555],[36.824856,46.915536],[36.824823,46.914408],[36.824561,46.914423]]]}},{"type":"Feature","properties":{"cadnum":"2320685501:03:034:0004"},"geometry":{"type":"Polygon","coordinates":[[[36.824595,46.91555],[36.824612,46.91616],[36.824874,46.916145],[36.824856,46.915536],[36.824595,46.91555]]]}},{"type":"Feature","properties":{"cadnum":"2320685501:03:015:0006"},"geometry":{"type":"Polygon","coordinates":[[[36.835464,46.925909],[36.835557,46.926168],[36.836355,46.926036],[36.836258,46.925764],[36.83599,46.925812],[36.835464,46.925909]]]}},{"type":"Feature","properties":{"cadnum":"2320685501:01:007:0002"},"geometry":{"type":"Polygon","coordinates":[[[36.658873,46.96711],[36.659077,46.967255],[36.660187,46.966744],[36.659812,46.966427],[36.659199,46.966711],[36.659367,46.966869],[36.658873,46.96711]]]}},{"type":"Feature","properties":{"cadnum":"2320685501:02:002:0008"},"geometry":{"type":"Polygon","coordinates":[[[36.812552,46.907017],[36.812777,46.907065],[36.812769,46.907079],[36.8128,46.907085],[36.813076,46.906583],[36.813126,46.906596],[36.813292,46.906303],[36.813025,46.906242],[36.812904,46.906496],[36.812926,46.906505],[36.812876,46.906579],[36.812818,46.906561],[36.812671,46.906756],[36.812552,46.907017]]]}},{"type":"Feature","properties":{"cadnum":"2320685501:02:002:0007"},"geometry":{"type":"Polygon","coordinates":[[[36.8128,46.907085],[36.812841,46.907095],[36.812971,46.907125],[36.813197,46.907138],[36.813561,46.906365],[36.813292,46.906303],[36.813126,46.906596],[36.813076,46.906583],[36.8128,46.907085]]]}},{"type":"Feature","properties":{"cadnum":"2320685501:01:005:0005"},"geometry":{"type":"Polygon","coordinates":[[[36.804744,46.924323],[36.80496,46.924574],[36.805273,46.924479],[36.805051,46.92419],[36.804744,46.924323]]]}},{"type":"Feature","properties":{"cadnum":"2320685501:01:003:0004"},"geometry":{"type":"Polygon","coordinates":[[[36.796429,46.924591],[36.796448,46.925356],[36.796829,46.925352],[36.79681,46.924588],[36.796429,46.924591]]]}},{"type":"Feature","properties":{"cadnum":"2320685501:02:007:0004"},"geometry":{"type":"Polygon","coordinates":[[[36.822039,46.906389],[36.822719,46.906521],[36.822826,46.906243],[36.822609,46.906198],[36.822702,46.905983],[36.822304,46.905902],[36.822039,46.906389]]]}},{"type":"Feature","properties":{"cadnum":"2320685501:02:003:0004"},"geometry":{"type":"Polygon","coordinates":[[[36.824229,46.906853],[36.824332,46.906878],[36.824359,46.906828],[36.824255,46.906802],[36.824229,46.906853]]]}},{"type":"Feature","properties":{"cadnum":"2320685501:03:002:0001"},"geometry":{"type":"Polygon","coordinates":[[[36.846207,46.939513],[36.846558,46.939913],[36.846742,46.939822],[36.84695,46.939719],[36.846951,46.939714],[36.847046,46.939669],[36.847068,46.939688],[36.847215,46.939605],[36.847035,46.939447],[36.846854,46.939503],[36.846672,46.939327],[36.846644,46.939339],[36.846296,46.939476],[36.846207,46.939513]]]}},{"type":"Feature","properties":{"cadnum":"2320685501:01:009:0002"},"geometry":{"type":"Polygon","coordinates":[[[36.802963,46.922741],[36.803073,46.9229],[36.803256,46.923164],[36.803519,46.923495],[36.803833,46.923373],[36.80344,46.922871],[36.803267,46.92265],[36.802963,46.922741]]]}},{"type":"Feature","properties":{"cadnum":"2320685501:03:016:0001"},"geometry":{"type":"Polygon","coordinates":[[[36.828273,46.924461],[36.82846,46.924864],[36.829157,46.924769],[36.828976,46.924384],[36.828273,46.924461]]]}},{"type":"Feature","properties":{"cadnum":"2320685501:03:016:0002"},"geometry":{"type":"Polygon","coordinates":[[[36.828976,46.924384],[36.829157,46.924769],[36.829708,46.924694],[36.82957,46.92432],[36.828976,46.924384]]]}},{"type":"Feature","properties":{"cadnum":"2320685501:03:025:0003"},"geometry":{"type":"Polygon","coordinates":[[[36.830699,46.925047],[36.830876,46.925418],[36.831202,46.925382],[36.831586,46.925321],[36.831662,46.925307],[36.831605,46.925217],[36.831601,46.92521],[36.831595,46.925199],[36.831578,46.925172],[36.831436,46.924947],[36.831414,46.924951],[36.831417,46.92496],[36.831079,46.925016],[36.831079,46.925015],[36.831076,46.925007],[36.830976,46.925024],[36.830699,46.925047]]]}},{"type":"Feature","properties":{"cadnum":"2320685501:03:004:0005"},"geometry":{"type":"Polygon","coordinates":[[[36.84192,46.937863],[36.842169,46.937963],[36.842201,46.937936],[36.842237,46.937901],[36.841996,46.937795],[36.841938,46.937846],[36.84192,46.937863]]]}},{"type":"Feature","properties":{"cadnum":"2320685501:02:021:0002"},"geometry":{"type":"Polygon","coordinates":[[[36.829121,46.893177],[36.829584,46.893211],[36.829682,46.892812],[36.829235,46.892767],[36.829121,46.893177]]]}},{"type":"Feature","properties":{"cadnum":"2320685501:02:021:0001"},"geometry":{"type":"Polygon","coordinates":[[[36.829584,46.893211],[36.830315,46.893264],[36.830412,46.892871],[36.829682,46.892812],[36.829584,46.893211]]]}},{"type":"Feature","properties":{"cadnum":"2320685501:02:021:0004"},"geometry":{"type":"Polygon","coordinates":[[[36.829675,46.892811],[36.829682,46.892812],[36.830412,46.892871],[36.830514,46.892448],[36.829775,46.892446],[36.829675,46.892811]]]}},{"type":"Feature","properties":{"cadnum":"2320685501:03:035:0001"},"geometry":{"type":"Polygon","coordinates":[[[36.818682,46.917208],[36.818698,46.917279],[36.819077,46.917239],[36.819114,46.917399],[36.819328,46.917376],[36.819241,46.916993],[36.818777,46.917043],[36.818812,46.917194],[36.818682,46.917208]]]}},{"type":"Feature","properties":{"cadnum":"2320685501:03:028:0008"},"geometry":{"type":"Polygon","coordinates":[[[36.817715,46.917239],[36.817815,46.917526],[36.818219,46.917459],[36.818188,46.917372],[36.818163,46.917375],[36.818093,46.917177],[36.817715,46.917239]]]}},{"type":"Feature","properties":{"cadnum":"2320685501:03:036:0001"},"geometry":{"type":"Polygon","coordinates":[[[36.817519,46.916904],[36.817527,46.916944],[36.817585,46.916939],[36.817578,46.916899],[36.817519,46.916904]]]}},{"type":"Feature","properties":{"cadnum":"2320685501:03:028:0005"},"geometry":{"type":"Polygon","coordinates":[[[36.81981,46.916956],[36.819845,46.917039],[36.820039,46.917],[36.820134,46.917196],[36.819976,46.917233],[36.820014,46.917308],[36.820209,46.917263],[36.820177,46.917197],[36.820042,46.91691],[36.820004,46.916917],[36.81981,46.916956]]]}},{"type":"Feature","properties":{"cadnum":"2320685501:03:027:0010"},"geometry":{"type":"Polygon","coordinates":[[[36.815511,46.9181],[36.815654,46.918308],[36.815971,46.918214],[36.816065,46.91833],[36.816457,46.918225],[36.816387,46.918102],[36.816533,46.918062],[36.816434,46.917887],[36.816434,46.917886],[36.816452,46.917882],[36.816409,46.917807],[36.816033,46.917929],[36.81605,46.917952],[36.816016,46.917964],[36.815998,46.917941],[36.815511,46.9181]]]}},{"type":"Feature","properties":{"cadnum":"2320685501:03:027:0006"},"geometry":{"type":"Polygon","coordinates":[[[36.815477,46.91836],[36.815671,46.918533],[36.816131,46.91841],[36.816065,46.91833],[36.815971,46.918214],[36.815477,46.91836]]]}},{"type":"Feature","properties":{"cadnum":"2320685501:03:028:0011"},"geometry":{"type":"Polygon","coordinates":[[[36.81531,46.919331],[36.815404,46.919459],[36.81544,46.919473],[36.816057,46.919362],[36.815942,46.91916],[36.81587,46.919185],[36.815762,46.919217],[36.815525,46.919265],[36.81531,46.919331]]]}},{"type":"Feature","properties":{"cadnum":"2320685501:03:028:0006"},"geometry":{"type":"Polygon","coordinates":[[[36.81873,46.917529],[36.818738,46.91757],[36.818781,46.917566],[36.818774,46.917529],[36.818782,46.917528],[36.81878,46.917516],[36.818761,46.917518],[36.818764,46.917526],[36.818764,46.917527],[36.818763,46.917527],[36.81873,46.917529]]]}},{"type":"Feature","properties":{"cadnum":"2320685501:03:028:0004"},"geometry":{"type":"Polygon","coordinates":[[[36.81829,46.917159],[36.818296,46.917174],[36.81834,46.917312],[36.818381,46.91745],[36.818395,46.917487],[36.818511,46.917464],[36.818502,46.91744],[36.818502,46.917439],[36.818667,46.917414],[36.818565,46.917115],[36.81829,46.917159]]]}},{"type":"Feature","properties":{"cadnum":"2320685501:03:027:0005"},"geometry":{"type":"Polygon","coordinates":[[[36.816065,46.91833],[36.816131,46.91841],[36.816258,46.918377],[36.81692,46.918202],[36.81683,46.918042],[36.816744,46.917891],[36.816759,46.917887],[36.816673,46.917736],[36.816409,46.917807],[36.816451,46.917882],[36.816434,46.917886],[36.816434,46.917887],[36.816533,46.918062],[36.816387,46.918102],[36.816457,46.918225],[36.816065,46.91833]]]}},{"type":"Feature","properties":{"cadnum":"2320685501:03:027:0011"},"geometry":{"type":"Polygon","coordinates":[[[36.815333,46.918159],[36.815477,46.91836],[36.815654,46.918308],[36.815511,46.9181],[36.815333,46.918159]]]}},{"type":"Feature","properties":{"cadnum":"2320685501:03:027:0015"},"geometry":{"type":"Polygon","coordinates":[[[36.816887,46.919443],[36.816917,46.919512],[36.816987,46.919645],[36.817022,46.919707],[36.817731,46.919459],[36.818037,46.919358],[36.817971,46.919187],[36.8175,46.919295],[36.81692,46.919432],[36.816887,46.919443]]]}},{"type":"Feature","properties":{"cadnum":"2320685501:02:009:0002"},"geometry":{"type":"Polygon","coordinates":[[[36.831853,46.900368],[36.832687,46.900398],[36.832731,46.900056],[36.83192,46.9],[36.831853,46.900368]]]}}]}