{"type":"FeatureCollection","features":[{"type":"Feature","properties":{"cadnum":"2320680503:01:027:0006"},"geometry":{"type":"Polygon","coordinates":[[[36.599801,46.87449],[36.600036,46.874813],[36.600421,46.874684],[36.600188,46.874364],[36.599801,46.87449]]]}},{"type":"Feature","properties":{"cadnum":"2320680503:01:028:0001"},"geometry":{"type":"Polygon","coordinates":[[[36.597712,46.87339],[36.597967,46.873471],[36.598645,46.873157],[36.598585,46.873025],[36.597712,46.87339]]]}},{"type":"Feature","properties":{"cadnum":"2320680503:01:027:0005"},"geometry":{"type":"Polygon","coordinates":[[[36.600188,46.874364],[36.600421,46.874684],[36.600866,46.874538],[36.600916,46.874521],[36.601038,46.874481],[36.601038,46.87448],[36.601163,46.874439],[36.600927,46.874114],[36.600767,46.874172],[36.600629,46.87422],[36.600188,46.874364]]]}},{"type":"Feature","properties":{"cadnum":"2320680503:01:028:0002"},"geometry":{"type":"Polygon","coordinates":[[[36.597967,46.873471],[36.598796,46.873735],[36.59903,46.873626],[36.598816,46.873321],[36.598733,46.873348],[36.598645,46.873157],[36.597967,46.873471]]]}},{"type":"Feature","properties":{"cadnum":"2320680503:01:027:0003"},"geometry":{"type":"Polygon","coordinates":[[[36.599168,46.872733],[36.5994,46.873088],[36.60008,46.872874],[36.599843,46.872511],[36.599168,46.872733]]]}},{"type":"Feature","properties":{"cadnum":"2320680503:01:027:0004"},"geometry":{"type":"Polygon","coordinates":[[[36.598597,46.87292],[36.598843,46.873264],[36.5994,46.873088],[36.599168,46.872733],[36.598597,46.87292]]]}},{"type":"Feature","properties":{"cadnum":"2320680503:01:005:0005"},"geometry":{"type":"Polygon","coordinates":[[[36.60672,46.883848],[36.606837,46.884014],[36.607693,46.88374],[36.607572,46.883569],[36.60672,46.883848]]]}},{"type":"Feature","properties":{"cadnum":"2320680503:01:005:0002"},"geometry":{"type":"Polygon","coordinates":[[[36.606424,46.884861],[36.606531,46.88497],[36.606531,46.884969],[36.606783,46.885224],[36.607027,46.885043],[36.606673,46.884684],[36.606424,46.884861]]]}},{"type":"Feature","properties":{"cadnum":"2320680503:01:005:0007"},"geometry":{"type":"Polygon","coordinates":[[[36.606368,46.884164],[36.606502,46.88437],[36.606531,46.884362],[36.606531,46.884361],[36.606728,46.884302],[36.606581,46.884095],[36.606368,46.884164]]]}},{"type":"Feature","properties":{"cadnum":"2320680503:01:005:0006"},"geometry":{"type":"Polygon","coordinates":[[[36.606581,46.884095],[36.606728,46.884302],[36.607852,46.883966],[36.607693,46.88374],[36.606581,46.884095]]]}},{"type":"Feature","properties":{"cadnum":"2320680503:01:004:0002"},"geometry":{"type":"Polygon","coordinates":[[[36.609565,46.884845],[36.609687,46.885035],[36.610408,46.884807],[36.610332,46.8847],[36.610179,46.884749],[36.610152,46.884709],[36.610034,46.884747],[36.610046,46.884766],[36.610022,46.884774],[36.609997,46.884738],[36.610022,46.884729],[36.610022,46.88473],[36.610029,46.88474],[36.610147,46.884701],[36.610124,46.884668],[36.609565,46.884845]]]}},{"type":"Feature","properties":{"cadnum":"2320680503:01:003:0002"},"geometry":{"type":"Polygon","coordinates":[[[36.610018,46.882763],[36.610062,46.882827],[36.610063,46.882827],[36.610281,46.883135],[36.610597,46.883039],[36.610563,46.882857],[36.610185,46.882722],[36.610183,46.882721],[36.610115,46.882732],[36.610018,46.882763]]]}},{"type":"Feature","properties":{"cadnum":"2320680503:01:003:0003"},"geometry":{"type":"Polygon","coordinates":[[[36.609362,46.882977],[36.609617,46.883339],[36.609752,46.883294],[36.610281,46.883135],[36.610018,46.882763],[36.609824,46.882827],[36.609823,46.882827],[36.609362,46.882977]]]}},{"type":"Feature","properties":{"cadnum":"2320680503:01:008:0006"},"geometry":{"type":"Polygon","coordinates":[[[36.60833,46.882744],[36.608385,46.882827],[36.608386,46.882827],[36.608574,46.883102],[36.609105,46.882916],[36.609105,46.882915],[36.609038,46.882815],[36.608885,46.882583],[36.608449,46.882709],[36.608331,46.882744],[36.60833,46.882744]]]}},{"type":"Feature","properties":{"cadnum":"2320680503:01:002:0003"},"geometry":{"type":"Polygon","coordinates":[[[36.610577,46.886057],[36.610859,46.886371],[36.611281,46.886141],[36.611291,46.885947],[36.611238,46.885791],[36.610577,46.886057]]]}},{"type":"Feature","properties":{"cadnum":"2320680503:01:004:0004"},"geometry":{"type":"Polygon","coordinates":[[[36.609079,46.885314],[36.609284,46.885637],[36.60995,46.885463],[36.609727,46.885115],[36.60952,46.885179],[36.609448,46.885201],[36.609406,46.885213],[36.609229,46.885269],[36.609079,46.885314]]]}},{"type":"Feature","properties":{"cadnum":"2320680503:01:003:0001"},"geometry":{"type":"Polygon","coordinates":[[[36.610819,46.885179],[36.611006,46.885386],[36.611084,46.885449],[36.611114,46.885464],[36.611159,46.88547],[36.611255,46.885449],[36.611461,46.885383],[36.611684,46.885294],[36.611571,46.884971],[36.610988,46.885123],[36.611,46.885141],[36.610819,46.885179]]]}},{"type":"Feature","properties":{"cadnum":"2320680503:01:002:0001"},"geometry":{"type":"Polygon","coordinates":[[[36.609507,46.886054],[36.609728,46.886399],[36.610505,46.886086],[36.610339,46.885826],[36.609507,46.886054]]]}},{"type":"Feature","properties":{"cadnum":"2320680503:01:004:0003"},"geometry":{"type":"Polygon","coordinates":[[[36.609997,46.884738],[36.610022,46.884774],[36.610046,46.884766],[36.610034,46.884747],[36.610152,46.884709],[36.610179,46.884749],[36.610332,46.8847],[36.610276,46.884621],[36.610124,46.884668],[36.610147,46.884701],[36.610029,46.88474],[36.610029,46.884739],[36.610022,46.884729],[36.609997,46.884738]]]}},{"type":"Feature","properties":{"cadnum":"2320680503:01:005:0003"},"geometry":{"type":"Polygon","coordinates":[[[36.607892,46.885224],[36.608132,46.885569],[36.608824,46.885372],[36.608568,46.885004],[36.607892,46.885224]]]}},{"type":"Feature","properties":{"cadnum":"2320680503:01:002:0002"},"geometry":{"type":"Polygon","coordinates":[[[36.610339,46.885826],[36.610505,46.886086],[36.611238,46.885791],[36.611115,46.885612],[36.610339,46.885826]]]}},{"type":"Feature","properties":{"cadnum":"2320680503:01:005:0001"},"geometry":{"type":"Polygon","coordinates":[[[36.605752,46.885231],[36.606359,46.885395],[36.606499,46.885432],[36.606531,46.88541],[36.606531,46.885409],[36.606783,46.885224],[36.606424,46.884861],[36.605752,46.885231]]]}},{"type":"Feature","properties":{"cadnum":"2320680503:01:005:0004"},"geometry":{"type":"Polygon","coordinates":[[[36.607277,46.885425],[36.607537,46.885744],[36.60758,46.885727],[36.608132,46.885569],[36.607892,46.885224],[36.607277,46.885425]]]}},{"type":"Feature","properties":{"cadnum":"2320680503:01:001:0001"},"geometry":{"type":"Polygon","coordinates":[[[36.608528,46.886291],[36.608653,46.886464],[36.608696,46.886523],[36.608739,46.886581],[36.608761,46.886611],[36.608912,46.886566],[36.609519,46.886387],[36.609284,46.886067],[36.608528,46.886291]]]}},{"type":"Feature","properties":{"cadnum":"2320680503:01:022:0002"},"geometry":{"type":"Polygon","coordinates":[[[36.612681,46.876194],[36.612743,46.876377],[36.613388,46.876324],[36.613388,46.876206],[36.613638,46.876181],[36.613639,46.876129],[36.613789,46.876131],[36.613796,46.876086],[36.612681,46.876194]]]}},{"type":"Feature","properties":{"cadnum":"2320680503:01:022:0003"},"geometry":{"type":"Polygon","coordinates":[[[36.613388,46.876324],[36.613765,46.876293],[36.613789,46.876131],[36.613639,46.876129],[36.613638,46.876181],[36.613388,46.876206],[36.613388,46.876324]]]}},{"type":"Feature","properties":{"cadnum":"2320680503:01:020:0001"},"geometry":{"type":"Polygon","coordinates":[[[36.611615,46.877216],[36.611712,46.877578],[36.611853,46.877561],[36.611956,46.877548],[36.612024,46.87754],[36.612243,46.877513],[36.612166,46.877128],[36.611973,46.877159],[36.611615,46.877216]]]}},{"type":"Feature","properties":{"cadnum":"2320680503:01:021:0002"},"geometry":{"type":"Polygon","coordinates":[[[36.612954,46.87713],[36.613026,46.877348],[36.613037,46.877432],[36.613068,46.877432],[36.613583,46.87748],[36.613609,46.877266],[36.613614,46.877229],[36.613622,46.87716],[36.613321,46.877143],[36.612954,46.87713]]]}},{"type":"Feature","properties":{"cadnum":"2320680503:01:021:0005"},"geometry":{"type":"Polygon","coordinates":[[[36.612293,46.87868],[36.612746,46.879072],[36.61296,46.879257],[36.612993,46.879245],[36.612793,46.879072],[36.612349,46.878687],[36.612293,46.87868]]]}},{"type":"Feature","properties":{"cadnum":"2320680503:01:030:0001"},"geometry":{"type":"Polygon","coordinates":[[[36.603115,46.871341],[36.603182,46.871444],[36.603181,46.871444],[36.603237,46.871531],[36.603237,46.871532],[36.604046,46.871284],[36.604151,46.871253],[36.604184,46.871242],[36.604234,46.871225],[36.604365,46.871183],[36.604477,46.871147],[36.604348,46.870947],[36.604223,46.870984],[36.604037,46.871046],[36.603959,46.871069],[36.603806,46.871117],[36.603115,46.871341]]]}},{"type":"Feature","properties":{"cadnum":"2320680503:01:030:0002"},"geometry":{"type":"Polygon","coordinates":[[[36.603933,46.871537],[36.603948,46.871562],[36.604163,46.871917],[36.604815,46.871694],[36.604664,46.871444],[36.604591,46.871322],[36.604242,46.871436],[36.60422,46.871444],[36.604219,46.871444],[36.60417,46.871464],[36.604169,46.871464],[36.604043,46.871503],[36.603933,46.871537]]]}},{"type":"Feature","properties":{"cadnum":"2320680503:01:030:0004"},"geometry":{"type":"Polygon","coordinates":[[[36.60305,46.871361],[36.603104,46.871444],[36.603103,46.871444],[36.603173,46.87155],[36.603173,46.871551],[36.603237,46.871532],[36.603237,46.871531],[36.603115,46.871341],[36.60305,46.871361]]]}},{"type":"Feature","properties":{"cadnum":"2320680503:01:030:0005"},"geometry":{"type":"Polygon","coordinates":[[[36.603004,46.870884],[36.603146,46.871076],[36.603734,46.870871],[36.604187,46.870707],[36.604053,46.870508],[36.603004,46.870884]]]}},{"type":"Feature","properties":{"cadnum":"2320680503:01:031:0001"},"geometry":{"type":"Polygon","coordinates":[[[36.604359,46.870561],[36.604529,46.870818],[36.605005,46.870665],[36.605496,46.870504],[36.605331,46.870255],[36.604836,46.870423],[36.604734,46.870457],[36.604723,46.87044],[36.604623,46.870473],[36.604493,46.870515],[36.604359,46.870561]]]}},{"type":"Feature","properties":{"cadnum":"2320680503:01:034:0005"},"geometry":{"type":"Polygon","coordinates":[[[36.602296,46.869257],[36.602442,46.86948],[36.602736,46.869376],[36.603184,46.869219],[36.603039,46.868998],[36.602582,46.869162],[36.602296,46.869257]]]}},{"type":"Feature","properties":{"cadnum":"2320680503:01:033:0002"},"geometry":{"type":"Polygon","coordinates":[[[36.604923,46.869065],[36.605033,46.869249],[36.605143,46.869217],[36.605033,46.869034],[36.604923,46.869065]]]}},{"type":"Feature","properties":{"cadnum":"2320680503:01:031:0002"},"geometry":{"type":"Polygon","coordinates":[[[36.605331,46.870255],[36.605496,46.870504],[36.606066,46.870317],[36.605882,46.870068],[36.605331,46.870255]]]}},{"type":"Feature","properties":{"cadnum":"2320680503:01:034:0004"},"geometry":{"type":"Polygon","coordinates":[[[36.600869,46.868358],[36.601038,46.868659],[36.601129,46.86882],[36.601953,46.868552],[36.601684,46.868136],[36.600869,46.868358]]]}},{"type":"Feature","properties":{"cadnum":"2320680503:01:033:0001"},"geometry":{"type":"Polygon","coordinates":[[[36.603624,46.869418],[36.603755,46.869638],[36.604259,46.869473],[36.605033,46.869249],[36.604923,46.869065],[36.604194,46.869268],[36.603624,46.869418]]]}},{"type":"Feature","properties":{"cadnum":"2320680503:01:034:0003"},"geometry":{"type":"Polygon","coordinates":[[[36.601684,46.868136],[36.601953,46.868552],[36.602533,46.868363],[36.602559,46.868352],[36.602309,46.867967],[36.601684,46.868136]]]}},{"type":"Feature","properties":{"cadnum":"2320680503:01:011:0001"},"geometry":{"type":"Polygon","coordinates":[[[36.607403,46.877884],[36.607682,46.878226],[36.6083,46.877978],[36.608047,46.877667],[36.607992,46.877602],[36.607403,46.877884]]]}},{"type":"Feature","properties":{"cadnum":"2320680503:01:011:0002"},"geometry":{"type":"Polygon","coordinates":[[[36.607224,46.877969],[36.607537,46.878284],[36.607682,46.878226],[36.607403,46.877884],[36.607224,46.877969]]]}},{"type":"Feature","properties":{"cadnum":"2320680503:01:019:0004"},"geometry":{"type":"Polygon","coordinates":[[[36.606358,46.875409],[36.606359,46.875411],[36.606413,46.875511],[36.606531,46.875735],[36.606545,46.87576],[36.60725,46.87552],[36.607079,46.875202],[36.60706,46.875164],[36.606957,46.8752],[36.606956,46.8752],[36.606872,46.875229],[36.60662,46.875317],[36.606621,46.875317],[36.606439,46.875381],[36.606358,46.875409]]]}},{"type":"Feature","properties":{"cadnum":"2320680503:01:019:0005"},"geometry":{"type":"Polygon","coordinates":[[[36.606095,46.8755],[36.606337,46.87583],[36.606359,46.875823],[36.606545,46.87576],[36.606413,46.875511],[36.606358,46.875409],[36.606095,46.8755]]]}},{"type":"Feature","properties":{"cadnum":"2320680503:01:010:0002"},"geometry":{"type":"Polygon","coordinates":[[[36.61082,46.878544],[36.611229,46.878842],[36.611466,46.878752],[36.611881,46.878587],[36.61148,46.878295],[36.611437,46.878311],[36.61106,46.878457],[36.61082,46.878544]]]}},{"type":"Feature","properties":{"cadnum":"2320680503:01:010:0004"},"geometry":{"type":"Polygon","coordinates":[[[36.610776,46.878559],[36.61101,46.878924],[36.611229,46.878842],[36.61082,46.878544],[36.610776,46.878559]]]}},{"type":"Feature","properties":{"cadnum":"2320680503:01:011:0007"},"geometry":{"type":"Polygon","coordinates":[[[36.60622,46.878269],[36.60633,46.878417],[36.606359,46.878409],[36.606406,46.878395],[36.606531,46.87836],[36.606531,46.878359],[36.607288,46.878141],[36.607085,46.877874],[36.606734,46.878008],[36.60664,46.878043],[36.606404,46.878129],[36.606443,46.878187],[36.60622,46.878269]]]}},{"type":"Feature","properties":{"cadnum":"2320680503:01:014:0003"},"geometry":{"type":"Polygon","coordinates":[[[36.605634,46.877175],[36.605899,46.877519],[36.606099,46.877755],[36.606359,46.877675],[36.606359,46.877676],[36.606465,46.877643],[36.606304,46.877403],[36.606003,46.87705],[36.605634,46.877175]]]}},{"type":"Feature","properties":{"cadnum":"2320680503:01:023:0002"},"geometry":{"type":"Polygon","coordinates":[[[36.608069,46.875141],[36.608108,46.875199],[36.608108,46.8752],[36.608107,46.8752],[36.60835,46.875567],[36.608759,46.875431],[36.608715,46.875365],[36.608986,46.875272],[36.609326,46.875157],[36.609105,46.874821],[36.608069,46.875141]]]}},{"type":"Feature","properties":{"cadnum":"2320680503:01:023:0001"},"geometry":{"type":"Polygon","coordinates":[[[36.607502,46.875316],[36.607502,46.875317],[36.607503,46.875317],[36.60779,46.875755],[36.608112,46.875647],[36.60835,46.875567],[36.608185,46.875317],[36.608069,46.875141],[36.607889,46.8752],[36.607888,46.8752],[36.607839,46.875216],[36.607697,46.875258],[36.607502,46.875316]]]}},{"type":"Feature","properties":{"cadnum":"2320680503:01:010:0003"},"geometry":{"type":"Polygon","coordinates":[[[36.612196,46.879384],[36.61237,46.879704],[36.612896,46.879549],[36.612833,46.879457],[36.612648,46.879225],[36.612348,46.87934],[36.612196,46.879384]]]}},{"type":"Feature","properties":{"cadnum":"2320680503:01:010:0001"},"geometry":{"type":"Polygon","coordinates":[[[36.611571,46.88057],[36.611686,46.880939],[36.611853,46.880914],[36.611872,46.880912],[36.612024,46.880889],[36.612024,46.880888],[36.613093,46.880726],[36.61317,46.880714],[36.613084,46.880409],[36.613375,46.879942],[36.613324,46.879837],[36.613178,46.879657],[36.611863,46.880023],[36.612024,46.880263],[36.612024,46.880262],[36.61215,46.88045],[36.611957,46.880483],[36.611834,46.880504],[36.611571,46.88057]]]}},{"type":"Feature","properties":{"cadnum":"2320680503:01:030:0006"},"geometry":{"type":"Polygon","coordinates":[[[36.602228,46.87262],[36.602376,46.872808],[36.602472,46.872777],[36.602599,46.872729],[36.602792,46.872659],[36.603691,46.872333],[36.603578,46.872155],[36.602787,46.872441],[36.602653,46.872491],[36.602371,46.872579],[36.602228,46.87262]]]}},{"type":"Feature","properties":{"cadnum":"2320680503:01:025:0002"},"geometry":{"type":"Polygon","coordinates":[[[36.605336,46.874476],[36.605456,46.874678],[36.60622,46.874431],[36.606359,46.874391],[36.606515,46.874345],[36.606531,46.874341],[36.606531,46.87434],[36.606583,46.874325],[36.606558,46.87428],[36.606468,46.874128],[36.606044,46.874263],[36.605336,46.874476]]]}},{"type":"Feature","properties":{"cadnum":"2320680503:01:025:0001"},"geometry":{"type":"Polygon","coordinates":[[[36.605174,46.873466],[36.605405,46.873791],[36.60547,46.873769],[36.605895,46.873663],[36.606121,46.873578],[36.605883,46.873243],[36.605391,46.873387],[36.605174,46.873466]]]}},{"type":"Feature","properties":{"cadnum":"2320680503:01:019:0003"},"geometry":{"type":"Polygon","coordinates":[[[36.605481,46.874831],[36.605702,46.875179],[36.606216,46.875006],[36.606004,46.87464],[36.605481,46.874831]]]}},{"type":"Feature","properties":{"cadnum":"2320680503:01:019:0002"},"geometry":{"type":"Polygon","coordinates":[[[36.606004,46.87464],[36.606216,46.875006],[36.606359,46.874959],[36.606363,46.874958],[36.606364,46.874958],[36.606531,46.874906],[36.606531,46.874905],[36.606878,46.874797],[36.606655,46.874411],[36.606531,46.874453],[36.606345,46.874517],[36.606004,46.87464]]]}},{"type":"Feature","properties":{"cadnum":"2320680503:01:030:0003"},"geometry":{"type":"Polygon","coordinates":[[[36.603649,46.871626],[36.603881,46.872012],[36.604163,46.871917],[36.603933,46.871537],[36.603649,46.871626]]]}},{"type":"Feature","properties":{"cadnum":"2320680503:01:030:0007"},"geometry":{"type":"Polygon","coordinates":[[[36.604076,46.871946],[36.60429,46.872281],[36.605018,46.872015],[36.604815,46.871694],[36.604076,46.871946]]]}},{"type":"Feature","properties":{"cadnum":"2320680503:01:025:0003"},"geometry":{"type":"Polygon","coordinates":[[[36.604676,46.873645],[36.604769,46.873793],[36.60489,46.873967],[36.605405,46.873791],[36.605174,46.873466],[36.604676,46.873645]]]}},{"type":"Feature","properties":{"cadnum":"2320680503:01:031:0003"},"geometry":{"type":"Polygon","coordinates":[[[36.607564,46.870506],[36.607722,46.87074],[36.607851,46.870697],[36.608344,46.870537],[36.60819,46.870308],[36.607686,46.870463],[36.607564,46.870506]]]}},{"type":"Feature","properties":{"cadnum":"2320680503:01:032:0001"},"geometry":{"type":"Polygon","coordinates":[[[36.608068,46.869561],[36.608153,46.869718],[36.608633,46.869609],[36.609183,46.869469],[36.609075,46.869309],[36.608472,46.86945],[36.608068,46.869561]]]}},{"type":"Feature","properties":{"cadnum":"2320680503:01:024:0001"},"geometry":{"type":"Polygon","coordinates":[[[36.608507,46.872243],[36.608751,46.872583],[36.608957,46.872507],[36.609439,46.872353],[36.609185,46.871998],[36.608706,46.872169],[36.608507,46.872243]]]}},{"type":"Feature","properties":{"cadnum":"2320680503:01:023:0003"},"geometry":{"type":"Polygon","coordinates":[[[36.61032,46.874707],[36.610512,46.875091],[36.611255,46.87502],[36.611004,46.874624],[36.61032,46.874707]]]}},{"type":"Feature","properties":{"cadnum":"2320680503:01:023:0005"},"geometry":{"type":"Polygon","coordinates":[[[36.609329,46.874132],[36.609467,46.874369],[36.609774,46.874294],[36.610546,46.874198],[36.610372,46.8739],[36.609838,46.87403],[36.609329,46.874132]]]}},{"type":"Feature","properties":{"cadnum":"2320680503:01:023:0004"},"geometry":{"type":"Polygon","coordinates":[[[36.609294,46.874833],[36.609502,46.875189],[36.610512,46.875091],[36.61032,46.874707],[36.609294,46.874833]]]}},{"type":"Feature","properties":{"cadnum":"2320680503:01:023:0007"},"geometry":{"type":"Polygon","coordinates":[[[36.60882,46.874062],[36.608909,46.874218],[36.609329,46.874132],[36.609838,46.87403],[36.610372,46.8739],[36.610263,46.87371],[36.60882,46.874062]]]}},{"type":"Feature","properties":{"cadnum":"2320680503:01:036:0002"},"geometry":{"type":"Polygon","coordinates":[[[36.595192,46.868846],[36.595373,46.869053],[36.595446,46.869136],[36.595545,46.869112],[36.596111,46.868973],[36.595668,46.868706],[36.595376,46.868792],[36.595192,46.868846]]]}},{"type":"Feature","properties":{"cadnum":"2320680503:01:008:0009"},"geometry":{"type":"Polygon","coordinates":[[[36.6055,46.880022],[36.605744,46.880396],[36.606188,46.880262],[36.606266,46.880238],[36.606327,46.88021],[36.606113,46.879836],[36.6055,46.880022]]]}},{"type":"Feature","properties":{"cadnum":"2320680503:01:012:0002"},"geometry":{"type":"Polygon","coordinates":[[[36.604316,46.881106],[36.604405,46.881257],[36.605148,46.881021],[36.605163,46.881002],[36.605163,46.881001],[36.605643,46.880858],[36.605533,46.880705],[36.605004,46.880861],[36.604316,46.881106]]]}},{"type":"Feature","properties":{"cadnum":"2320680503:01:017:0005"},"geometry":{"type":"Polygon","coordinates":[[[36.602728,46.878977],[36.602728,46.878978],[36.602792,46.879072],[36.602793,46.879072],[36.602834,46.879131],[36.603032,46.879072],[36.603561,46.878916],[36.603675,46.878878],[36.603734,46.878857],[36.603763,46.878846],[36.603782,46.878838],[36.603834,46.87882],[36.603963,46.878778],[36.604194,46.878699],[36.604077,46.878542],[36.603853,46.878612],[36.603742,46.878648],[36.603742,46.878649],[36.603679,46.878669],[36.603677,46.878672],[36.603437,46.878751],[36.6028,46.878955],[36.602799,46.878955],[36.602729,46.878977],[36.602728,46.878977]]]}},{"type":"Feature","properties":{"cadnum":"2320680503:01:017:0004"},"geometry":{"type":"Polygon","coordinates":[[[36.601137,46.878706],[36.601305,46.878954],[36.601305,46.878955],[36.60138,46.879064],[36.60138,46.879065],[36.602044,46.87885],[36.601796,46.878481],[36.601137,46.878706]]]}},{"type":"Feature","properties":{"cadnum":"2320680503:01:014:0004"},"geometry":{"type":"Polygon","coordinates":[[[36.59986,46.879285],[36.600023,46.879523],[36.600569,46.879332],[36.601038,46.879184],[36.601038,46.879183],[36.60107,46.879173],[36.600923,46.878955],[36.600922,46.878955],[36.600908,46.878933],[36.600854,46.878955],[36.600853,46.878955],[36.600773,46.878987],[36.600772,46.878987],[36.600696,46.879013],[36.600644,46.879032],[36.600643,46.879032],[36.600528,46.879072],[36.600529,46.879072],[36.600428,46.879108],[36.59986,46.879285]]]}},{"type":"Feature","properties":{"cadnum":"2320680503:01:008:0003"},"geometry":{"type":"Polygon","coordinates":[[[36.605893,46.88065],[36.605921,46.880697],[36.606347,46.880591],[36.606359,46.880613],[36.606359,46.880614],[36.606397,46.880683],[36.606058,46.880768],[36.606022,46.880701],[36.605936,46.880722],[36.605983,46.880801],[36.606359,46.880705],[36.606517,46.880665],[36.606531,46.880661],[36.606935,46.880558],[36.606842,46.880405],[36.606798,46.880415],[36.606439,46.880504],[36.606443,46.880512],[36.606042,46.880619],[36.606038,46.880611],[36.605893,46.88065]]]}},{"type":"Feature","properties":{"cadnum":"2320680503:01:008:0002"},"geometry":{"type":"Polygon","coordinates":[[[36.605921,46.880697],[36.605936,46.880722],[36.606021,46.880701],[36.606022,46.880701],[36.606058,46.880768],[36.606397,46.880683],[36.606347,46.880591],[36.605921,46.880697]]]}},{"type":"Feature","properties":{"cadnum":"2320680503:01:008:0001"},"geometry":{"type":"Polygon","coordinates":[[[36.60584,46.880183],[36.605932,46.880333],[36.606359,46.880224],[36.606432,46.880206],[36.606531,46.88018],[36.606883,46.880089],[36.60679,46.879937],[36.606746,46.879947],[36.606386,46.880036],[36.606392,46.880044],[36.606392,46.880045],[36.605991,46.880152],[36.605985,46.880144],[36.60584,46.880183]]]}},{"type":"Feature","properties":{"cadnum":"2320680503:01:008:0010"},"geometry":{"type":"Polygon","coordinates":[[[36.606225,46.881069],[36.606359,46.881259],[36.606494,46.881448],[36.606531,46.881436],[36.606911,46.881312],[36.606936,46.881351],[36.607137,46.881291],[36.606842,46.880875],[36.60671,46.880913],[36.606566,46.88096],[36.606377,46.881019],[36.606225,46.881069]]]}},{"type":"Feature","properties":{"cadnum":"2320680503:01:012:0001"},"geometry":{"type":"Polygon","coordinates":[[[36.603451,46.882008],[36.603579,46.882195],[36.604002,46.882061],[36.604864,46.881772],[36.604745,46.881596],[36.60388,46.881866],[36.603451,46.882008]]]}},{"type":"Feature","properties":{"cadnum":"2320680503:01:012:0003"},"geometry":{"type":"Polygon","coordinates":[[[36.604176,46.880893],[36.604316,46.881106],[36.605004,46.880861],[36.605533,46.880705],[36.605406,46.880507],[36.605257,46.880554],[36.605265,46.880565],[36.605033,46.880639],[36.605026,46.880631],[36.604895,46.880676],[36.604176,46.880893]]]}},{"type":"Feature","properties":{"cadnum":"2320680503:01:027:0001"},"geometry":{"type":"Polygon","coordinates":[[[36.600266,46.871295],[36.600286,46.871328],[36.600362,46.871307],[36.600342,46.871274],[36.600266,46.871295]]]}},{"type":"Feature","properties":{"cadnum":"2320680503:01:036:0001"},"geometry":{"type":"Polygon","coordinates":[[[36.595668,46.868706],[36.596111,46.868973],[36.596453,46.868891],[36.596844,46.868772],[36.596386,46.868494],[36.595668,46.868706]]]}},{"type":"Feature","properties":{"cadnum":"2320680503:01:008:0012"},"geometry":{"type":"Polygon","coordinates":[[[36.60657,46.881566],[36.606586,46.88159],[36.606608,46.881621],[36.606692,46.881756],[36.607038,46.881648],[36.607345,46.881557],[36.607216,46.881373],[36.60657,46.881566]]]}},{"type":"Feature","properties":{"cadnum":"2320680503:01:008:0004"},"geometry":{"type":"Polygon","coordinates":[[[36.6067,46.880107],[36.606974,46.880533],[36.607533,46.880364],[36.607259,46.879937],[36.6067,46.880107]]]}},{"type":"Feature","properties":{"cadnum":"2320680503:01:008:0008"},"geometry":{"type":"Polygon","coordinates":[[[36.60703,46.882291],[36.607129,46.882443],[36.607844,46.88225],[36.607739,46.88211],[36.607402,46.882196],[36.6072,46.882238],[36.60703,46.882291]]]}},{"type":"Feature","properties":{"cadnum":"2320680503:01:008:0007"},"geometry":{"type":"Polygon","coordinates":[[[36.607129,46.882443],[36.607277,46.882653],[36.607442,46.882611],[36.607971,46.882446],[36.607844,46.88225],[36.607129,46.882443]]]}},{"type":"Feature","properties":{"cadnum":"2320680503:01:011:0005"},"geometry":{"type":"Polygon","coordinates":[[[36.609664,46.879851],[36.609858,46.880145],[36.610276,46.880047],[36.61043,46.879998],[36.610685,46.879913],[36.610491,46.879621],[36.609954,46.879771],[36.609664,46.879851]]]}},{"type":"Feature","properties":{"cadnum":"2320680503:01:011:0004"},"geometry":{"type":"Polygon","coordinates":[[[36.609075,46.879511],[36.609201,46.879713],[36.609952,46.879516],[36.60994,46.879499],[36.610489,46.879358],[36.610375,46.879176],[36.609731,46.879335],[36.609075,46.879511]]]}},{"type":"Feature","properties":{"cadnum":"2320680503:01:011:0003"},"geometry":{"type":"Polygon","coordinates":[[[36.608956,46.879543],[36.609066,46.879748],[36.609201,46.879713],[36.609075,46.879511],[36.608956,46.879543]]]}},{"type":"Feature","properties":{"cadnum":"2320680503:01:009:0001"},"geometry":{"type":"Polygon","coordinates":[[[36.608749,46.881952],[36.608891,46.882157],[36.609589,46.881927],[36.609476,46.88173],[36.609168,46.881826],[36.608749,46.881952]]]}},{"type":"Feature","properties":{"cadnum":"2320680503:01:008:0011"},"geometry":{"type":"Polygon","coordinates":[[[36.606842,46.880875],[36.607137,46.881291],[36.607465,46.881194],[36.607203,46.880772],[36.606842,46.880875]]]}},{"type":"Feature","properties":{"cadnum":"2320680503:01:008:0013"},"geometry":{"type":"Polygon","coordinates":[[[36.607556,46.881665],[36.607788,46.882035],[36.608446,46.881823],[36.608221,46.881454],[36.607556,46.881665]]]}},{"type":"Feature","properties":{"cadnum":"2320680503:01:014:0001"},"geometry":{"type":"Polygon","coordinates":[[[36.598892,46.880342],[36.5989,46.880365],[36.598995,46.880396],[36.599158,46.880419],[36.599256,46.880379],[36.599292,46.880418],[36.599457,46.880472],[36.599737,46.88036],[36.600158,46.880229],[36.59998,46.879973],[36.599073,46.880258],[36.598892,46.880342]]]}},{"type":"Feature","properties":{"cadnum":"2320680503:01:018:0001"},"geometry":{"type":"Polygon","coordinates":[[[36.602637,46.875789],[36.602918,46.876188],[36.60351,46.875973],[36.603239,46.875589],[36.602637,46.875789]]]}},{"type":"Feature","properties":{"cadnum":"2320680503:01:017:0003"},"geometry":{"type":"Polygon","coordinates":[[[36.601796,46.878481],[36.602044,46.87885],[36.602081,46.878838],[36.602265,46.878784],[36.602073,46.878386],[36.601796,46.878481]]]}},{"type":"Feature","properties":{"cadnum":"2320680503:01:016:0001"},"geometry":{"type":"Polygon","coordinates":[[[36.601431,46.876312],[36.601684,46.876627],[36.602603,46.87628],[36.602351,46.875965],[36.601431,46.876312]]]}},{"type":"Feature","properties":{"cadnum":"2320680503:01:017:0002"},"geometry":{"type":"Polygon","coordinates":[[[36.603376,46.877944],[36.603526,46.878143],[36.603548,46.878139],[36.603549,46.878139],[36.603569,46.878163],[36.603606,46.878148],[36.603589,46.878123],[36.603799,46.878043],[36.603646,46.877846],[36.603376,46.877944]]]}},{"type":"Feature","properties":{"cadnum":"2320680503:01:019:0001"},"geometry":{"type":"Polygon","coordinates":[[[36.604867,46.87635],[36.604993,46.876537],[36.605296,46.876441],[36.605307,46.876457],[36.605516,46.876467],[36.605516,46.876468],[36.60552,46.876485],[36.605981,46.876398],[36.605768,46.876035],[36.605213,46.876211],[36.605229,46.876235],[36.605229,46.876236],[36.604867,46.87635]]]}},{"type":"Feature","properties":{"cadnum":"2320680503:01:018:0002"},"geometry":{"type":"Polygon","coordinates":[[[36.603239,46.875589],[36.603511,46.875975],[36.603562,46.875957],[36.603279,46.875576],[36.603239,46.875589]]]}},{"type":"Feature","properties":{"cadnum":"2320680503:01:014:0002"},"geometry":{"type":"Polygon","coordinates":[[[36.605461,46.876566],[36.605666,46.876953],[36.606,46.876848],[36.605875,46.876664],[36.605971,46.876625],[36.606012,46.876609],[36.605938,46.876515],[36.605881,46.876447],[36.605461,46.876566]]]}}]}