{"type":"FeatureCollection","features":[{"type":"Feature","properties":{"cadnum":"2320986602:07:006:0058"},"geometry":{"type":"Polygon","coordinates":[[[35.018474,47.406094],[35.018835,47.406291],[35.018882,47.406317],[35.019007,47.406208],[35.019007,47.406207],[35.019284,47.405963],[35.019068,47.405846],[35.018887,47.405772],[35.018835,47.405751],[35.018795,47.405735],[35.018762,47.405772],[35.018761,47.405772],[35.018474,47.406094]]]}},{"type":"Feature","properties":{"cadnum":"2320986602:07:006:0012"},"geometry":{"type":"Polygon","coordinates":[[[35.019455,47.405884],[35.019467,47.405888],[35.019752,47.405995],[35.01988,47.405867],[35.020066,47.40568],[35.019794,47.405567],[35.019783,47.405563],[35.019569,47.405772],[35.019455,47.405884]]]}},{"type":"Feature","properties":{"cadnum":"2320986602:07:006:0007"},"geometry":{"type":"Polygon","coordinates":[[[35.023753,47.402708],[35.023941,47.402769],[35.0245,47.402428],[35.025029,47.402104],[35.02548,47.401829],[35.025377,47.40179],[35.024909,47.402054],[35.024487,47.402293],[35.023753,47.402708]]]}},{"type":"Feature","properties":{"cadnum":"2320986602:07:006:0005"},"geometry":{"type":"Polygon","coordinates":[[[35.023941,47.402769],[35.024151,47.402838],[35.0245,47.402976],[35.0245,47.402975],[35.024916,47.403139],[35.025542,47.403345],[35.025655,47.403398],[35.026934,47.402376],[35.02684,47.40234],[35.026388,47.402171],[35.026388,47.40217],[35.02548,47.401829],[35.025111,47.402054],[35.02511,47.402054],[35.025029,47.402104],[35.02492,47.40217],[35.02492,47.402171],[35.024328,47.402533],[35.023941,47.402769]]]}},{"type":"Feature","properties":{"cadnum":"2320986602:07:016:0003"},"geometry":{"type":"Polygon","coordinates":[[[35.031082,47.404771],[35.031618,47.404974],[35.03199,47.404565],[35.031986,47.404553],[35.031315,47.404395],[35.031082,47.404771]]]}},{"type":"Feature","properties":{"cadnum":"2320986602:07:016:0058"},"geometry":{"type":"Polygon","coordinates":[[[35.032663,47.402896],[35.033053,47.40301],[35.033546,47.402404],[35.033169,47.402271],[35.032663,47.402896]]]}},{"type":"Feature","properties":{"cadnum":"2320986602:07:016:0012"},"geometry":{"type":"Polygon","coordinates":[[[35.033036,47.40205],[35.033048,47.402054],[35.033236,47.402121],[35.033373,47.40217],[35.033452,47.402199],[35.033497,47.402139],[35.033888,47.401638],[35.033472,47.40149],[35.033036,47.40205]]]}},{"type":"Feature","properties":{"cadnum":"2320986602:07:016:0029"},"geometry":{"type":"Polygon","coordinates":[[[35.032363,47.405721],[35.032511,47.405772],[35.03251,47.405772],[35.03326,47.406028],[35.033479,47.405773],[35.032567,47.405462],[35.032363,47.405721]]]}},{"type":"Feature","properties":{"cadnum":"2320986602:07:016:0042"},"geometry":{"type":"Polygon","coordinates":[[[35.032093,47.405959],[35.033035,47.406263],[35.03326,47.406028],[35.032851,47.405888],[35.032331,47.40571],[35.03216,47.405888],[35.032161,47.405888],[35.032093,47.405959]]]}},{"type":"Feature","properties":{"cadnum":"2320986602:07:016:0100"},"geometry":{"type":"Polygon","coordinates":[[[35.035394,47.405572],[35.035486,47.405601],[35.03603,47.405772],[35.036029,47.405772],[35.036362,47.405876],[35.036366,47.405877],[35.036599,47.40568],[35.035945,47.40547],[35.035518,47.405348],[35.035394,47.405572]]]}},{"type":"Feature","properties":{"cadnum":"2320986602:07:016:0051"},"geometry":{"type":"Polygon","coordinates":[[[35.031122,47.404349],[35.031315,47.404395],[35.031986,47.404553],[35.032186,47.404234],[35.031321,47.404066],[35.031122,47.404349]]]}},{"type":"Feature","properties":{"cadnum":"2320986602:07:016:0030"},"geometry":{"type":"Polygon","coordinates":[[[35.032182,47.40566],[35.032363,47.405721],[35.032567,47.405462],[35.032386,47.4054],[35.032182,47.40566]]]}},{"type":"Feature","properties":{"cadnum":"2320986602:07:016:0002"},"geometry":{"type":"Polygon","coordinates":[[[35.030413,47.40389],[35.032186,47.404234],[35.032274,47.404087],[35.030626,47.403655],[35.030413,47.40389]]]}},{"type":"Feature","properties":{"cadnum":"2320986602:07:016:0040"},"geometry":{"type":"Polygon","coordinates":[[[35.032201,47.404512],[35.032966,47.40468],[35.033175,47.404352],[35.032416,47.404184],[35.032201,47.404512]]]}},{"type":"Feature","properties":{"cadnum":"2320986602:07:016:0041"},"geometry":{"type":"Polygon","coordinates":[[[35.033184,47.405124],[35.033881,47.405329],[35.034218,47.404939],[35.033792,47.404883],[35.033453,47.404823],[35.033184,47.405124]]]}},{"type":"Feature","properties":{"cadnum":"2320986602:07:016:0010"},"geometry":{"type":"Polygon","coordinates":[[[35.034338,47.405019],[35.034773,47.405114],[35.035105,47.405191],[35.035307,47.404829],[35.034966,47.404742],[35.034826,47.404716],[35.03464,47.404666],[35.034338,47.405019]]]}},{"type":"Feature","properties":{"cadnum":"2320986602:07:016:0055"},"geometry":{"type":"Polygon","coordinates":[[[35.034157,47.4052],[35.034482,47.405292],[35.034747,47.40537],[35.035314,47.405548],[35.035315,47.405548],[35.035394,47.405572],[35.035486,47.405406],[35.035518,47.405348],[35.035486,47.405339],[35.034601,47.405088],[35.034365,47.405026],[35.034338,47.405019],[35.034317,47.405014],[35.034254,47.405088],[35.034157,47.4052]]]}},{"type":"Feature","properties":{"cadnum":"2320986602:07:016:0011"},"geometry":{"type":"Polygon","coordinates":[[[35.035105,47.405191],[35.035486,47.405281],[35.035486,47.40528],[35.035579,47.405302],[35.035772,47.404948],[35.035486,47.404875],[35.035307,47.404829],[35.035105,47.405191]]]}},{"type":"Feature","properties":{"cadnum":"2320986602:07:016:0004"},"geometry":{"type":"Polygon","coordinates":[[[35.030041,47.404376],[35.031082,47.404771],[35.031315,47.404395],[35.030238,47.40414],[35.030041,47.404376]]]}},{"type":"Feature","properties":{"cadnum":"2320986602:07:006:0021"},"geometry":{"type":"Polygon","coordinates":[[[35.013054,47.405631],[35.013303,47.40576],[35.013342,47.405726],[35.013342,47.405727],[35.013484,47.4056],[35.013514,47.405574],[35.013641,47.405461],[35.013398,47.405335],[35.013397,47.405334],[35.013054,47.405631]]]}},{"type":"Feature","properties":{"cadnum":"2320986602:07:006:0011"},"geometry":{"type":"Polygon","coordinates":[[[35.012545,47.405846],[35.012626,47.405888],[35.012627,47.405888],[35.012911,47.406037],[35.013174,47.405778],[35.013176,47.405777],[35.012819,47.405593],[35.012818,47.405595],[35.012625,47.405772],[35.012624,47.405772],[35.012545,47.405846]]]}},{"type":"Feature","properties":{"cadnum":"2320986602:07:006:0014"},"geometry":{"type":"Polygon","coordinates":[[[35.011557,47.40573],[35.011625,47.405772],[35.011637,47.405779],[35.011816,47.405888],[35.011916,47.405949],[35.011987,47.40588],[35.012179,47.405691],[35.012185,47.405682],[35.011824,47.405502],[35.011557,47.40573]]]}},{"type":"Feature","properties":{"cadnum":"2320986602:07:006:0013"},"geometry":{"type":"Polygon","coordinates":[[[35.011916,47.405949],[35.012242,47.406126],[35.012526,47.405861],[35.012527,47.405861],[35.012524,47.40586],[35.012179,47.405691],[35.012097,47.405772],[35.012096,47.405772],[35.011987,47.40588],[35.011978,47.405888],[35.011916,47.405949]]]}},{"type":"Feature","properties":{"cadnum":"2320986602:07:003:0033"},"geometry":{"type":"Polygon","coordinates":[[[35.030023,47.413768],[35.030153,47.413894],[35.030476,47.414042],[35.030645,47.413902],[35.030493,47.413754],[35.030342,47.413607],[35.030023,47.413768]]]}},{"type":"Feature","properties":{"cadnum":"2320986602:07:014:0001"},"geometry":{"type":"Polygon","coordinates":[[[35.029563,47.41488],[35.029821,47.414998],[35.029821,47.414999],[35.029985,47.415073],[35.029993,47.415066],[35.029993,47.415065],[35.030717,47.414359],[35.030339,47.414205],[35.029859,47.414039],[35.029824,47.41407],[35.029993,47.414129],[35.030304,47.414236],[35.029872,47.414611],[35.029563,47.41488]]]}},{"type":"Feature","properties":{"cadnum":"2320986602:07:003:0025"},"geometry":{"type":"Polygon","coordinates":[[[35.030189,47.413459],[35.030342,47.413607],[35.030657,47.413442],[35.030508,47.413297],[35.030189,47.413459]]]}},{"type":"Feature","properties":{"cadnum":"2320986602:07:014:0007"},"geometry":{"type":"Polygon","coordinates":[[[35.03069,47.415252],[35.031046,47.415426],[35.03164,47.414806],[35.031232,47.414635],[35.03069,47.415252]]]}},{"type":"Feature","properties":{"cadnum":"2320986602:07:014:0006"},"geometry":{"type":"Polygon","coordinates":[[[35.030149,47.41587],[35.030469,47.416027],[35.031046,47.415426],[35.03069,47.415252],[35.030149,47.41587]]]}},{"type":"Feature","properties":{"cadnum":"2320986602:07:003:0032"},"geometry":{"type":"Polygon","coordinates":[[[35.029717,47.41347],[35.029821,47.413567],[35.029821,47.413568],[35.029875,47.413617],[35.029993,47.413738],[35.030023,47.413768],[35.030342,47.413607],[35.030036,47.41331],[35.029821,47.413418],[35.029717,47.41347]]]}},{"type":"Feature","properties":{"cadnum":"2320986602:07:003:0026"},"geometry":{"type":"Polygon","coordinates":[[[35.030342,47.413607],[35.030493,47.413754],[35.030812,47.413594],[35.030657,47.413442],[35.030342,47.413607]]]}},{"type":"Feature","properties":{"cadnum":"2320986602:07:003:0021"},"geometry":{"type":"Polygon","coordinates":[[[35.031039,47.413254],[35.031109,47.413323],[35.03111,47.413323],[35.031342,47.41355],[35.031661,47.41339],[35.031563,47.413294],[35.031358,47.413094],[35.031133,47.413207],[35.031132,47.413207],[35.031039,47.413254]]]}},{"type":"Feature","properties":{"cadnum":"2320986602:07:003:0024"},"geometry":{"type":"Polygon","coordinates":[[[35.030418,47.413121],[35.030507,47.413207],[35.03057,47.413268],[35.030888,47.413107],[35.030737,47.412959],[35.030418,47.413121]]]}},{"type":"Feature","properties":{"cadnum":"2320986602:07:003:0010"},"geometry":{"type":"Polygon","coordinates":[[[35.031565,47.413214],[35.031565,47.413215],[35.031672,47.413323],[35.031673,47.413323],[35.031712,47.413363],[35.031965,47.413235],[35.03203,47.413203],[35.032349,47.41304],[35.032202,47.412891],[35.031883,47.413053],[35.031579,47.413207],[35.031578,47.413207],[35.031565,47.413214]]]}},{"type":"Feature","properties":{"cadnum":"2320986602:07:006:0070"},"geometry":{"type":"Polygon","coordinates":[[[35.020059,47.408559],[35.020348,47.408706],[35.020498,47.40854],[35.020168,47.408372],[35.020085,47.408473],[35.020059,47.408559]]]}},{"type":"Feature","properties":{"cadnum":"2320986602:07:006:0043"},"geometry":{"type":"Polygon","coordinates":[[[35.018732,47.407016],[35.018835,47.40707],[35.018918,47.407113],[35.019007,47.407158],[35.019212,47.407262],[35.019338,47.40711],[35.019512,47.406787],[35.01955,47.406735],[35.019168,47.406564],[35.018835,47.406909],[35.018732,47.407016]]]}},{"type":"Feature","properties":{"cadnum":"2320986602:07:006:0044"},"geometry":{"type":"Polygon","coordinates":[[[35.019168,47.406564],[35.01955,47.406735],[35.019771,47.406425],[35.01994,47.406218],[35.019633,47.406081],[35.019168,47.406564]]]}},{"type":"Feature","properties":{"cadnum":"2320986602:07:006:0063"},"geometry":{"type":"Polygon","coordinates":[[[35.018741,47.409031],[35.018835,47.409073],[35.018835,47.409074],[35.019184,47.409233],[35.019723,47.408775],[35.019314,47.408588],[35.01915,47.40872],[35.019007,47.408829],[35.018741,47.409031]]]}},{"type":"Feature","properties":{"cadnum":"2320986602:07:006:0067"},"geometry":{"type":"Polygon","coordinates":[[[35.021566,47.408979],[35.021997,47.409247],[35.022231,47.408973],[35.022405,47.409024],[35.022435,47.408987],[35.022128,47.408857],[35.022245,47.408537],[35.022058,47.40845],[35.021566,47.408979]]]}},{"type":"Feature","properties":{"cadnum":"2320986602:07:006:0065"},"geometry":{"type":"Polygon","coordinates":[[[35.018108,47.409588],[35.018144,47.409606],[35.018145,47.409606],[35.018536,47.409801],[35.018816,47.409564],[35.019007,47.409405],[35.019059,47.409361],[35.01893,47.409297],[35.018637,47.40915],[35.018227,47.40949],[35.018226,47.40949],[35.018108,47.409588]]]}},{"type":"Feature","properties":{"cadnum":"2320986602:07:006:0046"},"geometry":{"type":"Polygon","coordinates":[[[35.01983,47.406533],[35.020297,47.40671],[35.020442,47.406525],[35.020021,47.406365],[35.019975,47.406399],[35.01983,47.406533]]]}},{"type":"Feature","properties":{"cadnum":"2320986602:07:006:0045"},"geometry":{"type":"Polygon","coordinates":[[[35.019546,47.406919],[35.019755,47.406995],[35.019601,47.40723],[35.019815,47.407324],[35.020297,47.40671],[35.01983,47.406533],[35.019794,47.406566],[35.019546,47.406919]]]}},{"type":"Feature","properties":{"cadnum":"2320986602:07:006:0050"},"geometry":{"type":"Polygon","coordinates":[[[35.022169,47.407413],[35.022526,47.407564],[35.022589,47.407492],[35.022223,47.407337],[35.022169,47.407413]]]}},{"type":"Feature","properties":{"cadnum":"2320986602:07:006:0042"},"geometry":{"type":"Polygon","coordinates":[[[35.022127,47.408857],[35.022435,47.408987],[35.022605,47.408772],[35.022459,47.408667],[35.022417,47.408624],[35.022245,47.408537],[35.022127,47.408857]]]}},{"type":"Feature","properties":{"cadnum":"2320986602:07:006:0035"},"geometry":{"type":"Polygon","coordinates":[[[35.023053,47.40741],[35.023395,47.407588],[35.023929,47.407019],[35.023517,47.406853],[35.023053,47.40741]]]}},{"type":"Feature","properties":{"cadnum":"2320986602:07:006:1001"},"geometry":{"type":"Polygon","coordinates":[[[35.024224,47.408516],[35.024328,47.408583],[35.024328,47.408584],[35.024469,47.408674],[35.0245,47.408652],[35.024684,47.408521],[35.024438,47.408362],[35.024224,47.408516]]]}},{"type":"Feature","properties":{"cadnum":"2320986602:07:006:0069"},"geometry":{"type":"Polygon","coordinates":[[[35.020168,47.408372],[35.020498,47.40854],[35.021039,47.40795],[35.020652,47.407783],[35.020168,47.408372]]]}},{"type":"Feature","properties":{"cadnum":"2320986602:07:006:0036"},"geometry":{"type":"Polygon","coordinates":[[[35.023517,47.406853],[35.023929,47.407019],[35.024006,47.406936],[35.023588,47.406767],[35.023517,47.406853]]]}},{"type":"Feature","properties":{"cadnum":"2320986602:07:006:0037"},"geometry":{"type":"Polygon","coordinates":[[[35.023939,47.407858],[35.024308,47.407992],[35.024328,47.407987],[35.024328,47.407988],[35.02435,47.407981],[35.0245,47.407803],[35.024869,47.407364],[35.024512,47.407265],[35.024434,47.407346],[35.023939,47.407858]]]}},{"type":"Feature","properties":{"cadnum":"2320986602:07:006:0028"},"geometry":{"type":"Polygon","coordinates":[[[35.022532,47.409088],[35.022931,47.409317],[35.023206,47.408993],[35.023187,47.408981],[35.022802,47.40877],[35.022532,47.409088]]]}},{"type":"Feature","properties":{"cadnum":"2320986602:07:006:0009"},"geometry":{"type":"Polygon","coordinates":[[[35.021181,47.407927],[35.021661,47.408146],[35.021895,47.407805],[35.021981,47.407682],[35.021485,47.407456],[35.021181,47.407927]]]}},{"type":"Feature","properties":{"cadnum":"2320986602:07:006:0031"},"geometry":{"type":"Polygon","coordinates":[[[35.024244,47.409337],[35.024328,47.40938],[35.024328,47.409381],[35.024449,47.409442],[35.0245,47.409468],[35.024531,47.409483],[35.024549,47.40949],[35.024548,47.40949],[35.024623,47.409515],[35.024629,47.409518],[35.024798,47.409606],[35.025412,47.409925],[35.02551,47.409851],[35.024918,47.409493],[35.024438,47.409203],[35.024244,47.409337]]]}},{"type":"Feature","properties":{"cadnum":"2320986602:07:006:0027"},"geometry":{"type":"Polygon","coordinates":[[[35.022931,47.409317],[35.023431,47.409606],[35.02352,47.409657],[35.023691,47.409545],[35.023879,47.409424],[35.023206,47.408993],[35.022931,47.409317]]]}},{"type":"Feature","properties":{"cadnum":"2320986602:07:006:0049"},"geometry":{"type":"Polygon","coordinates":[[[35.021661,47.408146],[35.021921,47.408267],[35.022526,47.407564],[35.022169,47.407413],[35.021981,47.407682],[35.021895,47.407805],[35.021661,47.408146]]]}},{"type":"Feature","properties":{"cadnum":"2320986602:07:006:0068"},"geometry":{"type":"Polygon","coordinates":[[[35.021293,47.409272],[35.021646,47.40949],[35.021645,47.40949],[35.02174,47.409548],[35.021997,47.409247],[35.021566,47.408979],[35.021293,47.409272]]]}},{"type":"Feature","properties":{"cadnum":"2320986602:07:006:0010"},"geometry":{"type":"Polygon","coordinates":[[[35.021485,47.407456],[35.021981,47.407682],[35.022314,47.407206],[35.021761,47.407029],[35.021485,47.407456]]]}},{"type":"Feature","properties":{"cadnum":"2320986602:07:003:0014"},"geometry":{"type":"Polygon","coordinates":[[[35.029828,47.412074],[35.02998,47.412222],[35.029993,47.412235],[35.030131,47.412369],[35.03045,47.412208],[35.030297,47.412059],[35.030147,47.411913],[35.029828,47.412074]]]}},{"type":"Feature","properties":{"cadnum":"2320986602:07:003:0034"},"geometry":{"type":"Polygon","coordinates":[[[35.029579,47.412865],[35.029732,47.413014],[35.029821,47.412969],[35.029993,47.412882],[35.030052,47.412852],[35.029901,47.412704],[35.029579,47.412865]]]}},{"type":"Feature","properties":{"cadnum":"2320986602:07:006:0041"},"geometry":{"type":"Polygon","coordinates":[[[35.028833,47.409532],[35.028834,47.409532],[35.028995,47.409606],[35.028996,47.409606],[35.029463,47.40982],[35.029631,47.409714],[35.029281,47.409554],[35.028958,47.409405],[35.028874,47.40949],[35.028873,47.40949],[35.028833,47.409531],[35.028833,47.409532]]]}},{"type":"Feature","properties":{"cadnum":"2320986602:07:003:0011"},"geometry":{"type":"Polygon","coordinates":[[[35.029901,47.41159],[35.029993,47.411675],[35.030057,47.411734],[35.030377,47.411573],[35.030218,47.411428],[35.029901,47.41159]]]}},{"type":"Feature","properties":{"cadnum":"2320986602:07:006:0033"},"geometry":{"type":"Polygon","coordinates":[[[35.028058,47.409647],[35.028486,47.409881],[35.028815,47.409549],[35.02894,47.409423],[35.028495,47.409204],[35.028213,47.40949],[35.028212,47.40949],[35.028058,47.409647]]]}},{"type":"Feature","properties":{"cadnum":"2320986602:07:006:0061"},"geometry":{"type":"Polygon","coordinates":[[[35.025044,47.410587],[35.025059,47.410597],[35.025672,47.4105],[35.026174,47.410442],[35.02616,47.410396],[35.025939,47.410101],[35.025813,47.409979],[35.025044,47.410587]]]}},{"type":"Feature","properties":{"cadnum":"2320986602:07:006:0038"},"geometry":{"type":"Polygon","coordinates":[[[35.027716,47.409488],[35.027719,47.40949],[35.027925,47.409585],[35.027969,47.409606],[35.02797,47.409606],[35.028058,47.409647],[35.028098,47.409606],[35.028645,47.409051],[35.028661,47.409034],[35.028327,47.408887],[35.027716,47.409488]]]}},{"type":"Feature","properties":{"cadnum":"2320986602:07:003:0031"},"geometry":{"type":"Polygon","coordinates":[[[35.029414,47.413175],[35.029446,47.413207],[35.029564,47.413322],[35.029565,47.413323],[35.029821,47.413193],[35.029821,47.413194],[35.029882,47.413163],[35.029993,47.413106],[35.030202,47.413],[35.030052,47.412852],[35.029993,47.412882],[35.029732,47.413014],[35.029414,47.413175]]]}},{"type":"Feature","properties":{"cadnum":"2320986602:07:003:0022"},"geometry":{"type":"Polygon","coordinates":[[[35.029133,47.412416],[35.02928,47.412566],[35.029597,47.412409],[35.029446,47.412261],[35.029133,47.412416]]]}},{"type":"Feature","properties":{"cadnum":"2320986602:07:006:0040"},"geometry":{"type":"Polygon","coordinates":[[[35.028486,47.409881],[35.028871,47.410099],[35.028975,47.410098],[35.029154,47.410016],[35.029463,47.40982],[35.028834,47.409532],[35.028833,47.409532],[35.028758,47.409606],[35.028759,47.409606],[35.028486,47.409881]]]}},{"type":"Feature","properties":{"cadnum":"2320986602:07:003:0027"},"geometry":{"type":"Polygon","coordinates":[[[35.028287,47.41208],[35.0285,47.412287],[35.028848,47.412122],[35.028557,47.41188],[35.028287,47.41208]]]}},{"type":"Feature","properties":{"cadnum":"2320986602:07:003:0013"},"geometry":{"type":"Polygon","coordinates":[[[35.029526,47.411779],[35.029677,47.411926],[35.029821,47.412067],[35.029828,47.412074],[35.029993,47.411991],[35.030147,47.411913],[35.029997,47.411765],[35.029844,47.411617],[35.029526,47.411779]]]}},{"type":"Feature","properties":{"cadnum":"2320986602:07:003:0023"},"geometry":{"type":"Polygon","coordinates":[[[35.029812,47.41253],[35.029821,47.412539],[35.029821,47.41254],[35.029964,47.412678],[35.029993,47.412664],[35.029993,47.412663],[35.030283,47.412517],[35.030602,47.412356],[35.03045,47.412208],[35.030131,47.412369],[35.029852,47.41251],[35.029812,47.41253]]]}},{"type":"Feature","properties":{"cadnum":"2320986602:07:016:0033"},"geometry":{"type":"Polygon","coordinates":[[[35.02962,47.40998],[35.029652,47.410127],[35.029821,47.410153],[35.029857,47.410159],[35.029993,47.41018],[35.029993,47.410179],[35.03001,47.410181],[35.030529,47.409695],[35.030276,47.409625],[35.03013,47.409529],[35.030043,47.409606],[35.029821,47.409802],[35.02962,47.40998]]]}},{"type":"Feature","properties":{"cadnum":"2320986602:07:003:0030"},"geometry":{"type":"Polygon","coordinates":[[[35.028552,47.413252],[35.028668,47.413323],[35.028669,47.413323],[35.028872,47.413447],[35.029251,47.413256],[35.029353,47.413205],[35.029202,47.413058],[35.028906,47.413207],[35.028905,47.413207],[35.028883,47.413219],[35.028791,47.413131],[35.02864,47.413207],[35.028639,47.413207],[35.028552,47.413252]]]}},{"type":"Feature","properties":{"cadnum":"2320986602:07:003:0029"},"geometry":{"type":"Polygon","coordinates":[[[35.029259,47.413026],[35.029414,47.413175],[35.029732,47.413014],[35.029579,47.412865],[35.029259,47.413026]]]}},{"type":"Feature","properties":{"cadnum":"2320986602:07:003:0028"},"geometry":{"type":"Polygon","coordinates":[[[35.029108,47.412878],[35.029259,47.413026],[35.029579,47.412865],[35.029901,47.412704],[35.029749,47.412557],[35.029427,47.412718],[35.029108,47.412878]]]}},{"type":"Feature","properties":{"cadnum":"2320986602:07:016:0021"},"geometry":{"type":"Polygon","coordinates":[[[35.031034,47.406993],[35.03205,47.407321],[35.032251,47.407105],[35.031235,47.40676],[35.031034,47.406993]]]}},{"type":"Feature","properties":{"cadnum":"2320986602:07:016:0013"},"geometry":{"type":"Polygon","coordinates":[[[35.030405,47.407737],[35.031408,47.408056],[35.031555,47.407894],[35.030524,47.407576],[35.030405,47.407737]]]}},{"type":"Feature","properties":{"cadnum":"2320986602:07:020:0002"},"geometry":{"type":"Polygon","coordinates":[[[35.028897,47.40787],[35.029993,47.408216],[35.030271,47.408303],[35.030509,47.407968],[35.029993,47.407808],[35.029124,47.407538],[35.028897,47.40787]]]}},{"type":"Feature","properties":{"cadnum":"2320986602:07:016:0008"},"geometry":{"type":"Polygon","coordinates":[[[35.029685,47.408392],[35.029821,47.408433],[35.029955,47.408473],[35.029993,47.408485],[35.030814,47.408732],[35.030987,47.408516],[35.030501,47.408372],[35.030499,47.408376],[35.03047,47.408368],[35.030271,47.408304],[35.029872,47.408178],[35.029685,47.408392]]]}},{"type":"Feature","properties":{"cadnum":"2320986602:07:020:0001"},"geometry":{"type":"Polygon","coordinates":[[[35.030271,47.408303],[35.03047,47.408367],[35.030499,47.408375],[35.030501,47.408371],[35.030987,47.408515],[35.031271,47.408203],[35.030878,47.408082],[35.030509,47.407968],[35.030271,47.408303]]]}},{"type":"Feature","properties":{"cadnum":"2320986602:07:016:0026"},"geometry":{"type":"Polygon","coordinates":[[[35.030775,47.409762],[35.030935,47.409807],[35.031019,47.409826],[35.031282,47.409581],[35.03139,47.409481],[35.031255,47.409459],[35.031184,47.409441],[35.031122,47.40949],[35.031121,47.40949],[35.030775,47.409762]]]}},{"type":"Feature","properties":{"cadnum":"2320986602:07:016:0048"},"geometry":{"type":"Polygon","coordinates":[[[35.033051,47.407582],[35.033161,47.407618],[35.033684,47.407802],[35.033986,47.407516],[35.033467,47.407316],[35.033363,47.407284],[35.033051,47.407582]]]}},{"type":"Feature","properties":{"cadnum":"2320986602:07:016:0031"},"geometry":{"type":"Polygon","coordinates":[[[35.033247,47.40625],[35.033784,47.406431],[35.034049,47.406519],[35.034285,47.40623],[35.033488,47.405955],[35.033247,47.40625]]]}},{"type":"Feature","properties":{"cadnum":"2320986602:07:016:0049"},"geometry":{"type":"Polygon","coordinates":[[[35.031424,47.408263],[35.032241,47.408505],[35.03271,47.408649],[35.032876,47.408529],[35.032372,47.408376],[35.031554,47.408127],[35.031424,47.408263]]]}},{"type":"Feature","properties":{"cadnum":"2320986602:07:016:0023"},"geometry":{"type":"Polygon","coordinates":[[[35.031281,47.406775],[35.032245,47.407109],[35.032446,47.406879],[35.031486,47.40653],[35.031281,47.406775]]]}},{"type":"Feature","properties":{"cadnum":"2320986602:07:016:0035"},"geometry":{"type":"Polygon","coordinates":[[[35.032009,47.407636],[35.032461,47.407783],[35.032761,47.407879],[35.033044,47.40758],[35.032595,47.407433],[35.032306,47.407321],[35.032009,47.407636]]]}},{"type":"Feature","properties":{"cadnum":"2320986602:07:016:0037"},"geometry":{"type":"Polygon","coordinates":[[[35.02958,47.408831],[35.029993,47.408976],[35.029993,47.408975],[35.030442,47.409132],[35.030701,47.408863],[35.02983,47.408586],[35.029819,47.408582],[35.02958,47.408831]]]}},{"type":"Feature","properties":{"cadnum":"2320986602:07:016:0024"},"geometry":{"type":"Polygon","coordinates":[[[35.031235,47.40676],[35.031287,47.406778],[35.031488,47.406527],[35.031435,47.406517],[35.031235,47.40676]]]}},{"type":"Feature","properties":{"cadnum":"2320986602:07:016:0017"},"geometry":{"type":"Polygon","coordinates":[[[35.032577,47.407035],[35.032996,47.40718],[35.033193,47.407233],[35.033336,47.407276],[35.033591,47.406988],[35.032858,47.406719],[35.032577,47.407035]]]}},{"type":"Feature","properties":{"cadnum":"2320986602:07:016:0018"},"geometry":{"type":"Polygon","coordinates":[[[35.033336,47.407276],[35.033467,47.407316],[35.03379,47.40744],[35.034089,47.407165],[35.033747,47.407046],[35.033591,47.406988],[35.033336,47.407276]]]}},{"type":"Feature","properties":{"cadnum":"2320986602:07:016:0036"},"geometry":{"type":"Polygon","coordinates":[[[35.032761,47.407879],[35.032858,47.407909],[35.033367,47.408116],[35.033684,47.407802],[35.033161,47.407618],[35.033044,47.40758],[35.032761,47.407879]]]}},{"type":"Feature","properties":{"cadnum":"2320986602:07:016:0044"},"geometry":{"type":"Polygon","coordinates":[[[35.032977,47.406568],[35.03392,47.406882],[35.034369,47.407028],[35.034565,47.406889],[35.034066,47.40674],[35.033091,47.406439],[35.032977,47.406568]]]}},{"type":"Feature","properties":{"cadnum":"2320986602:07:016:0046"},"geometry":{"type":"Polygon","coordinates":[[[35.034204,47.407205],[35.03429,47.407235],[35.034487,47.407066],[35.0344,47.407038],[35.034204,47.407205]]]}},{"type":"Feature","properties":{"cadnum":"2320986602:07:016:0032"},"geometry":{"type":"Polygon","coordinates":[[[35.034049,47.406519],[35.034231,47.40658],[35.034971,47.40681],[35.035321,47.406587],[35.034511,47.406309],[35.034285,47.40623],[35.034049,47.406519]]]}},{"type":"Feature","properties":{"cadnum":"2320986602:07:006:0006"},"geometry":{"type":"Polygon","coordinates":[[[35.025655,47.403398],[35.026155,47.403631],[35.026037,47.403774],[35.026383,47.403939],[35.027043,47.403372],[35.027948,47.403804],[35.02864,47.403013],[35.028066,47.402792],[35.027792,47.402705],[35.026934,47.402376],[35.025655,47.403398]]]}},{"type":"Feature","properties":{"cadnum":"2320986602:07:006:0008"},"geometry":{"type":"Polygon","coordinates":[[[35.028286,47.404792],[35.028676,47.404974],[35.029223,47.404472],[35.028837,47.404284],[35.028286,47.404792]]]}},{"type":"Feature","properties":{"cadnum":"2320986602:07:006:0076"},"geometry":{"type":"Polygon","coordinates":[[[35.029642,47.40083],[35.029821,47.400886],[35.02986,47.400898],[35.029993,47.400939],[35.030586,47.401123],[35.031087,47.401302],[35.032168,47.400034],[35.030694,47.399531],[35.029821,47.400608],[35.029642,47.40083]]]}},{"type":"Feature","properties":{"cadnum":"2320986602:07:006:0075"},"geometry":{"type":"Polygon","coordinates":[[[35.031087,47.401302],[35.032435,47.401808],[35.033666,47.400595],[35.03317,47.400409],[35.032168,47.400034],[35.031087,47.401302]]]}},{"type":"Feature","properties":{"cadnum":"2320986602:07:016:0007"},"geometry":{"type":"Polygon","coordinates":[[[35.036955,47.403733],[35.039229,47.404384],[35.039547,47.404185],[35.037124,47.40349],[35.036955,47.403733]]]}},{"type":"Feature","properties":{"cadnum":"2320986602:07:016:0006"},"geometry":{"type":"Polygon","coordinates":[[[35.035925,47.403438],[35.036955,47.403733],[35.037124,47.40349],[35.03611,47.403199],[35.035925,47.403438]]]}},{"type":"Feature","properties":{"cadnum":"2320986602:07:001:0002"},"geometry":{"type":"Polygon","coordinates":[[[35.037124,47.40349],[35.039547,47.404185],[35.039856,47.403989],[35.037326,47.403259],[35.037124,47.40349]]]}},{"type":"Feature","properties":{"cadnum":"2320986602:07:001:0004"},"geometry":{"type":"Polygon","coordinates":[[[35.03766,47.402715],[35.038313,47.402892],[35.038088,47.40313],[35.040269,47.403759],[35.040713,47.403578],[35.037847,47.402476],[35.03766,47.402715]]]}},{"type":"Feature","properties":{"cadnum":"2320986602:07:001:0003"},"geometry":{"type":"Polygon","coordinates":[[[35.036642,47.402422],[35.03766,47.402715],[35.037847,47.402476],[35.036827,47.402182],[35.036642,47.402422]]]}},{"type":"Feature","properties":{"cadnum":"2320986602:07:001:0001"},"geometry":{"type":"Polygon","coordinates":[[[35.03611,47.403199],[35.037124,47.40349],[35.037326,47.403259],[35.036295,47.40296],[35.03611,47.403199]]]}},{"type":"Feature","properties":{"cadnum":"2320986602:07:016:0057"},"geometry":{"type":"Polygon","coordinates":[[[35.03666,47.403939],[35.037451,47.404193],[35.038347,47.404555],[35.038642,47.404257],[35.037637,47.403929],[35.036827,47.403698],[35.03666,47.403939]]]}},{"type":"Feature","properties":{"cadnum":"2320986602:07:006:0020"},"geometry":{"type":"Polygon","coordinates":[[[35.012333,47.406998],[35.012506,47.407078],[35.012818,47.406784],[35.013023,47.406591],[35.01304,47.406574],[35.012875,47.406495],[35.012858,47.406512],[35.012662,47.406693],[35.012462,47.406879],[35.012333,47.406998]]]}},{"type":"Feature","properties":{"cadnum":"2320986602:07:006:0017"},"geometry":{"type":"Polygon","coordinates":[[[35.013138,47.407288],[35.013269,47.407435],[35.013342,47.407371],[35.013507,47.407224],[35.013514,47.407218],[35.013518,47.407214],[35.013566,47.407172],[35.013801,47.406966],[35.013823,47.406947],[35.013607,47.406848],[35.013594,47.40686],[35.013343,47.407095],[35.013138,47.407288]]]}},{"type":"Feature","properties":{"cadnum":"2320986602:07:006:0018"},"geometry":{"type":"Polygon","coordinates":[[[35.012745,47.407146],[35.012977,47.407164],[35.012995,47.407149],[35.013168,47.406987],[35.0134,47.406769],[35.013414,47.406755],[35.013221,47.406659],[35.013204,47.406676],[35.012997,47.406888],[35.012745,47.407146]]]}},{"type":"Feature","properties":{"cadnum":"2320986602:07:006:0023"},"geometry":{"type":"Polygon","coordinates":[[[35.013267,47.407439],[35.013342,47.407473],[35.013342,47.407474],[35.013396,47.407498],[35.013514,47.407399],[35.013514,47.407398],[35.013626,47.407302],[35.013683,47.407326],[35.013731,47.407346],[35.014019,47.407076],[35.014045,47.407052],[35.013823,47.406947],[35.013801,47.406966],[35.013566,47.407172],[35.013518,47.407214],[35.013507,47.407224],[35.013269,47.407435],[35.013267,47.407439]]]}},{"type":"Feature","properties":{"cadnum":"2320986602:07:006:0019"},"geometry":{"type":"Polygon","coordinates":[[[35.012506,47.407078],[35.012745,47.407146],[35.012997,47.406888],[35.013204,47.406676],[35.013221,47.406659],[35.01304,47.406574],[35.013023,47.406591],[35.012818,47.406784],[35.012506,47.407078]]]}},{"type":"Feature","properties":{"cadnum":"2320986602:07:014:1006"},"geometry":{"type":"Polygon","coordinates":[[[35.020733,47.411411],[35.020886,47.411613],[35.021057,47.41178],[35.021057,47.411781],[35.021029,47.411815],[35.021051,47.411942],[35.021296,47.41197],[35.021378,47.411985],[35.02146,47.41196],[35.021549,47.41193],[35.021709,47.411929],[35.021899,47.411966],[35.021969,47.411988],[35.022085,47.411832],[35.022156,47.411737],[35.021869,47.411632],[35.021798,47.411723],[35.021797,47.411723],[35.021681,47.411657],[35.021552,47.411633],[35.021513,47.411582],[35.021316,47.41145],[35.021093,47.411221],[35.020975,47.411266],[35.020914,47.411289],[35.020733,47.411411]]]}},{"type":"Feature","properties":{"cadnum":"2320986602:07:002:0023"},"geometry":{"type":"Polygon","coordinates":[[[35.020165,47.410975],[35.020687,47.411331],[35.020802,47.411141],[35.020833,47.411113],[35.020833,47.411112],[35.020558,47.410925],[35.020518,47.410958],[35.020238,47.410883],[35.020165,47.410975]]]}},{"type":"Feature","properties":{"cadnum":"2320986602:07:014:0040"},"geometry":{"type":"Polygon","coordinates":[[[35.021323,47.412159],[35.021537,47.41223],[35.021642,47.412275],[35.02172,47.412337],[35.021792,47.412394],[35.021834,47.412388],[35.021894,47.412313],[35.022086,47.412107],[35.022149,47.411991],[35.022149,47.411992],[35.022138,47.412104],[35.022152,47.412114],[35.022158,47.412143],[35.022158,47.412144],[35.022137,47.412175],[35.022083,47.412232],[35.022056,47.412289],[35.021952,47.412338],[35.021957,47.412382],[35.022003,47.412378],[35.022,47.412462],[35.021969,47.412444],[35.021941,47.41248],[35.021976,47.412509],[35.022021,47.412468],[35.022022,47.412468],[35.022062,47.412477],[35.022015,47.412529],[35.022066,47.412549],[35.02213,47.412571],[35.02216,47.412582],[35.02225,47.412477],[35.022223,47.412379],[35.022181,47.412246],[35.022177,47.412154],[35.022251,47.41192],[35.021508,47.412119],[35.021323,47.412159]]]}},{"type":"Feature","properties":{"cadnum":"2320986602:07:006:0030"},"geometry":{"type":"Polygon","coordinates":[[[35.021358,47.410521],[35.021498,47.410572],[35.021499,47.410572],[35.021792,47.410088],[35.021663,47.410017],[35.021358,47.410521]]]}},{"type":"Feature","properties":{"cadnum":"2320986602:07:002:0003"},"geometry":{"type":"Polygon","coordinates":[[[35.020558,47.410925],[35.020833,47.411112],[35.021271,47.410704],[35.021072,47.410569],[35.020876,47.410767],[35.020782,47.410745],[35.020558,47.410925]]]}},{"type":"Feature","properties":{"cadnum":"2320986602:07:014:0004"},"geometry":{"type":"Polygon","coordinates":[[[35.022602,47.411786],[35.023329,47.412153],[35.023604,47.4119],[35.023439,47.41178],[35.023023,47.411571],[35.022948,47.411533],[35.022602,47.411786]]]}},{"type":"Feature","properties":{"cadnum":"2320986602:07:006:0029"},"geometry":{"type":"Polygon","coordinates":[[[35.021499,47.410572],[35.021908,47.410722],[35.022027,47.410682],[35.022378,47.410439],[35.022098,47.410257],[35.021792,47.410088],[35.021499,47.410572]]]}},{"type":"Feature","properties":{"cadnum":"2320986602:07:006:0053"},"geometry":{"type":"Polygon","coordinates":[[[35.022204,47.412171],[35.022651,47.412597],[35.023018,47.412176],[35.022868,47.412093],[35.022857,47.412076],[35.022499,47.411885],[35.022311,47.412019],[35.022204,47.412171]]]}},{"type":"Feature","properties":{"cadnum":"2320986602:07:014:0005"},"geometry":{"type":"Polygon","coordinates":[[[35.022482,47.411875],[35.022499,47.411885],[35.022857,47.412076],[35.022868,47.412093],[35.023363,47.412369],[35.023415,47.412365],[35.02356,47.412242],[35.023784,47.412032],[35.023604,47.4119],[35.023329,47.412153],[35.022602,47.411786],[35.022482,47.411875]]]}},{"type":"Feature","properties":{"cadnum":"2320986602:07:006:0048"},"geometry":{"type":"Polygon","coordinates":[[[35.018104,47.405945],[35.018496,47.406071],[35.018658,47.405888],[35.018795,47.405735],[35.018437,47.405621],[35.018281,47.405772],[35.01828,47.405772],[35.018104,47.405945]]]}},{"type":"Feature","properties":{"cadnum":"2320986602:07:006:0071"},"geometry":{"type":"Polygon","coordinates":[[[35.025876,47.408624],[35.026548,47.408928],[35.026855,47.408627],[35.026175,47.408318],[35.025876,47.408624]]]}},{"type":"Feature","properties":{"cadnum":"2320986602:07:006:0072"},"geometry":{"type":"Polygon","coordinates":[[[35.026175,47.408318],[35.026855,47.408627],[35.027145,47.40834],[35.026458,47.408028],[35.026175,47.408318]]]}},{"type":"Feature","properties":{"cadnum":"2320986602:07:006:0002"},"geometry":{"type":"Polygon","coordinates":[[[35.02511,47.409038],[35.025938,47.409504],[35.026061,47.409403],[35.025361,47.409019],[35.025354,47.409026],[35.025396,47.409054],[35.025384,47.409069],[35.025311,47.409023],[35.025283,47.409043],[35.025235,47.409023],[35.025227,47.409014],[35.025173,47.408982],[35.02511,47.409038]]]}},{"type":"Feature","properties":{"cadnum":"2320986602:07:006:0073"},"geometry":{"type":"Polygon","coordinates":[[[35.024822,47.408169],[35.025054,47.408278],[35.025703,47.407611],[35.025444,47.407489],[35.024822,47.408169]]]}},{"type":"Feature","properties":{"cadnum":"2320986602:07:006:0001"},"geometry":{"type":"Polygon","coordinates":[[[35.024922,47.408862],[35.024977,47.408895],[35.025032,47.408854],[35.025079,47.408879],[35.025121,47.408905],[35.025133,47.408897],[35.024987,47.408814],[35.024922,47.408862]]]}},{"type":"Feature","properties":{"cadnum":"2320986602:07:016:0009"},"geometry":{"type":"Polygon","coordinates":[[[35.028749,47.408081],[35.029685,47.408392],[35.029872,47.408178],[35.028897,47.407871],[35.028749,47.408081]]]}},{"type":"Feature","properties":{"cadnum":"2320986602:07:016:0038"},"geometry":{"type":"Polygon","coordinates":[[[35.029497,47.408801],[35.02958,47.408831],[35.029819,47.408582],[35.029702,47.408545],[35.029497,47.408801]]]}},{"type":"Feature","properties":{"cadnum":"2320986602:07:006:0034"},"geometry":{"type":"Polygon","coordinates":[[[35.028495,47.409204],[35.02894,47.409423],[35.029092,47.40927],[35.028645,47.409051],[35.028495,47.409204]]]}},{"type":"Feature","properties":{"cadnum":"2320986602:07:006:0039"},"geometry":{"type":"Polygon","coordinates":[[[35.028327,47.408887],[35.028661,47.409034],[35.028779,47.408905],[35.028453,47.408763],[35.028327,47.408887]]]}},{"type":"Feature","properties":{"cadnum":"2320986602:07:006:0085"},"geometry":{"type":"Polygon","coordinates":[[[35.026841,47.400874],[35.027012,47.400939],[35.027371,47.401075],[35.027681,47.401195],[35.027819,47.401252],[35.028339,47.400527],[35.027967,47.400403],[35.027929,47.40039],[35.027917,47.400387],[35.027824,47.400356],[35.027405,47.400604],[35.027513,47.400638],[35.027634,47.400677],[35.027712,47.400701],[35.027965,47.400781],[35.027965,47.400782],[35.027869,47.400916],[35.027551,47.400809],[35.027555,47.400802],[35.027489,47.40078],[35.027363,47.400728],[35.027263,47.400687],[35.027222,47.400683],[35.027095,47.400747],[35.027119,47.400766],[35.027099,47.400777],[35.027073,47.400757],[35.026841,47.400874]]]}},{"type":"Feature","properties":{"cadnum":"2320986602:07:003:0005"},"geometry":{"type":"Polygon","coordinates":[[[35.031356,47.411974],[35.031506,47.412123],[35.031824,47.411961],[35.031673,47.411812],[35.031356,47.411974]]]}},{"type":"Feature","properties":{"cadnum":"2320986602:07:003:0017"},"geometry":{"type":"Polygon","coordinates":[[[35.030283,47.412517],[35.030434,47.412664],[35.030586,47.412811],[35.030905,47.412651],[35.030753,47.412503],[35.030602,47.412356],[35.030283,47.412517]]]}},{"type":"Feature","properties":{"cadnum":"2320986602:07:003:0015"},"geometry":{"type":"Polygon","coordinates":[[[35.030511,47.412178],[35.030661,47.412326],[35.030979,47.412164],[35.030829,47.412016],[35.030511,47.412178]]]}},{"type":"Feature","properties":{"cadnum":"2320986602:07:003:0003"},"geometry":{"type":"Polygon","coordinates":[[[35.030527,47.411721],[35.03067,47.411872],[35.030829,47.412016],[35.031148,47.411855],[35.030991,47.411711],[35.030846,47.411559],[35.030527,47.411721]]]}},{"type":"Feature","properties":{"cadnum":"2320986602:07:003:0004"},"geometry":{"type":"Polygon","coordinates":[[[35.031207,47.411825],[35.031356,47.411974],[35.031673,47.411812],[35.031526,47.411663],[35.031207,47.411825]]]}},{"type":"Feature","properties":{"cadnum":"2320986602:07:003:0016"},"geometry":{"type":"Polygon","coordinates":[[[35.030661,47.412326],[35.03081,47.412475],[35.030961,47.412623],[35.031281,47.412461],[35.031129,47.412313],[35.030979,47.412164],[35.030661,47.412326]]]}},{"type":"Feature","properties":{"cadnum":"2320986602:07:003:0019"},"geometry":{"type":"Polygon","coordinates":[[[35.030737,47.412959],[35.030888,47.413107],[35.031039,47.413255],[35.031358,47.413094],[35.031208,47.412946],[35.031055,47.412799],[35.030737,47.412959]]]}},{"type":"Feature","properties":{"cadnum":"2320986602:07:003:0020"},"geometry":{"type":"Polygon","coordinates":[[[35.031417,47.413065],[35.031565,47.413214],[35.031883,47.413053],[35.031735,47.412903],[35.031417,47.413065]]]}},{"type":"Feature","properties":{"cadnum":"2320986602:07:003:0006"},"geometry":{"type":"Polygon","coordinates":[[[35.030979,47.412164],[35.031129,47.412313],[35.031448,47.412152],[35.031298,47.412004],[35.030979,47.412164]]]}},{"type":"Feature","properties":{"cadnum":"2320986602:07:003:0002"},"geometry":{"type":"Polygon","coordinates":[[[35.032123,47.412258],[35.032285,47.4124],[35.032603,47.412239],[35.032442,47.412096],[35.032123,47.412258]]]}},{"type":"Feature","properties":{"cadnum":"2320986602:07:003:0009"},"geometry":{"type":"Polygon","coordinates":[[[35.031805,47.412419],[35.031966,47.412562],[35.032112,47.412712],[35.03243,47.41255],[35.032285,47.4124],[35.032123,47.412258],[35.031805,47.412419]]]}},{"type":"Feature","properties":{"cadnum":"2320986602:07:003:0001"},"geometry":{"type":"Polygon","coordinates":[[[35.031974,47.412109],[35.032123,47.412257],[35.032442,47.412096],[35.032293,47.411947],[35.031974,47.412109]]]}},{"type":"Feature","properties":{"cadnum":"2320986602:07:003:0012"},"geometry":{"type":"Polygon","coordinates":[[[35.030057,47.411734],[35.030209,47.411882],[35.030527,47.411721],[35.030846,47.411559],[35.030694,47.411411],[35.030377,47.411573],[35.030057,47.411734]]]}},{"type":"Feature","properties":{"cadnum":"2320986602:07:003:0007"},"geometry":{"type":"Polygon","coordinates":[[[35.031129,47.412313],[35.031281,47.412461],[35.031598,47.4123],[35.031448,47.412152],[35.031129,47.412313]]]}},{"type":"Feature","properties":{"cadnum":"2320986602:07:003:0018"},"geometry":{"type":"Polygon","coordinates":[[[35.031268,47.412915],[35.031417,47.413065],[35.031735,47.412903],[35.031588,47.412753],[35.031268,47.412915]]]}},{"type":"Feature","properties":{"cadnum":"2320986602:07:003:0008"},"geometry":{"type":"Polygon","coordinates":[[[35.031656,47.412271],[35.031805,47.412419],[35.032123,47.412258],[35.031974,47.412109],[35.031656,47.412271]]]}},{"type":"Feature","properties":{"cadnum":"2320986602:07:016:0034"},"geometry":{"type":"Polygon","coordinates":[[[35.03001,47.410181],[35.030429,47.410245],[35.030904,47.409798],[35.03053,47.409695],[35.030529,47.409695],[35.03001,47.410181]]]}},{"type":"Feature","properties":{"cadnum":"2320986602:07:006:0015"},"geometry":{"type":"Polygon","coordinates":[[[35.013731,47.407346],[35.014051,47.407487],[35.014283,47.407127],[35.014185,47.407075],[35.014088,47.407059],[35.014045,47.407052],[35.014019,47.407076],[35.013731,47.407346]]]}},{"type":"Feature","properties":{"cadnum":"2320986602:07:006:0056"},"geometry":{"type":"Polygon","coordinates":[[[35.016429,47.406931],[35.016778,47.407115],[35.016966,47.406939],[35.016624,47.406758],[35.016429,47.406931]]]}},{"type":"Feature","properties":{"cadnum":"2320986602:07:006:0066"},"geometry":{"type":"Polygon","coordinates":[[[35.01528,47.407212],[35.015627,47.407379],[35.01607,47.407],[35.015653,47.406825],[35.015619,47.40687],[35.015309,47.407178],[35.01528,47.407212]]]}},{"type":"Feature","properties":{"cadnum":"2320986602:07:006:0055"},"geometry":{"type":"Polygon","coordinates":[[[35.01586,47.407493],[35.015861,47.407493],[35.016198,47.407655],[35.016778,47.407115],[35.016429,47.406931],[35.016034,47.407287],[35.016033,47.407287],[35.01586,47.407493]]]}},{"type":"Feature","properties":{"cadnum":"2320986602:07:006:0022"},"geometry":{"type":"Polygon","coordinates":[[[35.015205,47.406222],[35.015454,47.406349],[35.015843,47.406092],[35.01552,47.405935],[35.015205,47.406222]]]}}]}