{"type":"FeatureCollection","features":[{"type":"Feature","properties":{"cadnum":"2320682502:01:012:0003"},"geometry":{"type":"Polygon","coordinates":[[[36.901893,47.057822],[36.902406,47.058112],[36.902856,47.057813],[36.902383,47.057497],[36.901893,47.057822]]]}},{"type":"Feature","properties":{"cadnum":"2320682502:01:016:0004"},"geometry":{"type":"Polygon","coordinates":[[[36.914033,47.044464],[36.914111,47.044601],[36.914148,47.044598],[36.914661,47.04456],[36.914634,47.044417],[36.914033,47.044464]]]}},{"type":"Feature","properties":{"cadnum":"2320682502:01:016:0003"},"geometry":{"type":"Polygon","coordinates":[[[36.914111,47.044601],[36.914473,47.045261],[36.914787,47.045233],[36.914726,47.044912],[36.914661,47.04456],[36.914111,47.044601]]]}},{"type":"Feature","properties":{"cadnum":"2320682502:01:016:0005"},"geometry":{"type":"Polygon","coordinates":[[[36.913328,47.045868],[36.913977,47.045893],[36.914094,47.045897],[36.914148,47.0459],[36.914148,47.045899],[36.914528,47.045913],[36.914568,47.045663],[36.914148,47.045651],[36.913366,47.045628],[36.913328,47.045868]]]}},{"type":"Feature","properties":{"cadnum":"2320682502:01:016:0002"},"geometry":{"type":"Polygon","coordinates":[[[36.91456,47.04402],[36.914561,47.044029],[36.914562,47.044029],[36.914634,47.044417],[36.914661,47.04456],[36.914726,47.044912],[36.915118,47.044878],[36.915379,47.044855],[36.915212,47.043963],[36.915128,47.04397],[36.91456,47.04402]]]}},{"type":"Feature","properties":{"cadnum":"2320682502:01:016:0001"},"geometry":{"type":"Polygon","coordinates":[[[36.914726,47.044912],[36.914787,47.045233],[36.915178,47.045199],[36.915118,47.044878],[36.914726,47.044912]]]}},{"type":"Feature","properties":{"cadnum":"2320682502:01:016:0006"},"geometry":{"type":"Polygon","coordinates":[[[36.91231,47.045605],[36.912334,47.045827],[36.913328,47.045868],[36.913366,47.045628],[36.91231,47.045605]]]}}]}