{"type":"FeatureCollection","features":[{"type":"Feature","properties":{"cadnum":"2320985305:06:004:0062"},"geometry":{"type":"Polygon","coordinates":[[[35.359398,47.391249],[35.359411,47.39125],[35.35944,47.391252],[35.359583,47.391261],[35.359822,47.391276],[35.359867,47.391015],[35.359942,47.390588],[35.35951,47.390557],[35.359493,47.390673],[35.359472,47.390805],[35.359456,47.390899],[35.359455,47.390899],[35.359398,47.391249]]]}},{"type":"Feature","properties":{"cadnum":"2320985305:06:004:0060"},"geometry":{"type":"Polygon","coordinates":[[[35.357276,47.391177],[35.357767,47.391193],[35.357809,47.390948],[35.357829,47.390751],[35.357842,47.390626],[35.357302,47.390602],[35.357302,47.390618],[35.357288,47.390899],[35.357287,47.390934],[35.357283,47.391015],[35.357276,47.391177]]]}},{"type":"Feature","properties":{"cadnum":"2320985305:06:004:0052"},"geometry":{"type":"Polygon","coordinates":[[[35.354291,47.391226],[35.354818,47.391251],[35.35484,47.391015],[35.354841,47.391015],[35.354872,47.390697],[35.354326,47.390674],[35.354303,47.391015],[35.354304,47.391015],[35.354291,47.391226]]]}},{"type":"Feature","properties":{"cadnum":"2320985305:06:004:0054"},"geometry":{"type":"Polygon","coordinates":[[[35.354818,47.391251],[35.355151,47.391267],[35.355191,47.390899],[35.35519,47.390899],[35.355247,47.390395],[35.354902,47.390376],[35.354872,47.390697],[35.354852,47.390899],[35.354851,47.390899],[35.354818,47.391251]]]}},{"type":"Feature","properties":{"cadnum":"2320985305:06:004:0061"},"geometry":{"type":"Polygon","coordinates":[[[35.357302,47.390602],[35.357842,47.390626],[35.357897,47.390087],[35.357337,47.390063],[35.357302,47.390602]]]}},{"type":"Feature","properties":{"cadnum":"2320985305:06:004:0053"},"geometry":{"type":"Polygon","coordinates":[[[35.354326,47.390674],[35.354872,47.390697],[35.354927,47.390121],[35.354362,47.390096],[35.354326,47.390674]]]}},{"type":"Feature","properties":{"cadnum":"2320985305:06:004:0008"},"geometry":{"type":"Polygon","coordinates":[[[35.357841,47.390751],[35.358498,47.390782],[35.358522,47.390133],[35.357909,47.390087],[35.357841,47.390751]]]}},{"type":"Feature","properties":{"cadnum":"2320985305:06:004:0002"},"geometry":{"type":"Polygon","coordinates":[[[35.353752,47.390794],[35.353918,47.390802],[35.353918,47.390803],[35.353967,47.390805],[35.35409,47.390812],[35.35409,47.390811],[35.354401,47.390827],[35.354421,47.390555],[35.354434,47.390366],[35.354078,47.390349],[35.353795,47.390335],[35.353773,47.39057],[35.353752,47.390794]]]}},{"type":"Feature","properties":{"cadnum":"2320985305:06:004:0055"},"geometry":{"type":"Polygon","coordinates":[[[35.354902,47.390376],[35.355247,47.390395],[35.355275,47.39014],[35.354927,47.390121],[35.354902,47.390376]]]}},{"type":"Feature","properties":{"cadnum":"2320985305:06:004:1002"},"geometry":{"type":"Polygon","coordinates":[[[35.353795,47.390335],[35.353918,47.390341],[35.354078,47.390349],[35.35409,47.39035],[35.354434,47.390366],[35.35448,47.389747],[35.353918,47.389715],[35.353855,47.389711],[35.353795,47.390335]]]}},{"type":"Feature","properties":{"cadnum":"2320985305:06:004:0007"},"geometry":{"type":"Polygon","coordinates":[[[35.357779,47.391193],[35.357956,47.391203],[35.357999,47.391206],[35.358435,47.391221],[35.358485,47.391104],[35.358493,47.390899],[35.358498,47.390782],[35.357841,47.390751],[35.357826,47.390899],[35.357825,47.390899],[35.357821,47.390948],[35.357809,47.391015],[35.357779,47.391193]]]}},{"type":"Feature","properties":{"cadnum":"2320985305:06:001:0013"},"geometry":{"type":"Polygon","coordinates":[[[35.358462,47.397372],[35.359411,47.397461],[35.359411,47.397462],[35.359999,47.397516],[35.360042,47.397289],[35.36018,47.397299],[35.360188,47.397236],[35.359917,47.397211],[35.359612,47.39718],[35.359411,47.39716],[35.359266,47.397146],[35.358529,47.39707],[35.358462,47.397372]]]}},{"type":"Feature","properties":{"cadnum":"2320985305:06:001:0009"},"geometry":{"type":"Polygon","coordinates":[[[35.358529,47.39707],[35.359266,47.397146],[35.359583,47.397178],[35.359583,47.397177],[35.359612,47.39718],[35.359917,47.397211],[35.360188,47.397236],[35.360236,47.396904],[35.359844,47.396874],[35.359583,47.39685],[35.359237,47.396818],[35.359199,47.397008],[35.358553,47.396957],[35.358529,47.39707]]]}},{"type":"Feature","properties":{"cadnum":"2320985305:06:001:0012"},"geometry":{"type":"Polygon","coordinates":[[[35.358723,47.396908],[35.35892,47.396925],[35.359152,47.396943],[35.359175,47.396811],[35.359411,47.396833],[35.359411,47.396834],[35.359438,47.396836],[35.359583,47.39685],[35.359583,47.396849],[35.359844,47.396874],[35.359862,47.396766],[35.359879,47.396666],[35.359411,47.396622],[35.359217,47.396604],[35.358978,47.396578],[35.358782,47.396564],[35.358723,47.396908]]]}},{"type":"Feature","properties":{"cadnum":"2320985305:06:001:0023"},"geometry":{"type":"Polygon","coordinates":[[[35.35967,47.396647],[35.359879,47.396666],[35.359844,47.396874],[35.360236,47.396904],[35.36035,47.396246],[35.359733,47.396209],[35.35967,47.396647]]]}},{"type":"Feature","properties":{"cadnum":"2320985305:06:004:0006"},"geometry":{"type":"Polygon","coordinates":[[[35.370443,47.391485],[35.370569,47.3915],[35.370957,47.391544],[35.371055,47.391011],[35.370542,47.390974],[35.370502,47.391179],[35.370443,47.391485]]]}},{"type":"Feature","properties":{"cadnum":"2320985305:06:004:0044"},"geometry":{"type":"Polygon","coordinates":[[[35.368802,47.391266],[35.369239,47.391299],[35.369295,47.390899],[35.369305,47.390833],[35.368882,47.390802],[35.368865,47.390899],[35.368851,47.39098],[35.368845,47.391015],[35.368802,47.391266]]]}},{"type":"Feature","properties":{"cadnum":"2320985305:06:004:0079"},"geometry":{"type":"Polygon","coordinates":[[[35.369775,47.391151],[35.370155,47.391184],[35.370162,47.391148],[35.370206,47.390905],[35.369812,47.390872],[35.369808,47.390899],[35.369807,47.390899],[35.369775,47.391151]]]}},{"type":"Feature","properties":{"cadnum":"2320985305:06:004:0005"},"geometry":{"type":"Polygon","coordinates":[[[35.370332,47.392046],[35.370397,47.392054],[35.370398,47.392054],[35.370398,47.392055],[35.370509,47.392067],[35.370569,47.392075],[35.370569,47.392074],[35.370855,47.392107],[35.370957,47.391544],[35.370443,47.391485],[35.370332,47.392046]]]}},{"type":"Feature","properties":{"cadnum":"2320985305:06:004:0045"},"geometry":{"type":"Polygon","coordinates":[[[35.369449,47.391969],[35.369667,47.391985],[35.369792,47.391015],[35.369793,47.391015],[35.369812,47.390872],[35.369608,47.390856],[35.369602,47.390899],[35.369601,47.390899],[35.369449,47.391969]]]}},{"type":"Feature","properties":{"cadnum":"2320985305:06:004:0041"},"geometry":{"type":"Polygon","coordinates":[[[35.36752,47.393053],[35.367836,47.393075],[35.367978,47.392131],[35.367671,47.392108],[35.36752,47.393053]]]}},{"type":"Feature","properties":{"cadnum":"2320985305:06:004:0074"},"geometry":{"type":"Polygon","coordinates":[[[35.36568,47.392417],[35.366343,47.392454],[35.36641,47.392013],[35.365905,47.391977],[35.3659,47.392009],[35.365899,47.392009],[35.365857,47.392006],[35.365862,47.391974],[35.365745,47.391966],[35.36568,47.392417]]]}},{"type":"Feature","properties":{"cadnum":"2320985305:06:004:0030"},"geometry":{"type":"Polygon","coordinates":[[[35.364772,47.393085],[35.364904,47.393093],[35.364904,47.393094],[35.365252,47.393115],[35.36534,47.392551],[35.365076,47.392535],[35.364856,47.392521],[35.364772,47.393085]]]}},{"type":"Feature","properties":{"cadnum":"2320985305:06:004:0073"},"geometry":{"type":"Polygon","coordinates":[[[35.365588,47.393042],[35.366247,47.39308],[35.366343,47.392454],[35.36568,47.392417],[35.365588,47.393042]]]}},{"type":"Feature","properties":{"cadnum":"2320985305:06:004:0042"},"geometry":{"type":"Polygon","coordinates":[[[35.36749,47.393238],[35.367808,47.39326],[35.367816,47.393212],[35.367836,47.393075],[35.36752,47.393053],[35.367497,47.393191],[35.36749,47.393238]]]}},{"type":"Feature","properties":{"cadnum":"2320985305:06:004:0003"},"geometry":{"type":"Polygon","coordinates":[[[35.370005,47.392008],[35.370332,47.392046],[35.370397,47.391716],[35.370398,47.391716],[35.370443,47.391485],[35.370502,47.391179],[35.370162,47.391148],[35.370081,47.391553],[35.370005,47.392008]]]}},{"type":"Feature","properties":{"cadnum":"2320985305:06:004:0078"},"geometry":{"type":"Polygon","coordinates":[[[35.369667,47.391985],[35.370005,47.392008],[35.370081,47.391553],[35.370155,47.391184],[35.369775,47.391151],[35.369667,47.391985]]]}},{"type":"Feature","properties":{"cadnum":"2320985305:06:004:0031"},"geometry":{"type":"Polygon","coordinates":[[[35.364856,47.392521],[35.364904,47.392524],[35.364904,47.392525],[35.36534,47.392551],[35.365434,47.391947],[35.364946,47.391912],[35.364856,47.392521]]]}},{"type":"Feature","properties":{"cadnum":"2320985305:06:004:0043"},"geometry":{"type":"Polygon","coordinates":[[[35.368688,47.39192],[35.369148,47.391955],[35.369239,47.391299],[35.368802,47.391266],[35.368688,47.39192]]]}},{"type":"Feature","properties":{"cadnum":"2320985305:06:004:0076"},"geometry":{"type":"Polygon","coordinates":[[[35.366321,47.392599],[35.366919,47.392641],[35.366936,47.392543],[35.366335,47.3925],[35.366321,47.392599]]]}},{"type":"Feature","properties":{"cadnum":"2320985305:06:004:0077"},"geometry":{"type":"Polygon","coordinates":[[[35.366844,47.393076],[35.367132,47.393093],[35.367288,47.392076],[35.367021,47.392057],[35.366844,47.393076]]]}},{"type":"Feature","properties":{"cadnum":"2320985305:06:004:0075"},"geometry":{"type":"Polygon","coordinates":[[[35.366335,47.3925],[35.366936,47.392543],[35.367021,47.392057],[35.36641,47.392013],[35.366343,47.392454],[35.366335,47.3925]]]}},{"type":"Feature","properties":{"cadnum":"2320985305:06:004:0040"},"geometry":{"type":"Polygon","coordinates":[[[35.366648,47.391188],[35.367176,47.391237],[35.367242,47.390899],[35.367282,47.390694],[35.366731,47.390644],[35.366714,47.390762],[35.366673,47.391015],[35.366674,47.391015],[35.366648,47.391188]]]}},{"type":"Feature","properties":{"cadnum":"2320985305:06:004:0039"},"geometry":{"type":"Polygon","coordinates":[[[35.366558,47.391761],[35.367065,47.391798],[35.367176,47.391237],[35.366648,47.391188],[35.366558,47.391761]]]}},{"type":"Feature","properties":{"cadnum":"2320985305:06:004:0089"},"geometry":{"type":"Polygon","coordinates":[[[35.367065,47.391798],[35.367469,47.391834],[35.367534,47.391502],[35.367348,47.391484],[35.367445,47.390987],[35.367497,47.390728],[35.36728,47.390708],[35.367279,47.390708],[35.367218,47.391015],[35.367219,47.391015],[35.367065,47.391798]]]}},{"type":"Feature","properties":{"cadnum":"2320985305:06:004:0034"},"geometry":{"type":"Polygon","coordinates":[[[35.365633,47.3917],[35.365934,47.391721],[35.36604,47.391015],[35.366078,47.390769],[35.365757,47.390751],[35.365738,47.390899],[35.365737,47.390899],[35.365701,47.391179],[35.365633,47.3917]]]}},{"type":"Feature","properties":{"cadnum":"2320985305:06:004:0037"},"geometry":{"type":"Polygon","coordinates":[[[35.366268,47.39174],[35.366558,47.391761],[35.366648,47.391188],[35.366692,47.390899],[35.366714,47.390762],[35.366414,47.390741],[35.366391,47.390899],[35.36639,47.390899],[35.366268,47.39174]]]}},{"type":"Feature","properties":{"cadnum":"2320985305:06:004:0022"},"geometry":{"type":"Polygon","coordinates":[[[35.361574,47.390867],[35.362126,47.390903],[35.362207,47.390362],[35.361668,47.390327],[35.361574,47.390867]]]}},{"type":"Feature","properties":{"cadnum":"2320985305:06:004:0063"},"geometry":{"type":"Polygon","coordinates":[[[35.35951,47.390557],[35.359942,47.390588],[35.360015,47.390178],[35.359575,47.390145],[35.359552,47.390297],[35.35951,47.390557]]]}},{"type":"Feature","properties":{"cadnum":"2320985305:06:004:0020"},"geometry":{"type":"Polygon","coordinates":[[[35.361187,47.39137],[35.361483,47.391393],[35.361561,47.390939],[35.361651,47.390422],[35.36134,47.390405],[35.361242,47.391015],[35.361187,47.39137]]]}},{"type":"Feature","properties":{"cadnum":"2320985305:06:004:0088"},"geometry":{"type":"Polygon","coordinates":[[[35.359913,47.390754],[35.360468,47.390794],[35.360553,47.390217],[35.360015,47.390178],[35.359913,47.390754]]]}},{"type":"Feature","properties":{"cadnum":"2320985305:06:004:0021"},"geometry":{"type":"Polygon","coordinates":[[[35.361483,47.391393],[35.362047,47.391435],[35.362126,47.390903],[35.361574,47.390867],[35.361569,47.390899],[35.361568,47.390899],[35.361552,47.390992],[35.361548,47.391015],[35.361483,47.391393]]]}},{"type":"Feature","properties":{"cadnum":"2320985305:06:004:0026"},"geometry":{"type":"Polygon","coordinates":[[[35.363539,47.390995],[35.363853,47.391015],[35.363854,47.391015],[35.364069,47.391029],[35.364088,47.390899],[35.364123,47.390664],[35.364155,47.390465],[35.363636,47.390432],[35.363556,47.390899],[35.363555,47.390899],[35.363539,47.390995]]]}},{"type":"Feature","properties":{"cadnum":"2320985305:06:004:0120"},"geometry":{"type":"Polygon","coordinates":[[[35.36048,47.390728],[35.360983,47.390775],[35.361055,47.390345],[35.361077,47.390247],[35.360555,47.390201],[35.36048,47.390728]]]}},{"type":"Feature","properties":{"cadnum":"2320985305:06:004:0087"},"geometry":{"type":"Polygon","coordinates":[[[35.359822,47.391276],[35.360393,47.391316],[35.360436,47.391015],[35.360468,47.390794],[35.359913,47.390754],[35.359866,47.391015],[35.359867,47.391015],[35.359822,47.391276]]]}},{"type":"Feature","properties":{"cadnum":"2320985305:06:003:1036"},"geometry":{"type":"Polygon","coordinates":[[[35.36235,47.390709],[35.362907,47.390723],[35.362958,47.390181],[35.362421,47.390168],[35.36235,47.390709]]]}},{"type":"Feature","properties":{"cadnum":"2320985305:06:004:0097"},"geometry":{"type":"Polygon","coordinates":[[[35.360393,47.391316],[35.360901,47.391351],[35.360948,47.391015],[35.360983,47.390775],[35.36048,47.390728],[35.360437,47.391015],[35.360393,47.391316]]]}},{"type":"Feature","properties":{"cadnum":"2320985305:06:003:0036"},"geometry":{"type":"Polygon","coordinates":[[[35.362289,47.391232],[35.362858,47.391249],[35.362883,47.390986],[35.362907,47.390723],[35.36235,47.390709],[35.362324,47.390899],[35.362311,47.391001],[35.362311,47.391002],[35.362309,47.391015],[35.362289,47.391232]]]}},{"type":"Feature","properties":{"cadnum":"2320985305:06:004:1101"},"geometry":{"type":"Polygon","coordinates":[[[35.375675,47.393153],[35.375891,47.393161],[35.37661,47.393185],[35.376627,47.392368],[35.376062,47.39235],[35.375735,47.392339],[35.375675,47.393153]]]}},{"type":"Feature","properties":{"cadnum":"2320985305:06:004:0050"},"geometry":{"type":"Polygon","coordinates":[[[35.375424,47.393031],[35.375891,47.393059],[35.375891,47.39306],[35.375961,47.393064],[35.376062,47.39307],[35.376062,47.393069],[35.376199,47.393077],[35.37626,47.392695],[35.375931,47.392676],[35.37549,47.39265],[35.375424,47.393031]]]}},{"type":"Feature","properties":{"cadnum":"2320985305:06:004:0098"},"geometry":{"type":"Polygon","coordinates":[[[35.375787,47.391745],[35.376062,47.391755],[35.376062,47.391754],[35.376116,47.391756],[35.376192,47.390899],[35.376195,47.39087],[35.375906,47.390855],[35.375857,47.390853],[35.375853,47.390899],[35.37585,47.39094],[35.375844,47.391015],[35.375787,47.391745]]]}},{"type":"Feature","properties":{"cadnum":"2320985305:06:004:0101"},"geometry":{"type":"Polygon","coordinates":[[[35.375735,47.392339],[35.375891,47.392344],[35.376627,47.392368],[35.376634,47.39203],[35.376062,47.392012],[35.375761,47.392002],[35.375735,47.392339]]]}},{"type":"Feature","properties":{"cadnum":"2320985305:06:004:0051"},"geometry":{"type":"Polygon","coordinates":[[[35.375295,47.39378],[35.375891,47.393825],[35.375891,47.393826],[35.375982,47.393832],[35.376062,47.393839],[35.376062,47.393838],[35.376063,47.393838],[35.376081,47.39384],[35.376199,47.393077],[35.375961,47.393064],[35.375424,47.393031],[35.375295,47.39378]]]}},{"type":"Feature","properties":{"cadnum":"2320985305:06:004:0066"},"geometry":{"type":"Polygon","coordinates":[[[35.3529,47.391009],[35.353003,47.391015],[35.353004,47.391015],[35.353005,47.391015],[35.353466,47.391043],[35.353477,47.390965],[35.353679,47.390979],[35.353679,47.390967],[35.353697,47.390641],[35.352922,47.390616],[35.352906,47.390899],[35.3529,47.391009]]]}},{"type":"Feature","properties":{"cadnum":"2320985305:06:004:0001"},"geometry":{"type":"Polygon","coordinates":[[[35.374367,47.392333],[35.374653,47.39235],[35.374847,47.391346],[35.374544,47.391329],[35.374367,47.392333]]]}},{"type":"Feature","properties":{"cadnum":"2320985305:06:004:0080"},"geometry":{"type":"Polygon","coordinates":[[[35.371837,47.392162],[35.372125,47.392184],[35.37222,47.39168],[35.372311,47.391197],[35.372007,47.391169],[35.371837,47.392162]]]}},{"type":"Feature","properties":{"cadnum":"2320985305:06:004:0103"},"geometry":{"type":"Polygon","coordinates":[[[35.370508,47.393048],[35.370919,47.393064],[35.370996,47.392339],[35.370589,47.392322],[35.370508,47.393048]]]}},{"type":"Feature","properties":{"cadnum":"2320985305:06:004:0046"},"geometry":{"type":"Polygon","coordinates":[[[35.37362,47.393029],[35.374221,47.393071],[35.374295,47.39258],[35.373695,47.392538],[35.37362,47.393029]]]}},{"type":"Feature","properties":{"cadnum":"2320985305:06:004:0011"},"geometry":{"type":"Polygon","coordinates":[[[35.372125,47.392184],[35.37269,47.392227],[35.372759,47.391924],[35.372802,47.391709],[35.37222,47.39168],[35.372125,47.392184]]]}},{"type":"Feature","properties":{"cadnum":"2320985305:06:004:0012"},"geometry":{"type":"Polygon","coordinates":[[[35.37222,47.39168],[35.372802,47.391709],[35.372899,47.391226],[35.372311,47.391197],[35.37222,47.39168]]]}},{"type":"Feature","properties":{"cadnum":"2320985305:06:004:0047"},"geometry":{"type":"Polygon","coordinates":[[[35.373529,47.393617],[35.374131,47.393658],[35.374221,47.393071],[35.37362,47.393029],[35.373529,47.393617]]]}},{"type":"Feature","properties":{"cadnum":"2320985305:06:001:0021"},"geometry":{"type":"Polygon","coordinates":[[[35.358309,47.398734],[35.358774,47.398736],[35.358784,47.398709],[35.358537,47.398689],[35.358316,47.398664],[35.358309,47.398734]]]}},{"type":"Feature","properties":{"cadnum":"2320985305:06:001:0020"},"geometry":{"type":"Polygon","coordinates":[[[35.358369,47.398595],[35.358546,47.398631],[35.358574,47.398479],[35.358582,47.398434],[35.358589,47.398395],[35.358578,47.398394],[35.358544,47.398391],[35.358543,47.398394],[35.358537,47.398428],[35.358401,47.398416],[35.358395,47.398452],[35.358369,47.398595]]]}},{"type":"Feature","properties":{"cadnum":"2320985305:06:001:0019"},"geometry":{"type":"Polygon","coordinates":[[[35.358548,47.398631],[35.35879,47.398651],[35.358802,47.398652],[35.358845,47.398419],[35.358845,47.398417],[35.358717,47.398406],[35.35859,47.398395],[35.358584,47.398435],[35.358576,47.39848],[35.358548,47.398631]]]}},{"type":"Feature","properties":{"cadnum":"2320985305:06:004:0035"},"geometry":{"type":"Polygon","coordinates":[[[35.365757,47.390751],[35.366078,47.390769],[35.366099,47.390623],[35.365777,47.390604],[35.365757,47.390751]]]}},{"type":"Feature","properties":{"cadnum":"2320985305:06:004:0038"},"geometry":{"type":"Polygon","coordinates":[[[35.366414,47.390741],[35.366714,47.390762],[35.366731,47.390644],[35.366431,47.390623],[35.366428,47.390646],[35.366414,47.390741]]]}},{"type":"Feature","properties":{"cadnum":"2320985305:06:004:1098"},"geometry":{"type":"Polygon","coordinates":[[[35.375857,47.390853],[35.375891,47.390854],[35.375906,47.390855],[35.376062,47.390863],[35.376195,47.39087],[35.376211,47.390682],[35.376004,47.390672],[35.375871,47.390666],[35.375857,47.390853]]]}},{"type":"Feature","properties":{"cadnum":"2320985305:06:004:0056"},"geometry":{"type":"Polygon","coordinates":[[[35.356838,47.392272],[35.357346,47.3923],[35.35735,47.392273],[35.357418,47.391715],[35.356914,47.391688],[35.35684,47.392244],[35.356838,47.392272]]]}},{"type":"Feature","properties":{"cadnum":"2320985305:06:004:0016"},"geometry":{"type":"Polygon","coordinates":[[[35.355282,47.392184],[35.355798,47.392207],[35.355853,47.391632],[35.355338,47.391609],[35.355282,47.392184]]]}},{"type":"Feature","properties":{"cadnum":"2320985305:06:004:0017"},"geometry":{"type":"Polygon","coordinates":[[[35.355226,47.392765],[35.355745,47.392773],[35.355798,47.392207],[35.355282,47.392184],[35.355226,47.392765]]]}},{"type":"Feature","properties":{"cadnum":"2320985305:06:004:0014"},"geometry":{"type":"Polygon","coordinates":[[[35.356317,47.392225],[35.35684,47.392244],[35.356914,47.391688],[35.35638,47.39166],[35.356317,47.392225]]]}},{"type":"Feature","properties":{"cadnum":"2320985305:06:004:0009"},"geometry":{"type":"Polygon","coordinates":[[[35.3574,47.392339],[35.357936,47.392342],[35.357949,47.391788],[35.357412,47.391785],[35.3574,47.392339]]]}},{"type":"Feature","properties":{"cadnum":"2320985305:06:004:0083"},"geometry":{"type":"Polygon","coordinates":[[[35.357382,47.392754],[35.358265,47.392815],[35.358291,47.392667],[35.357393,47.392663],[35.357382,47.392754]]]}},{"type":"Feature","properties":{"cadnum":"2320985305:06:004:0010"},"geometry":{"type":"Polygon","coordinates":[[[35.357935,47.392479],[35.358316,47.392482],[35.35843,47.391791],[35.357949,47.391788],[35.357936,47.392342],[35.357935,47.392479]]]}},{"type":"Feature","properties":{"cadnum":"2320985305:06:004:0057"},"geometry":{"type":"Polygon","coordinates":[[[35.356761,47.392852],[35.357279,47.392875],[35.357308,47.39259],[35.357346,47.3923],[35.356838,47.392272],[35.356765,47.392817],[35.356761,47.392852]]]}},{"type":"Feature","properties":{"cadnum":"2320985305:06:004:0013"},"geometry":{"type":"Polygon","coordinates":[[[35.357393,47.392658],[35.358283,47.392663],[35.358316,47.392482],[35.357935,47.392479],[35.357935,47.392478],[35.357936,47.392342],[35.3574,47.392339],[35.357393,47.392658]]]}},{"type":"Feature","properties":{"cadnum":"2320985305:06:004:0015"},"geometry":{"type":"Polygon","coordinates":[[[35.356254,47.392799],[35.356765,47.392817],[35.35684,47.392244],[35.356317,47.392225],[35.356254,47.392799]]]}},{"type":"Feature","properties":{"cadnum":"2320985305:06:004:0067"},"geometry":{"type":"Polygon","coordinates":[[[35.352922,47.390616],[35.353697,47.390641],[35.353714,47.390334],[35.352939,47.39031],[35.352922,47.390616]]]}},{"type":"Feature","properties":{"cadnum":"2320985305:06:001:0002"},"geometry":{"type":"Polygon","coordinates":[[[35.357409,47.397533],[35.357488,47.397539],[35.357506,47.397435],[35.357426,47.397428],[35.357409,47.397533]]]}},{"type":"Feature","properties":{"cadnum":"2320985305:06:001:0016"},"geometry":{"type":"Polygon","coordinates":[[[35.357648,47.396678],[35.357786,47.396689],[35.357834,47.396394],[35.357696,47.396383],[35.357648,47.396678]]]}},{"type":"Feature","properties":{"cadnum":"2320985305:06:001:0001"},"geometry":{"type":"Polygon","coordinates":[[[35.358124,47.398169],[35.358211,47.398172],[35.358212,47.398022],[35.358129,47.398084],[35.358124,47.398169]]]}},{"type":"Feature","properties":{"cadnum":"2320985305:06:001:0011"},"geometry":{"type":"Polygon","coordinates":[[[35.358482,47.396888],[35.358723,47.396908],[35.358782,47.396564],[35.358537,47.396545],[35.358482,47.396888]]]}},{"type":"Feature","properties":{"cadnum":"2320985305:06:001:0004"},"geometry":{"type":"Polygon","coordinates":[[[35.357358,47.397396],[35.357622,47.397415],[35.357648,47.397259],[35.357535,47.397251],[35.357383,47.397239],[35.357358,47.397396]]]}},{"type":"Feature","properties":{"cadnum":"2320985305:06:004:0070"},"geometry":{"type":"Polygon","coordinates":[[[35.364507,47.392953],[35.364789,47.392974],[35.364856,47.392521],[35.364946,47.391912],[35.364674,47.391892],[35.364507,47.392953]]]}},{"type":"Feature","properties":{"cadnum":"2320985305:06:004:0124"},"geometry":{"type":"Polygon","coordinates":[[[35.362667,47.392902],[35.362905,47.392918],[35.363093,47.391778],[35.362827,47.39176],[35.362771,47.392135],[35.362667,47.392902]]]}},{"type":"Feature","properties":{"cadnum":"2320985305:06:004:0025"},"geometry":{"type":"Polygon","coordinates":[[[35.363445,47.391541],[35.363987,47.391583],[35.364069,47.391029],[35.363539,47.390995],[35.363445,47.391541]]]}},{"type":"Feature","properties":{"cadnum":"2320985305:06:004:0071"},"geometry":{"type":"Polygon","coordinates":[[[35.364495,47.393023],[35.364778,47.393046],[35.364789,47.392974],[35.364507,47.392953],[35.364495,47.393023]]]}},{"type":"Feature","properties":{"cadnum":"2320985305:06:004:0023"},"geometry":{"type":"Polygon","coordinates":[[[35.362932,47.392755],[35.363236,47.392778],[35.363384,47.391778],[35.363098,47.391758],[35.362932,47.392755]]]}},{"type":"Feature","properties":{"cadnum":"2320985305:06:004:0018"},"geometry":{"type":"Polygon","coordinates":[[[35.36136,47.392202],[35.361907,47.392242],[35.36199,47.391701],[35.361446,47.391662],[35.36136,47.392202]]]}},{"type":"Feature","properties":{"cadnum":"2320985305:06:004:0019"},"geometry":{"type":"Polygon","coordinates":[[[35.361275,47.392739],[35.361823,47.392779],[35.361907,47.392242],[35.36136,47.392202],[35.361275,47.392739]]]}},{"type":"Feature","properties":{"cadnum":"2320985305:06:004:0068"},"geometry":{"type":"Polygon","coordinates":[[[35.363767,47.392973],[35.364023,47.39299],[35.364219,47.391859],[35.363956,47.39184],[35.363767,47.392973]]]}},{"type":"Feature","properties":{"cadnum":"2320985305:06:004:0081"},"geometry":{"type":"Polygon","coordinates":[[[35.364108,47.3925],[35.364573,47.39253],[35.364674,47.391892],[35.364219,47.391859],[35.364108,47.3925]]]}},{"type":"Feature","properties":{"cadnum":"2320985305:06:004:0024"},"geometry":{"type":"Polygon","coordinates":[[[35.362899,47.392949],[35.363207,47.392971],[35.363236,47.392778],[35.362932,47.392755],[35.362932,47.392756],[35.362899,47.392949]]]}}]}