{"type":"FeatureCollection","features":[{"type":"Feature","properties":{"cadnum":"2320983001:03:003:0009"},"geometry":{"type":"Polygon","coordinates":[[[35.276641,47.491263],[35.277014,47.491284],[35.27759,47.491315],[35.277592,47.491315],[35.277612,47.491119],[35.277014,47.491095],[35.276683,47.491081],[35.276653,47.491212],[35.276652,47.491212],[35.276641,47.491263]]]}},{"type":"Feature","properties":{"cadnum":"2320983001:05:003:0003"},"geometry":{"type":"Polygon","coordinates":[[[35.274546,47.493973],[35.275403,47.494001],[35.275406,47.493809],[35.274621,47.493778],[35.274613,47.493798],[35.274596,47.493898],[35.274596,47.493899],[35.274572,47.493898],[35.274546,47.493973]]]}},{"type":"Feature","properties":{"cadnum":"2320983001:03:003:0037"},"geometry":{"type":"Polygon","coordinates":[[[35.275847,47.492685],[35.276119,47.492733],[35.276088,47.492861],[35.276347,47.492874],[35.276402,47.492718],[35.277185,47.492775],[35.277185,47.492774],[35.277186,47.492774],[35.277489,47.492796],[35.277509,47.492657],[35.277014,47.492619],[35.275877,47.49253],[35.275847,47.492685]]]}},{"type":"Feature","properties":{"cadnum":"2320983001:03:003:0021"},"geometry":{"type":"Polygon","coordinates":[[[35.275591,47.493278],[35.277014,47.493373],[35.277014,47.493374],[35.277391,47.493398],[35.277397,47.493313],[35.277183,47.493305],[35.277181,47.493294],[35.277132,47.493291],[35.277112,47.493241],[35.277074,47.493238],[35.276986,47.493223],[35.275848,47.493142],[35.275742,47.493124],[35.275591,47.493278]]]}},{"type":"Feature","properties":{"cadnum":"2320983001:03:007:0003"},"geometry":{"type":"Polygon","coordinates":[[[35.282353,47.490846],[35.282507,47.49086],[35.282947,47.4909],[35.283027,47.490386],[35.282861,47.490376],[35.282833,47.490486],[35.282687,47.490478],[35.282507,47.490464],[35.28239,47.490455],[35.282378,47.4905],[35.282373,47.490608],[35.282353,47.490846]]]}},{"type":"Feature","properties":{"cadnum":"2320983001:04:003:0008"},"geometry":{"type":"Polygon","coordinates":[[[35.281329,47.487563],[35.28228,47.48759],[35.282245,47.487362],[35.281362,47.487311],[35.281338,47.4875],[35.281337,47.4875],[35.281329,47.487563]]]}},{"type":"Feature","properties":{"cadnum":"2320983001:04:001:0013"},"geometry":{"type":"Polygon","coordinates":[[[35.278917,47.487464],[35.27906,47.4875],[35.279261,47.487551],[35.279285,47.487558],[35.2793,47.487562],[35.279515,47.487616],[35.279516,47.487616],[35.279921,47.487717],[35.280003,47.487526],[35.280003,47.487512],[35.278993,47.48731],[35.278917,47.487464]]]}},{"type":"Feature","properties":{"cadnum":"2320983001:04:001:0030"},"geometry":{"type":"Polygon","coordinates":[[[35.277586,47.488612],[35.277656,47.488618],[35.278164,47.488664],[35.278199,47.48849],[35.27762,47.488438],[35.277586,47.488612]]]}},{"type":"Feature","properties":{"cadnum":"2320983001:04:001:0004"},"geometry":{"type":"Polygon","coordinates":[[[35.278595,47.488125],[35.278632,47.488132],[35.27863,47.488141],[35.278775,47.488165],[35.278777,47.488156],[35.280003,47.4884],[35.280298,47.488281],[35.278903,47.48798],[35.278858,47.488058],[35.278642,47.488018],[35.278595,47.488125]]]}},{"type":"Feature","properties":{"cadnum":"2320983001:04:003:0005"},"geometry":{"type":"Polygon","coordinates":[[[35.280533,47.487562],[35.280645,47.48759],[35.280741,47.487374],[35.281215,47.487459],[35.281257,47.487347],[35.280675,47.48723],[35.28056,47.4875],[35.280559,47.4875],[35.280558,47.4875],[35.280533,47.487562]]]}},{"type":"Feature","properties":{"cadnum":"2320983001:04:001:0028"},"geometry":{"type":"Polygon","coordinates":[[[35.277837,47.488848],[35.278085,47.488856],[35.278159,47.488665],[35.277845,47.488636],[35.277837,47.488848]]]}},{"type":"Feature","properties":{"cadnum":"2320983001:03:005:0001"},"geometry":{"type":"Polygon","coordinates":[[[35.27838,47.490693],[35.279381,47.49074],[35.27939,47.490567],[35.278392,47.490518],[35.27838,47.490693]]]}},{"type":"Feature","properties":{"cadnum":"2320983001:03:001:0001"},"geometry":{"type":"Polygon","coordinates":[[[35.278151,47.489288],[35.278363,47.489299],[35.278391,47.489061],[35.278178,47.48905],[35.278151,47.489288]]]}},{"type":"Feature","properties":{"cadnum":"2320983001:03:003:0019"},"geometry":{"type":"Polygon","coordinates":[[[35.278712,47.489378],[35.278985,47.489396],[35.278984,47.489405],[35.279402,47.489434],[35.279449,47.489135],[35.278763,47.489104],[35.278712,47.489378]]]}},{"type":"Feature","properties":{"cadnum":"2320983001:03:005:0003"},"geometry":{"type":"Polygon","coordinates":[[[35.280275,47.4906],[35.280833,47.490626],[35.280959,47.490635],[35.280993,47.490389],[35.280298,47.490356],[35.280291,47.490387],[35.280275,47.4906]]]}},{"type":"Feature","properties":{"cadnum":"2320983001:04:001:0017"},"geometry":{"type":"Polygon","coordinates":[[[35.278134,47.48976],[35.278206,47.489765],[35.278209,47.489738],[35.278254,47.489742],[35.278258,47.489678],[35.27814,47.48967],[35.278139,47.489697],[35.278134,47.48976]]]}},{"type":"Feature","properties":{"cadnum":"2320983001:03:009:0002"},"geometry":{"type":"Polygon","coordinates":[[[35.284572,47.492889],[35.284582,47.49323],[35.285384,47.493275],[35.285398,47.492883],[35.284572,47.492889]]]}},{"type":"Feature","properties":{"cadnum":"2320983001:03:009:0005"},"geometry":{"type":"Polygon","coordinates":[[[35.28376,47.492692],[35.284544,47.49276],[35.284579,47.492446],[35.283941,47.49239],[35.283906,47.492556],[35.283788,47.492552],[35.28376,47.492692]]]}},{"type":"Feature","properties":{"cadnum":"2320983001:03:009:0007"},"geometry":{"type":"Polygon","coordinates":[[[35.284811,47.491371],[35.285842,47.491447],[35.285861,47.491328],[35.285888,47.491161],[35.284857,47.491086],[35.284836,47.491212],[35.284835,47.491212],[35.284811,47.491371]]]}},{"type":"Feature","properties":{"cadnum":"2320983001:03:009:0004"},"geometry":{"type":"Polygon","coordinates":[[[35.283286,47.493214],[35.283554,47.493228],[35.283607,47.492902],[35.283356,47.492884],[35.283342,47.492953],[35.283316,47.49305],[35.283286,47.493214]]]}},{"type":"Feature","properties":{"cadnum":"2320983001:03:009:0003"},"geometry":{"type":"Polygon","coordinates":[[[35.283554,47.493228],[35.284114,47.493258],[35.284454,47.493289],[35.284513,47.492953],[35.283642,47.492905],[35.283607,47.492902],[35.283554,47.493228]]]}},{"type":"Feature","properties":{"cadnum":"2320983001:03:003:0016"},"geometry":{"type":"Polygon","coordinates":[[[35.281427,47.495058],[35.28216,47.495109],[35.282507,47.495134],[35.282507,47.495135],[35.28259,47.49514],[35.282601,47.49504],[35.282601,47.495039],[35.282614,47.494922],[35.281464,47.494828],[35.281448,47.494923],[35.281447,47.494923],[35.281431,47.495035],[35.28143,47.495039],[35.281427,47.495058]]]}},{"type":"Feature","properties":{"cadnum":"2320983001:04:001:0018"},"geometry":{"type":"Polygon","coordinates":[[[35.277219,47.454266],[35.277589,47.454471],[35.278239,47.454197],[35.27824,47.454197],[35.279308,47.453747],[35.279487,47.453193],[35.279126,47.453352],[35.278386,47.453423],[35.277961,47.453618],[35.27743,47.454081],[35.277398,47.454109],[35.277297,47.454197],[35.277219,47.454266]]]}},{"type":"Feature","properties":{"cadnum":"2320983001:05:003:0027"},"geometry":{"type":"Polygon","coordinates":[[[35.276606,47.48793],[35.276898,47.487923],[35.276948,47.487718],[35.276935,47.487714],[35.276947,47.487516],[35.276952,47.487445],[35.276674,47.487448],[35.276667,47.4875],[35.276666,47.4875],[35.276606,47.48793]]]}},{"type":"Feature","properties":{"cadnum":"2320983001:04:001:0001"},"geometry":{"type":"Polygon","coordinates":[[[35.276235,47.486448],[35.277014,47.486478],[35.277014,47.486479],[35.277108,47.486482],[35.277185,47.486485],[35.277186,47.486485],[35.277271,47.486488],[35.277289,47.486322],[35.277014,47.486306],[35.276272,47.486264],[35.276235,47.486448]]]}},{"type":"Feature","properties":{"cadnum":"2320983001:03:011:0005"},"geometry":{"type":"Polygon","coordinates":[[[35.287352,47.491077],[35.288,47.491134],[35.288,47.491135],[35.288602,47.491187],[35.28863,47.490949],[35.288,47.490896],[35.287381,47.490843],[35.287352,47.491077]]]}},{"type":"Feature","properties":{"cadnum":"2320983001:04:001:0027"},"geometry":{"type":"Polygon","coordinates":[[[35.279102,47.482515],[35.279161,47.48263],[35.280556,47.482881],[35.280572,47.482839],[35.280591,47.482797],[35.280408,47.482764],[35.280344,47.482705],[35.280349,47.482692],[35.280096,47.482643],[35.28008,47.482681],[35.280079,47.482681],[35.279735,47.482627],[35.279102,47.482515]]]}},{"type":"Feature","properties":{"cadnum":"2320983001:04:001:0036"},"geometry":{"type":"Polygon","coordinates":[[[35.279353,47.482887],[35.279355,47.483018],[35.28005,47.483118],[35.280163,47.483123],[35.280368,47.483147],[35.280507,47.483164],[35.280546,47.483071],[35.279353,47.482887]]]}},{"type":"Feature","properties":{"cadnum":"2320983001:04:001:0035"},"geometry":{"type":"Polygon","coordinates":[[[35.279355,47.483018],[35.279358,47.48314],[35.279799,47.483205],[35.280459,47.48329],[35.280507,47.483164],[35.280368,47.483147],[35.280163,47.483123],[35.28005,47.483118],[35.279355,47.483018]]]}},{"type":"Feature","properties":{"cadnum":"2320983001:04:001:0005"},"geometry":{"type":"Polygon","coordinates":[[[35.279776,47.483509],[35.280117,47.483566],[35.28014,47.483519],[35.280754,47.483641],[35.280784,47.483569],[35.280163,47.483443],[35.280156,47.483447],[35.279839,47.483366],[35.279776,47.483509]]]}},{"type":"Feature","properties":{"cadnum":"2320983001:04:001:0015"},"geometry":{"type":"Polygon","coordinates":[[[35.278972,47.483412],[35.279177,47.483451],[35.27926,47.483102],[35.279055,47.483063],[35.278972,47.483412]]]}},{"type":"Feature","properties":{"cadnum":"2320983001:04:001:0006"},"geometry":{"type":"Polygon","coordinates":[[[35.280464,47.481149],[35.281245,47.481333],[35.281269,47.481338],[35.281374,47.48111],[35.28055,47.480937],[35.280464,47.481149]]]}},{"type":"Feature","properties":{"cadnum":"2320983001:04:001:0044"},"geometry":{"type":"Polygon","coordinates":[[[35.28161,47.481442],[35.282507,47.481621],[35.282507,47.481622],[35.282911,47.481701],[35.28296,47.481586],[35.282507,47.481499],[35.282507,47.4815],[35.281653,47.481335],[35.28161,47.481442]]]}},{"type":"Feature","properties":{"cadnum":"2320983001:04:001:0014"},"geometry":{"type":"Polygon","coordinates":[[[35.280287,47.481226],[35.280644,47.481301],[35.280955,47.481379],[35.281054,47.481408],[35.281048,47.481424],[35.281194,47.481455],[35.281215,47.481459],[35.28127,47.481342],[35.280464,47.481151],[35.280326,47.481119],[35.280287,47.481226]]]}},{"type":"Feature","properties":{"cadnum":"2320983001:04:011:0006"},"geometry":{"type":"Polygon","coordinates":[[[35.283746,47.485602],[35.284948,47.485724],[35.285008,47.485486],[35.283823,47.485355],[35.283746,47.485602]]]}},{"type":"Feature","properties":{"cadnum":"2320983001:03:002:0001"},"geometry":{"type":"Polygon","coordinates":[[[35.283298,47.48807],[35.283612,47.488124],[35.283682,47.487963],[35.283814,47.487616],[35.283815,47.487616],[35.28389,47.487422],[35.283439,47.487411],[35.283395,47.487616],[35.283396,47.487616],[35.28333,47.487929],[35.283318,47.487978],[35.283298,47.48807]]]}},{"type":"Feature","properties":{"cadnum":"2320983001:04:003:0038"},"geometry":{"type":"Polygon","coordinates":[[[35.282754,47.484245],[35.283695,47.484441],[35.283751,47.484323],[35.283025,47.484167],[35.283002,47.484214],[35.282927,47.484197],[35.282927,47.484196],[35.282935,47.48418],[35.282798,47.48415],[35.282754,47.484245]]]}},{"type":"Feature","properties":{"cadnum":"2320983001:04:004:0001"},"geometry":{"type":"Polygon","coordinates":[[[35.283117,47.48712],[35.283711,47.487034],[35.28384,47.486588],[35.283293,47.486516],[35.283117,47.48712]]]}},{"type":"Feature","properties":{"cadnum":"2320983001:04:004:0002"},"geometry":{"type":"Polygon","coordinates":[[[35.283293,47.486516],[35.28384,47.486588],[35.283849,47.486557],[35.283302,47.486485],[35.283293,47.486516]]]}},{"type":"Feature","properties":{"cadnum":"2320983001:02:001:0009"},"geometry":{"type":"Polygon","coordinates":[[[35.283857,47.453647],[35.283953,47.453745],[35.28417,47.45371],[35.284599,47.453928],[35.284761,47.454027],[35.28485,47.454081],[35.285008,47.454177],[35.285042,47.454197],[35.285357,47.454388],[35.285412,47.454367],[35.286289,47.45493],[35.286564,47.45475],[35.286746,47.454632],[35.286186,47.454081],[35.285746,47.453649],[35.285058,47.453235],[35.284495,47.453584],[35.284494,47.453584],[35.284401,47.453473],[35.284386,47.453455],[35.284347,47.453411],[35.284265,47.453325],[35.283857,47.453647]]]}},{"type":"Feature","properties":{"cadnum":"2320983001:04:001:0002"},"geometry":{"type":"Polygon","coordinates":[[[35.284118,47.453166],[35.284144,47.453194],[35.284347,47.453411],[35.284386,47.453455],[35.284401,47.453473],[35.284494,47.453584],[35.285058,47.453235],[35.284694,47.452945],[35.284583,47.452986],[35.284549,47.453034],[35.284452,47.453072],[35.284185,47.453134],[35.284118,47.453166]]]}},{"type":"Feature","properties":{"cadnum":"2320983001:04:003:0003"},"geometry":{"type":"Polygon","coordinates":[[[35.285553,47.480409],[35.285755,47.480445],[35.285912,47.480096],[35.285701,47.480077],[35.285649,47.480191],[35.28565,47.480191],[35.28565,47.480192],[35.285553,47.480409]]]}},{"type":"Feature","properties":{"cadnum":"2320983001:04:007:0002"},"geometry":{"type":"Polygon","coordinates":[[[35.287847,47.477527],[35.288,47.47752],[35.288047,47.477517],[35.288172,47.477209],[35.288318,47.476847],[35.288389,47.476659],[35.28816,47.476674],[35.288117,47.47686],[35.287847,47.477527]]]}},{"type":"Feature","properties":{"cadnum":"2320983001:04:007:0006"},"geometry":{"type":"Polygon","coordinates":[[[35.287051,47.47592],[35.287044,47.476041],[35.287055,47.476479],[35.287057,47.476549],[35.287536,47.47652],[35.287531,47.476399],[35.287524,47.476176],[35.287521,47.475899],[35.287051,47.47592]]]}},{"type":"Feature","properties":{"cadnum":"2320983001:04:007:0003"},"geometry":{"type":"Polygon","coordinates":[[[35.28647,47.477548],[35.286635,47.477556],[35.286784,47.477121],[35.286625,47.477105],[35.28647,47.477548]]]}},{"type":"Feature","properties":{"cadnum":"2320983001:04:003:1091"},"geometry":{"type":"Polygon","coordinates":[[[35.28423,47.478191],[35.284393,47.478225],[35.284482,47.477998],[35.284308,47.477967],[35.28423,47.478191]]]}},{"type":"Feature","properties":{"cadnum":"2320983001:04:001:0011"},"geometry":{"type":"Polygon","coordinates":[[[35.283458,47.477696],[35.284061,47.47782],[35.284295,47.477865],[35.284976,47.477995],[35.285023,47.477903],[35.284112,47.477726],[35.283524,47.477576],[35.283523,47.477576],[35.283458,47.477696]]]}},{"type":"Feature","properties":{"cadnum":"2320983001:04:001:0042"},"geometry":{"type":"Polygon","coordinates":[[[35.284187,47.476347],[35.284289,47.476363],[35.284914,47.476456],[35.285066,47.476479],[35.285145,47.476491],[35.285219,47.476371],[35.284241,47.476201],[35.284187,47.476347]]]}},{"type":"Feature","properties":{"cadnum":"2320983001:04:003:0002"},"geometry":{"type":"Polygon","coordinates":[[[35.2846,47.48024],[35.285553,47.480409],[35.285701,47.480077],[35.284728,47.479989],[35.284684,47.480075],[35.284664,47.480114],[35.284625,47.480191],[35.284625,47.480192],[35.2846,47.48024]]]}},{"type":"Feature","properties":{"cadnum":"2320983001:04:003:0091"},"geometry":{"type":"Polygon","coordinates":[[[35.284393,47.478225],[35.285362,47.478428],[35.285515,47.478101],[35.285059,47.477996],[35.285009,47.478093],[35.284482,47.477998],[35.284393,47.478225]]]}},{"type":"Feature","properties":{"cadnum":"2320983001:04:001:0046"},"geometry":{"type":"Polygon","coordinates":[[[35.282964,47.476404],[35.283066,47.476421],[35.283265,47.476452],[35.283428,47.476479],[35.283429,47.476479],[35.283633,47.476511],[35.283644,47.47648],[35.283659,47.47644],[35.283666,47.476421],[35.28368,47.47638],[35.283405,47.476332],[35.283283,47.47631],[35.283271,47.476323],[35.283029,47.476271],[35.282984,47.476363],[35.282965,47.476404],[35.282964,47.476404]]]}},{"type":"Feature","properties":{"cadnum":"2320983001:04:001:0051"},"geometry":{"type":"Polygon","coordinates":[[[35.28206,47.477704],[35.282507,47.477814],[35.282508,47.477814],[35.282679,47.477845],[35.282679,47.477844],[35.282982,47.477898],[35.283057,47.477741],[35.28263,47.477649],[35.28215,47.477545],[35.282103,47.477628],[35.28206,47.477704]]]}},{"type":"Feature","properties":{"cadnum":"2320983001:04:001:0026"},"geometry":{"type":"Polygon","coordinates":[[[35.282634,47.479388],[35.283805,47.479684],[35.283937,47.479473],[35.283603,47.479378],[35.283435,47.479336],[35.28338,47.479329],[35.283271,47.479299],[35.283151,47.479285],[35.283055,47.479261],[35.282983,47.479238],[35.282778,47.479149],[35.282735,47.479224],[35.282716,47.479258],[35.282688,47.4793],[35.282634,47.479388]]]}},{"type":"Feature","properties":{"cadnum":"2320983001:05:001:0005"},"geometry":{"type":"Polygon","coordinates":[[[35.294354,47.472475],[35.294893,47.472507],[35.295001,47.471605],[35.294763,47.47162],[35.294471,47.471638],[35.294354,47.472475]]]}},{"type":"Feature","properties":{"cadnum":"2320983001:05:001:0007"},"geometry":{"type":"Polygon","coordinates":[[[35.294951,47.472162],[35.295269,47.472175],[35.295313,47.471591],[35.295001,47.471605],[35.294951,47.472162]]]}},{"type":"Feature","properties":{"cadnum":"2320983001:05:001:0004"},"geometry":{"type":"Polygon","coordinates":[[[35.294234,47.473006],[35.294433,47.473018],[35.29483,47.473041],[35.294862,47.472766],[35.294863,47.472766],[35.294893,47.472507],[35.294354,47.472475],[35.294329,47.47265],[35.294322,47.472698],[35.294313,47.472766],[35.294298,47.472882],[35.294262,47.472894],[35.294234,47.473006]]]}},{"type":"Feature","properties":{"cadnum":"2320983001:05:001:0006"},"geometry":{"type":"Polygon","coordinates":[[[35.29483,47.473041],[35.29521,47.47305],[35.295227,47.472744],[35.295239,47.472548],[35.295269,47.472175],[35.294951,47.472162],[35.294918,47.472537],[35.294896,47.47265],[35.294887,47.472701],[35.294875,47.472766],[35.294838,47.472968],[35.29483,47.473041]]]}},{"type":"Feature","properties":{"cadnum":"2320983001:04:007:0009"},"geometry":{"type":"Polygon","coordinates":[[[35.30051,47.475032],[35.30067,47.475034],[35.300754,47.474317],[35.300594,47.474314],[35.30051,47.475032]]]}},{"type":"Feature","properties":{"cadnum":"2320983001:03:003:0007"},"geometry":{"type":"Polygon","coordinates":[[[35.280636,47.49934],[35.282127,47.499478],[35.282161,47.499282],[35.280651,47.499143],[35.280636,47.49934]]]}},{"type":"Feature","properties":{"cadnum":"2320983001:03:003:0020"},"geometry":{"type":"Polygon","coordinates":[[[35.279654,47.499308],[35.279727,47.499351],[35.279817,47.499399],[35.280043,47.499144],[35.279767,47.499042],[35.279721,47.499251],[35.279654,47.499308]]]}},{"type":"Feature","properties":{"cadnum":"2320983001:03:003:0030"},"geometry":{"type":"Polygon","coordinates":[[[35.281747,47.500026],[35.282239,47.500062],[35.282276,47.499823],[35.281785,47.499785],[35.281747,47.500026]]]}},{"type":"Feature","properties":{"cadnum":"2320983001:03:003:0005"},"geometry":{"type":"Polygon","coordinates":[[[35.280607,47.499522],[35.280793,47.499538],[35.280892,47.499547],[35.280896,47.499524],[35.282315,47.499639],[35.282338,47.499498],[35.280636,47.49934],[35.280607,47.499522]]]}},{"type":"Feature","properties":{"cadnum":"2320983001:03:003:0008"},"geometry":{"type":"Polygon","coordinates":[[[35.282127,47.499478],[35.282338,47.499498],[35.282374,47.499302],[35.282161,47.499282],[35.282127,47.499478]]]}},{"type":"Feature","properties":{"cadnum":"2320983001:04:002:0001"},"geometry":{"type":"Polygon","coordinates":[[[35.284253,47.47036],[35.285797,47.471133],[35.285684,47.471364],[35.286553,47.472468],[35.286684,47.472766],[35.286685,47.472766],[35.286735,47.47288],[35.287002,47.472687],[35.28708,47.472631],[35.287614,47.472283],[35.28737,47.472177],[35.28737,47.472176],[35.287702,47.471793],[35.288,47.471445],[35.288,47.471446],[35.288044,47.471393],[35.288172,47.471243],[35.288236,47.471167],[35.288266,47.471136],[35.28842,47.470954],[35.288,47.470767],[35.286984,47.470315],[35.286984,47.470314],[35.287441,47.470043],[35.287181,47.469795],[35.286839,47.469466],[35.2864,47.469554],[35.285295,47.470307],[35.28471,47.470003],[35.284343,47.470276],[35.284253,47.47036]]]}},{"type":"Feature","properties":{"cadnum":"2320983001:05:001:0002"},"geometry":{"type":"Polygon","coordinates":[[[35.287753,47.472498],[35.287759,47.472546],[35.287767,47.472622],[35.28777,47.47265],[35.287769,47.47265],[35.287775,47.472695],[35.287783,47.472766],[35.287784,47.472766],[35.287795,47.472859],[35.288,47.472944],[35.288052,47.472965],[35.288172,47.473015],[35.288172,47.473014],[35.288176,47.473016],[35.288246,47.472766],[35.288247,47.472766],[35.288307,47.472554],[35.288172,47.47254],[35.287906,47.472513],[35.287812,47.472504],[35.287753,47.472498]]]}},{"type":"Feature","properties":{"cadnum":"2320983001:05:003:0004"},"geometry":{"type":"Polygon","coordinates":[[[35.275596,47.496961],[35.276096,47.496835],[35.276316,47.496833],[35.276334,47.496763],[35.276375,47.496472],[35.275754,47.49644],[35.275596,47.496961]]]}},{"type":"Feature","properties":{"cadnum":"2320983001:03:003:0028"},"geometry":{"type":"Polygon","coordinates":[[[35.275855,47.496446],[35.276375,47.496472],[35.276708,47.496488],[35.277014,47.496494],[35.277014,47.496495],[35.27711,47.496496],[35.27713,47.496351],[35.276579,47.49631],[35.276527,47.496303],[35.276111,47.49629],[35.275871,47.496298],[35.275855,47.496446]]]}},{"type":"Feature","properties":{"cadnum":"2320983001:05:003:0005"},"geometry":{"type":"Polygon","coordinates":[[[35.275726,47.496066],[35.275787,47.496301],[35.276111,47.49629],[35.276527,47.496303],[35.276536,47.496069],[35.276114,47.496061],[35.275726,47.496066]]]}},{"type":"Feature","properties":{"cadnum":"2320983001:03:003:0022"},"geometry":{"type":"Polygon","coordinates":[[[35.276527,47.496303],[35.276579,47.49631],[35.277014,47.496342],[35.27713,47.496351],[35.277176,47.496065],[35.27698,47.496064],[35.276536,47.496069],[35.276527,47.496303]]]}},{"type":"Feature","properties":{"cadnum":"2320983001:03:003:1082"},"geometry":{"type":"Polygon","coordinates":[[[35.283916,47.498134],[35.283959,47.498327],[35.284407,47.498289],[35.284371,47.498094],[35.283916,47.498134]]]}},{"type":"Feature","properties":{"cadnum":"2320983001:03:009:0001"},"geometry":{"type":"Polygon","coordinates":[[[35.283906,47.497227],[35.285229,47.497296],[35.285244,47.497071],[35.283922,47.497002],[35.283906,47.497227]]]}},{"type":"Feature","properties":{"cadnum":"2320983001:03:009:0062"},"geometry":{"type":"Polygon","coordinates":[[[35.283887,47.497453],[35.285311,47.497509],[35.285295,47.497299],[35.28395,47.497249],[35.283887,47.497453]]]}},{"type":"Feature","properties":{"cadnum":"2320983001:03:009:0006"},"geometry":{"type":"Polygon","coordinates":[[[35.282932,47.496962],[35.283978,47.497009],[35.28399,47.496723],[35.282944,47.496679],[35.282932,47.496962]]]}},{"type":"Feature","properties":{"cadnum":"2320983001:03:003:0015"},"geometry":{"type":"Polygon","coordinates":[[[35.280867,47.49689],[35.281226,47.496919],[35.282507,47.496959],[35.282513,47.49696],[35.282679,47.496965],[35.282679,47.496964],[35.282734,47.496966],[35.28273,47.496795],[35.282507,47.496794],[35.281387,47.496782],[35.281122,47.496783],[35.280879,47.496783],[35.280867,47.49689]]]}},{"type":"Feature","properties":{"cadnum":"2320983001:03:003:0014"},"geometry":{"type":"Polygon","coordinates":[[[35.280924,47.496336],[35.282507,47.496373],[35.282671,47.496377],[35.282665,47.496217],[35.28095,47.496151],[35.280924,47.496336]]]}},{"type":"Feature","properties":{"cadnum":"2320983001:03:009:0011"},"geometry":{"type":"Polygon","coordinates":[[[35.283021,47.496424],[35.283974,47.496469],[35.284004,47.496182],[35.28305,47.496137],[35.283021,47.496424]]]}},{"type":"Feature","properties":{"cadnum":"2320983001:03:003:0082"},"geometry":{"type":"Polygon","coordinates":[[[35.282378,47.498271],[35.282413,47.498458],[35.282507,47.49845],[35.282507,47.498451],[35.28263,47.49844],[35.282679,47.498436],[35.283959,47.498327],[35.283916,47.498134],[35.282679,47.498244],[35.282378,47.498271]]]}},{"type":"Feature","properties":{"cadnum":"2320983001:05:001:1054"},"geometry":{"type":"Polygon","coordinates":[[[35.334075,47.465962],[35.334323,47.466039],[35.334712,47.465689],[35.334559,47.465598],[35.334075,47.465962]]]}},{"type":"Feature","properties":{"cadnum":"2320983001:05:001:0054"},"geometry":{"type":"Polygon","coordinates":[[[35.333158,47.466655],[35.333513,47.46677],[35.334323,47.466039],[35.334075,47.465962],[35.333158,47.466655]]]}},{"type":"Feature","properties":{"cadnum":"2320983001:03:011:0003"},"geometry":{"type":"Polygon","coordinates":[[[35.285928,47.490502],[35.286343,47.490538],[35.287225,47.490616],[35.287242,47.490386],[35.286812,47.490349],[35.286373,47.490309],[35.285956,47.490277],[35.285928,47.490502]]]}},{"type":"Feature","properties":{"cadnum":"2320983001:03:005:0038"},"geometry":{"type":"Polygon","coordinates":[[[35.28262,47.491073],[35.283039,47.491115],[35.283072,47.490947],[35.282653,47.490906],[35.28262,47.491073]]]}},{"type":"Feature","properties":{"cadnum":"2320983001:03:011:0004"},"geometry":{"type":"Polygon","coordinates":[[[35.285856,47.490496],[35.285928,47.490502],[35.285956,47.490277],[35.285884,47.490271],[35.285856,47.490496]]]}},{"type":"Feature","properties":{"cadnum":"2320983001:04:007:0012"},"geometry":{"type":"Polygon","coordinates":[[[35.288921,47.476029],[35.288932,47.476414],[35.289501,47.476384],[35.289482,47.47601],[35.288921,47.476029]]]}},{"type":"Feature","properties":{"cadnum":"2320983001:04:007:0001"},"geometry":{"type":"Polygon","coordinates":[[[35.290111,47.47512],[35.290153,47.47557],[35.290153,47.475642],[35.290244,47.476278],[35.291673,47.476141],[35.291397,47.475512],[35.291256,47.475103],[35.290111,47.47512]]]}},{"type":"Feature","properties":{"cadnum":"2320983001:03:011:0001"},"geometry":{"type":"Polygon","coordinates":[[[35.284608,47.542316],[35.285848,47.542536],[35.28592,47.54231],[35.28467,47.542086],[35.284608,47.542316]]]}},{"type":"Feature","properties":{"cadnum":"2320983001:03:011:0002"},"geometry":{"type":"Polygon","coordinates":[[[35.285848,47.542536],[35.285935,47.542552],[35.285983,47.542318],[35.28592,47.54231],[35.285848,47.542536]]]}},{"type":"Feature","properties":{"cadnum":"2320983001:03:003:0010"},"geometry":{"type":"Polygon","coordinates":[[[35.279098,47.491416],[35.279173,47.491421],[35.279145,47.491562],[35.280093,47.4916],[35.280104,47.49142],[35.279102,47.491376],[35.279098,47.491416]]]}},{"type":"Feature","properties":{"cadnum":"2320983001:03:003:0006"},"geometry":{"type":"Polygon","coordinates":[[[35.281482,47.494674],[35.282417,47.494743],[35.282432,47.494623],[35.282447,47.494509],[35.281516,47.494452],[35.281482,47.494674]]]}},{"type":"Feature","properties":{"cadnum":"2320983001:04:001:0012"},"geometry":{"type":"Polygon","coordinates":[[[35.277776,47.493474],[35.277865,47.493474],[35.277958,47.493474],[35.278101,47.493481],[35.278122,47.493414],[35.278281,47.49341],[35.278286,47.493456],[35.279933,47.493522],[35.279935,47.493408],[35.278922,47.493343],[35.277797,47.493281],[35.277776,47.493474]]]}},{"type":"Feature","properties":{"cadnum":"2320983001:03:005:0002"},"geometry":{"type":"Polygon","coordinates":[[[35.279194,47.495399],[35.279754,47.495427],[35.279793,47.494944],[35.279251,47.494917],[35.27925,47.494923],[35.279249,47.494923],[35.279239,47.495031],[35.279237,47.495039],[35.279238,47.495039],[35.279238,47.49504],[35.279231,47.495116],[35.279194,47.495399]]]}},{"type":"Feature","properties":{"cadnum":"2320983001:04:001:0008"},"geometry":{"type":"Polygon","coordinates":[[[35.279142,47.495109],[35.279231,47.495116],[35.279239,47.495031],[35.279251,47.494917],[35.279164,47.49491],[35.279162,47.494923],[35.279161,47.494923],[35.279152,47.495012],[35.279149,47.495039],[35.279149,47.49504],[35.279142,47.495109]]]}},{"type":"Feature","properties":{"cadnum":"2320983001:04:001:0007"},"geometry":{"type":"Polygon","coordinates":[[[35.277619,47.494979],[35.277633,47.494981],[35.277634,47.494981],[35.278323,47.495039],[35.278324,47.495039],[35.279142,47.495109],[35.279152,47.495012],[35.279164,47.49491],[35.278642,47.494864],[35.277641,47.494799],[35.277637,47.494832],[35.277621,47.494833],[35.277625,47.494863],[35.277622,47.494923],[35.277621,47.494923],[35.277619,47.494979]]]}},{"type":"Feature","properties":{"cadnum":"2320983001:03:001:0002"},"geometry":{"type":"Polygon","coordinates":[[[35.277826,47.492924],[35.278034,47.492924],[35.278956,47.492973],[35.278957,47.492789],[35.278384,47.492762],[35.277841,47.492736],[35.277826,47.492924]]]}},{"type":"Feature","properties":{"cadnum":"2320983001:03:003:0025"},"geometry":{"type":"Polygon","coordinates":[[[35.278922,47.493341],[35.279933,47.493407],[35.279959,47.493242],[35.279616,47.493219],[35.278944,47.493167],[35.278922,47.493341]]]}},{"type":"Feature","properties":{"cadnum":"2320983001:04:003:0001"},"geometry":{"type":"Polygon","coordinates":[[[35.281304,47.485202],[35.282034,47.485338],[35.28213,47.485082],[35.281405,47.484951],[35.281347,47.485107],[35.281304,47.485202]]]}},{"type":"Feature","properties":{"cadnum":"2320983001:04:001:0038"},"geometry":{"type":"Polygon","coordinates":[[[35.27856,47.485703],[35.279393,47.485833],[35.279523,47.485576],[35.278847,47.485478],[35.27856,47.485703]]]}},{"type":"Feature","properties":{"cadnum":"2320983001:04:003:0004"},"geometry":{"type":"Polygon","coordinates":[[[35.280133,47.486485],[35.281375,47.486749],[35.281429,47.486627],[35.280731,47.486486],[35.280173,47.486368],[35.28016,47.486402],[35.280133,47.486485]]]}},{"type":"Feature","properties":{"cadnum":"2320983001:04:001:0022"},"geometry":{"type":"Polygon","coordinates":[[[35.279103,47.48706],[35.279232,47.487088],[35.279401,47.48711],[35.279725,47.487154],[35.280531,47.487317],[35.280592,47.487213],[35.280259,47.487145],[35.279154,47.486953],[35.279103,47.48706]]]}},{"type":"Feature","properties":{"cadnum":"2320983001:04:001:0016"},"geometry":{"type":"Polygon","coordinates":[[[35.31755,47.456738],[35.317652,47.457427],[35.317872,47.457424],[35.317795,47.456865],[35.317796,47.456865],[35.318025,47.456861],[35.318019,47.45673],[35.317805,47.456734],[35.31755,47.456738]]]}},{"type":"Feature","properties":{"cadnum":"2320983001:05:003:0002"},"geometry":{"type":"Polygon","coordinates":[[[35.280333,47.479093],[35.281163,47.479285],[35.281209,47.479297],[35.28128,47.47917],[35.281354,47.479039],[35.281174,47.47899],[35.280487,47.478811],[35.280333,47.479093]]]}},{"type":"Feature","properties":{"cadnum":"2320983001:04:003:1036"},"geometry":{"type":"Polygon","coordinates":[[[35.284112,47.482623],[35.284496,47.482679],[35.284556,47.482487],[35.284173,47.482434],[35.284112,47.482623]]]}},{"type":"Feature","properties":{"cadnum":"2320983001:04:007:0004"},"geometry":{"type":"Polygon","coordinates":[[[35.288453,47.477418],[35.2889,47.477382],[35.289052,47.476895],[35.28912,47.476614],[35.288794,47.476636],[35.288687,47.476918],[35.288575,47.477216],[35.288453,47.477418]]]}},{"type":"Feature","properties":{"cadnum":"2320983001:04:007:0005"},"geometry":{"type":"Polygon","coordinates":[[[35.290765,47.477094],[35.291302,47.477104],[35.291323,47.476769],[35.29138,47.476491],[35.290928,47.476503],[35.290814,47.47683],[35.290765,47.477094]]]}},{"type":"Feature","properties":{"cadnum":"2320983001:04:007:0008"},"geometry":{"type":"Polygon","coordinates":[[[35.290715,47.477367],[35.291286,47.477369],[35.291302,47.477104],[35.290765,47.477094],[35.290715,47.477367]]]}},{"type":"Feature","properties":{"cadnum":"2320983001:04:007:0007"},"geometry":{"type":"Polygon","coordinates":[[[35.287049,47.47552],[35.287059,47.47577],[35.287051,47.47592],[35.287521,47.475899],[35.28752,47.475787],[35.287517,47.475492],[35.287049,47.47552]]]}},{"type":"Feature","properties":{"cadnum":"2320983001:04:001:0033"},"geometry":{"type":"Polygon","coordinates":[[[35.283938,47.474766],[35.283982,47.474801],[35.284057,47.474832],[35.284407,47.475049],[35.284603,47.474977],[35.284611,47.474933],[35.284425,47.474867],[35.284171,47.474651],[35.283994,47.474722],[35.283938,47.474766]]]}},{"type":"Feature","properties":{"cadnum":"2320983001:04:001:0025"},"geometry":{"type":"Polygon","coordinates":[[[35.28417,47.474614],[35.284536,47.474891],[35.284722,47.474593],[35.28417,47.474614]]]}},{"type":"Feature","properties":{"cadnum":"2320983001:04:001:0021"},"geometry":{"type":"Polygon","coordinates":[[[35.28456,47.475496],[35.285681,47.475643],[35.285781,47.475567],[35.28579,47.475515],[35.285612,47.475479],[35.284651,47.475298],[35.28456,47.475496]]]}},{"type":"Feature","properties":{"cadnum":"2320983001:04:001:0003"},"geometry":{"type":"Polygon","coordinates":[[[35.284409,47.475829],[35.285386,47.475992],[35.285574,47.475723],[35.285205,47.475673],[35.284968,47.475705],[35.284977,47.475678],[35.284508,47.475622],[35.284409,47.475829]]]}},{"type":"Feature","properties":{"cadnum":"2320983001:04:001:0019"},"geometry":{"type":"Polygon","coordinates":[[[35.284513,47.47562],[35.284991,47.475678],[35.284981,47.475704],[35.285205,47.475673],[35.285573,47.47572],[35.285681,47.475643],[35.28456,47.475496],[35.284513,47.47562]]]}},{"type":"Feature","properties":{"cadnum":"2320983001:04:001:0020"},"geometry":{"type":"Polygon","coordinates":[[[35.284651,47.475298],[35.285612,47.475479],[35.28579,47.475515],[35.285826,47.475197],[35.285665,47.475189],[35.285318,47.475171],[35.285199,47.475162],[35.285152,47.475156],[35.284881,47.475105],[35.284843,47.475205],[35.284706,47.475181],[35.284651,47.475298]]]}},{"type":"Feature","properties":{"cadnum":"2320983001:04:001:0043"},"geometry":{"type":"Polygon","coordinates":[[[35.286003,47.474713],[35.286085,47.475193],[35.28633,47.475172],[35.286241,47.474692],[35.286003,47.474713]]]}},{"type":"Feature","properties":{"cadnum":"2320983001:05:001:0003"},"geometry":{"type":"Polygon","coordinates":[[[35.288873,47.472352],[35.288901,47.472356],[35.288877,47.472468],[35.289191,47.47251],[35.289251,47.472342],[35.289339,47.472133],[35.289007,47.472065],[35.288893,47.472296],[35.288873,47.472352]]]}},{"type":"Feature","properties":{"cadnum":"2320983001:03:003:0013"},"geometry":{"type":"Polygon","coordinates":[[[35.281626,47.497446],[35.282052,47.497452],[35.28206,47.497117],[35.281969,47.497103],[35.281657,47.497089],[35.281626,47.497446]]]}},{"type":"Feature","properties":{"cadnum":"2320983001:03:003:0012"},"geometry":{"type":"Polygon","coordinates":[[[35.280816,47.497432],[35.281626,47.497446],[35.281657,47.497089],[35.280848,47.497054],[35.280816,47.497432]]]}},{"type":"Feature","properties":{"cadnum":"2320983001:03:003:0011"},"geometry":{"type":"Polygon","coordinates":[[[35.277708,47.497058],[35.277812,47.497185],[35.277839,47.497183],[35.278313,47.497156],[35.278427,47.497257],[35.279253,47.497299],[35.279303,47.497132],[35.278737,47.497095],[35.278115,47.497054],[35.277719,47.497047],[35.277708,47.497058]]]}},{"type":"Feature","properties":{"cadnum":"2320983001:03:003:0003"},"geometry":{"type":"Polygon","coordinates":[[[35.279924,47.495839],[35.280853,47.495886],[35.280935,47.495561],[35.280003,47.49553],[35.279924,47.495839]]]}},{"type":"Feature","properties":{"cadnum":"2320983001:03:003:0004"},"geometry":{"type":"Polygon","coordinates":[[[35.279803,47.495834],[35.279924,47.495839],[35.280003,47.49553],[35.279868,47.495525],[35.279803,47.495834]]]}},{"type":"Feature","properties":{"cadnum":"2320983001:03:003:0017"},"geometry":{"type":"Polygon","coordinates":[[[35.277517,47.496057],[35.278878,47.49612],[35.278901,47.495908],[35.278879,47.495907],[35.277537,47.495833],[35.277517,47.496057]]]}},{"type":"Feature","properties":{"cadnum":"2320983001:03:003:0018"},"geometry":{"type":"Polygon","coordinates":[[[35.278878,47.49612],[35.27896,47.496124],[35.279695,47.496157],[35.279725,47.496007],[35.279736,47.495953],[35.278901,47.495908],[35.278878,47.49612]]]}},{"type":"Feature","properties":{"cadnum":"2320983001:03:003:0023"},"geometry":{"type":"Polygon","coordinates":[[[35.281371,47.495485],[35.282114,47.495487],[35.28216,47.495109],[35.281427,47.495058],[35.281371,47.495485]]]}},{"type":"Feature","properties":{"cadnum":"2320983001:03:003:0024"},"geometry":{"type":"Polygon","coordinates":[[[35.282114,47.495487],[35.282476,47.495488],[35.282569,47.495463],[35.28259,47.49514],[35.28216,47.495109],[35.282114,47.495487]]]}},{"type":"Feature","properties":{"cadnum":"2320983001:03:003:0026"},"geometry":{"type":"Polygon","coordinates":[[[35.278571,47.497928],[35.278679,47.498117],[35.278911,47.498068],[35.278932,47.498133],[35.279157,47.498107],[35.279161,47.497972],[35.278854,47.497944],[35.278571,47.497928]]]}}]}