{"type":"FeatureCollection","features":[{"type":"Feature","properties":{"cadnum":"2321584010:01:001:0001"},"geometry":{"type":"Polygon","coordinates":[[[35.221865,47.982802],[35.222082,47.982797],[35.222243,47.982793],[35.222254,47.98273],[35.222283,47.982556],[35.22238,47.981991],[35.222082,47.981998],[35.222082,47.981999],[35.222004,47.982],[35.221908,47.982556],[35.221906,47.982556],[35.221865,47.982802]]]}},{"type":"Feature","properties":{"cadnum":"2321584010:01:001:0002"},"geometry":{"type":"Polygon","coordinates":[[[35.221857,47.982849],[35.222082,47.982843],[35.222082,47.982844],[35.222235,47.98284],[35.222243,47.982793],[35.221865,47.982802],[35.221857,47.982849]]]}}]}