{"type":"FeatureCollection","features":[{"type":"Feature","properties":{"cadnum":"2321584004:01:001:0003"},"geometry":{"type":"Polygon","coordinates":[[[35.147198,47.966957],[35.147796,47.966974],[35.14781,47.966723],[35.147214,47.966706],[35.147198,47.966957]]]}},{"type":"Feature","properties":{"cadnum":"2321584004:14:002:0001"},"geometry":{"type":"Polygon","coordinates":[[[35.147058,47.969111],[35.14766,47.969128],[35.147676,47.968878],[35.147074,47.96886],[35.147058,47.969111]]]}},{"type":"Feature","properties":{"cadnum":"2321584004:14:002:0002"},"geometry":{"type":"Polygon","coordinates":[[[35.147074,47.96886],[35.147676,47.968878],[35.147692,47.968628],[35.14709,47.96861],[35.147074,47.96886]]]}},{"type":"Feature","properties":{"cadnum":"2321584004:01:001:0002"},"geometry":{"type":"Polygon","coordinates":[[[35.14862,47.958848],[35.14884,47.958933],[35.149029,47.958741],[35.148815,47.958647],[35.14862,47.958848]]]}},{"type":"Feature","properties":{"cadnum":"2321584004:01:001:0005"},"geometry":{"type":"Polygon","coordinates":[[[35.143452,47.967264],[35.144232,47.967285],[35.144254,47.966923],[35.143475,47.966887],[35.143452,47.967264]]]}}]}