{"type":"FeatureCollection","features":[{"type":"Feature","properties":{"cadnum":"2321584001:01:001:0001"},"geometry":{"type":"Polygon","coordinates":[[[35.254666,47.953631],[35.254898,47.953701],[35.254919,47.953691],[35.25493,47.953637],[35.255041,47.953647],[35.255041,47.953648],[35.255116,47.953654],[35.255195,47.95334],[35.255213,47.953198],[35.255213,47.953197],[35.255214,47.953186],[35.255112,47.953177],[35.254761,47.953146],[35.254741,47.953247],[35.254666,47.953631]]]}},{"type":"Feature","properties":{"cadnum":"2321584001:02:002:0002"},"geometry":{"type":"Polygon","coordinates":[[[35.267829,47.952933],[35.268281,47.952957],[35.268287,47.952928],[35.267833,47.952903],[35.267829,47.952933]]]}},{"type":"Feature","properties":{"cadnum":"2321584001:01:002:0001"},"geometry":{"type":"Polygon","coordinates":[[[35.256697,47.957276],[35.25686,47.957294],[35.256988,47.95731],[35.257085,47.956995],[35.257123,47.956858],[35.257191,47.956617],[35.256885,47.956577],[35.256817,47.956802],[35.256813,47.956811],[35.25679,47.956863],[35.256788,47.956869],[35.256772,47.956919],[35.256763,47.956969],[35.256697,47.957276]]]}},{"type":"Feature","properties":{"cadnum":"2321584001:02:001:0002"},"geometry":{"type":"Polygon","coordinates":[[[35.262464,47.95799],[35.263745,47.957877],[35.263722,47.957708],[35.262498,47.957859],[35.262464,47.95799]]]}},{"type":"Feature","properties":{"cadnum":"2321584001:10:004:0126"},"geometry":{"type":"Polygon","coordinates":[[[35.261304,47.958999],[35.261615,47.959052],[35.261782,47.958616],[35.26147,47.958563],[35.261304,47.958999]]]}},{"type":"Feature","properties":{"cadnum":"2321584001:01:001:0003"},"geometry":{"type":"Polygon","coordinates":[[[35.241715,47.955517],[35.241847,47.955521],[35.242028,47.955526],[35.242093,47.955528],[35.242102,47.955529],[35.242113,47.95553],[35.242282,47.955542],[35.242346,47.955545],[35.242417,47.955548],[35.242718,47.955571],[35.242816,47.955578],[35.242822,47.955549],[35.242829,47.955519],[35.242855,47.95541],[35.242867,47.955355],[35.242753,47.955345],[35.242753,47.955344],[35.242758,47.955152],[35.242787,47.95498],[35.242313,47.954939],[35.242309,47.954956],[35.242283,47.955059],[35.242181,47.955053],[35.242152,47.955052],[35.242032,47.955102],[35.241901,47.955103],[35.241719,47.955103],[35.241717,47.95528],[35.241715,47.955517]]]}},{"type":"Feature","properties":{"cadnum":"2321584001:01:004:0006"},"geometry":{"type":"Polygon","coordinates":[[[35.243949,47.954046],[35.243974,47.954052],[35.243984,47.954035],[35.243958,47.954029],[35.243949,47.954046]]]}}]}