{"type":"FeatureCollection","features":[{"type":"Feature","properties":{"cadnum":"2321281202:04:001:0002"},"geometry":{"type":"Polygon","coordinates":[[[35.001375,46.987928],[35.002356,46.988022],[35.002375,46.988024],[35.002527,46.988038],[35.003622,46.988142],[35.00368,46.987851],[35.003681,46.987851],[35.00376,46.987462],[35.002467,46.987338],[35.001472,46.987242],[35.001402,46.987734],[35.001375,46.987928]]]}},{"type":"Feature","properties":{"cadnum":"2321281202:04:002:0002"},"geometry":{"type":"Polygon","coordinates":[[[35.006032,46.984534],[35.007849,46.98466],[35.007849,46.984661],[35.007995,46.984671],[35.00802,46.984502],[35.00802,46.984501],[35.008055,46.98427],[35.007849,46.984256],[35.0061,46.984135],[35.006032,46.984534]]]}},{"type":"Feature","properties":{"cadnum":"2321281202:04:002:0001"},"geometry":{"type":"Polygon","coordinates":[[[35.005979,46.984832],[35.007849,46.984961],[35.007849,46.984962],[35.007949,46.984968],[35.007995,46.984671],[35.006032,46.984534],[35.005979,46.984832]]]}},{"type":"Feature","properties":{"cadnum":"2321281202:04:002:0003"},"geometry":{"type":"Polygon","coordinates":[[[35.005396,46.984022],[35.0054,46.984023],[35.0059,46.984103],[35.005901,46.984103],[35.0061,46.984135],[35.00802,46.984268],[35.008021,46.984268],[35.008055,46.98427],[35.008098,46.983986],[35.008097,46.983986],[35.008191,46.983379],[35.007849,46.983356],[35.005612,46.983201],[35.005554,46.983221],[35.005403,46.983986],[35.005396,46.984022]]]}},{"type":"Feature","properties":{"cadnum":"2321281202:04:003:0001"},"geometry":{"type":"Polygon","coordinates":[[[35.003375,46.98008],[35.003918,46.980104],[35.005248,46.980221],[35.005309,46.979906],[35.003954,46.979706],[35.003461,46.979632],[35.003375,46.98008]]]}}]}