{"type":"FeatureCollection","features":[{"type":"Feature","properties":{"cadnum":"2321880501:01:002:0005"},"geometry":{"type":"Polygon","coordinates":[[[36.081925,47.696754],[36.082,47.696825],[36.082143,47.696948],[36.082351,47.696843],[36.082228,47.69673],[36.082151,47.69666],[36.081925,47.696754]]]}},{"type":"Feature","properties":{"cadnum":"2321880501:01:002:0003"},"geometry":{"type":"Polygon","coordinates":[[[36.073563,47.700115],[36.073694,47.700262],[36.073694,47.700261],[36.073779,47.700356],[36.074094,47.700647],[36.074522,47.700516],[36.07393,47.699967],[36.073563,47.700115]]]}},{"type":"Feature","properties":{"cadnum":"2321880501:01:002:0004"},"geometry":{"type":"Polygon","coordinates":[[[36.074094,47.700647],[36.074919,47.701413],[36.075349,47.701282],[36.074522,47.700516],[36.074094,47.700647]]]}},{"type":"Feature","properties":{"cadnum":"2321880501:02:005:0005"},"geometry":{"type":"Polygon","coordinates":[[[36.085365,47.693611],[36.08605,47.693669],[36.086181,47.693643],[36.086317,47.693433],[36.085531,47.693355],[36.085365,47.693611]]]}},{"type":"Feature","properties":{"cadnum":"2321880501:02:005:0001"},"geometry":{"type":"Polygon","coordinates":[[[36.084151,47.693733],[36.084509,47.693788],[36.084602,47.693802],[36.084681,47.693814],[36.085193,47.693892],[36.085472,47.69362],[36.084683,47.693552],[36.084611,47.693547],[36.084477,47.693537],[36.084419,47.693529],[36.084296,47.693499],[36.084151,47.693733]]]}},{"type":"Feature","properties":{"cadnum":"2321880501:02:005:0004"},"geometry":{"type":"Polygon","coordinates":[[[36.084296,47.693499],[36.084419,47.693529],[36.084477,47.693537],[36.084509,47.693539],[36.084509,47.69354],[36.084611,47.693547],[36.084681,47.693552],[36.084683,47.693552],[36.085365,47.693611],[36.085531,47.693355],[36.084782,47.69328],[36.084659,47.693269],[36.084454,47.69325],[36.084296,47.693499]]]}},{"type":"Feature","properties":{"cadnum":"2321880501:02:005:0002"},"geometry":{"type":"Polygon","coordinates":[[[36.085193,47.693892],[36.085736,47.693975],[36.08605,47.693669],[36.085472,47.69362],[36.085193,47.693892]]]}},{"type":"Feature","properties":{"cadnum":"2321880501:02:003:0002"},"geometry":{"type":"Polygon","coordinates":[[[36.094067,47.695077],[36.094068,47.695077],[36.094068,47.695155],[36.094353,47.695104],[36.094354,47.695005],[36.094355,47.694869],[36.094067,47.69492],[36.094067,47.695077]]]}},{"type":"Feature","properties":{"cadnum":"2321880501:01:003:0002"},"geometry":{"type":"Polygon","coordinates":[[[36.084506,47.689093],[36.084509,47.689093],[36.084509,47.689094],[36.084654,47.689124],[36.084681,47.68913],[36.084823,47.68916],[36.084921,47.689004],[36.084605,47.688935],[36.084506,47.689093]]]}},{"type":"Feature","properties":{"cadnum":"2321880501:02:007:0003"},"geometry":{"type":"Polygon","coordinates":[[[36.0926,47.691346],[36.092847,47.69138],[36.093028,47.691404],[36.093496,47.691467],[36.093513,47.69133],[36.093528,47.691215],[36.092632,47.691098],[36.09261,47.691264],[36.092609,47.691264],[36.0926,47.691346]]]}},{"type":"Feature","properties":{"cadnum":"2321880501:02:007:0002"},"geometry":{"type":"Polygon","coordinates":[[[36.09135,47.691185],[36.091501,47.691217],[36.091657,47.69122],[36.091987,47.691264],[36.092528,47.691337],[36.0926,47.691346],[36.092632,47.691098],[36.091744,47.690981],[36.091501,47.690959],[36.09135,47.691185]]]}},{"type":"Feature","properties":{"cadnum":"2321880501:01:003:0001"},"geometry":{"type":"Polygon","coordinates":[[[36.084823,47.68916],[36.085886,47.689388],[36.086479,47.689533],[36.086585,47.689363],[36.086081,47.689254],[36.084941,47.689007],[36.084921,47.689004],[36.084823,47.68916]]]}},{"type":"Feature","properties":{"cadnum":"2321880501:02:003:0001"},"geometry":{"type":"Polygon","coordinates":[[[36.094063,47.693932],[36.094067,47.69492],[36.094355,47.694869],[36.094357,47.694825],[36.094371,47.693845],[36.094063,47.693932]]]}},{"type":"Feature","properties":{"cadnum":"2321880501:01:003:0004"},"geometry":{"type":"Polygon","coordinates":[[[36.070004,47.700008],[36.070506,47.700498],[36.070985,47.700305],[36.070482,47.699816],[36.070004,47.700008]]]}},{"type":"Feature","properties":{"cadnum":"2321880501:01:003:0003"},"geometry":{"type":"Polygon","coordinates":[[[36.070506,47.700498],[36.070627,47.700616],[36.070964,47.700938],[36.071447,47.700744],[36.071141,47.700457],[36.070985,47.700305],[36.070506,47.700498]]]}}]}