{"type":"FeatureCollection","features":[{"type":"Feature","properties":{"cadnum":"2321881001:03:004:0001"},"geometry":{"type":"Polygon","coordinates":[[[36.090133,47.750809],[36.090178,47.75101],[36.091021,47.750887],[36.090898,47.750392],[36.090552,47.75045],[36.090477,47.750462],[36.090493,47.750507],[36.090494,47.750507],[36.090579,47.750728],[36.090336,47.750772],[36.090133,47.750809]]]}},{"type":"Feature","properties":{"cadnum":"2321881001:02:008:0002"},"geometry":{"type":"Polygon","coordinates":[[[36.087209,47.756961],[36.087285,47.757328],[36.087288,47.757341],[36.087737,47.757298],[36.087658,47.756921],[36.087209,47.756961]]]}},{"type":"Feature","properties":{"cadnum":"2321881001:02:008:0001"},"geometry":{"type":"Polygon","coordinates":[[[36.087072,47.756308],[36.087209,47.756961],[36.087658,47.756921],[36.087521,47.756264],[36.087072,47.756308]]]}},{"type":"Feature","properties":{"cadnum":"2321881001:03:004:0002"},"geometry":{"type":"Polygon","coordinates":[[[36.090178,47.75101],[36.090233,47.751251],[36.091082,47.751134],[36.091021,47.750887],[36.090178,47.75101]]]}},{"type":"Feature","properties":{"cadnum":"2321881001:03:004:0004"},"geometry":{"type":"Polygon","coordinates":[[[36.089584,47.751353],[36.089637,47.751563],[36.090174,47.751497],[36.090284,47.751483],[36.090234,47.75125],[36.090026,47.751283],[36.089966,47.751292],[36.089584,47.751353]]]}},{"type":"Feature","properties":{"cadnum":"2321881001:03:004:0003"},"geometry":{"type":"Polygon","coordinates":[[[36.089637,47.751563],[36.089754,47.752018],[36.090002,47.751988],[36.090034,47.751984],[36.090174,47.751967],[36.090383,47.751941],[36.090284,47.751483],[36.090002,47.751518],[36.089637,47.751563]]]}}]}