{"type":"FeatureCollection","features":[{"type":"Feature","properties":{"cadnum":"2321885501:01:006:0003"},"geometry":{"type":"Polygon","coordinates":[[[36.474572,47.718496],[36.474695,47.718601],[36.474695,47.718602],[36.475036,47.718893],[36.475217,47.718803],[36.475202,47.71879],[36.475205,47.718777],[36.47521,47.718774],[36.475173,47.71874],[36.475175,47.718728],[36.475228,47.718702],[36.475186,47.718666],[36.475186,47.718665],[36.47522,47.718648],[36.47522,47.718647],[36.474872,47.71834],[36.474572,47.718496]]]}},{"type":"Feature","properties":{"cadnum":"2321885501:02:002:0001"},"geometry":{"type":"Polygon","coordinates":[[[36.486921,47.714654],[36.486941,47.714884],[36.487776,47.714896],[36.488173,47.714901],[36.488156,47.714802],[36.488354,47.714803],[36.488507,47.714724],[36.488442,47.714469],[36.487222,47.714499],[36.487232,47.714648],[36.486921,47.714654]]]}},{"type":"Feature","properties":{"cadnum":"2321885501:01:006:0002"},"geometry":{"type":"Polygon","coordinates":[[[36.475173,47.71874],[36.47521,47.718774],[36.475205,47.718777],[36.475202,47.71879],[36.475217,47.718803],[36.475291,47.718869],[36.475435,47.718795],[36.475249,47.718633],[36.47522,47.718648],[36.475186,47.718666],[36.475228,47.718702],[36.475227,47.718702],[36.475175,47.718728],[36.475173,47.71874]]]}},{"type":"Feature","properties":{"cadnum":"2321885501:01:006:0001"},"geometry":{"type":"Polygon","coordinates":[[[36.475249,47.718633],[36.475435,47.718795],[36.475629,47.718697],[36.475438,47.718535],[36.475249,47.718633]]]}}]}