{"type":"FeatureCollection","features":[{"type":"Feature","properties":{"cadnum":"2321286302:06:005:0002"},"geometry":{"type":"Polygon","coordinates":[[[35.118562,46.977524],[35.11866,46.977649],[35.119171,46.977437],[35.119049,46.977309],[35.118562,46.977524]]]}},{"type":"Feature","properties":{"cadnum":"2321286302:06:010:0003"},"geometry":{"type":"Polygon","coordinates":[[[35.120544,46.980312],[35.120586,46.980356],[35.120841,46.980622],[35.121167,46.980468],[35.121053,46.980356],[35.120868,46.980173],[35.120715,46.980239],[35.120713,46.980239],[35.120544,46.980312]]]}},{"type":"Feature","properties":{"cadnum":"2321286302:06:011:0002"},"geometry":{"type":"Polygon","coordinates":[[[35.12053,46.980725],[35.121191,46.981349],[35.121475,46.981227],[35.120814,46.980594],[35.12053,46.980725]]]}},{"type":"Feature","properties":{"cadnum":"2321286302:06:012:0001"},"geometry":{"type":"Polygon","coordinates":[[[35.120354,46.981831],[35.120802,46.982508],[35.121176,46.982364],[35.120676,46.981707],[35.120354,46.981831]]]}},{"type":"Feature","properties":{"cadnum":"2321286302:06:011:0001"},"geometry":{"type":"Polygon","coordinates":[[[35.120257,46.980445],[35.12053,46.980725],[35.120814,46.980594],[35.120544,46.980312],[35.120257,46.980445]]]}}]}