{"type":"FeatureCollection","features":[{"type":"Feature","properties":{"cadnum":"2321886001:01:004:0002"},"geometry":{"type":"Polygon","coordinates":[[[36.678153,47.721753],[36.678817,47.722677],[36.679128,47.722581],[36.678472,47.721655],[36.678153,47.721753]]]}},{"type":"Feature","properties":{"cadnum":"2321886001:01:004:0001"},"geometry":{"type":"Polygon","coordinates":[[[36.678817,47.722677],[36.679381,47.723464],[36.679699,47.723387],[36.679128,47.722581],[36.678817,47.722677]]]}},{"type":"Feature","properties":{"cadnum":"2321886001:01:001:0004"},"geometry":{"type":"Polygon","coordinates":[[[36.677112,47.728768],[36.677677,47.729692],[36.677683,47.729703],[36.677942,47.729637],[36.678067,47.729604],[36.677895,47.72931],[36.677513,47.728658],[36.677112,47.728768]]]}},{"type":"Feature","properties":{"cadnum":"2321886001:01:002:0001"},"geometry":{"type":"Polygon","coordinates":[[[36.672754,47.728572],[36.672862,47.728753],[36.673205,47.728658],[36.673097,47.728478],[36.672754,47.728572]]]}},{"type":"Feature","properties":{"cadnum":"2321886001:01:001:0003"},"geometry":{"type":"Polygon","coordinates":[[[36.676729,47.728141],[36.676851,47.728342],[36.676852,47.728342],[36.677112,47.728768],[36.677513,47.728658],[36.677261,47.728227],[36.677144,47.728027],[36.676729,47.728141]]]}},{"type":"Feature","properties":{"cadnum":"2321886001:01:001:0002"},"geometry":{"type":"Polygon","coordinates":[[[36.676915,47.729041],[36.677362,47.729773],[36.677677,47.729692],[36.677231,47.728965],[36.676915,47.729041]]]}},{"type":"Feature","properties":{"cadnum":"2321886001:01:001:0001"},"geometry":{"type":"Polygon","coordinates":[[[36.676412,47.728218],[36.676417,47.728227],[36.676424,47.728237],[36.676487,47.728342],[36.676488,47.728342],[36.676915,47.729041],[36.677231,47.728965],[36.676781,47.728227],[36.676729,47.728141],[36.676412,47.728218]]]}}]}