{"type":"FeatureCollection","features":[{"type":"Feature","properties":{"cadnum":"2321286303:06:006:0001"},"geometry":{"type":"Polygon","coordinates":[[[35.118252,46.976147],[35.118479,46.976385],[35.119024,46.976167],[35.118767,46.975958],[35.118252,46.976147]]]}},{"type":"Feature","properties":{"cadnum":"2321286303:06:006:0002"},"geometry":{"type":"Polygon","coordinates":[[[35.119024,46.976167],[35.119265,46.976371],[35.120331,46.975971],[35.120118,46.975729],[35.119024,46.976167]]]}},{"type":"Feature","properties":{"cadnum":"2321286303:06:003:0002"},"geometry":{"type":"Polygon","coordinates":[[[35.115716,46.980083],[35.115867,46.980239],[35.11594,46.980315],[35.115944,46.980319],[35.116366,46.980116],[35.116144,46.979881],[35.115716,46.980083]]]}},{"type":"Feature","properties":{"cadnum":"2321286303:06:005:0003"},"geometry":{"type":"Polygon","coordinates":[[[35.119177,46.978314],[35.119301,46.978444],[35.11986,46.978206],[35.119734,46.978073],[35.119177,46.978314]]]}},{"type":"Feature","properties":{"cadnum":"2321286303:06:010:0004"},"geometry":{"type":"Polygon","coordinates":[[[35.119917,46.979219],[35.12004,46.979344],[35.12064,46.979083],[35.120516,46.978953],[35.119917,46.979219]]]}},{"type":"Feature","properties":{"cadnum":"2321286303:06:010:0005"},"geometry":{"type":"Polygon","coordinates":[[[35.12142,46.978857],[35.121572,46.979026],[35.122941,46.978392],[35.122953,46.978146],[35.12142,46.978857]]]}},{"type":"Feature","properties":{"cadnum":"2321286303:06:010:0006"},"geometry":{"type":"Polygon","coordinates":[[[35.121572,46.979026],[35.121722,46.979224],[35.122933,46.978669],[35.122941,46.978392],[35.121572,46.979026]]]}},{"type":"Feature","properties":{"cadnum":"2321286303:06:010:0003"},"geometry":{"type":"Polygon","coordinates":[[[35.120544,46.980312],[35.120586,46.980356],[35.120841,46.980622],[35.121167,46.980468],[35.121053,46.980356],[35.120868,46.980173],[35.120715,46.980239],[35.120713,46.980239],[35.120544,46.980312]]]}},{"type":"Feature","properties":{"cadnum":"2321286303:06:010:0001"},"geometry":{"type":"Polygon","coordinates":[[[35.122065,46.980286],[35.122124,46.980356],[35.122125,46.980356],[35.122126,46.980356],[35.122226,46.980472],[35.122724,46.980263],[35.122725,46.980263],[35.122991,46.980157],[35.12295,46.979926],[35.122551,46.980078],[35.122176,46.980239],[35.122175,46.980239],[35.122066,46.980286],[35.122065,46.980286]]]}},{"type":"Feature","properties":{"cadnum":"2321286303:06:004:0001"},"geometry":{"type":"Polygon","coordinates":[[[35.115692,46.97743],[35.11593,46.977671],[35.116281,46.977478],[35.116069,46.977261],[35.115692,46.97743]]]}},{"type":"Feature","properties":{"cadnum":"2321286303:06:003:0004"},"geometry":{"type":"Polygon","coordinates":[[[35.114311,46.978148],[35.114602,46.978426],[35.114454,46.978496],[35.114574,46.9786],[35.114658,46.978564],[35.114716,46.978539],[35.114949,46.978438],[35.115045,46.978397],[35.115189,46.978335],[35.115114,46.97826],[35.11507,46.978216],[35.11475,46.977928],[35.114311,46.978148]]]}},{"type":"Feature","properties":{"cadnum":"2321286303:06:011:0003"},"geometry":{"type":"Polygon","coordinates":[[[35.118821,46.981641],[35.118981,46.981771],[35.119117,46.981879],[35.119118,46.981879],[35.119317,46.981955],[35.119502,46.981969],[35.119732,46.98192],[35.119531,46.981567],[35.119379,46.981385],[35.118821,46.981641]]]}},{"type":"Feature","properties":{"cadnum":"2321286303:06:011:0001"},"geometry":{"type":"Polygon","coordinates":[[[35.120257,46.980445],[35.12053,46.980725],[35.120814,46.980594],[35.120544,46.980312],[35.120257,46.980445]]]}}]}