{"type":"FeatureCollection","features":[{"type":"Feature","properties":{"cadnum":"2321287901:02:002:0043"},"geometry":{"type":"Polygon","coordinates":[[[34.968192,46.952281],[34.968642,46.952325],[34.96906,46.950249],[34.96906,46.950248],[34.969396,46.948583],[34.969397,46.948583],[34.969397,46.948584],[34.969549,46.947828],[34.969568,46.947734],[34.969568,46.947733],[34.96967,46.947228],[34.969568,46.947186],[34.969248,46.947053],[34.968602,46.950248],[34.968602,46.950249],[34.968601,46.950249],[34.968192,46.952281]]]}},{"type":"Feature","properties":{"cadnum":"2321287901:02:002:0045"},"geometry":{"type":"Polygon","coordinates":[[[34.969094,46.952368],[34.969397,46.952397],[34.969397,46.952398],[34.969567,46.952414],[34.969568,46.952407],[34.969979,46.950366],[34.96998,46.950366],[34.970541,46.947588],[34.970095,46.947404],[34.969521,46.950248],[34.969521,46.950249],[34.96952,46.950249],[34.969094,46.952368]]]}},{"type":"Feature","properties":{"cadnum":"2321287901:02:002:0041"},"geometry":{"type":"Polygon","coordinates":[[[34.967422,46.952207],[34.967794,46.952242],[34.968171,46.950366],[34.968172,46.950366],[34.968872,46.946898],[34.968524,46.946753],[34.967818,46.950248],[34.967818,46.950249],[34.967817,46.950249],[34.967422,46.952207]]]}},{"type":"Feature","properties":{"cadnum":"2321287901:02:002:0038"},"geometry":{"type":"Polygon","coordinates":[[[34.966262,46.952094],[34.966666,46.952133],[34.967022,46.950366],[34.967023,46.950366],[34.967803,46.946499],[34.967811,46.946459],[34.967431,46.946302],[34.967366,46.946616],[34.967367,46.946616],[34.96661,46.950366],[34.966262,46.952094]]]}},{"type":"Feature","properties":{"cadnum":"2321287901:02:002:0040"},"geometry":{"type":"Polygon","coordinates":[[[34.967054,46.952171],[34.967422,46.952207],[34.967793,46.950366],[34.967794,46.950366],[34.968524,46.946753],[34.968176,46.94661],[34.967417,46.950366],[34.967418,46.950366],[34.967054,46.952171]]]}},{"type":"Feature","properties":{"cadnum":"2321287901:02:002:0037"},"geometry":{"type":"Polygon","coordinates":[[[34.965865,46.952056],[34.966262,46.952094],[34.966634,46.950249],[34.966633,46.950249],[34.966633,46.950248],[34.96739,46.946499],[34.96739,46.946498],[34.967431,46.946302],[34.967059,46.946147],[34.966964,46.946616],[34.966206,46.950366],[34.966207,46.950366],[34.965865,46.952056]]]}},{"type":"Feature","properties":{"cadnum":"2321287901:02:002:0039"},"geometry":{"type":"Polygon","coordinates":[[[34.966666,46.952133],[34.967054,46.952171],[34.967441,46.950249],[34.967441,46.950248],[34.968176,46.94661],[34.968174,46.946609],[34.967811,46.946459],[34.967779,46.946616],[34.96778,46.946616],[34.967047,46.950248],[34.967046,46.950249],[34.966666,46.952133]]]}},{"type":"Feature","properties":{"cadnum":"2321287901:02:002:0036"},"geometry":{"type":"Polygon","coordinates":[[[34.965493,46.952019],[34.965865,46.952056],[34.96623,46.950249],[34.96623,46.950248],[34.966988,46.946499],[34.966988,46.946498],[34.967059,46.946147],[34.966775,46.94603],[34.966702,46.946024],[34.966607,46.946499],[34.966606,46.946499],[34.965825,46.950366],[34.965826,46.950366],[34.965493,46.952019]]]}},{"type":"Feature","properties":{"cadnum":"2321287901:04:007:0009"},"geometry":{"type":"Polygon","coordinates":[[[34.930983,46.94391],[34.931116,46.94393],[34.931336,46.943962],[34.931352,46.943909],[34.931458,46.943568],[34.931207,46.943531],[34.931119,46.943518],[34.931064,46.94351],[34.931052,46.943572],[34.931014,46.943758],[34.930994,46.943857],[34.930983,46.94391]]]}},{"type":"Feature","properties":{"cadnum":"2321287901:04:018:0001"},"geometry":{"type":"Polygon","coordinates":[[[34.932817,46.944685],[34.932833,46.944902],[34.933328,46.944884],[34.933311,46.944667],[34.932817,46.944685]]]}},{"type":"Feature","properties":{"cadnum":"2321287901:04:018:0002"},"geometry":{"type":"Polygon","coordinates":[[[34.932739,46.944639],[34.932742,46.944678],[34.93289,46.944753],[34.93289,46.944754],[34.932894,46.944851],[34.93325,46.944839],[34.933238,46.944676],[34.933232,46.944622],[34.933141,46.944624],[34.932739,46.944639]]]}},{"type":"Feature","properties":{"cadnum":"2321287901:04:007:0006"},"geometry":{"type":"Polygon","coordinates":[[[34.931737,46.944252],[34.932343,46.944331],[34.932391,46.944127],[34.931875,46.944071],[34.931846,46.94415],[34.931776,46.94414],[34.931737,46.944252]]]}},{"type":"Feature","properties":{"cadnum":"2321287901:04:013:0002"},"geometry":{"type":"Polygon","coordinates":[[[34.935566,46.945804],[34.935738,46.945816],[34.935799,46.945824],[34.935858,46.945578],[34.935995,46.945177],[34.935695,46.945122],[34.935587,46.94554],[34.935566,46.945804]]]}},{"type":"Feature","properties":{"cadnum":"2321287901:04:013:0003"},"geometry":{"type":"Polygon","coordinates":[[[34.935799,46.945824],[34.935903,46.945844],[34.936271,46.945893],[34.936363,46.945643],[34.936068,46.945609],[34.936216,46.945211],[34.935995,46.945177],[34.935858,46.945578],[34.935799,46.945824]]]}},{"type":"Feature","properties":{"cadnum":"2321287901:04:013:0001"},"geometry":{"type":"Polygon","coordinates":[[[34.934608,46.945491],[34.935304,46.945557],[34.935322,46.94539],[34.93465,46.945315],[34.934608,46.945491]]]}},{"type":"Feature","properties":{"cadnum":"2321287901:02:002:0011"},"geometry":{"type":"Polygon","coordinates":[[[34.955865,46.951086],[34.956255,46.951125],[34.956432,46.950249],[34.956432,46.950248],[34.95719,46.946499],[34.95719,46.946498],[34.957336,46.945777],[34.957327,46.945778],[34.956944,46.945741],[34.956791,46.946499],[34.95679,46.946499],[34.95601,46.950366],[34.955865,46.951086]]]}},{"type":"Feature","properties":{"cadnum":"2321287901:02:002:0012"},"geometry":{"type":"Polygon","coordinates":[[[34.956255,46.951125],[34.956663,46.951164],[34.956823,46.950366],[34.956824,46.950366],[34.957604,46.946499],[34.957604,46.946498],[34.957768,46.945692],[34.957336,46.945777],[34.957166,46.946616],[34.956408,46.950366],[34.956255,46.951125]]]}},{"type":"Feature","properties":{"cadnum":"2321287901:02:002:0052"},"geometry":{"type":"Polygon","coordinates":[[[34.972686,46.952716],[34.973236,46.952769],[34.973744,46.950249],[34.973744,46.950248],[34.973994,46.949016],[34.973475,46.948802],[34.973183,46.950248],[34.973183,46.950249],[34.972686,46.952716]]]}},{"type":"Feature","properties":{"cadnum":"2321287901:02:002:0050"},"geometry":{"type":"Polygon","coordinates":[[[34.971549,46.952606],[34.972107,46.95266],[34.972592,46.950249],[34.972592,46.950248],[34.97293,46.948577],[34.972406,46.94836],[34.972025,46.950248],[34.972025,46.950249],[34.972024,46.950249],[34.971549,46.952606]]]}},{"type":"Feature","properties":{"cadnum":"2321287901:02:002:0051"},"geometry":{"type":"Polygon","coordinates":[[[34.972107,46.95266],[34.972686,46.952716],[34.973184,46.950249],[34.973183,46.950249],[34.973183,46.950248],[34.973476,46.948802],[34.97293,46.948577],[34.972568,46.950366],[34.972569,46.950366],[34.972107,46.95266]]]}},{"type":"Feature","properties":{"cadnum":"2321287901:04:019:0005"},"geometry":{"type":"Polygon","coordinates":[[[34.930234,46.941498],[34.930494,46.941502],[34.930518,46.940943],[34.930531,46.940655],[34.930535,46.940554],[34.930391,46.940551],[34.930338,46.94055],[34.930274,46.940548],[34.930262,46.940844],[34.930258,46.940938],[34.930234,46.941498]]]}},{"type":"Feature","properties":{"cadnum":"2321287901:04:019:0004"},"geometry":{"type":"Polygon","coordinates":[[[34.928419,46.940546],[34.928435,46.941383],[34.92874,46.941389],[34.928792,46.940597],[34.928726,46.940595],[34.928729,46.940549],[34.928419,46.940546]]]}},{"type":"Feature","properties":{"cadnum":"2321287901:04:019:0002"},"geometry":{"type":"Polygon","coordinates":[[[34.925125,46.939231],[34.925451,46.939292],[34.925541,46.939308],[34.925587,46.939125],[34.9252,46.939051],[34.925199,46.939051],[34.925172,46.939115],[34.925173,46.939115],[34.925125,46.939231]]]}},{"type":"Feature","properties":{"cadnum":"2321287901:04:019:0012"},"geometry":{"type":"Polygon","coordinates":[[[34.926843,46.940252],[34.92722,46.940254],[34.92722,46.939761],[34.926925,46.93976],[34.926843,46.940252]]]}},{"type":"Feature","properties":{"cadnum":"2321287901:04:019:0017"},"geometry":{"type":"Polygon","coordinates":[[[34.927314,46.941234],[34.927568,46.941263],[34.927601,46.940866],[34.927628,46.94052],[34.927356,46.940514],[34.92735,46.940853],[34.927314,46.941234]]]}},{"type":"Feature","properties":{"cadnum":"2321287901:04:019:0013"},"geometry":{"type":"Polygon","coordinates":[[[34.929141,46.941434],[34.929399,46.941462],[34.929446,46.940966],[34.929487,46.940535],[34.929212,46.94054],[34.929177,46.940971],[34.929141,46.941434]]]}},{"type":"Feature","properties":{"cadnum":"2321287901:04:019:0001"},"geometry":{"type":"Polygon","coordinates":[[[34.924881,46.939828],[34.925386,46.939921],[34.925451,46.939663],[34.925541,46.939308],[34.925125,46.939231],[34.924881,46.939828]]]}},{"type":"Feature","properties":{"cadnum":"2321287901:04:019:0003"},"geometry":{"type":"Polygon","coordinates":[[[34.928779,46.94139],[34.929135,46.941392],[34.929151,46.940554],[34.928834,46.940551],[34.928779,46.94139]]]}},{"type":"Feature","properties":{"cadnum":"2321287901:04:012:0003"},"geometry":{"type":"Polygon","coordinates":[[[34.942296,46.948189],[34.942576,46.948223],[34.942662,46.947813],[34.94267,46.947778],[34.942675,46.947751],[34.942719,46.94754],[34.942414,46.947504],[34.942388,46.947651],[34.942379,46.947704],[34.942296,46.948189]]]}},{"type":"Feature","properties":{"cadnum":"2321287901:04:014:0002"},"geometry":{"type":"Polygon","coordinates":[[[34.943347,46.94746],[34.943631,46.947492],[34.943741,46.947121],[34.943755,46.947053],[34.94345,46.947],[34.943427,46.947114],[34.943347,46.94746]]]}},{"type":"Feature","properties":{"cadnum":"2321287901:04:014:0001"},"geometry":{"type":"Polygon","coordinates":[[[34.943005,46.946901],[34.943422,46.946978],[34.943456,46.946895],[34.943607,46.946522],[34.943187,46.946444],[34.943165,46.946499],[34.943138,46.946566],[34.943118,46.946616],[34.943005,46.946901]]]}},{"type":"Feature","properties":{"cadnum":"2321287901:04:014:0006"},"geometry":{"type":"Polygon","coordinates":[[[34.942522,46.94687],[34.942925,46.946911],[34.942959,46.94682],[34.943078,46.946521],[34.943112,46.946435],[34.942715,46.946368],[34.94266,46.946499],[34.942659,46.946499],[34.942565,46.946725],[34.942522,46.94687]]]}},{"type":"Feature","properties":{"cadnum":"2321287901:04:014:0003"},"geometry":{"type":"Polygon","coordinates":[[[34.938359,46.94689],[34.938747,46.946941],[34.938836,46.94656],[34.938897,46.946325],[34.938547,46.946261],[34.938477,46.946499],[34.938476,46.946499],[34.938476,46.946501],[34.938441,46.946616],[34.938442,46.946616],[34.938359,46.94689]]]}},{"type":"Feature","properties":{"cadnum":"2321287901:04:015:0002"},"geometry":{"type":"Polygon","coordinates":[[[34.938755,46.944785],[34.939072,46.944834],[34.939089,46.944781],[34.939184,46.944473],[34.938874,46.944424],[34.938774,46.944731],[34.938755,46.944785]]]}},{"type":"Feature","properties":{"cadnum":"2321287901:04:015:0001"},"geometry":{"type":"Polygon","coordinates":[[[34.939344,46.944961],[34.93964,46.944999],[34.939773,46.944567],[34.93949,46.944524],[34.939388,46.94483],[34.939377,46.944862],[34.939344,46.944961]]]}},{"type":"Feature","properties":{"cadnum":"2321287901:04:016:0001"},"geometry":{"type":"Polygon","coordinates":[[[34.940826,46.945821],[34.941189,46.945888],[34.941469,46.94521],[34.94106,46.945131],[34.940826,46.945821]]]}},{"type":"Feature","properties":{"cadnum":"2321287901:04:016:0005"},"geometry":{"type":"Polygon","coordinates":[[[34.94162,46.945962],[34.941931,46.946013],[34.942017,46.946027],[34.942102,46.945796],[34.942242,46.94542],[34.941931,46.945375],[34.941868,46.945366],[34.94162,46.945962]]]}},{"type":"Feature","properties":{"cadnum":"2321287901:04:014:0005"},"geometry":{"type":"Polygon","coordinates":[[[34.938747,46.946941],[34.939124,46.94698],[34.939203,46.946617],[34.939211,46.946587],[34.939273,46.946378],[34.938897,46.946325],[34.938852,46.946499],[34.93885,46.946499],[34.938836,46.94656],[34.938822,46.946616],[34.938747,46.946941]]]}},{"type":"Feature","properties":{"cadnum":"2321287901:02:002:0057"},"geometry":{"type":"Polygon","coordinates":[[[34.975979,46.953034],[34.976797,46.953114],[34.977344,46.950402],[34.977183,46.950336],[34.976573,46.950083],[34.976515,46.950366],[34.976516,46.950366],[34.975979,46.953034]]]}},{"type":"Feature","properties":{"cadnum":"2321287901:04:005:0001"},"geometry":{"type":"Polygon","coordinates":[[[34.926732,46.946876],[34.926999,46.946907],[34.927089,46.946499],[34.927108,46.946415],[34.926825,46.946397],[34.926808,46.94648],[34.926805,46.946499],[34.926804,46.946499],[34.926792,46.946566],[34.926782,46.946616],[34.926732,46.946876]]]}},{"type":"Feature","properties":{"cadnum":"2321287901:04:005:0003"},"geometry":{"type":"Polygon","coordinates":[[[34.926999,46.946907],[34.927263,46.946934],[34.927332,46.946596],[34.927357,46.946436],[34.927264,46.946428],[34.927108,46.946415],[34.927089,46.946499],[34.927076,46.946557],[34.927074,46.946565],[34.927062,46.946616],[34.927063,46.946616],[34.926999,46.946907]]]}},{"type":"Feature","properties":{"cadnum":"2321287901:04:002:0001"},"geometry":{"type":"Polygon","coordinates":[[[34.924551,46.946492],[34.924802,46.946545],[34.924948,46.945968],[34.925036,46.945637],[34.92471,46.9456],[34.924681,46.945928],[34.924551,46.946492]]]}},{"type":"Feature","properties":{"cadnum":"2321287901:04:004:0001"},"geometry":{"type":"Polygon","coordinates":[[[34.924755,46.944041],[34.924959,46.944064],[34.925069,46.943572],[34.924887,46.943551],[34.924755,46.944041]]]}},{"type":"Feature","properties":{"cadnum":"2321287901:04:004:0002"},"geometry":{"type":"Polygon","coordinates":[[[34.923837,46.943934],[34.924035,46.943963],[34.924333,46.943358],[34.924107,46.943303],[34.923837,46.943934]]]}},{"type":"Feature","properties":{"cadnum":"2321287901:04:011:0001"},"geometry":{"type":"Polygon","coordinates":[[[34.92182,46.944357],[34.922069,46.944431],[34.922057,46.944479],[34.922431,46.944532],[34.922554,46.944027],[34.922108,46.943971],[34.92182,46.944357]]]}},{"type":"Feature","properties":{"cadnum":"2321287901:02:002:0059"},"geometry":{"type":"Polygon","coordinates":[[[34.977695,46.953201],[34.978703,46.953298],[34.979137,46.951143],[34.978189,46.950751],[34.977695,46.953201]]]}},{"type":"Feature","properties":{"cadnum":"2321287901:02:002:0060"},"geometry":{"type":"Polygon","coordinates":[[[34.978703,46.953298],[34.979782,46.953402],[34.980152,46.951563],[34.979137,46.951143],[34.978703,46.953298]]]}},{"type":"Feature","properties":{"cadnum":"2321287901:02:002:0016"},"geometry":{"type":"Polygon","coordinates":[[[34.957868,46.951281],[34.95826,46.951319],[34.958452,46.950366],[34.958453,46.950366],[34.959232,46.946499],[34.959232,46.946498],[34.959456,46.945393],[34.959065,46.945359],[34.95881,46.946616],[34.958551,46.9479],[34.958052,46.950366],[34.958053,46.950366],[34.957868,46.951281]]]}},{"type":"Feature","properties":{"cadnum":"2321287901:04:016:0003"},"geometry":{"type":"Polygon","coordinates":[[[34.942397,46.946102],[34.942804,46.946174],[34.94291,46.945822],[34.942986,46.94557],[34.942625,46.945502],[34.94253,46.945753],[34.942397,46.946102]]]}},{"type":"Feature","properties":{"cadnum":"2321287901:04:019:0016"},"geometry":{"type":"Polygon","coordinates":[[[34.921299,46.939165],[34.92135,46.939173],[34.921447,46.939187],[34.921597,46.939212],[34.92162,46.939121],[34.921623,46.939107],[34.921702,46.938801],[34.921814,46.938392],[34.921563,46.938351],[34.921447,46.938772],[34.921362,46.938998],[34.921361,46.938998],[34.921349,46.939033],[34.921317,46.939115],[34.921318,46.939115],[34.921299,46.939165]]]}},{"type":"Feature","properties":{"cadnum":"2321287901:04:019:0014"},"geometry":{"type":"Polygon","coordinates":[[[34.924189,46.939545],[34.924731,46.939613],[34.92485,46.939068],[34.924732,46.939057],[34.924319,46.939018],[34.924295,46.939115],[34.924189,46.939545]]]}},{"type":"Feature","properties":{"cadnum":"2321287901:04:012:0006"},"geometry":{"type":"Polygon","coordinates":[[[34.936045,46.947818],[34.936438,46.947851],[34.936438,46.947852],[34.936499,46.947856],[34.936609,46.947834],[34.936623,46.947832],[34.93667,46.947583],[34.936695,46.947451],[34.936548,46.947431],[34.936334,46.947402],[34.936152,46.947378],[34.93612,46.947508],[34.936045,46.947818]]]}},{"type":"Feature","properties":{"cadnum":"2321287901:04:008:0001"},"geometry":{"type":"Polygon","coordinates":[[[34.931391,46.947228],[34.931678,46.947266],[34.931745,46.946837],[34.931458,46.946803],[34.931391,46.947228]]]}},{"type":"Feature","properties":{"cadnum":"2321287901:04:008:0002"},"geometry":{"type":"Polygon","coordinates":[[[34.932624,46.94739],[34.932932,46.947432],[34.932999,46.947051],[34.932689,46.947014],[34.932624,46.94739]]]}},{"type":"Feature","properties":{"cadnum":"2321287901:04:005:0002"},"geometry":{"type":"Polygon","coordinates":[[[34.926618,46.946359],[34.926823,46.946379],[34.926968,46.946398],[34.92701,46.946188],[34.927062,46.945871],[34.926728,46.945838],[34.926662,46.94614],[34.926618,46.946359]]]}},{"type":"Feature","properties":{"cadnum":"2321287901:04:006:0003"},"geometry":{"type":"Polygon","coordinates":[[[34.929845,46.946053],[34.930156,46.946084],[34.930216,46.945683],[34.930266,46.945541],[34.929978,46.945499],[34.929933,46.945655],[34.929845,46.946053]]]}},{"type":"Feature","properties":{"cadnum":"2321287901:04:006:0005"},"geometry":{"type":"Polygon","coordinates":[[[34.930156,46.946084],[34.930474,46.94612],[34.930521,46.945819],[34.930547,46.945607],[34.930255,46.94557],[34.930216,46.945683],[34.9302,46.94579],[34.930156,46.946084]]]}},{"type":"Feature","properties":{"cadnum":"2321287901:04:005:0004"},"geometry":{"type":"Polygon","coordinates":[[[34.926326,46.946324],[34.92658,46.946355],[34.926618,46.946359],[34.926654,46.946183],[34.926662,46.94614],[34.926728,46.945838],[34.926428,46.945812],[34.926362,46.946146],[34.926326,46.946324]]]}},{"type":"Feature","properties":{"cadnum":"2321287901:04:007:0011"},"geometry":{"type":"Polygon","coordinates":[[[34.930425,46.944076],[34.930683,46.944111],[34.930723,46.943847],[34.930796,46.943481],[34.930533,46.943455],[34.930464,46.943825],[34.930425,46.944076]]]}},{"type":"Feature","properties":{"cadnum":"2321287901:04:006:0004"},"geometry":{"type":"Polygon","coordinates":[[[34.92967,46.945476],[34.929967,46.945518],[34.930014,46.945242],[34.930086,46.944892],[34.929795,46.944858],[34.929717,46.945205],[34.92967,46.945476]]]}},{"type":"Feature","properties":{"cadnum":"2321287901:04:007:0001"},"geometry":{"type":"Polygon","coordinates":[[[34.928721,46.944493],[34.92893,46.944517],[34.929059,46.943894],[34.928843,46.943869],[34.928835,46.943905],[34.928801,46.944041],[34.928816,46.944043],[34.928721,46.944493]]]}},{"type":"Feature","properties":{"cadnum":"2321287901:04:007:0005"},"geometry":{"type":"Polygon","coordinates":[[[34.92588,46.944178],[34.926185,46.944211],[34.926232,46.943965],[34.926276,46.943962],[34.926287,46.943873],[34.925886,46.943879],[34.92588,46.944178]]]}},{"type":"Feature","properties":{"cadnum":"2321287901:04:007:0002"},"geometry":{"type":"Polygon","coordinates":[[[34.928509,46.944469],[34.928721,46.944493],[34.928816,46.944043],[34.928801,46.944041],[34.928835,46.943905],[34.928651,46.943884],[34.928509,46.944469]]]}},{"type":"Feature","properties":{"cadnum":"2321287901:04:007:0004"},"geometry":{"type":"Polygon","coordinates":[[[34.927002,46.943622],[34.927523,46.943679],[34.927597,46.943405],[34.927669,46.943139],[34.927126,46.943081],[34.927065,46.943347],[34.927002,46.943622]]]}},{"type":"Feature","properties":{"cadnum":"2321287901:04:007:0007"},"geometry":{"type":"Polygon","coordinates":[[[34.92779,46.943782],[34.927907,46.943798],[34.928087,46.943819],[34.92814,46.943566],[34.928223,46.9432],[34.927934,46.943166],[34.927853,46.943526],[34.92779,46.943782]]]}},{"type":"Feature","properties":{"cadnum":"2321287901:04:007:0003"},"geometry":{"type":"Polygon","coordinates":[[[34.929243,46.944556],[34.929345,46.944566],[34.929412,46.944573],[34.929446,46.944577],[34.929499,46.94438],[34.929546,46.944202],[34.929552,46.944176],[34.929577,46.944086],[34.92961,46.943961],[34.92941,46.943929],[34.929377,46.944054],[34.92935,46.944151],[34.929343,46.944178],[34.92933,46.944228],[34.929323,46.944255],[34.92929,46.944377],[34.929271,46.944448],[34.929243,46.944556]]]}},{"type":"Feature","properties":{"cadnum":"2321287901:04:007:0008"},"geometry":{"type":"Polygon","coordinates":[[[34.929648,46.944601],[34.929865,46.944624],[34.929964,46.944221],[34.93002,46.944016],[34.9299,46.944002],[34.929892,46.944041],[34.929799,46.944031],[34.929764,46.944195],[34.929648,46.944601]]]}},{"type":"Feature","properties":{"cadnum":"2321287901:04:006:0007"},"geometry":{"type":"Polygon","coordinates":[[[34.926036,46.945627],[34.926194,46.945644],[34.926357,46.945662],[34.926496,46.945677],[34.926524,46.945538],[34.926578,46.945257],[34.926621,46.945077],[34.926182,46.945025],[34.926129,46.945198],[34.926063,46.945507],[34.926048,46.945569],[34.926036,46.945627]]]}},{"type":"Feature","properties":{"cadnum":"2321287901:04:006:0001"},"geometry":{"type":"Polygon","coordinates":[[[34.929013,46.945953],[34.929362,46.945991],[34.929458,46.945554],[34.929111,46.945515],[34.929013,46.945953]]]}},{"type":"Feature","properties":{"cadnum":"2321287901:04:019:0008"},"geometry":{"type":"Polygon","coordinates":[[[34.91782,46.938724],[34.91836,46.938792],[34.918495,46.938348],[34.918884,46.93839],[34.918905,46.938318],[34.918141,46.938221],[34.918102,46.938324],[34.917946,46.938379],[34.91782,46.938724]]]}},{"type":"Feature","properties":{"cadnum":"2321287901:04:019:0009"},"geometry":{"type":"Polygon","coordinates":[[[34.918141,46.938221],[34.918905,46.938318],[34.919041,46.937889],[34.918302,46.937794],[34.918141,46.938221]]]}},{"type":"Feature","properties":{"cadnum":"2321287901:04:012:0008"},"geometry":{"type":"Polygon","coordinates":[[[34.940106,46.947961],[34.940501,46.948003],[34.940582,46.947659],[34.940675,46.947304],[34.940264,46.947265],[34.940182,46.947629],[34.940106,46.947961]]]}},{"type":"Feature","properties":{"cadnum":"2321287901:04:012:0007"},"geometry":{"type":"Polygon","coordinates":[[[34.937426,46.947923],[34.937936,46.947983],[34.938176,46.947667],[34.938204,46.947631],[34.938212,46.947547],[34.937519,46.947478],[34.937493,46.947599],[34.937426,46.947923]]]}},{"type":"Feature","properties":{"cadnum":"2321287901:04:012:0001"},"geometry":{"type":"Polygon","coordinates":[[[34.94056,46.948024],[34.940995,46.948071],[34.941004,46.948026],[34.94057,46.947979],[34.94056,46.948024]]]}},{"type":"Feature","properties":{"cadnum":"2321287901:04:012:0009"},"geometry":{"type":"Polygon","coordinates":[[[34.938204,46.947631],[34.938597,46.947672],[34.938624,46.947428],[34.938693,46.947082],[34.938314,46.947035],[34.938229,46.947394],[34.938212,46.947547],[34.938204,46.947631]]]}},{"type":"Feature","properties":{"cadnum":"2321287901:04:014:0004"},"geometry":{"type":"Polygon","coordinates":[[[34.941223,46.947226],[34.941511,46.947263],[34.941617,46.946894],[34.941656,46.94673],[34.941347,46.946693],[34.94131,46.946849],[34.941223,46.947226]]]}},{"type":"Feature","properties":{"cadnum":"2321287901:04:012:0002"},"geometry":{"type":"Polygon","coordinates":[[[34.94057,46.947979],[34.941004,46.948026],[34.941067,46.947713],[34.941137,46.947363],[34.940704,46.947311],[34.940631,46.947671],[34.94057,46.947979]]]}}]}