{"type":"FeatureCollection","features":[{"type":"Feature","properties":{"cadnum":"2321281203:05:006:0001"},"geometry":{"type":"Polygon","coordinates":[[[35.051626,46.972867],[35.051966,46.972894],[35.051966,46.972893],[35.053955,46.973044],[35.053996,46.972785],[35.05399,46.972784],[35.053441,46.972743],[35.05344,46.972743],[35.051966,46.972631],[35.051669,46.972608],[35.051626,46.97286],[35.051627,46.97286],[35.051628,46.97286],[35.051626,46.972867]]]}},{"type":"Feature","properties":{"cadnum":"2321281203:05:005:0001"},"geometry":{"type":"Polygon","coordinates":[[[35.047352,46.975144],[35.049595,46.975375],[35.049701,46.974844],[35.047453,46.974634],[35.047352,46.975144]]]}},{"type":"Feature","properties":{"cadnum":"2321281203:05:006:0002"},"geometry":{"type":"Polygon","coordinates":[[[35.050875,46.974363],[35.051109,46.974382],[35.051347,46.974401],[35.051794,46.974436],[35.051794,46.974437],[35.052084,46.974459],[35.052084,46.974458],[35.052133,46.974221],[35.051966,46.974207],[35.051397,46.974159],[35.051219,46.974145],[35.050925,46.97412],[35.050904,46.974226],[35.050891,46.974285],[35.050875,46.974363]]]}},{"type":"Feature","properties":{"cadnum":"2321281203:05:003:0002"},"geometry":{"type":"Polygon","coordinates":[[[35.047063,46.976643],[35.049149,46.976837],[35.049219,46.976491],[35.049235,46.976411],[35.047154,46.976195],[35.047069,46.976608],[35.04707,46.976608],[35.047063,46.976643]]]}},{"type":"Feature","properties":{"cadnum":"2321281203:05:003:0001"},"geometry":{"type":"Polygon","coordinates":[[[35.049149,46.976837],[35.049241,46.976845],[35.049797,46.976928],[35.049875,46.976546],[35.049892,46.976461],[35.049328,46.976421],[35.049235,46.976411],[35.049195,46.976608],[35.049149,46.976837]]]}},{"type":"Feature","properties":{"cadnum":"2321281203:05:001:0001"},"geometry":{"type":"Polygon","coordinates":[[[35.048043,46.984298],[35.048605,46.984337],[35.048648,46.984103],[35.0487,46.983821],[35.04814,46.983775],[35.0481,46.983986],[35.048099,46.983986],[35.048086,46.98406],[35.048078,46.984103],[35.048078,46.984104],[35.048043,46.984298]]]}},{"type":"Feature","properties":{"cadnum":"2321281203:05:001:0002"},"geometry":{"type":"Polygon","coordinates":[[[35.045644,46.984132],[35.046301,46.984177],[35.046301,46.984178],[35.048043,46.984298],[35.048086,46.98406],[35.04814,46.983775],[35.046473,46.983641],[35.045736,46.983582],[35.045648,46.984103],[35.045648,46.984104],[35.045644,46.984132]]]}},{"type":"Feature","properties":{"cadnum":"2321281203:05:003:0004"},"geometry":{"type":"Polygon","coordinates":[[[35.046469,46.979698],[35.048778,46.979864],[35.048912,46.979202],[35.046608,46.979012],[35.046469,46.979698]]]}},{"type":"Feature","properties":{"cadnum":"2321281203:05:003:0003"},"geometry":{"type":"Polygon","coordinates":[[[35.048778,46.979864],[35.049219,46.979897],[35.049219,46.979896],[35.049353,46.979239],[35.048912,46.979202],[35.048778,46.979864]]]}},{"type":"Feature","properties":{"cadnum":"2321281203:05:004:0003"},"geometry":{"type":"Polygon","coordinates":[[[35.050191,46.9779],[35.050423,46.977923],[35.05076,46.977956],[35.050794,46.97771],[35.050488,46.977679],[35.050225,46.977654],[35.05022,46.977696],[35.050208,46.977781],[35.050191,46.9779]]]}},{"type":"Feature","properties":{"cadnum":"2321281203:05:004:0004"},"geometry":{"type":"Polygon","coordinates":[[[35.050225,46.977654],[35.050793,46.97771],[35.050794,46.97771],[35.05076,46.977956],[35.051262,46.97799],[35.051506,46.97757],[35.050855,46.977494],[35.050257,46.977438],[35.050225,46.977654]]]}},{"type":"Feature","properties":{"cadnum":"2321281203:05:004:0002"},"geometry":{"type":"Polygon","coordinates":[[[35.049931,46.98216],[35.051794,46.982301],[35.051847,46.982305],[35.051966,46.982314],[35.051966,46.982313],[35.052135,46.982326],[35.052211,46.981852],[35.051956,46.981833],[35.050006,46.981686],[35.049931,46.98216]]]}},{"type":"Feature","properties":{"cadnum":"2321281203:05:006:0003"},"geometry":{"type":"Polygon","coordinates":[[[35.052084,46.974459],[35.053631,46.97458],[35.053673,46.97435],[35.052133,46.974221],[35.052084,46.974458],[35.052084,46.974459]]]}},{"type":"Feature","properties":{"cadnum":"2321281203:05:004:0001"},"geometry":{"type":"Polygon","coordinates":[[[35.049389,46.98212],[35.049931,46.98216],[35.050006,46.981686],[35.049465,46.981646],[35.049389,46.98212]]]}}]}