{"type":"FeatureCollection","features":[{"type":"Feature","properties":{"cadnum":"2321280502:06:002:0002"},"geometry":{"type":"Polygon","coordinates":[[[34.760674,46.910502],[34.760828,46.910521],[34.760828,46.91052],[34.761812,46.910639],[34.761878,46.910214],[34.760701,46.910123],[34.760674,46.910502]]]}},{"type":"Feature","properties":{"cadnum":"2321280502:06:002:0001"},"geometry":{"type":"Polygon","coordinates":[[[34.760199,46.910452],[34.760674,46.910502],[34.760701,46.910123],[34.760273,46.910089],[34.760199,46.910452]]]}}]}