{"type":"FeatureCollection","features":[{"type":"Feature","properties":{"cadnum":"2321581001:01:002:0003"},"geometry":{"type":"Polygon","coordinates":[[[35.291238,48.018692],[35.291719,48.018671],[35.291817,48.018466],[35.291386,48.018384],[35.291238,48.018692]]]}},{"type":"Feature","properties":{"cadnum":"2321581001:01:002:0002"},"geometry":{"type":"Polygon","coordinates":[[[35.291386,48.018384],[35.291817,48.018466],[35.292124,48.01782],[35.291699,48.017738],[35.291386,48.018384]]]}},{"type":"Feature","properties":{"cadnum":"2321581001:01:001:0001"},"geometry":{"type":"Polygon","coordinates":[[[35.263733,48.01808],[35.263938,48.018667],[35.264151,48.018634],[35.264045,48.018392],[35.264065,48.01835],[35.264103,48.01834],[35.263993,48.018039],[35.263733,48.01808]]]}},{"type":"Feature","properties":{"cadnum":"2321581001:01:001:0002"},"geometry":{"type":"Polygon","coordinates":[[[35.2642,48.018676],[35.26423,48.018765],[35.264258,48.018761],[35.264259,48.018761],[35.264299,48.018814],[35.264309,48.018843],[35.264304,48.018844],[35.264314,48.018869],[35.264433,48.018849],[35.264425,48.018825],[35.264461,48.018818],[35.264432,48.018739],[35.264432,48.018738],[35.264458,48.018735],[35.264508,48.018726],[35.264501,48.018711],[35.264442,48.01858],[35.264419,48.018529],[35.264389,48.018545],[35.26434,48.018568],[35.264257,48.018626],[35.2642,48.018676]]]}}]}