{"type":"FeatureCollection","features":[{"type":"Feature","properties":{"cadnum":"2321581401:01:003:0001"},"geometry":{"type":"Polygon","coordinates":[[[35.38122,47.894311],[35.381384,47.894334],[35.381495,47.894349],[35.381502,47.89435],[35.381509,47.894351],[35.381509,47.894347],[35.381514,47.894227],[35.381227,47.894187],[35.381224,47.894235],[35.38122,47.894311]]]}},{"type":"Feature","properties":{"cadnum":"2321581401:01:001:0001"},"geometry":{"type":"Polygon","coordinates":[[[35.366782,47.894114],[35.367108,47.894118],[35.367124,47.893276],[35.367125,47.893179],[35.36681,47.893179],[35.366782,47.894114]]]}},{"type":"Feature","properties":{"cadnum":"2321581401:01:003:0003"},"geometry":{"type":"Polygon","coordinates":[[[35.376733,47.891632],[35.37722,47.891688],[35.377239,47.891616],[35.376752,47.89156],[35.376733,47.891632]]]}},{"type":"Feature","properties":{"cadnum":"2321581401:01:003:0002"},"geometry":{"type":"Polygon","coordinates":[[[35.376577,47.892234],[35.37706,47.89229],[35.37722,47.891688],[35.376733,47.891632],[35.376577,47.892234]]]}}]}