{"type":"FeatureCollection","features":[{"type":"Feature","properties":{"cadnum":"2321284601:03:016:0003"},"geometry":{"type":"Polygon","coordinates":[[[34.649145,46.982166],[34.649638,46.9822],[34.650965,46.982298],[34.65108,46.982306],[34.651104,46.98195],[34.650891,46.981933],[34.649695,46.981836],[34.649172,46.981785],[34.649145,46.982166]]]}},{"type":"Feature","properties":{"cadnum":"2321284601:03:013:0010"},"geometry":{"type":"Polygon","coordinates":[[[34.646152,46.984038],[34.646283,46.984045],[34.646941,46.984077],[34.646982,46.983865],[34.646152,46.983801],[34.646152,46.984038]]]}},{"type":"Feature","properties":{"cadnum":"2321284601:03:010:0003"},"geometry":{"type":"Polygon","coordinates":[[[34.64815,46.981187],[34.648693,46.981231],[34.64872,46.98095],[34.648193,46.980918],[34.64815,46.981187]]]}},{"type":"Feature","properties":{"cadnum":"2321284601:03:013:0009"},"geometry":{"type":"Polygon","coordinates":[[[34.645461,46.98398],[34.646152,46.984038],[34.646152,46.983801],[34.645501,46.983764],[34.645461,46.98398]]]}},{"type":"Feature","properties":{"cadnum":"2321284601:03:010:0004"},"geometry":{"type":"Polygon","coordinates":[[[34.643507,46.980747],[34.6453,46.980905],[34.6453,46.980906],[34.645836,46.980952],[34.64815,46.981187],[34.648193,46.980918],[34.645883,46.980759],[34.6453,46.980711],[34.643508,46.980561],[34.643507,46.980747]]]}},{"type":"Feature","properties":{"cadnum":"2321284601:03:009:0001"},"geometry":{"type":"Polygon","coordinates":[[[34.642183,46.982232],[34.6453,46.982513],[34.645447,46.982526],[34.645472,46.982401],[34.645472,46.9824],[34.645584,46.981814],[34.645472,46.981804],[34.644181,46.981688],[34.64411,46.982063],[34.642248,46.981895],[34.642183,46.982232]]]}},{"type":"Feature","properties":{"cadnum":"2321284601:03:012:0005"},"geometry":{"type":"Polygon","coordinates":[[[34.644242,46.990592],[34.644766,46.990663],[34.644833,46.990454],[34.644277,46.990402],[34.644242,46.990592]]]}},{"type":"Feature","properties":{"cadnum":"2321284601:03:012:0008"},"geometry":{"type":"Polygon","coordinates":[[[34.64488,46.990268],[34.6453,46.99031],[34.6453,46.990311],[34.6467,46.990453],[34.646746,46.990065],[34.645472,46.989941],[34.645472,46.98994],[34.64499,46.989893],[34.64488,46.990268]]]}},{"type":"Feature","properties":{"cadnum":"2321284601:03:004:0001"},"geometry":{"type":"Polygon","coordinates":[[[34.63895,46.989919],[34.639198,46.989942],[34.639374,46.990076],[34.639807,46.990117],[34.639903,46.990126],[34.639978,46.989825],[34.639978,46.989824],[34.640328,46.988417],[34.639979,46.988392],[34.639978,46.988392],[34.639269,46.988342],[34.63895,46.989919]]]}},{"type":"Feature","properties":{"cadnum":"2321284601:03:012:0004"},"geometry":{"type":"Polygon","coordinates":[[[34.644979,46.989519],[34.6453,46.989547],[34.6453,46.989548],[34.646801,46.989676],[34.646886,46.989293],[34.645472,46.989178],[34.645472,46.989177],[34.645111,46.989147],[34.644979,46.989519]]]}},{"type":"Feature","properties":{"cadnum":"2321284601:03:012:0003"},"geometry":{"type":"Polygon","coordinates":[[[34.644467,46.989469],[34.644979,46.989519],[34.645111,46.989147],[34.644552,46.989097],[34.644467,46.989469]]]}},{"type":"Feature","properties":{"cadnum":"2321284601:03:005:0005"},"geometry":{"type":"Polygon","coordinates":[[[34.643445,46.989373],[34.643941,46.989429],[34.644008,46.989061],[34.643485,46.989011],[34.643445,46.989373]]]}},{"type":"Feature","properties":{"cadnum":"2321284601:03:012:0002"},"geometry":{"type":"Polygon","coordinates":[[[34.645111,46.989147],[34.6453,46.989163],[34.646886,46.989293],[34.646928,46.988883],[34.645472,46.988772],[34.645233,46.988754],[34.645111,46.989147]]]}},{"type":"Feature","properties":{"cadnum":"2321284601:03:012:0006"},"geometry":{"type":"Polygon","coordinates":[[[34.644766,46.990663],[34.6453,46.990713],[34.6453,46.990714],[34.646624,46.990838],[34.646662,46.990625],[34.6453,46.990498],[34.644833,46.990454],[34.644766,46.990663]]]}},{"type":"Feature","properties":{"cadnum":"2321284601:03:012:0001"},"geometry":{"type":"Polygon","coordinates":[[[34.644552,46.989097],[34.645111,46.989147],[34.645233,46.988754],[34.644629,46.988692],[34.644552,46.989097]]]}},{"type":"Feature","properties":{"cadnum":"2321284601:03:005:0002"},"geometry":{"type":"Polygon","coordinates":[[[34.641256,46.988178],[34.641286,46.98818],[34.641277,46.988228],[34.641364,46.988236],[34.641381,46.988142],[34.641266,46.988131],[34.641256,46.988178]]]}},{"type":"Feature","properties":{"cadnum":"2321284601:03:005:0001"},"geometry":{"type":"Polygon","coordinates":[[[34.64151,46.988196],[34.641719,46.988216],[34.641719,46.988211],[34.641832,46.988222],[34.641869,46.988014],[34.64186,46.988013],[34.641821,46.988009],[34.64181,46.988014],[34.641763,46.988009],[34.641758,46.988004],[34.641758,46.988003],[34.641758,46.988],[34.641715,46.987997],[34.641672,46.987993],[34.641541,46.987982],[34.641537,46.988002],[34.641533,46.988031],[34.64151,46.988196]]]}},{"type":"Feature","properties":{"cadnum":"2321284601:03:005:0004"},"geometry":{"type":"Polygon","coordinates":[[[34.641922,46.989983],[34.643767,46.99016],[34.643842,46.98978],[34.641995,46.989608],[34.641922,46.989983]]]}},{"type":"Feature","properties":{"cadnum":"2321284601:03:011:0010"},"geometry":{"type":"Polygon","coordinates":[[[34.644062,46.991644],[34.644493,46.991674],[34.644521,46.991507],[34.644098,46.991469],[34.644096,46.991481],[34.644082,46.991546],[34.644071,46.991598],[34.644072,46.991598],[34.644062,46.991644]]]}},{"type":"Feature","properties":{"cadnum":"2321284601:03:012:0007"},"geometry":{"type":"Polygon","coordinates":[[[34.644324,46.990218],[34.64488,46.990268],[34.64499,46.989893],[34.644383,46.989853],[34.644324,46.990218]]]}},{"type":"Feature","properties":{"cadnum":"2321284601:03:005:0006"},"geometry":{"type":"Polygon","coordinates":[[[34.64169,46.989209],[34.643445,46.989373],[34.643485,46.989011],[34.641754,46.988846],[34.64169,46.989209]]]}},{"type":"Feature","properties":{"cadnum":"2321284601:03:011:0011"},"geometry":{"type":"Polygon","coordinates":[[[34.644493,46.991674],[34.6453,46.991747],[34.645322,46.991749],[34.645472,46.991762],[34.646617,46.991866],[34.646642,46.991694],[34.645472,46.991591],[34.645472,46.99159],[34.644521,46.991507],[34.644505,46.991598],[34.644493,46.991674]]]}},{"type":"Feature","properties":{"cadnum":"2321284601:03:011:0005"},"geometry":{"type":"Polygon","coordinates":[[[34.644289,46.994458],[34.6453,46.994552],[34.6453,46.994553],[34.645358,46.994558],[34.645438,46.99417],[34.644365,46.994086],[34.644289,46.994458]]]}},{"type":"Feature","properties":{"cadnum":"2321284601:03:011:0003"},"geometry":{"type":"Polygon","coordinates":[[[34.646333,46.994899],[34.647578,46.994993],[34.647955,46.993238],[34.64655,46.993131],[34.646333,46.994899]]]}},{"type":"Feature","properties":{"cadnum":"2321284601:03:011:0009"},"geometry":{"type":"Polygon","coordinates":[[[34.64427,46.992544],[34.6453,46.992628],[34.6453,46.992629],[34.646548,46.99273],[34.646571,46.992493],[34.6453,46.992416],[34.644312,46.992354],[34.64427,46.992544]]]}},{"type":"Feature","properties":{"cadnum":"2321284601:03:011:0004"},"geometry":{"type":"Polygon","coordinates":[[[34.646573,46.99288],[34.648376,46.993047],[34.6486,46.992051],[34.648709,46.991567],[34.648785,46.991225],[34.647483,46.991107],[34.647495,46.991049],[34.647544,46.990998],[34.647364,46.990982],[34.647391,46.991041],[34.647379,46.991098],[34.647187,46.991081],[34.647116,46.991022],[34.646799,46.990994],[34.646726,46.991598],[34.646685,46.991939],[34.646573,46.99288]]]}},{"type":"Feature","properties":{"cadnum":"2321284601:03:011:0007"},"geometry":{"type":"Polygon","coordinates":[[[34.644442,46.991923],[34.645472,46.992003],[34.646591,46.992089],[34.646617,46.991866],[34.645322,46.991749],[34.644493,46.991674],[34.644442,46.991923]]]}},{"type":"Feature","properties":{"cadnum":"2321284601:03:004:0012"},"geometry":{"type":"Polygon","coordinates":[[[34.634201,46.984462],[34.634313,46.98447],[34.634314,46.98447],[34.634392,46.984476],[34.634485,46.984482],[34.634815,46.984504],[34.634919,46.983996],[34.635125,46.982998],[34.634495,46.982922],[34.634443,46.983192],[34.634292,46.983986],[34.634291,46.983986],[34.634201,46.984462]]]}},{"type":"Feature","properties":{"cadnum":"2321284601:03:004:0004"},"geometry":{"type":"Polygon","coordinates":[[[34.638687,46.984805],[34.639266,46.984855],[34.639404,46.984103],[34.639516,46.983503],[34.639807,46.983532],[34.639885,46.98354],[34.639927,46.983332],[34.638958,46.983244],[34.638828,46.983986],[34.638687,46.984805]],[[34.639211,46.984801],[34.639233,46.984803],[34.63923,46.984819],[34.639207,46.984816],[34.639211,46.984801]],[[34.639142,46.983275],[34.639164,46.983277],[34.63916,46.983293],[34.639138,46.983291],[34.639142,46.983275]],[[34.63916,46.984436],[34.639163,46.984451],[34.63914,46.984453],[34.639138,46.984437],[34.63916,46.984436]],[[34.639091,46.983587],[34.639091,46.983586],[34.639113,46.983588],[34.639111,46.983604],[34.639088,46.983602],[34.639091,46.983587]],[[34.639111,46.984174],[34.639113,46.984189],[34.639091,46.984191],[34.639088,46.984176],[34.639111,46.984174]],[[34.639045,46.983894],[34.639066,46.983896],[34.639065,46.983911],[34.639042,46.983909],[34.639045,46.983894]]]}},{"type":"Feature","properties":{"cadnum":"2321284601:03:004:0006"},"geometry":{"type":"Polygon","coordinates":[[[34.637947,46.984749],[34.638687,46.984805],[34.638808,46.984103],[34.638935,46.983371],[34.638222,46.983295],[34.638091,46.983986],[34.63809,46.983986],[34.637947,46.984749]]]}},{"type":"Feature","properties":{"cadnum":"2321284601:03:004:0003"},"geometry":{"type":"Polygon","coordinates":[[[34.638958,46.983244],[34.639807,46.983321],[34.639807,46.983322],[34.639927,46.983332],[34.639978,46.983089],[34.639978,46.983088],[34.639988,46.983043],[34.639837,46.983031],[34.639013,46.98296],[34.638958,46.983244]]]}},{"type":"Feature","properties":{"cadnum":"2321284601:03:013:0006"},"geometry":{"type":"Polygon","coordinates":[[[34.646605,46.987003],[34.647825,46.987125],[34.647904,46.986788],[34.646642,46.986682],[34.646605,46.987003]]]}},{"type":"Feature","properties":{"cadnum":"2321284601:03:013:0008"},"geometry":{"type":"Polygon","coordinates":[[[34.646048,46.985021],[34.646825,46.98508],[34.646861,46.984836],[34.646091,46.984766],[34.646048,46.985021]]]}},{"type":"Feature","properties":{"cadnum":"2321284601:03:016:0002"},"geometry":{"type":"Polygon","coordinates":[[[34.649406,46.986575],[34.650965,46.986699],[34.652373,46.98681],[34.652381,46.986541],[34.650845,46.986403],[34.649425,46.986273],[34.649406,46.986575]]]}},{"type":"Feature","properties":{"cadnum":"2321284601:03:016:0001"},"geometry":{"type":"Polygon","coordinates":[[[34.648851,46.986552],[34.649406,46.986575],[34.649425,46.986273],[34.648879,46.986221],[34.648851,46.986552]]]}},{"type":"Feature","properties":{"cadnum":"2321284601:03:013:0005"},"geometry":{"type":"Polygon","coordinates":[[[34.647825,46.987125],[34.648261,46.987162],[34.648291,46.986817],[34.647904,46.986788],[34.647825,46.987125]]]}},{"type":"Feature","properties":{"cadnum":"2321284601:03:013:0004"},"geometry":{"type":"Polygon","coordinates":[[[34.646472,46.988033],[34.647922,46.988178],[34.647941,46.987844],[34.647846,46.987835],[34.646536,46.987712],[34.646532,46.987734],[34.646531,46.987734],[34.646472,46.988033]]]}},{"type":"Feature","properties":{"cadnum":"2321284601:03:013:0007"},"geometry":{"type":"Polygon","coordinates":[[[34.645288,46.984948],[34.6453,46.984949],[34.6453,46.98495],[34.645448,46.984964],[34.645472,46.984966],[34.646048,46.985021],[34.646091,46.984766],[34.64532,46.984704],[34.645288,46.984948]]]}},{"type":"Feature","properties":{"cadnum":"2321284601:03:003:0002"},"geometry":{"type":"Polygon","coordinates":[[[34.625108,46.988573],[34.625111,46.988888],[34.625975,46.988932],[34.626032,46.98861],[34.625108,46.988573]]]}},{"type":"Feature","properties":{"cadnum":"2321284601:03:003:0003"},"geometry":{"type":"Polygon","coordinates":[[[34.625108,46.988573],[34.626032,46.98861],[34.626156,46.987833],[34.626184,46.987666],[34.62525,46.987609],[34.625232,46.987734],[34.625225,46.987776],[34.625214,46.987851],[34.625108,46.988573]]]}},{"type":"Feature","properties":{"cadnum":"2321284601:03:007:0002"},"geometry":{"type":"Polygon","coordinates":[[[34.642126,46.985174],[34.643628,46.985314],[34.643701,46.985011],[34.642164,46.984885],[34.642126,46.985174]]]}},{"type":"Feature","properties":{"cadnum":"2321284601:03:006:0002"},"geometry":{"type":"Polygon","coordinates":[[[34.642002,46.985658],[34.643023,46.985736],[34.643131,46.98535],[34.642071,46.985252],[34.642002,46.985658]]]}},{"type":"Feature","properties":{"cadnum":"2321284601:03:007:0001"},"geometry":{"type":"Polygon","coordinates":[[[34.641636,46.98512],[34.642126,46.985174],[34.642164,46.984885],[34.64168,46.984834],[34.641636,46.98512]]]}},{"type":"Feature","properties":{"cadnum":"2321284601:03:006:0001"},"geometry":{"type":"Polygon","coordinates":[[[34.641535,46.985626],[34.642002,46.985658],[34.642071,46.985252],[34.641613,46.985201],[34.641535,46.985626]]]}},{"type":"Feature","properties":{"cadnum":"2321284601:03:010:0002"},"geometry":{"type":"Polygon","coordinates":[[[34.643072,46.97995],[34.644672,46.980072],[34.644715,46.97969],[34.643133,46.979567],[34.643072,46.97995]]]}},{"type":"Feature","properties":{"cadnum":"2321284601:03:010:0001"},"geometry":{"type":"Polygon","coordinates":[[[34.642683,46.979903],[34.643072,46.97995],[34.643133,46.979567],[34.642741,46.979538],[34.642683,46.979903]]]}},{"type":"Feature","properties":{"cadnum":"2321284601:03:002:0013"},"geometry":{"type":"Polygon","coordinates":[[[34.641336,46.991923],[34.642934,46.992104],[34.643005,46.991843],[34.641442,46.991657],[34.641336,46.991923]]]}},{"type":"Feature","properties":{"cadnum":"2321284601:03:011:0001"},"geometry":{"type":"Polygon","coordinates":[[[34.643496,46.994384],[34.644289,46.994458],[34.644365,46.994086],[34.643571,46.994024],[34.643496,46.994384]]]}},{"type":"Feature","properties":{"cadnum":"2321284601:03:002:0007"},"geometry":{"type":"Polygon","coordinates":[[[34.641243,46.992216],[34.642867,46.99242],[34.642934,46.992104],[34.641336,46.991923],[34.641243,46.992216]]]}},{"type":"Feature","properties":{"cadnum":"2321284601:03:002:0012"},"geometry":{"type":"Polygon","coordinates":[[[34.642934,46.992104],[34.643396,46.992142],[34.643424,46.991886],[34.643005,46.991843],[34.642934,46.992104]]]}},{"type":"Feature","properties":{"cadnum":"2321284601:03:002:0003"},"geometry":{"type":"Polygon","coordinates":[[[34.640625,46.994523],[34.642293,46.994654],[34.642341,46.994368],[34.64067,46.994252],[34.640625,46.994523]]]}},{"type":"Feature","properties":{"cadnum":"2321284601:03:002:0004"},"geometry":{"type":"Polygon","coordinates":[[[34.639284,46.994868],[34.639807,46.994905],[34.641137,46.994998],[34.64122,46.99457],[34.640625,46.994523],[34.639807,46.994459],[34.639353,46.994423],[34.639284,46.994868]]]}},{"type":"Feature","properties":{"cadnum":"2321284601:03:011:0006"},"geometry":{"type":"Polygon","coordinates":[[[34.644023,46.991883],[34.644442,46.991923],[34.644493,46.991674],[34.644062,46.991644],[34.644023,46.991883]]]}},{"type":"Feature","properties":{"cadnum":"2321284601:03:011:0008"},"geometry":{"type":"Polygon","coordinates":[[[34.643892,46.992509],[34.64427,46.992544],[34.644312,46.992354],[34.643924,46.99233],[34.643892,46.992509]]]}},{"type":"Feature","properties":{"cadnum":"2321284601:03:002:0006"},"geometry":{"type":"Polygon","coordinates":[[[34.642867,46.99242],[34.64333,46.992459],[34.643396,46.992142],[34.642934,46.992104],[34.642867,46.99242]]]}},{"type":"Feature","properties":{"cadnum":"2321284601:03:002:0009"},"geometry":{"type":"Polygon","coordinates":[[[34.63594,46.992352],[34.636302,46.992377],[34.636471,46.991481],[34.636602,46.990795],[34.636269,46.990777],[34.636122,46.991481],[34.636121,46.991481],[34.63594,46.992352]]]}},{"type":"Feature","properties":{"cadnum":"2321284601:03:004:0010"},"geometry":{"type":"Polygon","coordinates":[[[34.636536,46.989627],[34.637076,46.9897],[34.637257,46.988691],[34.636766,46.98861],[34.636536,46.989627]]]}},{"type":"Feature","properties":{"cadnum":"2321284601:03:004:0008"},"geometry":{"type":"Polygon","coordinates":[[[34.636007,46.989564],[34.636536,46.989627],[34.636766,46.98861],[34.636237,46.988562],[34.636007,46.989564]]]}},{"type":"Feature","properties":{"cadnum":"2321284601:03:002:0010"},"geometry":{"type":"Polygon","coordinates":[[[34.637732,46.990923],[34.638336,46.990974],[34.638393,46.990624],[34.637779,46.990579],[34.637732,46.990923]]]}},{"type":"Feature","properties":{"cadnum":"2321284601:03:002:0011"},"geometry":{"type":"Polygon","coordinates":[[[34.637402,46.992461],[34.638053,46.992516],[34.638226,46.991564],[34.638336,46.990974],[34.637732,46.990923],[34.637612,46.991481],[34.637611,46.991481],[34.637402,46.992461]]]}},{"type":"Feature","properties":{"cadnum":"2321284601:03:004:0007"},"geometry":{"type":"Polygon","coordinates":[[[34.635934,46.989844],[34.636474,46.989893],[34.636536,46.989627],[34.636007,46.989564],[34.635934,46.989844]]]}},{"type":"Feature","properties":{"cadnum":"2321284601:03:004:0009"},"geometry":{"type":"Polygon","coordinates":[[[34.636474,46.989893],[34.637021,46.989944],[34.637076,46.9897],[34.636536,46.989627],[34.636474,46.989893]]]}},{"type":"Feature","properties":{"cadnum":"2321284601:03:004:0013"},"geometry":{"type":"Polygon","coordinates":[[[34.638719,46.990071],[34.63943,46.990119],[34.639374,46.990076],[34.639198,46.989942],[34.63895,46.989919],[34.638751,46.98992],[34.63872,46.990011],[34.638719,46.990071]]]}},{"type":"Feature","properties":{"cadnum":"2321284601:03:002:0008"},"geometry":{"type":"Polygon","coordinates":[[[34.636269,46.990777],[34.636602,46.990795],[34.63667,46.990471],[34.636335,46.990451],[34.636269,46.990777]]]}},{"type":"Feature","properties":{"cadnum":"2321284601:03:013:0001"},"geometry":{"type":"Polygon","coordinates":[[[34.646437,46.988375],[34.648165,46.988503],[34.648183,46.988133],[34.646455,46.988011],[34.646437,46.988375]]]}},{"type":"Feature","properties":{"cadnum":"2321284601:03:013:0003"},"geometry":{"type":"Polygon","coordinates":[[[34.647922,46.988178],[34.648191,46.988205],[34.64821,46.98787],[34.647941,46.987844],[34.647922,46.988178]]]}},{"type":"Feature","properties":{"cadnum":"2321284601:03:008:0006"},"geometry":{"type":"Polygon","coordinates":[[[34.639162,46.982033],[34.639465,46.982053],[34.639811,46.980453],[34.639506,46.980429],[34.639162,46.982033]]]}},{"type":"Feature","properties":{"cadnum":"2321284601:03:008:0005"},"geometry":{"type":"Polygon","coordinates":[[[34.639069,46.982397],[34.6394,46.982417],[34.639465,46.982053],[34.639162,46.982033],[34.639069,46.982397]]]}},{"type":"Feature","properties":{"cadnum":"2321284601:03:004:0005"},"geometry":{"type":"Polygon","coordinates":[[[34.638222,46.983295],[34.638935,46.983371],[34.638958,46.983244],[34.639013,46.98296],[34.638326,46.982887],[34.638246,46.983164],[34.638222,46.983295]]]}},{"type":"Feature","properties":{"cadnum":"2321284601:03:008:0003"},"geometry":{"type":"Polygon","coordinates":[[[34.637771,46.981893],[34.638636,46.981976],[34.638931,46.980485],[34.638077,46.980402],[34.637771,46.981893]]]}},{"type":"Feature","properties":{"cadnum":"2321284601:03:008:0002"},"geometry":{"type":"Polygon","coordinates":[[[34.637701,46.982227],[34.63857,46.982311],[34.638636,46.981976],[34.637771,46.981893],[34.637701,46.982227]]]}},{"type":"Feature","properties":{"cadnum":"2321284601:03:004:0011"},"geometry":{"type":"Polygon","coordinates":[[[34.634495,46.982922],[34.635125,46.982998],[34.635208,46.982609],[34.634564,46.982538],[34.634495,46.982922]]]}}]}