{"type":"FeatureCollection","features":[{"type":"Feature","properties":{"cadnum":"2321810111:01:001:0002"},"geometry":{"type":"Polygon","coordinates":[[[36.35605,47.617202],[36.356059,47.61726],[36.356058,47.61726],[36.356068,47.617319],[36.356076,47.617375],[36.356076,47.617376],[36.356199,47.618172],[36.357389,47.618119],[36.357047,47.617376],[36.357047,47.617375],[36.356851,47.616949],[36.356803,47.616911],[36.356473,47.616885],[36.356473,47.616886],[36.356395,47.617177],[36.356395,47.617178],[36.35605,47.617202]]]}},{"type":"Feature","properties":{"cadnum":"2321810111:01:004:0001"},"geometry":{"type":"Polygon","coordinates":[[[36.377631,47.61767],[36.377794,47.61772],[36.377908,47.617559],[36.377877,47.617548],[36.378102,47.61726],[36.378323,47.616979],[36.378203,47.616935],[36.377857,47.617375],[36.377857,47.617376],[36.377812,47.617433],[36.377631,47.61767]]]}}]}