{"type":"FeatureCollection","features":[{"type":"Feature","properties":{"cadnum":"2321283401:04:022:0001"},"geometry":{"type":"Polygon","coordinates":[[[35.150287,47.072163],[35.150464,47.073766],[35.150671,47.07376],[35.150683,47.07376],[35.150843,47.073755],[35.150907,47.073754],[35.150729,47.072151],[35.150287,47.072163]]]}},{"type":"Feature","properties":{"cadnum":"2321283401:04:022:0005"},"geometry":{"type":"Polygon","coordinates":[[[35.152786,47.072017],[35.152803,47.072287],[35.15333,47.072263],[35.153322,47.071994],[35.152786,47.072017]]]}},{"type":"Feature","properties":{"cadnum":"2321283401:04:022:0012"},"geometry":{"type":"Polygon","coordinates":[[[35.152276,47.072405],[35.152427,47.073966],[35.152427,47.073967],[35.152432,47.074012],[35.152915,47.073994],[35.152908,47.073898],[35.15281,47.072396],[35.152276,47.072405]]]}},{"type":"Feature","properties":{"cadnum":"2321283401:04:022:0004"},"geometry":{"type":"Polygon","coordinates":[[[35.152803,47.072287],[35.152874,47.073378],[35.153418,47.073354],[35.15341,47.073207],[35.153355,47.073086],[35.15333,47.072263],[35.152803,47.072287]]]}},{"type":"Feature","properties":{"cadnum":"2321283401:04:023:0001"},"geometry":{"type":"Polygon","coordinates":[[[35.156107,47.073894],[35.156112,47.073966],[35.156112,47.073967],[35.156164,47.074654],[35.156253,47.07582],[35.156336,47.075817],[35.15662,47.075807],[35.156475,47.073882],[35.156167,47.073892],[35.156107,47.073894]]]}},{"type":"Feature","properties":{"cadnum":"2321283401:04:022:0011"},"geometry":{"type":"Polygon","coordinates":[[[35.152247,47.07204],[35.152276,47.072405],[35.15281,47.072396],[35.152786,47.072017],[35.152247,47.07204]]]}},{"type":"Feature","properties":{"cadnum":"2321283401:04:022:0010"},"geometry":{"type":"Polygon","coordinates":[[[35.150833,47.072482],[35.150988,47.073966],[35.150988,47.073967],[35.151001,47.074093],[35.151722,47.074063],[35.151705,47.07388],[35.151576,47.072462],[35.150833,47.072482]]]}},{"type":"Feature","properties":{"cadnum":"2321283401:04:022:0009"},"geometry":{"type":"Polygon","coordinates":[[[35.150797,47.072086],[35.150833,47.072482],[35.151576,47.072462],[35.151547,47.072066],[35.150797,47.072086]]]}},{"type":"Feature","properties":{"cadnum":"2321283401:04:029:0006"},"geometry":{"type":"Polygon","coordinates":[[[35.145159,47.066632],[35.145178,47.067025],[35.145189,47.06725],[35.14535,47.067242],[35.145877,47.067214],[35.145805,47.066596],[35.145208,47.066629],[35.145159,47.066632]]]}},{"type":"Feature","properties":{"cadnum":"2321283401:04:025:0006"},"geometry":{"type":"Polygon","coordinates":[[[35.147656,47.06791],[35.147679,47.06823],[35.14828,47.068232],[35.148236,47.06789],[35.147656,47.06791]]]}},{"type":"Feature","properties":{"cadnum":"2321283401:04:025:0005"},"geometry":{"type":"Polygon","coordinates":[[[35.145067,47.067995],[35.145093,47.068528],[35.145178,47.068524],[35.145304,47.068518],[35.14535,47.068516],[35.147063,47.068433],[35.146907,47.067921],[35.14535,47.067985],[35.14535,47.067984],[35.145067,47.067995]]]}},{"type":"Feature","properties":{"cadnum":"2321283401:04:025:0007"},"geometry":{"type":"Polygon","coordinates":[[[35.147679,47.06823],[35.147833,47.069898],[35.148419,47.069889],[35.14828,47.068232],[35.147679,47.06823]]]}},{"type":"Feature","properties":{"cadnum":"2321283401:04:029:0005"},"geometry":{"type":"Polygon","coordinates":[[[35.145189,47.06725],[35.145194,47.067381],[35.145198,47.067673],[35.14535,47.067666],[35.14535,47.067665],[35.145541,47.067655],[35.145696,47.067646],[35.145779,47.067643],[35.145907,47.067636],[35.145891,47.067335],[35.145877,47.067214],[35.145189,47.06725]]]}},{"type":"Feature","properties":{"cadnum":"2321283401:04:025:0002"},"geometry":{"type":"Polygon","coordinates":[[[35.144812,47.069669],[35.144844,47.069956],[35.145178,47.069951],[35.145281,47.069949],[35.14524,47.069656],[35.144812,47.069669]]]}},{"type":"Feature","properties":{"cadnum":"2321283401:04:025:0003"},"geometry":{"type":"Polygon","coordinates":[[[35.14524,47.069656],[35.145281,47.069949],[35.14535,47.069948],[35.14535,47.069947],[35.147172,47.069895],[35.147151,47.069589],[35.14524,47.069656]]]}},{"type":"Feature","properties":{"cadnum":"2321283401:04:029:0003"},"geometry":{"type":"Polygon","coordinates":[[[35.148265,47.067053],[35.148282,47.067277],[35.148288,47.067365],[35.148304,47.067561],[35.148521,47.067551],[35.148586,47.067549],[35.148882,47.067536],[35.148871,47.067388],[35.148862,47.067252],[35.148847,47.067027],[35.148265,47.067053]]]}},{"type":"Feature","properties":{"cadnum":"2321283401:04:029:0004"},"geometry":{"type":"Polygon","coordinates":[[[35.148219,47.066339],[35.148221,47.066367],[35.148222,47.066388],[35.148228,47.066484],[35.148265,47.067053],[35.148847,47.067027],[35.148807,47.066484],[35.148808,47.066484],[35.148796,47.066315],[35.148219,47.066339]]]}},{"type":"Feature","properties":{"cadnum":"2321283401:04:030:0002"},"geometry":{"type":"Polygon","coordinates":[[[35.150501,47.06717],[35.150532,47.067476],[35.150671,47.067475],[35.150671,47.067476],[35.1508,47.067475],[35.151084,47.067475],[35.151073,47.06716],[35.150761,47.067167],[35.150501,47.06717]]]}},{"type":"Feature","properties":{"cadnum":"2321283401:04:029:0007"},"geometry":{"type":"Polygon","coordinates":[[[35.145123,47.065877],[35.145151,47.066484],[35.145152,47.066484],[35.145159,47.066632],[35.145178,47.066631],[35.145208,47.066629],[35.14535,47.066622],[35.14535,47.066621],[35.145805,47.066596],[35.145779,47.066367],[35.145718,47.065845],[35.145261,47.06587],[35.145123,47.065877]]]}},{"type":"Feature","properties":{"cadnum":"2321283401:04:025:0009"},"geometry":{"type":"Polygon","coordinates":[[[35.14902,47.069934],[35.149027,47.070108],[35.149031,47.070204],[35.149032,47.070225],[35.14909,47.071453],[35.14948,47.071435],[35.14948,47.071436],[35.1495,47.071744],[35.149966,47.071727],[35.149882,47.070225],[35.149865,47.069909],[35.14902,47.069934]]]}},{"type":"Feature","properties":{"cadnum":"2321283401:04:026:0001"},"geometry":{"type":"Polygon","coordinates":[[[35.150517,47.067879],[35.150609,47.069648],[35.150671,47.069646],[35.150812,47.069641],[35.150843,47.06964],[35.15101,47.069633],[35.150918,47.067865],[35.150843,47.067868],[35.150517,47.067879]]]}},{"type":"Feature","properties":{"cadnum":"2321283401:04:019:0003"},"geometry":{"type":"Polygon","coordinates":[[[35.155219,47.078201],[35.155247,47.078709],[35.156336,47.078665],[35.156336,47.078664],[35.15769,47.078607],[35.157666,47.078166],[35.156336,47.078185],[35.155219,47.078201]]]}},{"type":"Feature","properties":{"cadnum":"2321283401:04:020:0003"},"geometry":{"type":"Polygon","coordinates":[[[35.160299,47.076506],[35.160425,47.077707],[35.160425,47.077708],[35.16046,47.078033],[35.160983,47.078013],[35.160945,47.077591],[35.160944,47.077591],[35.160944,47.07759],[35.160847,47.076485],[35.160299,47.076506]]]}},{"type":"Feature","properties":{"cadnum":"2321283401:04:002:0003"},"geometry":{"type":"Polygon","coordinates":[[[35.155478,47.080464],[35.15564,47.081448],[35.155641,47.081448],[35.155756,47.082144],[35.156164,47.0821],[35.156303,47.082085],[35.156336,47.082081],[35.156448,47.082068],[35.156345,47.081448],[35.156336,47.081391],[35.156336,47.081389],[35.156179,47.080441],[35.155478,47.080464]]]}},{"type":"Feature","properties":{"cadnum":"2321283401:04:002:0004"},"geometry":{"type":"Polygon","coordinates":[[[35.156179,47.080441],[35.156326,47.081331],[35.156325,47.081331],[35.156448,47.082068],[35.15717,47.081989],[35.157055,47.081331],[35.157054,47.081331],[35.156895,47.080417],[35.156179,47.080441]]]}},{"type":"Feature","properties":{"cadnum":"2321283401:04:007:0004"},"geometry":{"type":"Polygon","coordinates":[[[35.127347,47.072852],[35.127355,47.072979],[35.127364,47.073122],[35.127961,47.073106],[35.127958,47.073066],[35.127945,47.072837],[35.127761,47.072841],[35.127714,47.072842],[35.127347,47.072852]]]}},{"type":"Feature","properties":{"cadnum":"2321283401:04:011:0005"},"geometry":{"type":"Polygon","coordinates":[[[35.126738,47.07192],[35.126724,47.072207],[35.12675,47.072553],[35.127208,47.072546],[35.127196,47.072185],[35.127206,47.071913],[35.126738,47.07192]]]}},{"type":"Feature","properties":{"cadnum":"2321283401:04:007:0010"},"geometry":{"type":"Polygon","coordinates":[[[35.1285,47.072811],[35.128505,47.073101],[35.128698,47.073099],[35.129042,47.073095],[35.12902,47.072801],[35.128698,47.072807],[35.128698,47.072808],[35.1285,47.072811]]]}},{"type":"Feature","properties":{"cadnum":"2321283401:04:011:0006"},"geometry":{"type":"Polygon","coordinates":[[[35.126738,47.07192],[35.127206,47.071913],[35.127265,47.070338],[35.126807,47.070341],[35.126738,47.07192]]]}},{"type":"Feature","properties":{"cadnum":"2321283401:04:007:0005"},"geometry":{"type":"Polygon","coordinates":[[[35.127364,47.073122],[35.12742,47.073966],[35.127421,47.073966],[35.127422,47.073966],[35.127422,47.073967],[35.127427,47.074046],[35.128017,47.07403],[35.128013,47.073967],[35.128013,47.073966],[35.127961,47.073106],[35.127364,47.073122]]]}},{"type":"Feature","properties":{"cadnum":"2321283401:04:007:0011"},"geometry":{"type":"Polygon","coordinates":[[[35.127945,47.072837],[35.128006,47.073849],[35.128006,47.07385],[35.128005,47.07385],[35.128065,47.074828],[35.128698,47.074819],[35.128698,47.07482],[35.129172,47.074812],[35.129107,47.073967],[35.129107,47.073966],[35.129042,47.073095],[35.12887,47.073097],[35.128505,47.073101],[35.128505,47.0731],[35.1285,47.072811],[35.127945,47.072837]]]}},{"type":"Feature","properties":{"cadnum":"2321283401:04:011:0010"},"geometry":{"type":"Polygon","coordinates":[[[35.127196,47.072185],[35.127613,47.072183],[35.127667,47.070333],[35.127265,47.070338],[35.127206,47.071913],[35.127196,47.072185]]]}},{"type":"Feature","properties":{"cadnum":"2321283401:04:011:0009"},"geometry":{"type":"Polygon","coordinates":[[[35.127196,47.072185],[35.127208,47.072546],[35.127636,47.072536],[35.127613,47.072183],[35.127196,47.072185]]]}},{"type":"Feature","properties":{"cadnum":"2321283401:04:001:0008"},"geometry":{"type":"Polygon","coordinates":[[[35.135932,47.081355],[35.135946,47.081448],[35.13599,47.081746],[35.136512,47.081722],[35.136498,47.081362],[35.135932,47.081355]]]}},{"type":"Feature","properties":{"cadnum":"2321283401:04:001:0009"},"geometry":{"type":"Polygon","coordinates":[[[35.13599,47.081746],[35.136258,47.083734],[35.136836,47.083745],[35.136512,47.081722],[35.13599,47.081746]]]}},{"type":"Feature","properties":{"cadnum":"2321283401:04:002:0007"},"geometry":{"type":"Polygon","coordinates":[[[35.138053,47.081343],[35.138074,47.081448],[35.138122,47.081679],[35.138152,47.08182],[35.138755,47.081795],[35.138703,47.08154],[35.138673,47.0814],[35.138657,47.081319],[35.138451,47.081328],[35.138385,47.08133],[35.138361,47.081331],[35.138125,47.08134],[35.138053,47.081343]]]}},{"type":"Feature","properties":{"cadnum":"2321283401:04:001:0003"},"geometry":{"type":"Polygon","coordinates":[[[35.137257,47.081761],[35.137605,47.083761],[35.138028,47.08376],[35.137664,47.081745],[35.137257,47.081761]]]}},{"type":"Feature","properties":{"cadnum":"2321283401:04:002:0008"},"geometry":{"type":"Polygon","coordinates":[[[35.138152,47.08182],[35.138294,47.082508],[35.138899,47.082485],[35.138755,47.081795],[35.138152,47.08182]]]}},{"type":"Feature","properties":{"cadnum":"2321283401:04:001:0002"},"geometry":{"type":"Polygon","coordinates":[[[35.137229,47.081372],[35.137234,47.081448],[35.137235,47.081448],[35.137257,47.081761],[35.137664,47.081745],[35.137617,47.081361],[35.137229,47.081372]]]}},{"type":"Feature","properties":{"cadnum":"2321283401:04:001:0007"},"geometry":{"type":"Polygon","coordinates":[[[35.135471,47.081762],[35.135679,47.083691],[35.136258,47.083734],[35.13599,47.081746],[35.135471,47.081762]]]}},{"type":"Feature","properties":{"cadnum":"2321283401:04:001:0006"},"geometry":{"type":"Polygon","coordinates":[[[35.135429,47.081342],[35.135439,47.081448],[35.13544,47.081448],[35.135471,47.081762],[35.13599,47.081746],[35.135932,47.081355],[35.135429,47.081342]]]}},{"type":"Feature","properties":{"cadnum":"2321283401:04:008:0012"},"geometry":{"type":"Polygon","coordinates":[[[35.130195,47.07636],[35.130202,47.076722],[35.130597,47.076704],[35.130562,47.076354],[35.130195,47.07636]]]}},{"type":"Feature","properties":{"cadnum":"2321283401:04:008:0014"},"geometry":{"type":"Polygon","coordinates":[[[35.129435,47.076375],[35.129467,47.076748],[35.130202,47.076722],[35.130195,47.07636],[35.129435,47.076375]]]}},{"type":"Feature","properties":{"cadnum":"2321283401:04:008:0017"},"geometry":{"type":"Polygon","coordinates":[[[35.131351,47.073101],[35.131429,47.073849],[35.131429,47.07385],[35.131427,47.07385],[35.131515,47.074676],[35.13222,47.074638],[35.132147,47.073936],[35.132062,47.073096],[35.131351,47.073101]]]}},{"type":"Feature","properties":{"cadnum":"2321283401:04:008:0011"},"geometry":{"type":"Polygon","coordinates":[[[35.13298,47.074672],[35.133105,47.076207],[35.133406,47.076154],[35.133297,47.074669],[35.13298,47.074672]]]}},{"type":"Feature","properties":{"cadnum":"2321283401:04:008:0007"},"geometry":{"type":"Polygon","coordinates":[[[35.132693,47.074682],[35.132779,47.076227],[35.132809,47.076621],[35.133135,47.076611],[35.133105,47.076207],[35.13298,47.074672],[35.132694,47.074682],[35.132693,47.074682]]]}},{"type":"Feature","properties":{"cadnum":"2321283401:04:008:0015"},"geometry":{"type":"Polygon","coordinates":[[[35.129274,47.074847],[35.129435,47.076375],[35.130195,47.07636],[35.1301,47.074815],[35.129274,47.074847]]]}},{"type":"Feature","properties":{"cadnum":"2321283401:04:004:0010"},"geometry":{"type":"Polygon","coordinates":[[[35.131309,47.077037],[35.131336,47.077352],[35.131681,47.077308],[35.131665,47.077024],[35.131309,47.077037]]]}},{"type":"Feature","properties":{"cadnum":"2321283401:04:008:0008"},"geometry":{"type":"Polygon","coordinates":[[[35.130562,47.076354],[35.130597,47.076704],[35.131193,47.076682],[35.131151,47.076328],[35.130562,47.076354]]]}},{"type":"Feature","properties":{"cadnum":"2321283401:04:008:0005"},"geometry":{"type":"Polygon","coordinates":[[[35.133406,47.076154],[35.133439,47.076596],[35.134076,47.076588],[35.134073,47.076124],[35.133406,47.076154]]]}},{"type":"Feature","properties":{"cadnum":"2321283401:04:004:0012"},"geometry":{"type":"Polygon","coordinates":[[[35.129437,47.077096],[35.129459,47.077474],[35.129927,47.077457],[35.129893,47.07708],[35.129437,47.077096]]]}},{"type":"Feature","properties":{"cadnum":"2321283401:04:004:0013"},"geometry":{"type":"Polygon","coordinates":[[[35.129459,47.077474],[35.129467,47.07759],[35.129467,47.077591],[35.129577,47.07897],[35.130007,47.078978],[35.129934,47.077591],[35.129933,47.077591],[35.129933,47.07759],[35.129927,47.077457],[35.129459,47.077474]]]}},{"type":"Feature","properties":{"cadnum":"2321283401:04:008:0002"},"geometry":{"type":"Polygon","coordinates":[[[35.131458,47.075558],[35.131509,47.076709],[35.132126,47.076689],[35.132075,47.075538],[35.131458,47.075558]]]}},{"type":"Feature","properties":{"cadnum":"2321283401:04:003:0007"},"geometry":{"type":"Polygon","coordinates":[[[35.128756,47.077449],[35.128772,47.077707],[35.128773,47.077707],[35.128773,47.077708],[35.128859,47.078985],[35.12887,47.078985],[35.129468,47.078973],[35.129396,47.077708],[35.129396,47.077707],[35.129381,47.077424],[35.128756,47.077449]]]}},{"type":"Feature","properties":{"cadnum":"2321283401:04:003:0006"},"geometry":{"type":"Polygon","coordinates":[[[35.128731,47.07712],[35.128756,47.077449],[35.12887,47.077445],[35.129381,47.077424],[35.129333,47.077095],[35.128731,47.07712]]]}},{"type":"Feature","properties":{"cadnum":"2321283401:04:008:0013"},"geometry":{"type":"Polygon","coordinates":[[[35.1301,47.074815],[35.130195,47.07636],[35.130562,47.076354],[35.130465,47.074785],[35.1301,47.074815]]]}},{"type":"Feature","properties":{"cadnum":"2321283401:04:008:0009"},"geometry":{"type":"Polygon","coordinates":[[[35.130465,47.074785],[35.130562,47.076354],[35.131151,47.076328],[35.13093,47.074758],[35.130465,47.074785]]]}},{"type":"Feature","properties":{"cadnum":"2321283401:04:008:0010"},"geometry":{"type":"Polygon","coordinates":[[[35.133105,47.076207],[35.133135,47.076611],[35.133439,47.076596],[35.133406,47.076154],[35.133105,47.076207]]]}},{"type":"Feature","properties":{"cadnum":"2321283401:04:008:0006"},"geometry":{"type":"Polygon","coordinates":[[[35.133297,47.074669],[35.133406,47.076154],[35.134073,47.076124],[35.133984,47.074651],[35.133297,47.074669]]]}},{"type":"Feature","properties":{"cadnum":"2321283401:04:007:0008"},"geometry":{"type":"Polygon","coordinates":[[[35.128909,47.076406],[35.128933,47.076773],[35.129345,47.076757],[35.129305,47.076401],[35.128909,47.076406]]]}},{"type":"Feature","properties":{"cadnum":"2321283401:04:007:0009"},"geometry":{"type":"Polygon","coordinates":[[[35.1288,47.074834],[35.128909,47.076406],[35.129305,47.076401],[35.129154,47.074835],[35.1288,47.074834]]]}},{"type":"Feature","properties":{"cadnum":"2321283401:04:004:0011"},"geometry":{"type":"Polygon","coordinates":[[[35.131336,47.077352],[35.131358,47.077707],[35.131358,47.077708],[35.131437,47.078961],[35.131779,47.078943],[35.131698,47.077599],[35.131681,47.077308],[35.131336,47.077352]]]}},{"type":"Feature","properties":{"cadnum":"2321283401:04:008:0019"},"geometry":{"type":"Polygon","coordinates":[[[35.13027,47.073101],[35.13036,47.073966],[35.13036,47.073967],[35.130442,47.074746],[35.130904,47.074721],[35.13082,47.073967],[35.13082,47.073966],[35.130725,47.073101],[35.13027,47.073101]]]}},{"type":"Feature","properties":{"cadnum":"2321283401:04:014:0002"},"geometry":{"type":"Polygon","coordinates":[[[35.132868,47.066313],[35.13287,47.066367],[35.132869,47.066367],[35.132874,47.06646],[35.132875,47.066484],[35.132935,47.067748],[35.133233,47.067743],[35.133164,47.066386],[35.13316,47.066305],[35.132868,47.066313]]]}},{"type":"Feature","properties":{"cadnum":"2321283401:04:030:0004"},"geometry":{"type":"Polygon","coordinates":[[[35.152229,47.06557],[35.152247,47.066367],[35.152248,47.066414],[35.152249,47.066484],[35.15225,47.066484],[35.152266,47.06714],[35.152869,47.06712],[35.152882,47.067395],[35.153246,47.067379],[35.153139,47.066367],[35.153138,47.066367],[35.15305,47.065531],[35.152229,47.06557]]]}},{"type":"Feature","properties":{"cadnum":"2321283401:04:020:0001"},"geometry":{"type":"Polygon","coordinates":[[[35.162463,47.075887],[35.162675,47.077707],[35.162676,47.077707],[35.162676,47.077708],[35.162699,47.077909],[35.163023,47.077894],[35.163002,47.077708],[35.163002,47.077707],[35.162804,47.075868],[35.162463,47.075887]]]}},{"type":"Feature","properties":{"cadnum":"2321283401:04:024:0006"},"geometry":{"type":"Polygon","coordinates":[[[35.162019,47.075203],[35.162022,47.07559],[35.162736,47.075571],[35.162665,47.075179],[35.162019,47.075203]]]}},{"type":"Feature","properties":{"cadnum":"2321283401:04:024:0007"},"geometry":{"type":"Polygon","coordinates":[[[35.161909,47.07363],[35.161924,47.073849],[35.161924,47.07385],[35.161927,47.073896],[35.161932,47.073966],[35.161932,47.073967],[35.162019,47.075203],[35.162665,47.075179],[35.162559,47.073893],[35.162537,47.073612],[35.161909,47.07363]]]}},{"type":"Feature","properties":{"cadnum":"2321283401:04:024:0014"},"geometry":{"type":"Polygon","coordinates":[[[35.164224,47.074353],[35.16426,47.075039],[35.164872,47.075034],[35.164822,47.074349],[35.164224,47.074353]]]}},{"type":"Feature","properties":{"cadnum":"2321283401:04:020:0004"},"geometry":{"type":"Polygon","coordinates":[[[35.163208,47.075846],[35.163269,47.076224],[35.16328,47.076311],[35.163665,47.076281],[35.163652,47.076191],[35.163605,47.075839],[35.163208,47.075846]]]}},{"type":"Feature","properties":{"cadnum":"2321283401:04:024:0013"},"geometry":{"type":"Polygon","coordinates":[[[35.16426,47.075039],[35.164264,47.075099],[35.164298,47.075524],[35.164735,47.07552],[35.164905,47.075519],[35.164876,47.075097],[35.164872,47.075034],[35.16426,47.075039]]]}},{"type":"Feature","properties":{"cadnum":"2321283401:04:020:0005"},"geometry":{"type":"Polygon","coordinates":[[[35.16328,47.076311],[35.163432,47.07759],[35.163432,47.077591],[35.163466,47.077876],[35.164318,47.077808],[35.164302,47.077644],[35.164293,47.077536],[35.164396,47.076924],[35.164644,47.076175],[35.164665,47.075931],[35.164555,47.07581],[35.163605,47.075839],[35.163665,47.076281],[35.16328,47.076311]]]}},{"type":"Feature","properties":{"cadnum":"2321283401:04:002:0015"},"geometry":{"type":"Polygon","coordinates":[[[35.147015,47.081414],[35.147393,47.082997],[35.147895,47.082945],[35.147491,47.081393],[35.147015,47.081414]]]}},{"type":"Feature","properties":{"cadnum":"2321283401:04:002:0013"},"geometry":{"type":"Polygon","coordinates":[[[35.146428,47.081457],[35.146807,47.083066],[35.147393,47.082997],[35.147015,47.081414],[35.146428,47.081457]]]}},{"type":"Feature","properties":{"cadnum":"2321283401:04:002:0006"},"geometry":{"type":"Polygon","coordinates":[[[35.150548,47.081131],[35.150596,47.081448],[35.150597,47.081448],[35.150776,47.082606],[35.150843,47.082602],[35.150843,47.082601],[35.151473,47.082556],[35.151283,47.081331],[35.151282,47.081331],[35.151248,47.081105],[35.15069,47.081126],[35.150548,47.081131]]]}},{"type":"Feature","properties":{"cadnum":"2321283401:04:002:0012"},"geometry":{"type":"Polygon","coordinates":[[[35.146315,47.080984],[35.146397,47.081331],[35.146411,47.08139],[35.146425,47.081448],[35.146426,47.081448],[35.146428,47.081457],[35.146981,47.081416],[35.147015,47.081414],[35.146933,47.080923],[35.146315,47.080984]]]}},{"type":"Feature","properties":{"cadnum":"2321283401:04:002:0014"},"geometry":{"type":"Polygon","coordinates":[[[35.146933,47.080923],[35.147001,47.081331],[35.147,47.081331],[35.147015,47.081414],[35.147491,47.081393],[35.147385,47.080902],[35.146933,47.080923]]]}},{"type":"Feature","properties":{"cadnum":"2321283401:04:023:0004"},"geometry":{"type":"Polygon","coordinates":[[[35.159007,47.071806],[35.15901,47.071899],[35.159015,47.072119],[35.159388,47.072113],[35.159384,47.071978],[35.159379,47.071801],[35.159172,47.071804],[35.159112,47.071804],[35.159007,47.071806]]]}},{"type":"Feature","properties":{"cadnum":"2321283401:04:023:0007"},"geometry":{"type":"Polygon","coordinates":[[[35.15701,47.07385],[35.157013,47.073894],[35.157017,47.073966],[35.157018,47.073966],[35.157018,47.073967],[35.157076,47.074874],[35.157418,47.074864],[35.157362,47.073967],[35.157362,47.073966],[35.157363,47.073966],[35.157355,47.073831],[35.15701,47.07384],[35.157011,47.073849],[35.157011,47.07385],[35.15701,47.07385]]]}},{"type":"Feature","properties":{"cadnum":"2321283401:04:027:0007"},"geometry":{"type":"Polygon","coordinates":[[[35.158845,47.069401],[35.158895,47.070225],[35.158947,47.071062],[35.159685,47.071034],[35.159622,47.070225],[35.159623,47.070225],[35.15956,47.069392],[35.158845,47.069401]]]}},{"type":"Feature","properties":{"cadnum":"2321283401:04:024:0004"},"geometry":{"type":"Polygon","coordinates":[[[35.160039,47.0737],[35.160052,47.073849],[35.160052,47.07385],[35.160063,47.073966],[35.160179,47.075238],[35.160818,47.075218],[35.160761,47.073967],[35.160761,47.073966],[35.160749,47.073685],[35.160039,47.0737]]]}},{"type":"Feature","properties":{"cadnum":"2321283401:04:028:0004"},"geometry":{"type":"Polygon","coordinates":[[[35.161671,47.070773],[35.161699,47.071354],[35.161829,47.071353],[35.162052,47.071351],[35.161995,47.070753],[35.161671,47.070773]]]}},{"type":"Feature","properties":{"cadnum":"2321283401:04:023:0005"},"geometry":{"type":"Polygon","coordinates":[[[35.159015,47.072119],[35.159054,47.073655],[35.159439,47.073649],[35.159388,47.072113],[35.159015,47.072119]]]}},{"type":"Feature","properties":{"cadnum":"2321283401:04:023:0009"},"geometry":{"type":"Polygon","coordinates":[[[35.157355,47.07385],[35.157418,47.074864],[35.157422,47.074921],[35.157783,47.074906],[35.15772,47.073967],[35.15772,47.073966],[35.15771,47.073818],[35.157355,47.073831],[35.157356,47.073849],[35.157356,47.07385],[35.157355,47.07385]]]}},{"type":"Feature","properties":{"cadnum":"2321283401:04:023:0003"},"geometry":{"type":"Polygon","coordinates":[[[35.15963,47.073783],[35.159635,47.073849],[35.159635,47.07385],[35.159645,47.073956],[35.159646,47.073966],[35.159646,47.073967],[35.159808,47.075726],[35.160053,47.075716],[35.159891,47.073955],[35.159875,47.073772],[35.15963,47.073783]]]}},{"type":"Feature","properties":{"cadnum":"2321283401:04:027:0005"},"geometry":{"type":"Polygon","coordinates":[[[35.157297,47.069495],[35.157362,47.070225],[35.157363,47.070225],[35.157445,47.071134],[35.157776,47.07111],[35.157694,47.070108],[35.157643,47.069483],[35.157297,47.069495]]]}},{"type":"Feature","properties":{"cadnum":"2321283401:04:027:0006"},"geometry":{"type":"Polygon","coordinates":[[[35.158947,47.071062],[35.158952,47.071441],[35.159701,47.071413],[35.159685,47.071034],[35.158947,47.071062]]]}},{"type":"Feature","properties":{"cadnum":"2321283401:04:028:0005"},"geometry":{"type":"Polygon","coordinates":[[[35.161554,47.069323],[35.161617,47.070108],[35.161618,47.070122],[35.161626,47.070225],[35.161627,47.070225],[35.161657,47.070607],[35.161671,47.070773],[35.161829,47.070764],[35.161829,47.070763],[35.161995,47.070753],[35.161981,47.070225],[35.161982,47.070225],[35.161959,47.06931],[35.16176,47.069317],[35.161554,47.069323]]]}},{"type":"Feature","properties":{"cadnum":"2321283401:04:027:0004"},"geometry":{"type":"Polygon","coordinates":[[[35.157445,47.071134],[35.15748,47.071485],[35.15781,47.07147],[35.157776,47.07111],[35.157445,47.071134]]]}},{"type":"Feature","properties":{"cadnum":"2321283401:04:004:0006"},"geometry":{"type":"Polygon","coordinates":[[[35.134881,47.076908],[35.134908,47.077253],[35.134908,47.077254],[35.134889,47.077254],[35.134895,47.07759],[35.134895,47.077591],[35.134894,47.077591],[35.134897,47.077694],[35.135338,47.077679],[35.135313,47.077234],[35.135212,47.077238],[35.135185,47.076898],[35.134881,47.076908]]]}},{"type":"Feature","properties":{"cadnum":"2321283401:04:010:0007"},"geometry":{"type":"Polygon","coordinates":[[[35.139559,47.072844],[35.139634,47.073849],[35.139634,47.07385],[35.139671,47.074338],[35.139685,47.074337],[35.139755,47.074332],[35.139856,47.074324],[35.140475,47.074278],[35.140454,47.073967],[35.140454,47.073966],[35.140382,47.072819],[35.139685,47.07284],[35.139559,47.072844]]]}},{"type":"Feature","properties":{"cadnum":"2321283401:04:009:0002"},"geometry":{"type":"Polygon","coordinates":[[[35.137755,47.074516],[35.137952,47.076464],[35.138287,47.076452],[35.138098,47.074504],[35.137755,47.074516]]]}},{"type":"Feature","properties":{"cadnum":"2321283401:04:009:0005"},"geometry":{"type":"Polygon","coordinates":[[[35.138087,47.074482],[35.138277,47.076111],[35.138971,47.076107],[35.138767,47.074437],[35.138087,47.074482]]]}},{"type":"Feature","properties":{"cadnum":"2321283401:04:009:0004"},"geometry":{"type":"Polygon","coordinates":[[[35.138277,47.076111],[35.138309,47.076421],[35.139009,47.076389],[35.138971,47.076107],[35.138277,47.076111]]]}},{"type":"Feature","properties":{"cadnum":"2321283401:04:009:0001"},"geometry":{"type":"Polygon","coordinates":[[[35.135805,47.072637],[35.135808,47.072676],[35.135834,47.073086],[35.135892,47.073966],[35.135893,47.073966],[35.135893,47.073967],[35.13593,47.074509],[35.136308,47.074497],[35.136265,47.07385],[35.136264,47.07385],[35.136264,47.073849],[35.136214,47.073074],[35.136195,47.072809],[35.136183,47.072625],[35.136038,47.072629],[35.135967,47.072632],[35.135805,47.072637]]]}},{"type":"Feature","properties":{"cadnum":"2321283401:04:011:0017"},"geometry":{"type":"Polygon","coordinates":[[[35.131246,47.068821],[35.132138,47.068812],[35.132132,47.068471],[35.131257,47.068491],[35.131246,47.068821]]]}},{"type":"Feature","properties":{"cadnum":"2321283401:04:011:0018"},"geometry":{"type":"Polygon","coordinates":[[[35.131201,47.070358],[35.132145,47.070383],[35.132144,47.070108],[35.132143,47.070108],[35.132138,47.068812],[35.131246,47.068821],[35.131204,47.070225],[35.131201,47.070358]]]}},{"type":"Feature","properties":{"cadnum":"2321283401:04:014:0001"},"geometry":{"type":"Polygon","coordinates":[[[35.132935,47.067748],[35.13296,47.068123],[35.133235,47.06809],[35.133233,47.067743],[35.132935,47.067748]]]}},{"type":"Feature","properties":{"cadnum":"2321283401:04:002:0009"},"geometry":{"type":"Polygon","coordinates":[[[35.141492,47.081191],[35.141549,47.081448],[35.14155,47.081448],[35.141556,47.081475],[35.142561,47.081424],[35.142585,47.081423],[35.142522,47.081139],[35.141492,47.081191]]]}},{"type":"Feature","properties":{"cadnum":"2321283401:04:006:0002"},"geometry":{"type":"Polygon","coordinates":[[[35.141517,47.07702],[35.141574,47.07759],[35.141574,47.077591],[35.141583,47.077679],[35.141586,47.077707],[35.141586,47.077708],[35.141679,47.078598],[35.142285,47.078576],[35.142214,47.077591],[35.142214,47.07759],[35.142172,47.077007],[35.141517,47.07702]]]}},{"type":"Feature","properties":{"cadnum":"2321283401:04:006:0004"},"geometry":{"type":"Polygon","coordinates":[[[35.14138,47.078644],[35.141521,47.080776],[35.141957,47.080759],[35.141916,47.080396],[35.14271,47.080357],[35.142431,47.078601],[35.14138,47.078644]]]}},{"type":"Feature","properties":{"cadnum":"2321283401:04:006:0003"},"geometry":{"type":"Polygon","coordinates":[[[35.141916,47.080396],[35.141957,47.080759],[35.142768,47.080727],[35.14271,47.080357],[35.141916,47.080396]]]}},{"type":"Feature","properties":{"cadnum":"2321283401:04:002:0016"},"geometry":{"type":"Polygon","coordinates":[[[35.139756,47.081276],[35.139796,47.081448],[35.139838,47.081626],[35.14037,47.081581],[35.140331,47.081373],[35.14031,47.081256],[35.139756,47.081276]]]}},{"type":"Feature","properties":{"cadnum":"2321283401:04:028:0003"},"geometry":{"type":"Polygon","coordinates":[[[35.163768,47.069265],[35.16377,47.070225],[35.163771,47.070901],[35.164514,47.070918],[35.164538,47.070225],[35.164573,47.069274],[35.163768,47.069265]]]}},{"type":"Feature","properties":{"cadnum":"2321283401:04:031:0004"},"geometry":{"type":"Polygon","coordinates":[[[35.16149,47.066791],[35.161508,47.067117],[35.161657,47.067111],[35.161693,47.06711],[35.161829,47.067105],[35.162258,47.067088],[35.162243,47.066741],[35.161657,47.066781],[35.16149,47.066791]]]}},{"type":"Feature","properties":{"cadnum":"2321283401:04:031:0005"},"geometry":{"type":"Polygon","coordinates":[[[35.161428,47.065202],[35.161473,47.066367],[35.161472,47.066367],[35.16149,47.066791],[35.161829,47.06677],[35.161829,47.066769],[35.162243,47.066741],[35.16223,47.066484],[35.162231,47.066484],[35.16217,47.065165],[35.161662,47.065191],[35.161428,47.065202]]]}},{"type":"Feature","properties":{"cadnum":"2321283401:04:030:0003"},"geometry":{"type":"Polygon","coordinates":[[[35.152266,47.06714],[35.152279,47.067414],[35.152882,47.067395],[35.152869,47.06712],[35.152266,47.06714]]]}},{"type":"Feature","properties":{"cadnum":"2321283401:04:017:0005"},"geometry":{"type":"Polygon","coordinates":[[[35.147434,47.076449],[35.147467,47.076903],[35.148111,47.076891],[35.148081,47.07643],[35.147434,47.076449]]]}},{"type":"Feature","properties":{"cadnum":"2321283401:04:021:0007"},"geometry":{"type":"Polygon","coordinates":[[[35.14587,47.074286],[35.145977,47.075756],[35.14664,47.075749],[35.146469,47.074232],[35.14587,47.074286]]]}},{"type":"Feature","properties":{"cadnum":"2321283401:04:021:0004"},"geometry":{"type":"Polygon","coordinates":[[[35.147104,47.075787],[35.147121,47.076095],[35.147667,47.076076],[35.147651,47.075752],[35.147104,47.075787]]]}},{"type":"Feature","properties":{"cadnum":"2321283401:04:021:0003"},"geometry":{"type":"Polygon","coordinates":[[[35.148398,47.074965],[35.148439,47.075616],[35.148469,47.07606],[35.149138,47.076033],[35.14909,47.075583],[35.149023,47.074939],[35.148398,47.074965]]]}},{"type":"Feature","properties":{"cadnum":"2321283401:04:017:0006"},"geometry":{"type":"Polygon","coordinates":[[[35.147467,47.076903],[35.147488,47.07759],[35.147488,47.077591],[35.147487,47.077591],[35.147513,47.078412],[35.148191,47.078428],[35.148147,47.077591],[35.148146,47.077591],[35.148146,47.07759],[35.148111,47.076891],[35.147467,47.076903]]]}},{"type":"Feature","properties":{"cadnum":"2321283401:04:021:0012"},"geometry":{"type":"Polygon","coordinates":[[[35.147651,47.075752],[35.147667,47.076076],[35.148064,47.076063],[35.148038,47.075739],[35.147651,47.075752]]]}},{"type":"Feature","properties":{"cadnum":"2321283401:04:018:0002"},"geometry":{"type":"Polygon","coordinates":[[[35.150731,47.076369],[35.150843,47.07755],[35.150846,47.07759],[35.150846,47.077591],[35.150845,47.077591],[35.150853,47.077664],[35.151229,47.077649],[35.151394,47.077643],[35.151285,47.076348],[35.150731,47.076369]]]}},{"type":"Feature","properties":{"cadnum":"2321283401:04:021:0006"},"geometry":{"type":"Polygon","coordinates":[[[35.145911,47.076166],[35.146661,47.076112],[35.14664,47.075749],[35.145977,47.075756],[35.145911,47.076166]]]}},{"type":"Feature","properties":{"cadnum":"2321283401:04:017:0004"},"geometry":{"type":"Polygon","coordinates":[[[35.149722,47.076729],[35.149827,47.077643],[35.150363,47.077622],[35.150295,47.076707],[35.149722,47.076729]]]}},{"type":"Feature","properties":{"cadnum":"2321283401:04:021:0002"},"geometry":{"type":"Polygon","coordinates":[[[35.147927,47.072161],[35.147967,47.072741],[35.147996,47.073142],[35.14803,47.073604],[35.148047,47.073849],[35.148047,47.07385],[35.148046,47.07385],[35.148053,47.07395],[35.148055,47.073966],[35.148055,47.073967],[35.148059,47.074024],[35.148677,47.074009],[35.148673,47.073938],[35.148578,47.072145],[35.147927,47.072161]]]}},{"type":"Feature","properties":{"cadnum":"2321283401:04:021:0005"},"geometry":{"type":"Polygon","coordinates":[[[35.146966,47.074201],[35.147104,47.075787],[35.147651,47.075752],[35.147542,47.074174],[35.146966,47.074201]]]}},{"type":"Feature","properties":{"cadnum":"2321283401:04:017:0003"},"geometry":{"type":"Polygon","coordinates":[[[35.149681,47.076379],[35.149722,47.076729],[35.150295,47.076707],[35.150257,47.076356],[35.149681,47.076379]]]}},{"type":"Feature","properties":{"cadnum":"2321283401:04:021:0013"},"geometry":{"type":"Polygon","coordinates":[[[35.147542,47.074174],[35.147651,47.075752],[35.148038,47.075739],[35.147899,47.074162],[35.147542,47.074174]]]}},{"type":"Feature","properties":{"cadnum":"2321283401:04:021:0011"},"geometry":{"type":"Polygon","coordinates":[[[35.148578,47.072145],[35.148668,47.073849],[35.148668,47.07385],[35.148667,47.07385],[35.148683,47.074135],[35.149366,47.074156],[35.149339,47.07385],[35.149339,47.073849],[35.149221,47.072462],[35.148835,47.072481],[35.148806,47.07214],[35.148578,47.072145]]]}},{"type":"Feature","properties":{"cadnum":"2321283401:04:031:0007"},"geometry":{"type":"Polygon","coordinates":[[[35.158077,47.066886],[35.158547,47.066875],[35.158547,47.067248],[35.159261,47.067223],[35.159269,47.066445],[35.159284,47.065302],[35.158095,47.065351],[35.158082,47.066367],[35.158081,47.066434],[35.158081,47.066484],[35.158077,47.066886]]]}},{"type":"Feature","properties":{"cadnum":"2321283401:04:031:0003"},"geometry":{"type":"Polygon","coordinates":[[[35.159266,47.066858],[35.159919,47.066849],[35.15992,47.066484],[35.159921,47.066484],[35.159927,47.065273],[35.159284,47.065302],[35.15927,47.066484],[35.159266,47.066858]]]}},{"type":"Feature","properties":{"cadnum":"2321283401:04:001:0014"},"geometry":{"type":"Polygon","coordinates":[[[35.129211,47.082162],[35.129219,47.083063],[35.129687,47.083064],[35.129664,47.082164],[35.129211,47.082162]]]}},{"type":"Feature","properties":{"cadnum":"2321283401:04:001:0004"},"geometry":{"type":"Polygon","coordinates":[[[35.1316,47.081423],[35.131651,47.081814],[35.132213,47.0818],[35.132187,47.081402],[35.131601,47.081423],[35.1316,47.081423]]]}},{"type":"Feature","properties":{"cadnum":"2321283401:04:001:0011"},"geometry":{"type":"Polygon","coordinates":[[[35.129655,47.081824],[35.129696,47.083455],[35.130009,47.083469],[35.129999,47.081806],[35.129655,47.081824]]]}},{"type":"Feature","properties":{"cadnum":"2321283401:04:001:0013"},"geometry":{"type":"Polygon","coordinates":[[[35.129207,47.081492],[35.129207,47.081837],[35.129211,47.082162],[35.129664,47.082164],[35.129655,47.081824],[35.129632,47.081567],[35.129625,47.081494],[35.12944,47.081493],[35.129207,47.081492]]]}},{"type":"Feature","properties":{"cadnum":"2321283401:04:001:0010"},"geometry":{"type":"Polygon","coordinates":[[[35.129625,47.081494],[35.129655,47.081824],[35.129999,47.081806],[35.129998,47.081481],[35.129625,47.081494]]]}},{"type":"Feature","properties":{"cadnum":"2321283401:04:001:0005"},"geometry":{"type":"Polygon","coordinates":[[[35.131651,47.081814],[35.13181,47.083558],[35.132365,47.083585],[35.132213,47.0818],[35.131651,47.081814]]]}},{"type":"Feature","properties":{"cadnum":"2321283401:04:003:0012"},"geometry":{"type":"Polygon","coordinates":[[[35.126691,47.080758],[35.126701,47.080914],[35.126712,47.081051],[35.126724,47.081231],[35.127025,47.081226],[35.127077,47.081225],[35.127356,47.081222],[35.12734,47.081055],[35.127325,47.080905],[35.12731,47.080749],[35.126691,47.080758]]]}},{"type":"Feature","properties":{"cadnum":"2321283401:04:003:0008"},"geometry":{"type":"Polygon","coordinates":[[[35.12773,47.080929],[35.127761,47.081217],[35.12812,47.081208],[35.128094,47.080893],[35.12773,47.080929]]]}},{"type":"Feature","properties":{"cadnum":"2321283401:04:003:0009"},"geometry":{"type":"Polygon","coordinates":[[[35.127562,47.079059],[35.12773,47.080929],[35.128094,47.080893],[35.127931,47.079048],[35.127562,47.079059]]]}},{"type":"Feature","properties":{"cadnum":"2321283401:04:003:0011"},"geometry":{"type":"Polygon","coordinates":[[[35.127141,47.077551],[35.127145,47.07759],[35.127145,47.077591],[35.127144,47.077591],[35.127151,47.077665],[35.127155,47.077707],[35.127155,47.077708],[35.127282,47.079043],[35.128049,47.079008],[35.127947,47.077708],[35.127947,47.077707],[35.127931,47.077488],[35.127141,47.077551]]]}},{"type":"Feature","properties":{"cadnum":"2321283401:04:003:0005"},"geometry":{"type":"Polygon","coordinates":[[[35.126806,47.077567],[35.126808,47.07759],[35.126808,47.077591],[35.126807,47.077591],[35.126955,47.079066],[35.127282,47.079043],[35.127151,47.077665],[35.127141,47.077551],[35.126806,47.077567]]]}},{"type":"Feature","properties":{"cadnum":"2321283401:04:003:0003"},"geometry":{"type":"Polygon","coordinates":[[[35.126456,47.077591],[35.126456,47.077592],[35.126465,47.077707],[35.126466,47.077707],[35.126466,47.077708],[35.126589,47.07909],[35.126955,47.079066],[35.126819,47.077708],[35.126819,47.077707],[35.126806,47.077567],[35.126469,47.077591],[35.126468,47.077591],[35.126457,47.077591],[35.126456,47.077591]]]}},{"type":"Feature","properties":{"cadnum":"2321283401:04:003:0013"},"geometry":{"type":"Polygon","coordinates":[[[35.126641,47.080079],[35.126691,47.080758],[35.12731,47.080749],[35.127243,47.08007],[35.126641,47.080079]]]}},{"type":"Feature","properties":{"cadnum":"2321283401:04:015:0003"},"geometry":{"type":"Polygon","coordinates":[[[35.138338,47.066129],[35.138368,47.066484],[35.138462,47.067574],[35.139049,47.067572],[35.138932,47.066484],[35.138893,47.066118],[35.138338,47.066129]]]}},{"type":"Feature","properties":{"cadnum":"2321283401:04:015:0002"},"geometry":{"type":"Polygon","coordinates":[[[35.138462,47.067574],[35.138476,47.067927],[35.139072,47.06791],[35.139049,47.067572],[35.138462,47.067574]]]}},{"type":"Feature","properties":{"cadnum":"2321283401:04:012:0002"},"geometry":{"type":"Polygon","coordinates":[[[35.138407,47.068557],[35.138515,47.070108],[35.138522,47.070201],[35.139294,47.070189],[35.139113,47.068228],[35.138857,47.068246],[35.138872,47.068551],[35.138407,47.068557]]]}},{"type":"Feature","properties":{"cadnum":"2321283401:04:012:0003"},"geometry":{"type":"Polygon","coordinates":[[[35.135482,47.068364],[35.135475,47.068691],[35.135554,47.069512],[35.136175,47.069494],[35.136111,47.068712],[35.136046,47.068349],[35.135482,47.068364]]]}},{"type":"Feature","properties":{"cadnum":"2321283401:04:012:0001"},"geometry":{"type":"Polygon","coordinates":[[[35.138382,47.068255],[35.138407,47.068557],[35.138872,47.068551],[35.138857,47.068246],[35.138382,47.068255]]]}},{"type":"Feature","properties":{"cadnum":"2321283401:04:021:0008"},"geometry":{"type":"Polygon","coordinates":[[[35.145108,47.072824],[35.145144,47.073255],[35.145178,47.073254],[35.145178,47.073255],[35.145288,47.073252],[35.14535,47.073251],[35.14565,47.073244],[35.145623,47.072796],[35.145623,47.072795],[35.145195,47.072819],[35.145108,47.072824]]]}},{"type":"Feature","properties":{"cadnum":"2321283401:04:013:0011"},"geometry":{"type":"Polygon","coordinates":[[[35.139606,47.071809],[35.139634,47.072111],[35.139685,47.07211],[35.139717,47.07211],[35.139856,47.072107],[35.139856,47.072106],[35.140315,47.072095],[35.140298,47.071794],[35.139856,47.071804],[35.139606,47.071809]]]}},{"type":"Feature","properties":{"cadnum":"2321283401:04:013:0014"},"geometry":{"type":"Polygon","coordinates":[[[35.142513,47.071558],[35.14256,47.072047],[35.14333,47.07202],[35.143328,47.072012],[35.143329,47.072012],[35.143351,47.072011],[35.143353,47.072019],[35.143397,47.072017],[35.143357,47.071522],[35.142513,47.071558]],[[35.143304,47.071712],[35.143302,47.071697],[35.143324,47.071695],[35.143327,47.07171],[35.143304,47.071712]]]}},{"type":"Feature","properties":{"cadnum":"2321283401:04:010:0005"},"geometry":{"type":"Polygon","coordinates":[[[35.141762,47.073482],[35.14177,47.073863],[35.143936,47.073802],[35.143921,47.073421],[35.141762,47.073482]]]}},{"type":"Feature","properties":{"cadnum":"2321283401:04:010:0003"},"geometry":{"type":"Polygon","coordinates":[[[35.143839,47.072379],[35.143862,47.072756],[35.144195,47.072749],[35.144184,47.072612],[35.144197,47.072611],[35.144259,47.072609],[35.144265,47.072679],[35.14427,47.072746],[35.144526,47.072741],[35.144476,47.072356],[35.143839,47.072379]]]}},{"type":"Feature","properties":{"cadnum":"2321283401:04:013:0002"},"geometry":{"type":"Polygon","coordinates":[[[35.141164,47.070235],[35.141325,47.072112],[35.141703,47.072097],[35.141541,47.070221],[35.141164,47.070235]]]}},{"type":"Feature","properties":{"cadnum":"2321283401:04:013:0013"},"geometry":{"type":"Polygon","coordinates":[[[35.143357,47.071522],[35.143397,47.072017],[35.143991,47.071996],[35.143949,47.071498],[35.143357,47.071522]]]}},{"type":"Feature","properties":{"cadnum":"2321283401:04:013:0001"},"geometry":{"type":"Polygon","coordinates":[[[35.143949,47.071498],[35.143987,47.071941],[35.14444,47.071922],[35.144403,47.071479],[35.143949,47.071498]]]}},{"type":"Feature","properties":{"cadnum":"2321283401:04:021:0014"},"geometry":{"type":"Polygon","coordinates":[[[35.145144,47.073255],[35.145158,47.073459],[35.145178,47.073663],[35.145182,47.073703],[35.14535,47.073701],[35.14535,47.0737],[35.145657,47.073694],[35.145838,47.073688],[35.1458,47.073238],[35.14565,47.073244],[35.145288,47.073252],[35.145144,47.073255]]]}},{"type":"Feature","properties":{"cadnum":"2321283401:04:010:0001"},"geometry":{"type":"Polygon","coordinates":[[[35.144239,47.072648],[35.14425,47.072785],[35.144325,47.072783],[35.144314,47.072646],[35.144239,47.072648]]]}},{"type":"Feature","properties":{"cadnum":"2321283401:04:010:0006"},"geometry":{"type":"Polygon","coordinates":[[[35.139559,47.072844],[35.139856,47.072836],[35.139856,47.072835],[35.140382,47.072819],[35.140351,47.072453],[35.139685,47.072473],[35.139563,47.072477],[35.139559,47.072844]]]}},{"type":"Feature","properties":{"cadnum":"2321283401:04:013:0012"},"geometry":{"type":"Polygon","coordinates":[[[35.139485,47.070235],[35.139606,47.071809],[35.139685,47.071807],[35.139685,47.071808],[35.140298,47.071794],[35.140298,47.071793],[35.140216,47.070221],[35.139856,47.070228],[35.139485,47.070235]]]}},{"type":"Feature","properties":{"cadnum":"2321283401:04:005:0001"},"geometry":{"type":"Polygon","coordinates":[[[35.135727,47.080972],[35.136378,47.080955],[35.136352,47.080593],[35.135728,47.080637],[35.135727,47.080972]]]}},{"type":"Feature","properties":{"cadnum":"2321283401:04:004:0003"},"geometry":{"type":"Polygon","coordinates":[[[35.134245,47.080629],[35.134273,47.08104],[35.134363,47.081038],[35.134363,47.081037],[35.134579,47.081031],[35.134552,47.080619],[35.134245,47.080629]]]}},{"type":"Feature","properties":{"cadnum":"2321283401:04:004:0007"},"geometry":{"type":"Polygon","coordinates":[[[35.134897,47.077694],[35.134913,47.078696],[35.135394,47.078679],[35.135338,47.077679],[35.134897,47.077694]]]}},{"type":"Feature","properties":{"cadnum":"2321283401:04:004:0004"},"geometry":{"type":"Polygon","coordinates":[[[35.134127,47.078916],[35.134192,47.07985],[35.134192,47.079851],[35.134245,47.080629],[35.134363,47.080625],[35.134552,47.080619],[35.134444,47.078905],[35.134223,47.078913],[35.134127,47.078916]]]}},{"type":"Feature","properties":{"cadnum":"2321283401:04:005:0002"},"geometry":{"type":"Polygon","coordinates":[[[35.135588,47.078848],[35.135728,47.080637],[35.136352,47.080593],[35.136352,47.080592],[35.136249,47.078882],[35.135588,47.078848]]]}},{"type":"Feature","properties":{"cadnum":"2321283401:04:002:0001"},"geometry":{"type":"Polygon","coordinates":[[[35.152224,47.080666],[35.152354,47.081448],[35.152355,47.081448],[35.152418,47.081827],[35.153026,47.081802],[35.152947,47.081331],[35.152946,47.081331],[35.152832,47.08064],[35.152224,47.080666]]]}},{"type":"Feature","properties":{"cadnum":"2321283401:04:024:0010"},"geometry":{"type":"Polygon","coordinates":[[[35.162302,47.071691],[35.162331,47.072143],[35.162846,47.072134],[35.162808,47.07167],[35.162302,47.071691]]]}},{"type":"Feature","properties":{"cadnum":"2321283401:04:024:0009"},"geometry":{"type":"Polygon","coordinates":[[[35.164057,47.07196],[35.164204,47.073537],[35.164656,47.073526],[35.16455,47.071884],[35.164057,47.07196]]]}},{"type":"Feature","properties":{"cadnum":"2321283401:04:028:0002"},"geometry":{"type":"Polygon","coordinates":[[[35.163766,47.071288],[35.164525,47.071259],[35.164514,47.070918],[35.163771,47.070901],[35.163766,47.071288]]]}},{"type":"Feature","properties":{"cadnum":"2321283401:04:024:0011"},"geometry":{"type":"Polygon","coordinates":[[[35.162331,47.072143],[35.162467,47.073584],[35.162947,47.07357],[35.162846,47.072134],[35.162331,47.072143]]]}},{"type":"Feature","properties":{"cadnum":"2321283401:04:024:0008"},"geometry":{"type":"Polygon","coordinates":[[[35.164016,47.071616],[35.164057,47.07196],[35.16455,47.071884],[35.164537,47.071595],[35.164016,47.071616]]]}},{"type":"Feature","properties":{"cadnum":"2321283401:04:024:0002"},"geometry":{"type":"Polygon","coordinates":[[[35.162817,47.071721],[35.162953,47.073614],[35.16332,47.073602],[35.163185,47.071709],[35.162817,47.071721]]]}},{"type":"Feature","properties":{"cadnum":"2321283401:04:002:0005"},"geometry":{"type":"Polygon","coordinates":[[[35.150483,47.08071],[35.150548,47.081131],[35.150671,47.081127],[35.15069,47.081126],[35.150843,47.08112],[35.151248,47.081105],[35.151183,47.080684],[35.15075,47.080701],[35.150483,47.08071]]]}},{"type":"Feature","properties":{"cadnum":"2321283401:04:017:0008"},"geometry":{"type":"Polygon","coordinates":[[[35.148372,47.078942],[35.150072,47.078908],[35.150034,47.078434],[35.148394,47.078465],[35.148372,47.078942]]]}},{"type":"Feature","properties":{"cadnum":"2321283401:04:017:0007"},"geometry":{"type":"Polygon","coordinates":[[[35.150034,47.078434],[35.150072,47.078908],[35.150459,47.078901],[35.150434,47.078427],[35.150034,47.078434]]]}},{"type":"Feature","properties":{"cadnum":"2321283401:04:031:0006"},"geometry":{"type":"Polygon","coordinates":[[[35.158073,47.067266],[35.158547,47.067248],[35.158547,47.066875],[35.158077,47.066886],[35.158073,47.067266]]]}},{"type":"Feature","properties":{"cadnum":"2321283401:04:031:0002"},"geometry":{"type":"Polygon","coordinates":[[[35.159261,47.067223],[35.159917,47.067201],[35.159919,47.066849],[35.159266,47.066858],[35.159261,47.067223]]]}},{"type":"Feature","properties":{"cadnum":"2321283401:04:027:0003"},"geometry":{"type":"Polygon","coordinates":[[[35.156938,47.068328],[35.157022,47.069477],[35.157881,47.069448],[35.157751,47.067636],[35.157343,47.067649],[35.157374,47.068313],[35.156938,47.068328]]]}},{"type":"Feature","properties":{"cadnum":"2321283401:04:027:0002"},"geometry":{"type":"Polygon","coordinates":[[[35.156888,47.067665],[35.156902,47.067838],[35.156911,47.067963],[35.156938,47.068328],[35.157374,47.068313],[35.157358,47.067949],[35.157351,47.067814],[35.157343,47.067649],[35.157174,47.067655],[35.157119,47.067657],[35.156888,47.067665]]]}},{"type":"Feature","properties":{"cadnum":"2321283401:04:028:0001"},"geometry":{"type":"Polygon","coordinates":[[[35.159886,47.067553],[35.159981,47.06938],[35.160319,47.069372],[35.160224,47.067545],[35.159886,47.067553]]]}},{"type":"Feature","properties":{"cadnum":"2321283401:04:016:0005"},"geometry":{"type":"Polygon","coordinates":[[[35.141757,47.06601],[35.141788,47.066484],[35.141789,47.066484],[35.141847,47.067335],[35.142286,47.067389],[35.142238,47.066367],[35.142221,47.06599],[35.141757,47.06601]]]}},{"type":"Feature","properties":{"cadnum":"2321283401:04:016:0007"},"geometry":{"type":"Polygon","coordinates":[[[35.140905,47.065998],[35.140908,47.066065],[35.140928,47.066484],[35.140973,47.067399],[35.14168,47.067397],[35.141608,47.066373],[35.141582,47.065996],[35.140905,47.065998]]]}},{"type":"Feature","properties":{"cadnum":"2321283401:04:019:0004"},"geometry":{"type":"Polygon","coordinates":[[[35.155233,47.076183],[35.155275,47.076806],[35.155587,47.076796],[35.155546,47.076169],[35.155233,47.076183]]]}},{"type":"Feature","properties":{"cadnum":"2321283401:04:022:0008"},"geometry":{"type":"Polygon","coordinates":[[[35.153153,47.074005],[35.153263,47.075645],[35.154355,47.075579],[35.154241,47.073952],[35.153153,47.074005]]]}},{"type":"Feature","properties":{"cadnum":"2321283401:04:022:0007"},"geometry":{"type":"Polygon","coordinates":[[[35.153263,47.075645],[35.15329,47.075884],[35.154379,47.075853],[35.154355,47.075579],[35.153263,47.075645]]]}},{"type":"Feature","properties":{"cadnum":"2321283401:04:022:0006"},"geometry":{"type":"Polygon","coordinates":[[[35.151327,47.074121],[35.151531,47.075984],[35.151846,47.075964],[35.151684,47.074105],[35.151327,47.074121]]]}},{"type":"Feature","properties":{"cadnum":"2321283401:04:010:0008"},"geometry":{"type":"Polygon","coordinates":[[[35.142313,47.075505],[35.14234,47.075993],[35.142348,47.076265],[35.142726,47.076256],[35.142725,47.075979],[35.142724,47.075896],[35.142716,47.075499],[35.142313,47.075505]]]}},{"type":"Feature","properties":{"cadnum":"2321283401:04:006:0001"},"geometry":{"type":"Polygon","coordinates":[[[35.141488,47.076677],[35.141517,47.07702],[35.142172,47.077007],[35.142138,47.076656],[35.141488,47.076677]]]}},{"type":"Feature","properties":{"cadnum":"2321283401:04:021:0009"},"geometry":{"type":"Polygon","coordinates":[[[35.145623,47.072795],[35.145623,47.072796],[35.14565,47.073244],[35.147961,47.073154],[35.147934,47.07274],[35.145623,47.072795]]]}},{"type":"Feature","properties":{"cadnum":"2321283401:04:021:0015"},"geometry":{"type":"Polygon","coordinates":[[[35.1458,47.073238],[35.145838,47.073688],[35.14675,47.073653],[35.146725,47.073202],[35.1458,47.073238]]]}},{"type":"Feature","properties":{"cadnum":"2321283401:04:021:0010"},"geometry":{"type":"Polygon","coordinates":[[[35.148806,47.07214],[35.148835,47.072481],[35.149221,47.072462],[35.149207,47.072139],[35.148806,47.07214]]]}},{"type":"Feature","properties":{"cadnum":"2321283401:04:025:0008"},"geometry":{"type":"Polygon","coordinates":[[[35.14909,47.071453],[35.149111,47.071758],[35.1495,47.071744],[35.14948,47.071435],[35.14909,47.071453]]]}},{"type":"Feature","properties":{"cadnum":"2321283401:04:003:0004"},"geometry":{"type":"Polygon","coordinates":[[[35.126768,47.077205],[35.126806,47.077567],[35.127141,47.077551],[35.127098,47.077184],[35.126769,47.077205],[35.126768,47.077205]]]}},{"type":"Feature","properties":{"cadnum":"2321283401:04:003:0010"},"geometry":{"type":"Polygon","coordinates":[[[35.127098,47.077184],[35.127141,47.077551],[35.127931,47.077488],[35.127899,47.077158],[35.127098,47.077184]]]}},{"type":"Feature","properties":{"cadnum":"2321283401:04:007:0007"},"geometry":{"type":"Polygon","coordinates":[[[35.125602,47.074974],[35.125694,47.076481],[35.126074,47.076495],[35.125958,47.074959],[35.125602,47.074974]]]}},{"type":"Feature","properties":{"cadnum":"2321283401:04:003:0002"},"geometry":{"type":"Polygon","coordinates":[[[35.12641,47.077216],[35.126456,47.077591],[35.126806,47.077567],[35.126768,47.077205],[35.12641,47.077216]]]}},{"type":"Feature","properties":{"cadnum":"2321283401:04:007:0006"},"geometry":{"type":"Polygon","coordinates":[[[35.125694,47.076481],[35.125718,47.076887],[35.126101,47.07687],[35.126074,47.076495],[35.125694,47.076481]]]}},{"type":"Feature","properties":{"cadnum":"2321283401:04:004:0008"},"geometry":{"type":"Polygon","coordinates":[[[35.133636,47.080651],[35.133668,47.081061],[35.133973,47.08105],[35.133943,47.080638],[35.133636,47.080651]]]}},{"type":"Feature","properties":{"cadnum":"2321283401:04:004:0001"},"geometry":{"type":"Polygon","coordinates":[[[35.133943,47.080638],[35.133972,47.08105],[35.134273,47.08104],[35.134245,47.080629],[35.133943,47.080638]]]}},{"type":"Feature","properties":{"cadnum":"2321283401:04:004:0009"},"geometry":{"type":"Polygon","coordinates":[[[35.133469,47.078943],[35.133636,47.080651],[35.133943,47.080638],[35.133825,47.078925],[35.133469,47.078943]]]}},{"type":"Feature","properties":{"cadnum":"2321283401:04:004:0002"},"geometry":{"type":"Polygon","coordinates":[[[35.133825,47.078925],[35.133943,47.080638],[35.134245,47.080629],[35.134127,47.078916],[35.133825,47.078925]]]}},{"type":"Feature","properties":{"cadnum":"2321283401:04:025:0004"},"geometry":{"type":"Polygon","coordinates":[[[35.144632,47.06801],[35.144691,47.068558],[35.145093,47.068528],[35.145067,47.067995],[35.144632,47.06801]]]}},{"type":"Feature","properties":{"cadnum":"2321283401:04:016:0002"},"geometry":{"type":"Polygon","coordinates":[[[35.140456,47.067308],[35.140484,47.067884],[35.140998,47.067872],[35.140969,47.067296],[35.140456,47.067308]]]}},{"type":"Feature","properties":{"cadnum":"2321283401:04:013:0010"},"geometry":{"type":"Polygon","coordinates":[[[35.140778,47.068496],[35.140876,47.070149],[35.141281,47.070121],[35.141128,47.068487],[35.140778,47.068496]]]}},{"type":"Feature","properties":{"cadnum":"2321283401:04:016:0004"},"geometry":{"type":"Polygon","coordinates":[[[35.141847,47.067335],[35.141885,47.067789],[35.142292,47.067783],[35.142286,47.067389],[35.141847,47.067335]]]}},{"type":"Feature","properties":{"cadnum":"2321283401:04:013:0005"},"geometry":{"type":"Polygon","coordinates":[[[35.141574,47.068135],[35.141592,47.068477],[35.14213,47.068475],[35.142124,47.068111],[35.141574,47.068135]]]}},{"type":"Feature","properties":{"cadnum":"2321283401:04:013:0007"},"geometry":{"type":"Polygon","coordinates":[[[35.142124,47.068111],[35.14213,47.068475],[35.142557,47.068452],[35.142521,47.06809],[35.142124,47.068111]]]}},{"type":"Feature","properties":{"cadnum":"2321283401:04:013:0006"},"geometry":{"type":"Polygon","coordinates":[[[35.141592,47.068477],[35.141724,47.070093],[35.142297,47.070054],[35.14213,47.068475],[35.141592,47.068477]]]}},{"type":"Feature","properties":{"cadnum":"2321283401:04:013:0009"},"geometry":{"type":"Polygon","coordinates":[[[35.140758,47.068161],[35.140778,47.068496],[35.141128,47.068487],[35.141097,47.068153],[35.140758,47.068161]]]}},{"type":"Feature","properties":{"cadnum":"2321283401:04:016:0006"},"geometry":{"type":"Polygon","coordinates":[[[35.140973,47.067399],[35.140995,47.06782],[35.141679,47.067798],[35.14168,47.067397],[35.140973,47.067399]]]}},{"type":"Feature","properties":{"cadnum":"2321283401:04:013:0008"},"geometry":{"type":"Polygon","coordinates":[[[35.14213,47.068475],[35.142297,47.070054],[35.142693,47.07003],[35.142557,47.068452],[35.14213,47.068475]]]}},{"type":"Feature","properties":{"cadnum":"2321283401:04:018:0003"},"geometry":{"type":"Polygon","coordinates":[[[35.150772,47.07937],[35.150806,47.0799],[35.152968,47.079813],[35.152935,47.079269],[35.150772,47.07937]]]}},{"type":"Feature","properties":{"cadnum":"2321283401:04:018:0001"},"geometry":{"type":"Polygon","coordinates":[[[35.153009,47.080045],[35.153046,47.080392],[35.15511,47.08029],[35.155074,47.079952],[35.153009,47.080045]]]}},{"type":"Feature","properties":{"cadnum":"2321283401:04:024:0003"},"geometry":{"type":"Polygon","coordinates":[[[35.160179,47.075238],[35.160222,47.075708],[35.160839,47.075688],[35.160818,47.075218],[35.160179,47.075238]]]}},{"type":"Feature","properties":{"cadnum":"2321283401:04:023:0008"},"geometry":{"type":"Polygon","coordinates":[[[35.157422,47.074921],[35.15745,47.075393],[35.15746,47.075608],[35.157465,47.075739],[35.157638,47.075732],[35.157719,47.075729],[35.157819,47.075725],[35.157818,47.075624],[35.157816,47.075408],[35.157783,47.074906],[35.157422,47.074921]]]}},{"type":"Feature","properties":{"cadnum":"2321283401:04:020:0002"},"geometry":{"type":"Polygon","coordinates":[[[35.160246,47.075971],[35.16028,47.076332],[35.160299,47.076506],[35.160847,47.076485],[35.160831,47.076301],[35.160798,47.07595],[35.160246,47.075971]]]}},{"type":"Feature","properties":{"cadnum":"2321283401:04:023:0006"},"geometry":{"type":"Polygon","coordinates":[[[35.157076,47.074874],[35.15711,47.075404],[35.157131,47.075652],[35.157139,47.075748],[35.157261,47.075745],[35.1573,47.075744],[35.157465,47.075739],[35.157457,47.075547],[35.15745,47.075392],[35.157418,47.074864],[35.157076,47.074874]]]}},{"type":"Feature","properties":{"cadnum":"2321283401:04:008:0003"},"geometry":{"type":"Polygon","coordinates":[[[35.130697,47.072758],[35.130725,47.073101],[35.131351,47.073101],[35.131309,47.072739],[35.130697,47.072758]]]}},{"type":"Feature","properties":{"cadnum":"2321283401:04:011:0014"},"geometry":{"type":"Polygon","coordinates":[[[35.131178,47.070392],[35.131285,47.07211],[35.131951,47.072085],[35.131866,47.070412],[35.131178,47.070392]]]}},{"type":"Feature","properties":{"cadnum":"2321283401:04:011:0007"},"geometry":{"type":"Polygon","coordinates":[[[35.130554,47.072135],[35.130583,47.07242],[35.131307,47.072392],[35.131285,47.07211],[35.130554,47.072135]]]}},{"type":"Feature","properties":{"cadnum":"2321283401:04:008:0021"},"geometry":{"type":"Polygon","coordinates":[[[35.132016,47.072708],[35.13204,47.072908],[35.132062,47.073096],[35.132066,47.073133],[35.132762,47.07312],[35.132738,47.072918],[35.13271,47.072694],[35.132405,47.072701],[35.132353,47.072701],[35.132016,47.072708]]]}},{"type":"Feature","properties":{"cadnum":"2321283401:04:011:0016"},"geometry":{"type":"Polygon","coordinates":[[[35.132251,47.070416],[35.132287,47.072018],[35.132692,47.072015],[35.132692,47.072016],[35.132722,47.072337],[35.132921,47.072333],[35.132846,47.070449],[35.132251,47.070416]]]}},{"type":"Feature","properties":{"cadnum":"2321283401:04:008:0018"},"geometry":{"type":"Polygon","coordinates":[[[35.130251,47.072775],[35.13027,47.073101],[35.130725,47.073101],[35.130697,47.072758],[35.130251,47.072775]]]}},{"type":"Feature","properties":{"cadnum":"2321283401:04:011:0015"},"geometry":{"type":"Polygon","coordinates":[[[35.132287,47.072018],[35.132294,47.072363],[35.132722,47.072337],[35.132692,47.072015],[35.132287,47.072018]]]}},{"type":"Feature","properties":{"cadnum":"2321283401:04:011:0004"},"geometry":{"type":"Polygon","coordinates":[[[35.1332,47.070454],[35.13327,47.072043],[35.133655,47.072032],[35.133565,47.070444],[35.133565,47.070443],[35.1332,47.070454]]]}},{"type":"Feature","properties":{"cadnum":"2321283401:04:008:0016"},"geometry":{"type":"Polygon","coordinates":[[[35.131309,47.072739],[35.131351,47.073101],[35.132062,47.073096],[35.132016,47.072708],[35.131309,47.072739]]]}},{"type":"Feature","properties":{"cadnum":"2321283401:04:011:0012"},"geometry":{"type":"Polygon","coordinates":[[[35.129172,47.070359],[35.129335,47.072464],[35.129561,47.072456],[35.129526,47.07213],[35.129925,47.0721],[35.129824,47.070366],[35.129172,47.070359]]]}},{"type":"Feature","properties":{"cadnum":"2321283401:04:008:0004"},"geometry":{"type":"Polygon","coordinates":[[[35.130725,47.073101],[35.130812,47.073891],[35.131433,47.07389],[35.131351,47.073101],[35.130725,47.073101]]]}},{"type":"Feature","properties":{"cadnum":"2321283401:04:008:0022"},"geometry":{"type":"Polygon","coordinates":[[[35.132066,47.073133],[35.132126,47.073726],[35.132828,47.073712],[35.132762,47.07312],[35.132066,47.073133]]]}},{"type":"Feature","properties":{"cadnum":"2321283401:04:011:0013"},"geometry":{"type":"Polygon","coordinates":[[[35.131285,47.07211],[35.131307,47.072392],[35.131963,47.072376],[35.131951,47.072085],[35.131285,47.07211]]]}},{"type":"Feature","properties":{"cadnum":"2321283401:04:011:0008"},"geometry":{"type":"Polygon","coordinates":[[[35.13045,47.070369],[35.130554,47.072135],[35.131285,47.07211],[35.131178,47.070392],[35.13045,47.070369]]]}},{"type":"Feature","properties":{"cadnum":"2321283401:04:011:0003"},"geometry":{"type":"Polygon","coordinates":[[[35.13327,47.072043],[35.133276,47.072159],[35.133282,47.072321],[35.133501,47.072315],[35.133571,47.072313],[35.133671,47.07231],[35.133666,47.072212],[35.133655,47.072032],[35.13327,47.072043]]]}},{"type":"Feature","properties":{"cadnum":"2321283401:04:011:0011"},"geometry":{"type":"Polygon","coordinates":[[[35.129526,47.07213],[35.129561,47.072456],[35.129966,47.072447],[35.129925,47.0721],[35.129526,47.07213]]]}},{"type":"Feature","properties":{"cadnum":"2321283401:04:002:0017"},"geometry":{"type":"Polygon","coordinates":[[[35.139838,47.081626],[35.140252,47.08366],[35.14077,47.083613],[35.14037,47.081581],[35.139838,47.081626]]]}},{"type":"Feature","properties":{"cadnum":"2321283401:04:002:0010"},"geometry":{"type":"Polygon","coordinates":[[[35.141556,47.081475],[35.141998,47.083484],[35.143019,47.083392],[35.142585,47.081423],[35.141556,47.081475]]]}}]}