{"type":"FeatureCollection","features":[{"type":"Feature","properties":{"cadnum":"2321587301:01:002:0001"},"geometry":{"type":"Polygon","coordinates":[[[35.329431,48.119973],[35.331939,48.120537],[35.331994,48.120429],[35.329484,48.119865],[35.329431,48.119973]]]}},{"type":"Feature","properties":{"cadnum":"2321587301:01:001:0002"},"geometry":{"type":"Polygon","coordinates":[[[35.30991,48.126504],[35.309973,48.12658],[35.310344,48.127027],[35.310948,48.126711],[35.310536,48.126251],[35.310029,48.126456],[35.30991,48.126504]]]}},{"type":"Feature","properties":{"cadnum":"2321587301:01:001:0001"},"geometry":{"type":"Polygon","coordinates":[[[35.312423,48.128205],[35.312835,48.128663],[35.313304,48.128417],[35.31293,48.128001],[35.312423,48.128205]]]}}]}