{"type":"FeatureCollection","features":[{"type":"Feature","properties":{"cadnum":"2321286801:03:004:0001"},"geometry":{"type":"Polygon","coordinates":[[[34.697425,47.073693],[34.697494,47.073849],[34.697494,47.07385],[34.697493,47.07385],[34.697627,47.07415],[34.698074,47.074057],[34.698033,47.073967],[34.698033,47.073966],[34.69787,47.073597],[34.697425,47.073693]]]}},{"type":"Feature","properties":{"cadnum":"2321286801:03:005:0005"},"geometry":{"type":"Polygon","coordinates":[[[34.69984,47.077137],[34.699961,47.077399],[34.700231,47.077371],[34.700232,47.077371],[34.700506,47.077342],[34.700368,47.077026],[34.69984,47.077137]]]}},{"type":"Feature","properties":{"cadnum":"2321286801:03:005:0014"},"geometry":{"type":"Polygon","coordinates":[[[34.699916,47.075125],[34.700045,47.075455],[34.700231,47.075423],[34.700232,47.075423],[34.701115,47.075269],[34.700961,47.074873],[34.700232,47.07505],[34.700231,47.07505],[34.699916,47.075125]]]}},{"type":"Feature","properties":{"cadnum":"2321286801:03:004:0002"},"geometry":{"type":"Polygon","coordinates":[[[34.69548,47.074119],[34.695687,47.074556],[34.697627,47.07415],[34.697545,47.073967],[34.697545,47.073966],[34.697425,47.073693],[34.696711,47.07385],[34.69671,47.07385],[34.69626,47.073948],[34.696176,47.073966],[34.696176,47.073967],[34.69548,47.074119]]]}},{"type":"Feature","properties":{"cadnum":"2321286801:03:005:0013"},"geometry":{"type":"Polygon","coordinates":[[[34.699018,47.075316],[34.699132,47.075606],[34.699314,47.075578],[34.699409,47.075563],[34.699527,47.075545],[34.700045,47.075455],[34.699916,47.075125],[34.699412,47.075248],[34.699018,47.075316]]]}},{"type":"Feature","properties":{"cadnum":"2321286801:03:008:0008"},"geometry":{"type":"Polygon","coordinates":[[[34.712021,47.07808],[34.712251,47.079347],[34.712692,47.079309],[34.712495,47.078016],[34.712021,47.07808]]]}},{"type":"Feature","properties":{"cadnum":"2321286801:03:008:0002"},"geometry":{"type":"Polygon","coordinates":[[[34.712873,47.076277],[34.712973,47.07759],[34.712973,47.077591],[34.712972,47.077591],[34.71298,47.077687],[34.712981,47.077707],[34.712982,47.077708],[34.712989,47.077805],[34.713483,47.077741],[34.713464,47.077591],[34.713464,47.07759],[34.713299,47.076222],[34.712873,47.076277]]]}},{"type":"Feature","properties":{"cadnum":"2321286801:03:008:0010"},"geometry":{"type":"Polygon","coordinates":[[[34.712977,47.077958],[34.713195,47.079298],[34.713724,47.079256],[34.713538,47.077939],[34.712977,47.077958]]]}},{"type":"Feature","properties":{"cadnum":"2321286801:03:008:0018"},"geometry":{"type":"Polygon","coordinates":[[[34.714556,47.07776],[34.71478,47.079176],[34.715229,47.079128],[34.71498,47.077711],[34.714556,47.07776]]]}},{"type":"Feature","properties":{"cadnum":"2321286801:03:008:0016"},"geometry":{"type":"Polygon","coordinates":[[[34.715473,47.077674],[34.71548,47.077707],[34.71548,47.077708],[34.715744,47.079007],[34.716397,47.07895],[34.716228,47.077595],[34.71571,47.077649],[34.715473,47.077674]]]}},{"type":"Feature","properties":{"cadnum":"2321286801:03:007:0009"},"geometry":{"type":"Polygon","coordinates":[[[34.714361,47.079832],[34.714383,47.080241],[34.714871,47.080233],[34.71484,47.079799],[34.714361,47.079832]]]}},{"type":"Feature","properties":{"cadnum":"2321286801:03:007:0002"},"geometry":{"type":"Polygon","coordinates":[[[34.71555,47.079727],[34.715747,47.081331],[34.715755,47.081392],[34.71657,47.081306],[34.716369,47.080371],[34.716038,47.079674],[34.71555,47.079727]]]}},{"type":"Feature","properties":{"cadnum":"2321286801:03:008:0007"},"geometry":{"type":"Polygon","coordinates":[[[34.712251,47.079347],[34.712322,47.07974],[34.712755,47.07972],[34.712692,47.079309],[34.712251,47.079347]]]}},{"type":"Feature","properties":{"cadnum":"2321286801:03:008:0017"},"geometry":{"type":"Polygon","coordinates":[[[34.71478,47.079176],[34.714823,47.079529],[34.71533,47.079497],[34.715229,47.079128],[34.71478,47.079176]]]}},{"type":"Feature","properties":{"cadnum":"2321286801:03:008:0020"},"geometry":{"type":"Polygon","coordinates":[[[34.711412,47.078179],[34.711674,47.079426],[34.712259,47.079395],[34.712021,47.07808],[34.711412,47.078179]]]}},{"type":"Feature","properties":{"cadnum":"2321286801:03:008:0023"},"geometry":{"type":"Polygon","coordinates":[[[34.714164,47.076468],[34.714365,47.07759],[34.714365,47.077591],[34.714364,47.077591],[34.714377,47.077661],[34.714386,47.077707],[34.714386,47.077708],[34.714392,47.077741],[34.714984,47.077677],[34.714998,47.077676],[34.714998,47.077675],[34.714801,47.076417],[34.714164,47.076468]]]}},{"type":"Feature","properties":{"cadnum":"2321286801:03:007:0007"},"geometry":{"type":"Polygon","coordinates":[[[34.712861,47.080003],[34.71287,47.080318],[34.713542,47.080334],[34.713527,47.079924],[34.712861,47.080003]]]}},{"type":"Feature","properties":{"cadnum":"2321286801:03:008:0015"},"geometry":{"type":"Polygon","coordinates":[[[34.715744,47.079007],[34.71583,47.079452],[34.71649,47.079391],[34.716397,47.07895],[34.715744,47.079007]]]}},{"type":"Feature","properties":{"cadnum":"2321286801:03:008:0019"},"geometry":{"type":"Polygon","coordinates":[[[34.711674,47.079426],[34.711732,47.079792],[34.712322,47.07974],[34.712259,47.079395],[34.711674,47.079426]]]}},{"type":"Feature","properties":{"cadnum":"2321286801:03:007:0010"},"geometry":{"type":"Polygon","coordinates":[[[34.714383,47.080241],[34.714424,47.081448],[34.714425,47.081448],[34.714443,47.081983],[34.714906,47.082003],[34.714893,47.081331],[34.714892,47.081331],[34.714871,47.080233],[34.714383,47.080241]]]}},{"type":"Feature","properties":{"cadnum":"2321286801:03:008:0009"},"geometry":{"type":"Polygon","coordinates":[[[34.713195,47.079298],[34.713255,47.079665],[34.713775,47.079617],[34.713724,47.079256],[34.713195,47.079298]]]}},{"type":"Feature","properties":{"cadnum":"2321286801:03:007:0001"},"geometry":{"type":"Polygon","coordinates":[[[34.71346,47.079977],[34.713722,47.081331],[34.713783,47.081649],[34.7142,47.081612],[34.714162,47.081417],[34.713879,47.07994],[34.71346,47.079977]]]}},{"type":"Feature","properties":{"cadnum":"2321286801:03:007:0008"},"geometry":{"type":"Polygon","coordinates":[[[34.71287,47.080318],[34.712992,47.081331],[34.712991,47.081331],[34.713066,47.08195],[34.713596,47.081965],[34.713588,47.08161],[34.713577,47.081331],[34.713542,47.080334],[34.71287,47.080318]]]}},{"type":"Feature","properties":{"cadnum":"2321286801:03:008:0006"},"geometry":{"type":"Polygon","coordinates":[[[34.712216,47.076562],[34.712378,47.07759],[34.712378,47.077591],[34.712389,47.077659],[34.712397,47.077707],[34.712397,47.077708],[34.712442,47.077987],[34.712727,47.07796],[34.712678,47.077591],[34.712678,47.07759],[34.71254,47.076531],[34.712216,47.076562]]]}},{"type":"Feature","properties":{"cadnum":"2321286801:03:013:0009"},"geometry":{"type":"Polygon","coordinates":[[[34.702953,47.070146],[34.702981,47.070225],[34.703079,47.070496],[34.703209,47.070858],[34.70361,47.070793],[34.70347,47.070431],[34.703384,47.07021],[34.703335,47.070082],[34.703177,47.070108],[34.703176,47.070108],[34.703175,47.070108],[34.702954,47.070145],[34.702953,47.070146]]]}},{"type":"Feature","properties":{"cadnum":"2321286801:03:013:0003"},"geometry":{"type":"Polygon","coordinates":[[[34.704083,47.069952],[34.704178,47.070225],[34.704179,47.070225],[34.70418,47.070225],[34.704215,47.070325],[34.70435,47.070709],[34.704609,47.070681],[34.704492,47.070279],[34.704476,47.070223],[34.704382,47.069903],[34.704083,47.069952]]]}},{"type":"Feature","properties":{"cadnum":"2321286801:03:006:0003"},"geometry":{"type":"Polygon","coordinates":[[[34.705621,47.073545],[34.705678,47.073858],[34.705725,47.073848],[34.705725,47.073849],[34.705875,47.073817],[34.705896,47.073813],[34.707254,47.073531],[34.707153,47.073304],[34.707122,47.073235],[34.705896,47.073489],[34.705621,47.073545]]]}},{"type":"Feature","properties":{"cadnum":"2321286801:03:013:0006"},"geometry":{"type":"Polygon","coordinates":[[[34.705333,47.070819],[34.70541,47.071012],[34.705593,47.071477],[34.705725,47.071454],[34.705769,47.071446],[34.705896,47.071424],[34.705896,47.071423],[34.705904,47.071422],[34.705817,47.0712],[34.705722,47.070957],[34.705647,47.070762],[34.705333,47.070819]]]}},{"type":"Feature","properties":{"cadnum":"2321286801:03:013:0013"},"geometry":{"type":"Polygon","coordinates":[[[34.701789,47.070989],[34.701941,47.071375],[34.702231,47.072121],[34.70269,47.072024],[34.70244,47.071367],[34.702249,47.070908],[34.701789,47.070989]]]}},{"type":"Feature","properties":{"cadnum":"2321286801:03:013:0002"},"geometry":{"type":"Polygon","coordinates":[[[34.701371,47.070398],[34.701429,47.070565],[34.70162,47.070538],[34.701598,47.070466],[34.701612,47.070465],[34.701578,47.070367],[34.701371,47.070398]]]}},{"type":"Feature","properties":{"cadnum":"2321286801:03:013:0001"},"geometry":{"type":"Polygon","coordinates":[[[34.705683,47.070127],[34.705713,47.070167],[34.705715,47.07017],[34.705725,47.070169],[34.705847,47.07015],[34.705896,47.070143],[34.706018,47.070124],[34.706012,47.070107],[34.706012,47.070106],[34.706185,47.070069],[34.706201,47.070108],[34.7062,47.070108],[34.706199,47.070108],[34.706239,47.070205],[34.706248,47.070225],[34.706269,47.070276],[34.706339,47.070264],[34.706323,47.070225],[34.70615,47.0698],[34.706072,47.069597],[34.705746,47.069649],[34.705868,47.070088],[34.705774,47.070108],[34.705773,47.070108],[34.705685,47.070127],[34.705683,47.070127]],[[34.705935,47.070011],[34.705935,47.070012],[34.705939,47.07002],[34.705927,47.070022],[34.705923,47.070014],[34.705935,47.070011]],[[34.705828,47.069755],[34.705832,47.069764],[34.70582,47.069767],[34.705816,47.069759],[34.705816,47.069758],[34.705828,47.069755]]]}},{"type":"Feature","properties":{"cadnum":"2321286801:03:013:0014"},"geometry":{"type":"Polygon","coordinates":[[[34.703335,47.070082],[34.703345,47.070108],[34.703344,47.070108],[34.703373,47.070182],[34.70339,47.070225],[34.703403,47.070258],[34.70347,47.070431],[34.703557,47.070659],[34.704035,47.070576],[34.703948,47.070342],[34.703866,47.070122],[34.703819,47.069998],[34.70357,47.070041],[34.7035,47.070053],[34.703335,47.070082]]]}},{"type":"Feature","properties":{"cadnum":"2321286801:03:013:0012"},"geometry":{"type":"Polygon","coordinates":[[[34.701578,47.070367],[34.701609,47.070468],[34.701691,47.070741],[34.701789,47.070989],[34.702249,47.070908],[34.702168,47.070715],[34.702152,47.070669],[34.702019,47.070326],[34.702006,47.070291],[34.701742,47.070338],[34.701684,47.070348],[34.701578,47.070367]]]}},{"type":"Feature","properties":{"cadnum":"2321286801:03:013:0007"},"geometry":{"type":"Polygon","coordinates":[[[34.702006,47.070291],[34.702149,47.070662],[34.702168,47.070715],[34.702691,47.070622],[34.702672,47.07057],[34.702538,47.070201],[34.702006,47.070291]]]}},{"type":"Feature","properties":{"cadnum":"2321286801:03:013:0008"},"geometry":{"type":"Polygon","coordinates":[[[34.702168,47.070715],[34.70244,47.071367],[34.702942,47.071315],[34.702691,47.070622],[34.702168,47.070715]]]}},{"type":"Feature","properties":{"cadnum":"2321286801:03:013:0011"},"geometry":{"type":"Polygon","coordinates":[[[34.705159,47.070685],[34.705206,47.070835],[34.705333,47.070819],[34.705647,47.070762],[34.705725,47.070752],[34.705843,47.070736],[34.705651,47.070209],[34.70565,47.070206],[34.705478,47.069728],[34.705263,47.069762],[34.705348,47.070098],[34.70535,47.070108],[34.705349,47.070108],[34.705467,47.070636],[34.705159,47.070685]]]}},{"type":"Feature","properties":{"cadnum":"2321286801:03:013:0015"},"geometry":{"type":"Polygon","coordinates":[[[34.703557,47.070659],[34.703997,47.071793],[34.703997,47.071794],[34.704456,47.071714],[34.704035,47.070576],[34.703557,47.070659]]]}},{"type":"Feature","properties":{"cadnum":"2321286801:03:006:0011"},"geometry":{"type":"Polygon","coordinates":[[[34.703584,47.072666],[34.703899,47.073392],[34.704409,47.073297],[34.704129,47.072563],[34.703584,47.072666]]]}},{"type":"Feature","properties":{"cadnum":"2321286801:03:006:0010"},"geometry":{"type":"Polygon","coordinates":[[[34.703389,47.072156],[34.703433,47.072275],[34.703525,47.072529],[34.703584,47.072666],[34.704129,47.072563],[34.704075,47.072425],[34.703983,47.072209],[34.703917,47.072057],[34.703753,47.072088],[34.703697,47.072098],[34.703389,47.072156]]]}},{"type":"Feature","properties":{"cadnum":"2321286801:03:013:0010"},"geometry":{"type":"Polygon","coordinates":[[[34.70495,47.069811],[34.704962,47.069886],[34.704998,47.070108],[34.704997,47.070108],[34.704996,47.070108],[34.705006,47.070159],[34.705025,47.070225],[34.705159,47.070685],[34.705467,47.070636],[34.705375,47.070225],[34.705376,47.070225],[34.705348,47.070098],[34.705277,47.069818],[34.705263,47.069762],[34.705082,47.069791],[34.705043,47.069797],[34.70495,47.069811]]]}},{"type":"Feature","properties":{"cadnum":"2321286801:03:005:0001"},"geometry":{"type":"Polygon","coordinates":[[[34.700382,47.072799],[34.7006,47.0732],[34.700799,47.073815],[34.701429,47.073643],[34.701231,47.073045],[34.701154,47.072851],[34.701043,47.072637],[34.700382,47.072799]]]}},{"type":"Feature","properties":{"cadnum":"2321286801:03:002:0004"},"geometry":{"type":"Polygon","coordinates":[[[34.701418,47.082917],[34.702798,47.082874],[34.702769,47.081683],[34.702611,47.081677],[34.702611,47.081676],[34.70258,47.081357],[34.701857,47.08139],[34.701515,47.081405],[34.701511,47.081448],[34.701512,47.081448],[34.701418,47.082917]]]}},{"type":"Feature","properties":{"cadnum":"2321286801:03:002:0001"},"geometry":{"type":"Polygon","coordinates":[[[34.705279,47.082735],[34.705896,47.082714],[34.705896,47.082713],[34.706629,47.082687],[34.706559,47.081762],[34.705896,47.08179],[34.705347,47.081812],[34.705279,47.082735]]]}},{"type":"Feature","properties":{"cadnum":"2321286801:03:009:0001"},"geometry":{"type":"Polygon","coordinates":[[[34.723737,47.073622],[34.723743,47.073849],[34.723743,47.07385],[34.723742,47.07385],[34.723744,47.073866],[34.723905,47.073873],[34.725979,47.073966],[34.72598,47.073966],[34.726163,47.073975],[34.726156,47.073911],[34.726135,47.073725],[34.723737,47.073622]]]}},{"type":"Feature","properties":{"cadnum":"2321286801:03:009:0011"},"geometry":{"type":"Polygon","coordinates":[[[34.724198,47.070249],[34.726036,47.070358],[34.72602,47.070108],[34.726019,47.070108],[34.726016,47.070043],[34.724244,47.069909],[34.724201,47.070225],[34.724202,47.070225],[34.724198,47.070249]]]}},{"type":"Feature","properties":{"cadnum":"2321286801:03:009:0008"},"geometry":{"type":"Polygon","coordinates":[[[34.723721,47.071701],[34.723741,47.072015],[34.724206,47.072058],[34.724471,47.072067],[34.724449,47.071739],[34.724227,47.071727],[34.723721,47.071701]]]}},{"type":"Feature","properties":{"cadnum":"2321286801:03:009:0007"},"geometry":{"type":"Polygon","coordinates":[[[34.724145,47.071352],[34.72416,47.071724],[34.726111,47.071822],[34.726099,47.07145],[34.724145,47.071352]]]}},{"type":"Feature","properties":{"cadnum":"2321286801:03:009:0010"},"geometry":{"type":"Polygon","coordinates":[[[34.723531,47.069857],[34.723564,47.070108],[34.723568,47.070134],[34.72358,47.070225],[34.723581,47.070225],[34.723583,47.070235],[34.724046,47.07024],[34.724198,47.070249],[34.724217,47.070108],[34.724244,47.069909],[34.724091,47.069897],[34.723531,47.069857]]]}},{"type":"Feature","properties":{"cadnum":"2321286801:03:009:0009"},"geometry":{"type":"Polygon","coordinates":[[[34.724449,47.071739],[34.724471,47.072067],[34.726112,47.072119],[34.726111,47.071822],[34.724449,47.071739]]]}},{"type":"Feature","properties":{"cadnum":"2321286801:03:009:0006"},"geometry":{"type":"Polygon","coordinates":[[[34.72369,47.071329],[34.723721,47.071701],[34.72416,47.071724],[34.724145,47.071352],[34.72369,47.071329]]]}},{"type":"Feature","properties":{"cadnum":"2321286801:03:023:0006"},"geometry":{"type":"Polygon","coordinates":[[[34.716868,47.062838],[34.716994,47.064045],[34.717573,47.06397],[34.717449,47.062759],[34.716868,47.062838]]]}},{"type":"Feature","properties":{"cadnum":"2321286801:03:021:0006"},"geometry":{"type":"Polygon","coordinates":[[[34.717352,47.064057],[34.717466,47.064434],[34.717632,47.064981],[34.718351,47.064868],[34.718205,47.064325],[34.7181,47.063939],[34.717352,47.064057]]]}},{"type":"Feature","properties":{"cadnum":"2321286801:03:023:0004"},"geometry":{"type":"Polygon","coordinates":[[[34.720695,47.060202],[34.721109,47.062625],[34.721122,47.062705],[34.721129,47.062742],[34.721245,47.063417],[34.721668,47.063329],[34.721601,47.062625],[34.7216,47.062625],[34.721377,47.060265],[34.720695,47.060202]]]}},{"type":"Feature","properties":{"cadnum":"2321286801:03:023:0003"},"geometry":{"type":"Polygon","coordinates":[[[34.721377,47.060265],[34.721611,47.062742],[34.721612,47.062742],[34.721668,47.063329],[34.721991,47.063257],[34.721943,47.062625],[34.721942,47.062625],[34.721766,47.060303],[34.721377,47.060265]]]}},{"type":"Feature","properties":{"cadnum":"2321286801:03:023:0008"},"geometry":{"type":"Polygon","coordinates":[[[34.71739,47.062181],[34.717434,47.062625],[34.717438,47.06266],[34.717446,47.062742],[34.717447,47.062742],[34.717449,47.062759],[34.717502,47.063279],[34.718145,47.06318],[34.718103,47.062781],[34.718745,47.062681],[34.718746,47.062681],[34.719385,47.06258],[34.719349,47.062208],[34.71981,47.062138],[34.71977,47.061814],[34.71739,47.062181]]]}},{"type":"Feature","properties":{"cadnum":"2321286801:03:023:0005"},"geometry":{"type":"Polygon","coordinates":[[[34.721766,47.060303],[34.721951,47.062742],[34.721952,47.062742],[34.721991,47.063257],[34.722204,47.063225],[34.722328,47.063206],[34.722282,47.062625],[34.722281,47.062625],[34.722108,47.060411],[34.721766,47.060303]]]}},{"type":"Feature","properties":{"cadnum":"2321286801:03:023:0007"},"geometry":{"type":"Polygon","coordinates":[[[34.718103,47.062781],[34.718145,47.06318],[34.718214,47.06387],[34.718857,47.06377],[34.718746,47.062681],[34.718745,47.062681],[34.718354,47.062742],[34.718103,47.062781]]]}},{"type":"Feature","properties":{"cadnum":"2321286801:03:023:0002"},"geometry":{"type":"Polygon","coordinates":[[[34.722108,47.060411],[34.722281,47.062625],[34.722288,47.062718],[34.72229,47.062742],[34.722328,47.063206],[34.722376,47.063203],[34.722376,47.063202],[34.722636,47.063184],[34.722603,47.062625],[34.722602,47.062625],[34.722486,47.060669],[34.722407,47.060592],[34.722204,47.06047],[34.722108,47.060411]]]}},{"type":"Feature","properties":{"cadnum":"2321286801:03:015:0010"},"geometry":{"type":"Polygon","coordinates":[[[34.699262,47.068755],[34.699601,47.069908],[34.699788,47.069881],[34.699463,47.06872],[34.699262,47.068755]]]}},{"type":"Feature","properties":{"cadnum":"2321286801:03:015:0005"},"geometry":{"type":"Polygon","coordinates":[[[34.69638,47.069224],[34.696829,47.070225],[34.69683,47.070225],[34.6969,47.07038],[34.697612,47.070267],[34.697565,47.070108],[34.697265,47.069086],[34.69638,47.069224]]]}},{"type":"Feature","properties":{"cadnum":"2321286801:03:016:0009"},"geometry":{"type":"Polygon","coordinates":[[[34.699235,47.067054],[34.699353,47.06744],[34.69982,47.067389],[34.699703,47.066992],[34.699235,47.067054]]]}},{"type":"Feature","properties":{"cadnum":"2321286801:03:015:0009"},"geometry":{"type":"Polygon","coordinates":[[[34.699601,47.069908],[34.699666,47.070108],[34.699665,47.070108],[34.699664,47.070108],[34.699737,47.070329],[34.699927,47.070296],[34.699864,47.070108],[34.699788,47.069881],[34.699601,47.069908]]]}},{"type":"Feature","properties":{"cadnum":"2321286801:03:011:0008"},"geometry":{"type":"Polygon","coordinates":[[[34.693185,47.069378],[34.693277,47.069592],[34.694738,47.069305],[34.694802,47.069293],[34.69491,47.069272],[34.69491,47.069271],[34.695292,47.069196],[34.695901,47.069076],[34.695814,47.068868],[34.695198,47.068987],[34.694738,47.069076],[34.693185,47.069378]]]}},{"type":"Feature","properties":{"cadnum":"2321286801:03:011:0003"},"geometry":{"type":"Polygon","coordinates":[[[34.694573,47.06716],[34.694729,47.067512],[34.694738,47.06751],[34.694738,47.067511],[34.695174,47.067429],[34.695013,47.067087],[34.694849,47.067115],[34.694573,47.06716]]]}},{"type":"Feature","properties":{"cadnum":"2321286801:03:016:0010"},"geometry":{"type":"Polygon","coordinates":[[[34.699353,47.06744],[34.699709,47.068607],[34.700155,47.06853],[34.69982,47.067389],[34.699353,47.06744]]]}},{"type":"Feature","properties":{"cadnum":"2321286801:03:003:0002"},"geometry":{"type":"Polygon","coordinates":[[[34.705479,47.079566],[34.705725,47.079548],[34.705725,47.079549],[34.705789,47.079543],[34.705896,47.078908],[34.706017,47.078194],[34.705863,47.078206],[34.705707,47.078217],[34.705479,47.079566]]]}},{"type":"Feature","properties":{"cadnum":"2321286801:03:003:0001"},"geometry":{"type":"Polygon","coordinates":[[[34.705707,47.078217],[34.705725,47.078216],[34.705863,47.078206],[34.705896,47.078203],[34.706017,47.078194],[34.706119,47.077591],[34.706119,47.07759],[34.706181,47.077228],[34.705871,47.077251],[34.705793,47.077707],[34.705793,47.077708],[34.705707,47.078217]]]}},{"type":"Feature","properties":{"cadnum":"2321286801:03:003:0010"},"geometry":{"type":"Polygon","coordinates":[[[34.70694,47.079913],[34.706961,47.080247],[34.707892,47.080235],[34.707872,47.079908],[34.70694,47.079913]]]}},{"type":"Feature","properties":{"cadnum":"2321286801:03:008:0005"},"geometry":{"type":"Polygon","coordinates":[[[34.709417,47.079359],[34.709458,47.079602],[34.709621,47.07959],[34.710098,47.079554],[34.71042,47.07953],[34.710378,47.079287],[34.710101,47.079308],[34.709808,47.079329],[34.709417,47.079359]]]}},{"type":"Feature","properties":{"cadnum":"2321286801:03:002:0002"},"geometry":{"type":"Polygon","coordinates":[[[34.706744,47.081593],[34.707452,47.081566],[34.707456,47.08136],[34.70746,47.081178],[34.706755,47.081214],[34.706751,47.081331],[34.706744,47.081593]]]}},{"type":"Feature","properties":{"cadnum":"2321286801:03:003:0009"},"geometry":{"type":"Polygon","coordinates":[[[34.707872,47.079908],[34.707892,47.080235],[34.708355,47.08023],[34.708593,47.080218],[34.708816,47.080208],[34.708808,47.080088],[34.708805,47.080046],[34.708796,47.079901],[34.70858,47.079904],[34.708372,47.079907],[34.707872,47.079908]]]}},{"type":"Feature","properties":{"cadnum":"2321286801:03:003:0006"},"geometry":{"type":"Polygon","coordinates":[[[34.707727,47.077088],[34.707778,47.077707],[34.707778,47.077708],[34.707789,47.077829],[34.708583,47.07778],[34.708557,47.077591],[34.708557,47.07759],[34.708536,47.077425],[34.708058,47.077417],[34.708015,47.077071],[34.707727,47.077088]]]}},{"type":"Feature","properties":{"cadnum":"2321286801:03:010:0013"},"geometry":{"type":"Polygon","coordinates":[[[34.714945,47.073802],[34.714949,47.073849],[34.714949,47.07385],[34.714947,47.07385],[34.71498,47.074224],[34.715316,47.074212],[34.715425,47.07569],[34.715999,47.075632],[34.715748,47.073967],[34.715748,47.073966],[34.715749,47.073966],[34.715715,47.073734],[34.714945,47.073802]]]}},{"type":"Feature","properties":{"cadnum":"2321286801:03:010:0004"},"geometry":{"type":"Polygon","coordinates":[[[34.716794,47.072816],[34.716985,47.073966],[34.716985,47.073967],[34.717239,47.075497],[34.71772,47.075442],[34.717461,47.07385],[34.717461,47.073849],[34.717284,47.07276],[34.716794,47.072816]]]}},{"type":"Feature","properties":{"cadnum":"2321286801:03:011:0006"},"geometry":{"type":"Polygon","coordinates":[[[34.693906,47.066256],[34.69401,47.066484],[34.694011,47.066484],[34.694087,47.066648],[34.694783,47.066539],[34.694702,47.066367],[34.694595,47.066137],[34.693906,47.066256]]]}},{"type":"Feature","properties":{"cadnum":"2321286801:03:011:0007"},"geometry":{"type":"Polygon","coordinates":[[[34.692902,47.066433],[34.692925,47.066484],[34.692926,47.066484],[34.693074,47.066805],[34.694087,47.066648],[34.693957,47.066367],[34.693956,47.066367],[34.693906,47.066256],[34.693277,47.066367],[34.692902,47.066433]]]}},{"type":"Feature","properties":{"cadnum":"2321286801:03:006:0007"},"geometry":{"type":"Polygon","coordinates":[[[34.704042,47.074326],[34.704078,47.074494],[34.705725,47.074307],[34.705725,47.074308],[34.707465,47.07411],[34.707436,47.073951],[34.707309,47.073965],[34.705725,47.07414],[34.705725,47.074141],[34.704042,47.074326]]]}},{"type":"Feature","properties":{"cadnum":"2321286801:03:005:0003"},"geometry":{"type":"Polygon","coordinates":[[[34.702055,47.074452],[34.702139,47.07462],[34.702573,47.074521],[34.703088,47.074373],[34.702979,47.074211],[34.70249,47.074354],[34.702055,47.074452]]]}},{"type":"Feature","properties":{"cadnum":"2321286801:03:003:0003"},"geometry":{"type":"Polygon","coordinates":[[[34.702629,47.077686],[34.702633,47.077707],[34.702634,47.077707],[34.702634,47.077708],[34.702947,47.079126],[34.703423,47.079047],[34.703106,47.077607],[34.702851,47.077649],[34.702629,47.077686]]]}},{"type":"Feature","properties":{"cadnum":"2321286801:03:005:0009"},"geometry":{"type":"Polygon","coordinates":[[[34.702566,47.077111],[34.70264,47.077402],[34.702668,47.077512],[34.702839,47.077477],[34.702865,47.077473],[34.70293,47.077459],[34.703316,47.077382],[34.703199,47.077084],[34.702566,47.077111]]]}},{"type":"Feature","properties":{"cadnum":"2321286801:03:006:0009"},"geometry":{"type":"Polygon","coordinates":[[[34.704168,47.074662],[34.704219,47.074823],[34.705896,47.074662],[34.705896,47.074661],[34.707577,47.074499],[34.707539,47.074316],[34.705725,47.074503],[34.704168,47.074662]]]}},{"type":"Feature","properties":{"cadnum":"2321286801:03:006:0005"},"geometry":{"type":"Polygon","coordinates":[[[34.703985,47.074135],[34.704042,47.074326],[34.705896,47.074122],[34.705896,47.074121],[34.707308,47.073965],[34.707309,47.073965],[34.707308,47.073964],[34.707271,47.073762],[34.705725,47.073937],[34.705725,47.073938],[34.703985,47.074135]]]}},{"type":"Feature","properties":{"cadnum":"2321286801:03:005:0004"},"geometry":{"type":"Polygon","coordinates":[[[34.700933,47.074705],[34.701023,47.074872],[34.702139,47.07462],[34.702055,47.074452],[34.700933,47.074705]]]}},{"type":"Feature","properties":{"cadnum":"2321286801:03:005:0010"},"geometry":{"type":"Polygon","coordinates":[[[34.702525,47.076945],[34.702566,47.077111],[34.703199,47.077084],[34.703316,47.077382],[34.704184,47.0772],[34.704105,47.076879],[34.702525,47.076945]]]}},{"type":"Feature","properties":{"cadnum":"2321286801:03:005:0006"},"geometry":{"type":"Polygon","coordinates":[[[34.700368,47.077026],[34.700506,47.077342],[34.701795,47.077191],[34.701707,47.076842],[34.700368,47.077026]]]}},{"type":"Feature","properties":{"cadnum":"2321286801:03:007:0006"},"geometry":{"type":"Polygon","coordinates":[[[34.71875,47.079465],[34.718751,47.079626],[34.718751,47.079766],[34.719729,47.079707],[34.719731,47.079404],[34.719553,47.079415],[34.719429,47.079423],[34.719239,47.079434],[34.71916,47.079439],[34.71875,47.079465]]]}},{"type":"Feature","properties":{"cadnum":"2321286801:03:008:0030"},"geometry":{"type":"Polygon","coordinates":[[[34.720509,47.077566],[34.720524,47.077707],[34.720525,47.077707],[34.720525,47.077708],[34.720606,47.078427],[34.721083,47.078383],[34.721001,47.077679],[34.720984,47.077522],[34.720509,47.077566]]]}},{"type":"Feature","properties":{"cadnum":"2321286801:03:007:0005"},"geometry":{"type":"Polygon","coordinates":[[[34.718751,47.079766],[34.718758,47.080514],[34.719419,47.080509],[34.719425,47.079791],[34.719426,47.079791],[34.719729,47.079782],[34.719729,47.079707],[34.718751,47.079766]]]}},{"type":"Feature","properties":{"cadnum":"2321286801:03:008:0021"},"geometry":{"type":"Polygon","coordinates":[[[34.72119,47.079177],[34.721278,47.080846],[34.721766,47.080885],[34.721716,47.079134],[34.72119,47.079177]]]}},{"type":"Feature","properties":{"cadnum":"2321286801:03:008:0029"},"geometry":{"type":"Polygon","coordinates":[[[34.720606,47.078427],[34.720653,47.078846],[34.720687,47.079045],[34.721139,47.079002],[34.721134,47.078823],[34.721083,47.078383],[34.720606,47.078427]]]}},{"type":"Feature","properties":{"cadnum":"2321286801:03:022:0001"},"geometry":{"type":"Polygon","coordinates":[[[34.723119,47.06553],[34.72315,47.065761],[34.723683,47.065787],[34.723687,47.065875],[34.725464,47.066001],[34.725413,47.065659],[34.723119,47.06553]]]}},{"type":"Feature","properties":{"cadnum":"2321286801:03:008:0013"},"geometry":{"type":"Polygon","coordinates":[[[34.722776,47.076495],[34.722777,47.076764],[34.723512,47.076738],[34.7235,47.076443],[34.722776,47.076495]]]}},{"type":"Feature","properties":{"cadnum":"2321286801:03:008:0011"},"geometry":{"type":"Polygon","coordinates":[[[34.722623,47.076769],[34.722632,47.077052],[34.723516,47.076976],[34.723512,47.076738],[34.722623,47.076769]]]}},{"type":"Feature","properties":{"cadnum":"2321286801:03:008:0014"},"geometry":{"type":"Polygon","coordinates":[[[34.721025,47.07658],[34.72104,47.076825],[34.722204,47.076785],[34.722777,47.076764],[34.722776,47.076495],[34.722204,47.076523],[34.721025,47.07658]]]}},{"type":"Feature","properties":{"cadnum":"2321286801:03:008:0012"},"geometry":{"type":"Polygon","coordinates":[[[34.72104,47.076825],[34.721087,47.077366],[34.722204,47.07729],[34.72264,47.07726],[34.722632,47.077052],[34.722623,47.076769],[34.722376,47.076779],[34.72104,47.076825]],[[34.722486,47.077131],[34.722531,47.077099],[34.722578,47.07713],[34.722533,47.077163],[34.722486,47.077131]]]}},{"type":"Feature","properties":{"cadnum":"2321286801:03:006:0006"},"geometry":{"type":"Polygon","coordinates":[[[34.707436,47.073951],[34.707439,47.073966],[34.707439,47.073967],[34.707465,47.07411],[34.708043,47.074073],[34.708015,47.073906],[34.707992,47.073908],[34.707436,47.073951]]]}},{"type":"Feature","properties":{"cadnum":"2321286801:03:006:0004"},"geometry":{"type":"Polygon","coordinates":[[[34.707271,47.073762],[34.707287,47.073849],[34.707287,47.07385],[34.707308,47.073964],[34.707309,47.073965],[34.707436,47.073951],[34.707992,47.073908],[34.708015,47.073906],[34.707979,47.073716],[34.707406,47.073746],[34.707271,47.073762]]]}},{"type":"Feature","properties":{"cadnum":"2321286801:03:006:0002"},"geometry":{"type":"Polygon","coordinates":[[[34.707122,47.073235],[34.707153,47.073304],[34.707254,47.073531],[34.707683,47.073441],[34.707877,47.073401],[34.707845,47.073219],[34.707834,47.073163],[34.707822,47.073091],[34.707122,47.073235]]]}},{"type":"Feature","properties":{"cadnum":"2321286801:03:010:0012"},"geometry":{"type":"Polygon","coordinates":[[[34.710893,47.075787],[34.711006,47.076173],[34.71139,47.076122],[34.711461,47.076112],[34.711368,47.075738],[34.710893,47.075787]]]}},{"type":"Feature","properties":{"cadnum":"2321286801:03:008:0004"},"geometry":{"type":"Polygon","coordinates":[[[34.712173,47.076295],[34.712216,47.076562],[34.71254,47.076531],[34.712501,47.076237],[34.712173,47.076295]]]}},{"type":"Feature","properties":{"cadnum":"2321286801:03:008:0022"},"geometry":{"type":"Polygon","coordinates":[[[34.714087,47.076066],[34.714164,47.076468],[34.714801,47.076417],[34.714718,47.075993],[34.714087,47.076066]]]}},{"type":"Feature","properties":{"cadnum":"2321286801:03:002:0003"},"geometry":{"type":"Polygon","coordinates":[[[34.70671,47.082838],[34.707427,47.082822],[34.707452,47.081566],[34.706744,47.081593],[34.70671,47.082838]]]}},{"type":"Feature","properties":{"cadnum":"2321286801:03:015:0007"},"geometry":{"type":"Polygon","coordinates":[[[34.702136,47.068288],[34.702414,47.069342],[34.702688,47.069326],[34.702573,47.068225],[34.702136,47.068288]]]}},{"type":"Feature","properties":{"cadnum":"2321286801:03:016:0006"},"geometry":{"type":"Polygon","coordinates":[[[34.701803,47.066656],[34.701846,47.066828],[34.701921,47.06712],[34.702009,47.067468],[34.702286,47.067423],[34.702203,47.067088],[34.702125,47.066771],[34.702085,47.06661],[34.701899,47.06664],[34.70186,47.066646],[34.701803,47.066656]]]}},{"type":"Feature","properties":{"cadnum":"2321286801:03:016:0008"},"geometry":{"type":"Polygon","coordinates":[[[34.702524,47.066545],[34.702908,47.068107],[34.703169,47.068067],[34.702865,47.066478],[34.702639,47.066528],[34.702524,47.066545]]]}},{"type":"Feature","properties":{"cadnum":"2321286801:03:016:0007"},"geometry":{"type":"Polygon","coordinates":[[[34.702009,47.067468],[34.702198,47.06821],[34.702471,47.068174],[34.702286,47.067423],[34.702009,47.067468]]]}},{"type":"Feature","properties":{"cadnum":"2321286801:03:015:0012"},"geometry":{"type":"Polygon","coordinates":[[[34.703572,47.068096],[34.703736,47.06871],[34.704038,47.06866],[34.703851,47.068053],[34.703572,47.068096]]]}},{"type":"Feature","properties":{"cadnum":"2321286801:03:015:0006"},"geometry":{"type":"Polygon","coordinates":[[[34.702414,47.069342],[34.702546,47.069877],[34.702828,47.069828],[34.702688,47.069326],[34.702414,47.069342]]]}},{"type":"Feature","properties":{"cadnum":"2321286801:03:016:0011"},"geometry":{"type":"Polygon","coordinates":[[[34.704425,47.06697],[34.704551,47.067389],[34.70457,47.067441],[34.704587,47.067493],[34.704692,47.067793],[34.704791,47.067776],[34.704982,47.067746],[34.704925,47.067596],[34.704837,47.067355],[34.704722,47.066922],[34.704425,47.06697]]]}},{"type":"Feature","properties":{"cadnum":"2321286801:03:015:0011"},"geometry":{"type":"Polygon","coordinates":[[[34.703736,47.06871],[34.70387,47.069213],[34.703917,47.069341],[34.704024,47.069626],[34.704068,47.069619],[34.704156,47.069604],[34.70431,47.069578],[34.704274,47.069452],[34.70419,47.069163],[34.704038,47.06866],[34.703736,47.06871]]]}},{"type":"Feature","properties":{"cadnum":"2321286801:03:015:0002"},"geometry":{"type":"Polygon","coordinates":[[[34.705137,47.068594],[34.705165,47.068673],[34.705317,47.069079],[34.705646,47.069029],[34.705494,47.068536],[34.705137,47.068594]]]}},{"type":"Feature","properties":{"cadnum":"2321286801:03:010:0011"},"geometry":{"type":"Polygon","coordinates":[[[34.718145,47.071269],[34.718389,47.072748],[34.718495,47.073555],[34.71887,47.073528],[34.718594,47.071241],[34.718145,47.071269]]]}},{"type":"Feature","properties":{"cadnum":"2321286801:03:010:0001"},"geometry":{"type":"Polygon","coordinates":[[[34.719062,47.071997],[34.719159,47.07288],[34.720636,47.072813],[34.720561,47.071085],[34.720443,47.071093],[34.720274,47.070225],[34.720246,47.070079],[34.719928,47.070108],[34.719927,47.070108],[34.719871,47.070113],[34.719868,47.070114],[34.719889,47.070225],[34.71989,47.070225],[34.720064,47.071119],[34.719922,47.071126],[34.71997,47.071921],[34.719062,47.071997]]]}},{"type":"Feature","properties":{"cadnum":"2321286801:03:010:0015"},"geometry":{"type":"Polygon","coordinates":[[[34.71723,47.069473],[34.717365,47.070108],[34.717364,47.070108],[34.717923,47.072723],[34.718383,47.072717],[34.718145,47.071269],[34.717865,47.070225],[34.717866,47.070225],[34.717644,47.069397],[34.71723,47.069473]]]}},{"type":"Feature","properties":{"cadnum":"2321286801:03:010:0010"},"geometry":{"type":"Polygon","coordinates":[[[34.718594,47.071241],[34.71887,47.073528],[34.719242,47.073508],[34.719159,47.07288],[34.719062,47.071997],[34.718959,47.071209],[34.718594,47.071241]]]}},{"type":"Feature","properties":{"cadnum":"2321286801:03:010:0009"},"geometry":{"type":"Polygon","coordinates":[[[34.718296,47.073679],[34.718324,47.073849],[34.718324,47.07385],[34.718323,47.07385],[34.718567,47.075337],[34.718959,47.075305],[34.718725,47.07388],[34.718688,47.073647],[34.718296,47.073679]]]}},{"type":"Feature","properties":{"cadnum":"2321286801:03:010:0016"},"geometry":{"type":"Polygon","coordinates":[[[34.719589,47.073474],[34.719625,47.073966],[34.719626,47.073966],[34.719626,47.073967],[34.71972,47.075201],[34.72013,47.075163],[34.720009,47.073852],[34.719973,47.073455],[34.719589,47.073474]]]}},{"type":"Feature","properties":{"cadnum":"2321286801:03:010:0017"},"geometry":{"type":"Polygon","coordinates":[[[34.71889,47.073527],[34.718922,47.073849],[34.718922,47.07385],[34.718921,47.07385],[34.719062,47.075278],[34.71972,47.075201],[34.719625,47.073967],[34.719625,47.073966],[34.719589,47.073485],[34.719242,47.073508],[34.71889,47.073527]]]}},{"type":"Feature","properties":{"cadnum":"2321286801:03:009:0012"},"geometry":{"type":"Polygon","coordinates":[[[34.723442,47.068704],[34.723458,47.068942],[34.724047,47.068973],[34.724366,47.068999],[34.724351,47.068754],[34.724054,47.068744],[34.723442,47.068704]]]}},{"type":"Feature","properties":{"cadnum":"2321286801:03:009:0014"},"geometry":{"type":"Polygon","coordinates":[[[34.723417,47.068504],[34.723441,47.068705],[34.724054,47.068744],[34.724048,47.06853],[34.723417,47.068504]]]}},{"type":"Feature","properties":{"cadnum":"2321286801:03:010:0008"},"geometry":{"type":"Polygon","coordinates":[[[34.722714,47.069003],[34.722741,47.06915],[34.723034,47.069128],[34.723017,47.068962],[34.722714,47.069003]]]}},{"type":"Feature","properties":{"cadnum":"2321286801:03:010:0002"},"geometry":{"type":"Polygon","coordinates":[[[34.720454,47.069084],[34.720477,47.069367],[34.722376,47.069092],[34.722376,47.069091],[34.722911,47.069013],[34.722887,47.068719],[34.722204,47.068822],[34.720454,47.069084]]]}},{"type":"Feature","properties":{"cadnum":"2321286801:03:009:0002"},"geometry":{"type":"Polygon","coordinates":[[[34.723095,47.066761],[34.723138,47.067371],[34.723725,47.067424],[34.723746,47.067308],[34.723747,47.067308],[34.725859,47.0675],[34.725824,47.067003],[34.723095,47.066761]],[[34.725654,47.067191],[34.725633,47.067137],[34.725634,47.067137],[34.725712,47.067123],[34.725713,47.067123],[34.725733,47.067177],[34.725654,47.067191]]]}},{"type":"Feature","properties":{"cadnum":"2321286801:03:009:0015"},"geometry":{"type":"Polygon","coordinates":[[[34.724048,47.06853],[34.724054,47.068744],[34.724351,47.068754],[34.725945,47.0688],[34.725942,47.068561],[34.724048,47.06853]]]}},{"type":"Feature","properties":{"cadnum":"2321286801:03:010:0007"},"geometry":{"type":"Polygon","coordinates":[[[34.722102,47.069085],[34.722134,47.069393],[34.722204,47.069386],[34.722225,47.069383],[34.722376,47.069367],[34.72262,47.06934],[34.72305,47.069293],[34.723034,47.069128],[34.722741,47.06915],[34.722714,47.069003],[34.72257,47.069022],[34.722204,47.069071],[34.722204,47.069072],[34.722102,47.069085]]]}},{"type":"Feature","properties":{"cadnum":"2321286801:03:009:0013"},"geometry":{"type":"Polygon","coordinates":[[[34.724351,47.068754],[34.724366,47.068999],[34.725961,47.069131],[34.725945,47.0688],[34.724351,47.068754]]]}},{"type":"Feature","properties":{"cadnum":"2321286801:03:019:0001"},"geometry":{"type":"Polygon","coordinates":[[[34.709182,47.063041],[34.709182,47.063042],[34.709541,47.065053],[34.709542,47.065053],[34.709867,47.065001],[34.709542,47.062983],[34.709541,47.062983],[34.709182,47.063041]]]}},{"type":"Feature","properties":{"cadnum":"2321286801:03:019:0002"},"geometry":{"type":"Polygon","coordinates":[[[34.706322,47.065142],[34.706401,47.065547],[34.706638,47.06551],[34.706759,47.065491],[34.706819,47.065482],[34.707109,47.065436],[34.70707,47.065239],[34.707031,47.06503],[34.706322,47.065142]]]}},{"type":"Feature","properties":{"cadnum":"2321286801:03:020:0006"},"geometry":{"type":"Polygon","coordinates":[[[34.714044,47.068276],[34.714119,47.068609],[34.714226,47.069087],[34.714502,47.069047],[34.714395,47.068577],[34.714313,47.068227],[34.714044,47.068276]]]}},{"type":"Feature","properties":{"cadnum":"2321286801:03:021:0005"},"geometry":{"type":"Polygon","coordinates":[[[34.713388,47.06668],[34.713588,47.067488],[34.714092,47.067407],[34.713869,47.066601],[34.713388,47.06668]]]}},{"type":"Feature","properties":{"cadnum":"2321286801:03:020:0004"},"geometry":{"type":"Polygon","coordinates":[[[34.71583,47.067961],[34.715933,47.068243],[34.715939,47.068269],[34.71637,47.068193],[34.716362,47.068166],[34.716289,47.067882],[34.71583,47.067961]]]}},{"type":"Feature","properties":{"cadnum":"2321286801:03:020:0008"},"geometry":{"type":"Polygon","coordinates":[[[34.716289,47.067882],[34.716362,47.068166],[34.71637,47.068193],[34.716452,47.068481],[34.716711,47.068436],[34.716711,47.068437],[34.716817,47.068418],[34.716883,47.068406],[34.716928,47.068398],[34.716841,47.068082],[34.716738,47.067803],[34.716289,47.067882]]]}},{"type":"Feature","properties":{"cadnum":"2321286801:03:021:0004"},"geometry":{"type":"Polygon","coordinates":[[[34.713588,47.067488],[34.713618,47.067614],[34.713708,47.067845],[34.713787,47.068048],[34.71403,47.068009],[34.714066,47.068003],[34.714277,47.067969],[34.714233,47.067842],[34.714125,47.067528],[34.714092,47.067407],[34.713588,47.067488]]]}},{"type":"Feature","properties":{"cadnum":"2321286801:03:021:0002"},"geometry":{"type":"Polygon","coordinates":[[[34.71566,47.067396],[34.715764,47.067714],[34.716077,47.067661],[34.715992,47.067351],[34.71566,47.067396]]]}},{"type":"Feature","properties":{"cadnum":"2321286801:03:021:0003"},"geometry":{"type":"Polygon","coordinates":[[[34.715311,47.066158],[34.715369,47.066367],[34.71566,47.067396],[34.715992,47.067351],[34.71578,47.066484],[34.71569,47.066116],[34.715311,47.066158]]]}},{"type":"Feature","properties":{"cadnum":"2321286801:03:020:0005"},"geometry":{"type":"Polygon","coordinates":[[[34.715939,47.068269],[34.716057,47.068848],[34.716533,47.068765],[34.71637,47.068193],[34.715939,47.068269]]]}},{"type":"Feature","properties":{"cadnum":"2321286801:03:006:0008"},"geometry":{"type":"Polygon","coordinates":[[[34.707539,47.074316],[34.707577,47.074499],[34.70809,47.074451],[34.708076,47.07428],[34.707539,47.074316]]]}},{"type":"Feature","properties":{"cadnum":"2321286801:03:003:0005"},"geometry":{"type":"Polygon","coordinates":[[[34.708015,47.077071],[34.708058,47.077417],[34.708536,47.077425],[34.708457,47.077045],[34.708015,47.077071]]]}},{"type":"Feature","properties":{"cadnum":"2321286801:03:011:0005"},"geometry":{"type":"Polygon","coordinates":[[[34.694044,47.071363],[34.694201,47.07174],[34.694738,47.071632],[34.694738,47.071633],[34.69632,47.071316],[34.696108,47.070886],[34.69491,47.071164],[34.69491,47.071163],[34.694044,47.071363]]]}},{"type":"Feature","properties":{"cadnum":"2321286801:03:017:0004"},"geometry":{"type":"Polygon","coordinates":[[[34.709458,47.067145],[34.709794,47.068319],[34.710397,47.068232],[34.710122,47.067029],[34.709458,47.067145]]]}},{"type":"Feature","properties":{"cadnum":"2321286801:03:017:0002"},"geometry":{"type":"Polygon","coordinates":[[[34.707763,47.067993],[34.707854,47.068442],[34.708147,47.068421],[34.708147,47.068419],[34.708141,47.068389],[34.708096,47.068168],[34.70809,47.068137],[34.708066,47.068019],[34.70806,47.067988],[34.708057,47.067973],[34.707763,47.067993]]]}},{"type":"Feature","properties":{"cadnum":"2321286801:03:017:0001"},"geometry":{"type":"Polygon","coordinates":[[[34.706739,47.067878],[34.706755,47.067963],[34.706878,47.068617],[34.706987,47.068607],[34.707305,47.068599],[34.707228,47.068117],[34.707212,47.068017],[34.707193,47.067905],[34.707188,47.067865],[34.707184,47.067843],[34.706739,47.067878]]]}},{"type":"Feature","properties":{"cadnum":"2321286801:03:017:0003"},"geometry":{"type":"Polygon","coordinates":[[[34.709794,47.068319],[34.709905,47.068711],[34.710483,47.068609],[34.710397,47.068232],[34.709794,47.068319]]]}},{"type":"Feature","properties":{"cadnum":"2321286801:03:020:0007"},"geometry":{"type":"Polygon","coordinates":[[[34.718932,47.067423],[34.719008,47.067769],[34.719102,47.068224],[34.719416,47.068173],[34.719358,47.067737],[34.719265,47.067367],[34.718932,47.067423]]]}},{"type":"Feature","properties":{"cadnum":"2321286801:03:020:0002"},"geometry":{"type":"Polygon","coordinates":[[[34.716971,47.068586],[34.717066,47.068937],[34.717163,47.069299],[34.717579,47.069219],[34.717463,47.068859],[34.717357,47.068526],[34.716971,47.068586]]]}},{"type":"Feature","properties":{"cadnum":"2321286801:03:010:0006"},"geometry":{"type":"Polygon","coordinates":[[[34.720612,47.069313],[34.720695,47.069567],[34.722134,47.069393],[34.722104,47.069095],[34.720612,47.069313]]]}},{"type":"Feature","properties":{"cadnum":"2321286801:03:020:0003"},"geometry":{"type":"Polygon","coordinates":[[[34.719753,47.067271],[34.719818,47.067555],[34.719903,47.068106],[34.720217,47.068041],[34.720163,47.067488],[34.720091,47.067217],[34.719753,47.067271]]]}},{"type":"Feature","properties":{"cadnum":"2321286801:03:020:0001"},"geometry":{"type":"Polygon","coordinates":[[[34.720454,47.068064],[34.720531,47.068312],[34.720651,47.068652],[34.720728,47.068638],[34.720724,47.068628],[34.720787,47.068616],[34.720791,47.068626],[34.720831,47.068618],[34.720937,47.068598],[34.721138,47.06856],[34.721063,47.068384],[34.720989,47.068207],[34.720893,47.067983],[34.720454,47.068064]]]}},{"type":"Feature","properties":{"cadnum":"2321286801:03:015:0004"},"geometry":{"type":"Polygon","coordinates":[[[34.6969,47.07038],[34.697083,47.070786],[34.697734,47.070682],[34.697612,47.070267],[34.6969,47.07038]]]}},{"type":"Feature","properties":{"cadnum":"2321286801:03:011:0004"},"geometry":{"type":"Polygon","coordinates":[[[34.692424,47.067529],[34.692577,47.06789],[34.694729,47.067512],[34.694573,47.06716],[34.692424,47.067529]]]}},{"type":"Feature","properties":{"cadnum":"2321286801:03:003:0004"},"geometry":{"type":"Polygon","coordinates":[[[34.701331,47.079535],[34.701633,47.081141],[34.702479,47.081113],[34.702243,47.079521],[34.702017,47.079534],[34.702007,47.07949],[34.701614,47.079521],[34.701331,47.079535]]]}},{"type":"Feature","properties":{"cadnum":"2321286801:03:003:0007"},"geometry":{"type":"Polygon","coordinates":[[[34.702684,47.079552],[34.702929,47.081078],[34.703984,47.08104],[34.70382,47.079455],[34.702684,47.079552]]]}}]}