{"type":"FeatureCollection","features":[{"type":"Feature","properties":{"cadnum":"2321887001:02:003:0002"},"geometry":{"type":"Polygon","coordinates":[[[36.552737,47.831818],[36.553246,47.831863],[36.553316,47.831699],[36.553316,47.831698],[36.553582,47.831072],[36.553116,47.830983],[36.552843,47.831583],[36.552826,47.831621],[36.55279,47.831698],[36.552791,47.831698],[36.552791,47.831699],[36.552737,47.831818]]]}},{"type":"Feature","properties":{"cadnum":"2321887001:02:007:0002"},"geometry":{"type":"Polygon","coordinates":[[[36.565169,47.82816],[36.565664,47.828238],[36.565792,47.827971],[36.565788,47.82797],[36.565298,47.827894],[36.565297,47.827895],[36.565296,47.827895],[36.565277,47.827935],[36.56524,47.828011],[36.565241,47.828011],[36.565169,47.82816]]]}},{"type":"Feature","properties":{"cadnum":"2321887001:02:007:0001"},"geometry":{"type":"Polygon","coordinates":[[[36.565664,47.828238],[36.566723,47.828405],[36.56682,47.828132],[36.565792,47.827971],[36.565664,47.828238]]]}},{"type":"Feature","properties":{"cadnum":"2321887001:01:003:0001"},"geometry":{"type":"Polygon","coordinates":[[[36.567844,47.822806],[36.567907,47.822812],[36.567927,47.822813],[36.568079,47.822826],[36.568401,47.822851],[36.568445,47.822625],[36.5685,47.822306],[36.567978,47.822253],[36.567929,47.822497],[36.567844,47.822806]]]}},{"type":"Feature","properties":{"cadnum":"2321887001:01:003:0002"},"geometry":{"type":"Polygon","coordinates":[[[36.567978,47.822253],[36.568079,47.822264],[36.5685,47.822306],[36.568583,47.821814],[36.568587,47.821751],[36.568082,47.821701],[36.568082,47.821752],[36.567978,47.822253]]]}},{"type":"Feature","properties":{"cadnum":"2321887001:02:003:0001"},"geometry":{"type":"Polygon","coordinates":[[[36.553116,47.830983],[36.553582,47.831072],[36.553843,47.830454],[36.553385,47.83039],[36.553116,47.830983]]]}}]}