{"type":"FeatureCollection","features":[{"type":"Feature","properties":{"cadnum":"2321887501:04:003:0002"},"geometry":{"type":"Polygon","coordinates":[[[36.428361,47.779687],[36.428646,47.779931],[36.428731,47.780003],[36.428781,47.780046],[36.428985,47.780219],[36.429013,47.780243],[36.429118,47.780188],[36.428978,47.780073],[36.429141,47.779931],[36.42914,47.779931],[36.429308,47.779784],[36.428793,47.779425],[36.428361,47.779687]]]}},{"type":"Feature","properties":{"cadnum":"2321887501:03:004:0001"},"geometry":{"type":"Polygon","coordinates":[[[36.413518,47.775954],[36.413541,47.775975],[36.41381,47.776239],[36.413841,47.776269],[36.413928,47.776355],[36.413929,47.776355],[36.414223,47.776641],[36.41427,47.776622],[36.41454,47.776513],[36.414451,47.776412],[36.414418,47.776426],[36.4144,47.776407],[36.414297,47.776327],[36.41427,47.776302],[36.41427,47.776301],[36.413762,47.775834],[36.413518,47.775954]]]}},{"type":"Feature","properties":{"cadnum":"2321887501:01:004:0003"},"geometry":{"type":"Polygon","coordinates":[[[36.425626,47.773112],[36.42619,47.773505],[36.426324,47.773614],[36.426719,47.773418],[36.426216,47.773026],[36.425626,47.773112]]]}},{"type":"Feature","properties":{"cadnum":"2321887501:01:004:0004"},"geometry":{"type":"Polygon","coordinates":[[[36.426324,47.773614],[36.426963,47.774132],[36.427373,47.773927],[36.426719,47.773418],[36.426324,47.773614]]]}},{"type":"Feature","properties":{"cadnum":"2321887501:04:004:0001"},"geometry":{"type":"Polygon","coordinates":[[[36.416875,47.775584],[36.417083,47.775787],[36.417115,47.775798],[36.417254,47.775949],[36.417388,47.775879],[36.417044,47.775504],[36.416875,47.775584]]]}},{"type":"Feature","properties":{"cadnum":"2321887501:01:001:0003"},"geometry":{"type":"Polygon","coordinates":[[[36.386571,47.782311],[36.386602,47.782349],[36.386633,47.782338],[36.386633,47.782339],[36.386751,47.782296],[36.386721,47.782258],[36.386571,47.782311]]]}},{"type":"Feature","properties":{"cadnum":"2321887501:01:004:0002"},"geometry":{"type":"Polygon","coordinates":[[[36.388689,47.779889],[36.388714,47.779931],[36.388718,47.779937],[36.388785,47.780046],[36.388786,47.780046],[36.389051,47.780471],[36.389658,47.780319],[36.389386,47.779931],[36.38926,47.77975],[36.389106,47.779783],[36.388689,47.779889]]]}},{"type":"Feature","properties":{"cadnum":"2321887501:01:001:0001"},"geometry":{"type":"Polygon","coordinates":[[[36.391984,47.780475],[36.392298,47.780923],[36.392496,47.781205],[36.392856,47.781129],[36.392339,47.780399],[36.392281,47.780412],[36.391984,47.780475]]]}},{"type":"Feature","properties":{"cadnum":"2321887501:01:001:0002"},"geometry":{"type":"Polygon","coordinates":[[[36.392496,47.781205],[36.392878,47.781748],[36.393214,47.781638],[36.392856,47.781129],[36.392496,47.781205]]]}},{"type":"Feature","properties":{"cadnum":"2321887501:03:007:0004"},"geometry":{"type":"Polygon","coordinates":[[[36.423162,47.78005],[36.423334,47.780225],[36.423503,47.780152],[36.423339,47.779971],[36.42317,47.780046],[36.423162,47.78005]]]}},{"type":"Feature","properties":{"cadnum":"2321887501:03:007:0001"},"geometry":{"type":"Polygon","coordinates":[[[36.420924,47.780621],[36.421245,47.780927],[36.421372,47.781046],[36.421439,47.781112],[36.421866,47.780906],[36.4217,47.780771],[36.421689,47.780776],[36.421441,47.780538],[36.421326,47.780427],[36.420924,47.780621]]]}},{"type":"Feature","properties":{"cadnum":"2321887501:03:007:0002"},"geometry":{"type":"Polygon","coordinates":[[[36.421439,47.781112],[36.421532,47.7812],[36.42197,47.78099],[36.421889,47.780924],[36.421866,47.780906],[36.421439,47.781112]]]}},{"type":"Feature","properties":{"cadnum":"2321887501:04:003:0001"},"geometry":{"type":"Polygon","coordinates":[[[36.42785,47.779251],[36.428361,47.779687],[36.428793,47.779425],[36.428434,47.779175],[36.428225,47.779024],[36.42785,47.779251]]]}},{"type":"Feature","properties":{"cadnum":"2321887501:04:004:0006"},"geometry":{"type":"Polygon","coordinates":[[[36.423004,47.772616],[36.423342,47.773353],[36.423727,47.773295],[36.423448,47.772658],[36.423004,47.772616]]]}},{"type":"Feature","properties":{"cadnum":"2321887501:03:002:0001"},"geometry":{"type":"Polygon","coordinates":[[[36.405815,47.776619],[36.406163,47.777107],[36.406324,47.777305],[36.40669,47.77725],[36.406232,47.776564],[36.405815,47.776619]]]}},{"type":"Feature","properties":{"cadnum":"2321887501:03:002:0002"},"geometry":{"type":"Polygon","coordinates":[[[36.406324,47.777305],[36.406685,47.777752],[36.407008,47.77815],[36.407176,47.778107],[36.407251,47.778088],[36.40669,47.77725],[36.406324,47.777305]]]}},{"type":"Feature","properties":{"cadnum":"2321887501:03:006:0001"},"geometry":{"type":"Polygon","coordinates":[[[36.420806,47.777938],[36.420866,47.777999],[36.420878,47.778011],[36.421066,47.778199],[36.421355,47.778135],[36.421598,47.778082],[36.421625,47.778077],[36.421613,47.778065],[36.421632,47.778058],[36.421103,47.777575],[36.42107,47.777597],[36.420806,47.777768],[36.420806,47.777938]]]}},{"type":"Feature","properties":{"cadnum":"2321887501:01:004:0001"},"geometry":{"type":"Polygon","coordinates":[[[36.389051,47.780471],[36.389239,47.780774],[36.389263,47.780767],[36.389353,47.780894],[36.389944,47.780729],[36.389658,47.780319],[36.389051,47.780471]]]}},{"type":"Feature","properties":{"cadnum":"2321887501:01:001:0004"},"geometry":{"type":"Polygon","coordinates":[[[36.388903,47.78139],[36.388949,47.781446],[36.389013,47.781422],[36.388966,47.781365],[36.388903,47.78139]]]}}]}