{"type":"FeatureCollection","features":[{"type":"Feature","properties":{"cadnum":"2321283402:05:002:0001"},"geometry":{"type":"Polygon","coordinates":[[[35.215825,47.06366],[35.216483,47.063717],[35.216663,47.062742],[35.216664,47.062742],[35.216679,47.062656],[35.216019,47.0626],[35.216014,47.062625],[35.215995,47.062728],[35.215992,47.062742],[35.215825,47.06366]]]}},{"type":"Feature","properties":{"cadnum":"2321283402:05:002:0003"},"geometry":{"type":"Polygon","coordinates":[[[35.213515,47.063372],[35.214184,47.063435],[35.214288,47.062794],[35.214315,47.062681],[35.214386,47.062389],[35.213716,47.062326],[35.213646,47.062625],[35.213645,47.062625],[35.213625,47.062715],[35.21362,47.062742],[35.213621,47.062742],[35.213515,47.063372]]]}},{"type":"Feature","properties":{"cadnum":"2321283402:05:001:0007"},"geometry":{"type":"Polygon","coordinates":[[[35.199872,47.058726],[35.200109,47.058744],[35.200226,47.058753],[35.200281,47.058757],[35.20256,47.058925],[35.202666,47.058634],[35.202164,47.058599],[35.202274,47.058163],[35.20022,47.058011],[35.199979,47.057993],[35.199872,47.058726]]]}},{"type":"Feature","properties":{"cadnum":"2321283402:05:001:0003"},"geometry":{"type":"Polygon","coordinates":[[[35.203214,47.061069],[35.205554,47.061238],[35.205603,47.061104],[35.205706,47.060816],[35.203331,47.060608],[35.203214,47.061069]]]}},{"type":"Feature","properties":{"cadnum":"2321283402:05:001:0002"},"geometry":{"type":"Polygon","coordinates":[[[35.202832,47.061036],[35.203214,47.061069],[35.203331,47.060608],[35.2029,47.060577],[35.202832,47.061036]]]}},{"type":"Feature","properties":{"cadnum":"2321283402:05:003:0001"},"geometry":{"type":"Polygon","coordinates":[[[35.204149,47.053971],[35.204653,47.054021],[35.205603,47.054102],[35.205603,47.054103],[35.205637,47.054105],[35.205774,47.054117],[35.206237,47.054156],[35.206292,47.053813],[35.205622,47.053764],[35.204735,47.053698],[35.204204,47.053622],[35.204149,47.053971]]]}},{"type":"Feature","properties":{"cadnum":"2321283402:05:004:0001"},"geometry":{"type":"Polygon","coordinates":[[[35.207118,47.061441],[35.207763,47.061497],[35.207962,47.060412],[35.207317,47.060356],[35.207118,47.061441]]]}},{"type":"Feature","properties":{"cadnum":"2321283402:05:001:0004"},"geometry":{"type":"Polygon","coordinates":[[[35.20269,47.056203],[35.20313,47.056193],[35.203203,47.055742],[35.202695,47.055735],[35.20269,47.056203]]]}},{"type":"Feature","properties":{"cadnum":"2321283402:05:001:0001"},"geometry":{"type":"Polygon","coordinates":[[[35.200206,47.056857],[35.2028,47.057078],[35.202865,47.056721],[35.200277,47.05648],[35.200206,47.056857]]]}},{"type":"Feature","properties":{"cadnum":"2321283402:05:001:0005"},"geometry":{"type":"Polygon","coordinates":[[[35.200356,47.055973],[35.20269,47.056203],[35.202695,47.055735],[35.200457,47.055519],[35.200356,47.055973]]]}},{"type":"Feature","properties":{"cadnum":"2321283402:05:001:0006"},"geometry":{"type":"Polygon","coordinates":[[[35.202164,47.058599],[35.202666,47.058634],[35.202749,47.058208],[35.202274,47.058163],[35.202164,47.058599]]]}}]}