{"type":"FeatureCollection","features":[{"type":"Feature","properties":{"cadnum":"2322188803:11:001:0010"},"geometry":{"type":"Polygon","coordinates":[[[34.997141,47.938985],[34.997192,47.938997],[34.997431,47.938706],[34.997815,47.938845],[34.99808,47.938446],[34.997608,47.938185],[34.997474,47.938414],[34.99746,47.938439],[34.997407,47.938529],[34.997403,47.938537],[34.997141,47.938985]]]}},{"type":"Feature","properties":{"cadnum":"2322188803:11:001:0102"},"geometry":{"type":"Polygon","coordinates":[[[34.984059,47.942111],[34.984059,47.942112],[34.984122,47.942209],[34.984123,47.942209],[34.984172,47.942284],[34.984441,47.942207],[34.984436,47.942199],[34.984328,47.942035],[34.984119,47.942094],[34.984118,47.942094],[34.984059,47.942111]]]}},{"type":"Feature","properties":{"cadnum":"2322188803:11:001:0160"},"geometry":{"type":"Polygon","coordinates":[[[34.983394,47.942121],[34.983451,47.942209],[34.983452,47.942209],[34.983569,47.942384],[34.983903,47.94229],[34.983847,47.942209],[34.983722,47.942029],[34.983489,47.942094],[34.983395,47.942121],[34.983394,47.942121]]]}},{"type":"Feature","properties":{"cadnum":"2322188803:11:001:0141"},"geometry":{"type":"Polygon","coordinates":[[[34.983742,47.938962],[34.983886,47.939227],[34.983891,47.939231],[34.984894,47.93891],[34.984717,47.938672],[34.983742,47.938962]]]}},{"type":"Feature","properties":{"cadnum":"2322188803:11:001:0184"},"geometry":{"type":"Polygon","coordinates":[[[34.98487,47.938672],[34.984956,47.938731],[34.985094,47.938688],[34.985381,47.938866],[34.985463,47.938761],[34.985596,47.938805],[34.985789,47.938666],[34.985888,47.938576],[34.985811,47.938512],[34.985811,47.938511],[34.985835,47.938505],[34.985879,47.938483],[34.985896,47.938472],[34.985916,47.938459],[34.985659,47.938268],[34.985148,47.938529],[34.985149,47.938529],[34.985149,47.93853],[34.985148,47.93853],[34.98487,47.938672]]]}},{"type":"Feature","properties":{"cadnum":"2322188803:11:001:0177"},"geometry":{"type":"Polygon","coordinates":[[[34.983699,47.941083],[34.984367,47.942094],[34.984366,47.942094],[34.984442,47.942209],[34.984729,47.942152],[34.98476,47.942145],[34.984209,47.94136],[34.983985,47.940998],[34.983699,47.941083]]]}},{"type":"Feature","properties":{"cadnum":"2322188803:11:001:0147"},"geometry":{"type":"Polygon","coordinates":[[[34.98227,47.941498],[34.982658,47.942094],[34.982657,47.942094],[34.982703,47.942164],[34.982733,47.942209],[34.982806,47.942322],[34.983113,47.942233],[34.983051,47.942138],[34.982577,47.941408],[34.98227,47.941498]]]}},{"type":"Feature","properties":{"cadnum":"2322188803:11:001:0149"},"geometry":{"type":"Polygon","coordinates":[[[34.982577,47.941408],[34.983023,47.942094],[34.983022,47.942094],[34.983064,47.942158],[34.983097,47.942209],[34.983098,47.942209],[34.983168,47.942317],[34.983462,47.942232],[34.983366,47.942094],[34.983365,47.942094],[34.983042,47.941633],[34.982994,47.941553],[34.982955,47.941486],[34.98286,47.941326],[34.982577,47.941408]]]}},{"type":"Feature","properties":{"cadnum":"2322188803:11:001:0158"},"geometry":{"type":"Polygon","coordinates":[[[34.98286,47.941326],[34.983065,47.941627],[34.983394,47.942121],[34.983722,47.942029],[34.983598,47.941851],[34.983308,47.941437],[34.983252,47.941364],[34.983151,47.94123],[34.98286,47.941326]]]}},{"type":"Feature","properties":{"cadnum":"2322188803:11:001:0213"},"geometry":{"type":"Polygon","coordinates":[[[34.985607,47.942095],[34.985653,47.942209],[34.985654,47.942209],[34.985876,47.942743],[34.985895,47.942788],[34.986048,47.942759],[34.986244,47.942722],[34.986048,47.942254],[34.986029,47.942209],[34.985954,47.94203],[34.985611,47.942094],[34.985607,47.942095]]]}},{"type":"Feature","properties":{"cadnum":"2322188803:11:001:0101"},"geometry":{"type":"Polygon","coordinates":[[[34.983437,47.941157],[34.984059,47.942111],[34.984328,47.942035],[34.983699,47.941083],[34.983437,47.941157]]]}},{"type":"Feature","properties":{"cadnum":"2322188803:11:001:0164"},"geometry":{"type":"Polygon","coordinates":[[[34.984544,47.941837],[34.98476,47.942145],[34.985059,47.942051],[34.984849,47.941751],[34.984544,47.941837]]]}},{"type":"Feature","properties":{"cadnum":"2322188803:11:001:0146"},"geometry":{"type":"Polygon","coordinates":[[[34.983891,47.939231],[34.984039,47.939368],[34.984945,47.938979],[34.984894,47.93891],[34.983891,47.939231]]]}},{"type":"Feature","properties":{"cadnum":"2322188803:11:001:0163"},"geometry":{"type":"Polygon","coordinates":[[[34.983985,47.940998],[34.984209,47.94136],[34.984544,47.941837],[34.984849,47.941751],[34.984461,47.941198],[34.984277,47.940915],[34.983985,47.940998]]]}},{"type":"Feature","properties":{"cadnum":"2322188803:11:001:0171"},"geometry":{"type":"Polygon","coordinates":[[[34.985769,47.94087],[34.985876,47.941046],[34.985876,47.941047],[34.985927,47.94113],[34.986048,47.941083],[34.986048,47.941082],[34.986592,47.940867],[34.986515,47.940794],[34.986514,47.940794],[34.986551,47.940726],[34.986434,47.940661],[34.986321,47.940545],[34.986203,47.940598],[34.986083,47.94052],[34.985983,47.940564],[34.986019,47.940603],[34.98579,47.940695],[34.985806,47.940788],[34.985769,47.94087]]]}},{"type":"Feature","properties":{"cadnum":"2322188803:11:001:0002"},"geometry":{"type":"Polygon","coordinates":[[[34.994911,47.938361],[34.995059,47.938395],[34.99515,47.938414],[34.995292,47.938443],[34.995312,47.938467],[34.995325,47.938472],[34.995414,47.938502],[34.995552,47.938331],[34.995693,47.938049],[34.995158,47.93784],[34.99506,47.93805],[34.994911,47.938361]]]}},{"type":"Feature","properties":{"cadnum":"2322188803:11:001:0209"},"geometry":{"type":"Polygon","coordinates":[[[34.99414,47.938878],[34.994958,47.938961],[34.99515,47.938638],[34.994212,47.938543],[34.99414,47.938878]]]}},{"type":"Feature","properties":{"cadnum":"2322188803:11:001:0210"},"geometry":{"type":"Polygon","coordinates":[[[34.994053,47.939278],[34.994742,47.939326],[34.994958,47.938961],[34.99414,47.938878],[34.994053,47.939278]]]}},{"type":"Feature","properties":{"cadnum":"2322188803:11:001:0114"},"geometry":{"type":"Polygon","coordinates":[[[34.984696,47.935205],[34.9847,47.935215],[34.984784,47.935277],[34.985137,47.935384],[34.985232,47.935312],[34.985321,47.935138],[34.98537,47.934944],[34.985253,47.934751],[34.985252,47.93475],[34.985078,47.934659],[34.985013,47.934734],[34.985012,47.934734],[34.984966,47.934788],[34.984913,47.934849],[34.984885,47.934882],[34.984908,47.934913],[34.984696,47.935205]]]}},{"type":"Feature","properties":{"cadnum":"2322188803:11:001:0118"},"geometry":{"type":"Polygon","coordinates":[[[34.989228,47.937846],[34.989663,47.93807],[34.990146,47.937631],[34.989716,47.937403],[34.989228,47.937846]]]}},{"type":"Feature","properties":{"cadnum":"2322188803:11:001:0144"},"geometry":{"type":"Polygon","coordinates":[[[34.986858,47.937319],[34.986978,47.93736],[34.987338,47.937467],[34.987503,47.937496],[34.988002,47.9377],[34.988121,47.93761],[34.987734,47.937359],[34.987405,47.937189],[34.987147,47.936988],[34.986858,47.937319]]]}},{"type":"Feature","properties":{"cadnum":"2322188803:11:001:0105"},"geometry":{"type":"Polygon","coordinates":[[[34.988211,47.936334],[34.988573,47.936494],[34.988605,47.93646],[34.988813,47.936231],[34.989057,47.9359],[34.988654,47.935764],[34.988436,47.936026],[34.988376,47.936126],[34.988348,47.936162],[34.988314,47.936199],[34.988323,47.936202],[34.988324,47.936202],[34.988317,47.936211],[34.988314,47.93621],[34.988285,47.936245],[34.988248,47.936288],[34.988211,47.936334]]]}},{"type":"Feature","properties":{"cadnum":"2322188803:11:001:0001"},"geometry":{"type":"Polygon","coordinates":[[[34.989398,47.936413],[34.989665,47.936492],[34.989867,47.936267],[34.990173,47.935857],[34.989869,47.935758],[34.989398,47.936413]]]}},{"type":"Feature","properties":{"cadnum":"2322188803:11:001:0106"},"geometry":{"type":"Polygon","coordinates":[[[34.988654,47.935764],[34.989057,47.9359],[34.989276,47.935602],[34.988895,47.93547],[34.988654,47.935764]]]}},{"type":"Feature","properties":{"cadnum":"2322188803:11:001:0108"},"geometry":{"type":"Polygon","coordinates":[[[34.986968,47.938221],[34.987155,47.938238],[34.98724,47.938204],[34.987201,47.93813],[34.987201,47.938129],[34.98739,47.93801],[34.98766,47.93782],[34.98776,47.937701],[34.987666,47.937664],[34.986968,47.938221]]]}},{"type":"Feature","properties":{"cadnum":"2322188803:11:001:0185"},"geometry":{"type":"Polygon","coordinates":[[[34.985659,47.938268],[34.985876,47.938429],[34.985876,47.93843],[34.985916,47.938459],[34.986048,47.938378],[34.986048,47.938377],[34.986127,47.938328],[34.985979,47.938218],[34.98581,47.938093],[34.985704,47.938245],[34.985659,47.938268]]]}},{"type":"Feature","properties":{"cadnum":"2322188803:11:001:0109"},"geometry":{"type":"Polygon","coordinates":[[[34.986205,47.937616],[34.986929,47.937825],[34.987308,47.937518],[34.986535,47.937315],[34.986205,47.937616]]]}},{"type":"Feature","properties":{"cadnum":"2322188803:11:001:0110"},"geometry":{"type":"Polygon","coordinates":[[[34.986044,47.937762],[34.986624,47.93807],[34.986929,47.937825],[34.986205,47.937616],[34.986044,47.937762]]]}},{"type":"Feature","properties":{"cadnum":"2322188803:11:001:0107"},"geometry":{"type":"Polygon","coordinates":[[[34.986624,47.93807],[34.986734,47.938129],[34.986879,47.938201],[34.986933,47.938218],[34.986968,47.938221],[34.987666,47.937664],[34.987308,47.937518],[34.986624,47.93807]]]}},{"type":"Feature","properties":{"cadnum":"2322188803:11:001:0122"},"geometry":{"type":"Polygon","coordinates":[[[34.989101,47.937961],[34.989532,47.93819],[34.989663,47.93807],[34.989228,47.937846],[34.989101,47.937961]]]}},{"type":"Feature","properties":{"cadnum":"2322188803:11:001:0187"},"geometry":{"type":"Polygon","coordinates":[[[34.987986,47.938366],[34.988104,47.938414],[34.988225,47.938464],[34.988385,47.938529],[34.988386,47.938529],[34.988476,47.938566],[34.988655,47.938428],[34.988656,47.938427],[34.98878,47.938332],[34.98876,47.938319],[34.988804,47.938285],[34.988813,47.93829],[34.988902,47.938238],[34.988894,47.938233],[34.988918,47.938203],[34.988883,47.938184],[34.988821,47.938154],[34.988706,47.938107],[34.988644,47.938073],[34.988407,47.93797],[34.988306,47.938064],[34.988051,47.938323],[34.988027,47.938316],[34.988,47.938344],[34.987986,47.938366]]]}},{"type":"Feature","properties":{"cadnum":"2322188803:11:001:0116"},"geometry":{"type":"Polygon","coordinates":[[[34.99043,47.938864],[34.991147,47.938876],[34.991157,47.938821],[34.991211,47.938652],[34.991228,47.938452],[34.990971,47.938427],[34.990645,47.938445],[34.990606,47.938472],[34.990582,47.938488],[34.990536,47.938529],[34.990536,47.93853],[34.99053,47.938536],[34.990479,47.938608],[34.99043,47.938864]]]}},{"type":"Feature","properties":{"cadnum":"2322188803:11:001:0162"},"geometry":{"type":"Polygon","coordinates":[[[34.998839,47.939696],[34.999188,47.939784],[34.99926,47.939633],[34.998909,47.939559],[34.998839,47.939696]]]}},{"type":"Feature","properties":{"cadnum":"2322188803:11:001:0153"},"geometry":{"type":"Polygon","coordinates":[[[34.999504,47.940138],[34.999907,47.940199],[35.00001,47.939963],[34.999614,47.939898],[34.999504,47.940137],[34.999504,47.940138]]]}},{"type":"Feature","properties":{"cadnum":"2322188803:11:001:0136"},"geometry":{"type":"Polygon","coordinates":[[[35.000544,47.9395],[35.000866,47.939527],[35.000929,47.939196],[35.000966,47.938979],[35.000642,47.938952],[35.000601,47.939168],[35.000544,47.9395]]]}},{"type":"Feature","properties":{"cadnum":"2322188803:11:001:0140"},"geometry":{"type":"Polygon","coordinates":[[[35.000217,47.940691],[35.000762,47.940708],[35.000837,47.940437],[35.000777,47.940429],[35.000777,47.940428],[35.000867,47.940135],[35.000404,47.940121],[35.000217,47.940691]]]}},{"type":"Feature","properties":{"cadnum":"2322188803:11:001:0112"},"geometry":{"type":"Polygon","coordinates":[[[35.000714,47.940883],[35.001178,47.94097],[35.001324,47.940327],[35.00089,47.940247],[35.000714,47.940883]]]}},{"type":"Feature","properties":{"cadnum":"2322188803:11:001:0019"},"geometry":{"type":"Polygon","coordinates":[[[35.00087,47.939521],[35.001202,47.939547],[35.001297,47.939012],[35.000965,47.938985],[35.00087,47.939521]]]}},{"type":"Feature","properties":{"cadnum":"2322188803:11:001:0013"},"geometry":{"type":"Polygon","coordinates":[[[35.00089,47.940247],[35.001324,47.940327],[35.001425,47.939877],[35.000998,47.939851],[35.00089,47.940247]]]}},{"type":"Feature","properties":{"cadnum":"2322188803:11:001:0152"},"geometry":{"type":"Polygon","coordinates":[[[34.999219,47.940758],[34.999744,47.940838],[34.99984,47.940554],[34.999767,47.940544],[34.999767,47.940543],[34.999806,47.940429],[34.999907,47.940199],[34.999504,47.940138],[34.999219,47.940758]]]}},{"type":"Feature","properties":{"cadnum":"2322188803:11:001:0161"},"geometry":{"type":"Polygon","coordinates":[[[34.998461,47.940445],[34.998835,47.940538],[34.998909,47.940357],[34.999188,47.939784],[34.998839,47.939696],[34.99855,47.940268],[34.998461,47.940445]]]}},{"type":"Feature","properties":{"cadnum":"2322188803:11:001:0011"},"geometry":{"type":"Polygon","coordinates":[[[34.997183,47.939009],[34.997631,47.93912],[34.997815,47.938845],[34.997431,47.938706],[34.997192,47.938997],[34.997183,47.939009]]]}},{"type":"Feature","properties":{"cadnum":"2322188803:11:001:0148"},"geometry":{"type":"Polygon","coordinates":[[[34.982806,47.942322],[34.983013,47.942639],[34.98332,47.94255],[34.983168,47.942317],[34.983113,47.942233],[34.982806,47.942322]]]}},{"type":"Feature","properties":{"cadnum":"2322188803:11:001:0197"},"geometry":{"type":"Polygon","coordinates":[[[34.983427,47.942714],[34.984856,47.942826],[34.984569,47.942383],[34.983427,47.942714]]]}},{"type":"Feature","properties":{"cadnum":"2322188803:11:001:0198"},"geometry":{"type":"Polygon","coordinates":[[[34.98476,47.942327],[34.985138,47.942913],[34.985317,47.942949],[34.985578,47.942876],[34.985151,47.942213],[34.98476,47.942327]]]}},{"type":"Feature","properties":{"cadnum":"2322188803:11:001:0150"},"geometry":{"type":"Polygon","coordinates":[[[34.983168,47.942317],[34.98332,47.94255],[34.983623,47.942462],[34.983462,47.942232],[34.983168,47.942317]]]}},{"type":"Feature","properties":{"cadnum":"2322188803:11:001:0138"},"geometry":{"type":"Polygon","coordinates":[[[34.983203,47.935258],[34.983714,47.93538],[34.983581,47.935253],[34.983647,47.934997],[34.983321,47.934974],[34.983203,47.935258]]]}},{"type":"Feature","properties":{"cadnum":"2322188803:11:001:0103"},"geometry":{"type":"Polygon","coordinates":[[[34.984133,47.936166],[34.984315,47.936325],[34.984571,47.936417],[34.984688,47.936466],[34.985051,47.935998],[34.984375,47.935904],[34.98418,47.936109],[34.984133,47.936166]]]}},{"type":"Feature","properties":{"cadnum":"2322188803:11:001:0166"},"geometry":{"type":"Polygon","coordinates":[[[34.982101,47.935726],[34.982488,47.935804],[34.982495,47.935797],[34.982584,47.935591],[34.982696,47.935338],[34.982794,47.935119],[34.982377,47.935034],[34.982326,47.935164],[34.982101,47.935726]]]}},{"type":"Feature","properties":{"cadnum":"2322188803:11:001:0137"},"geometry":{"type":"Polygon","coordinates":[[[34.982955,47.935891],[34.983319,47.935968],[34.983714,47.93538],[34.983203,47.935258],[34.98308,47.935554],[34.982955,47.935891]]]}},{"type":"Feature","properties":{"cadnum":"2322188803:11:001:0104"},"geometry":{"type":"Polygon","coordinates":[[[34.984375,47.935904],[34.985051,47.935998],[34.985133,47.935891],[34.984528,47.935743],[34.984375,47.935904]]]}},{"type":"Feature","properties":{"cadnum":"2322188803:11:001:0186"},"geometry":{"type":"Polygon","coordinates":[[[34.990433,47.942082],[34.990864,47.942142],[34.991017,47.941612],[34.990582,47.94155],[34.990433,47.942082]]]}},{"type":"Feature","properties":{"cadnum":"2322188803:11:001:0139"},"geometry":{"type":"Polygon","coordinates":[[[34.986293,47.941025],[34.986512,47.941393],[34.987208,47.941206],[34.986989,47.940838],[34.986293,47.941025]]]}},{"type":"Feature","properties":{"cadnum":"2322188803:11:001:0100"},"geometry":{"type":"Polygon","coordinates":[[[34.986425,47.939569],[34.986461,47.939628],[34.9866,47.939589],[34.986564,47.939531],[34.986425,47.939569]]]}},{"type":"Feature","properties":{"cadnum":"2322188803:11:001:0175"},"geometry":{"type":"Polygon","coordinates":[[[34.987461,47.940701],[34.987472,47.940712],[34.987622,47.94085],[34.988006,47.940714],[34.987876,47.940547],[34.987461,47.940701]]]}},{"type":"Feature","properties":{"cadnum":"2322188803:11:001:0151"},"geometry":{"type":"Polygon","coordinates":[[[34.989999,47.942019],[34.990433,47.942082],[34.990582,47.94155],[34.990152,47.941491],[34.989999,47.942019]]]}},{"type":"Feature","properties":{"cadnum":"2322188803:11:001:0111"},"geometry":{"type":"Polygon","coordinates":[[[34.986497,47.939623],[34.986552,47.939692],[34.986607,47.939673],[34.986556,47.939602],[34.986497,47.939623]]]}},{"type":"Feature","properties":{"cadnum":"2322188803:11:001:0205"},"geometry":{"type":"Polygon","coordinates":[[[34.989953,47.939156],[34.990153,47.939244],[34.990153,47.939245],[34.990083,47.939316],[34.990162,47.939351],[34.990252,47.939262],[34.990109,47.9392],[34.990109,47.939199],[34.990225,47.939075],[34.990087,47.939013],[34.989953,47.939156]]]}},{"type":"Feature","properties":{"cadnum":"2322188803:11:001:0128"},"geometry":{"type":"Polygon","coordinates":[[[34.987713,47.938802],[34.987971,47.93901],[34.988299,47.938825],[34.988281,47.938801],[34.988513,47.938667],[34.988163,47.938531],[34.987713,47.938802]]]}},{"type":"Feature","properties":{"cadnum":"2322188803:11:001:0135"},"geometry":{"type":"Polygon","coordinates":[[[34.988346,47.938881],[34.988594,47.939182],[34.988595,47.939182],[34.988654,47.939288],[34.988949,47.939195],[34.989324,47.939055],[34.989168,47.93892],[34.988991,47.938824],[34.98868,47.938723],[34.988346,47.938881]]]}},{"type":"Feature","properties":{"cadnum":"2322188803:11:001:0174"},"geometry":{"type":"Polygon","coordinates":[[[34.986977,47.940191],[34.987109,47.940323],[34.987461,47.940701],[34.987876,47.940547],[34.987823,47.940481],[34.987581,47.94019],[34.987464,47.940022],[34.986977,47.940191]]]}},{"type":"Feature","properties":{"cadnum":"2322188803:07:001:0025"},"geometry":{"type":"Polygon","coordinates":[[[35.423794,47.761776],[35.425372,47.761955],[35.425392,47.761885],[35.425231,47.761862],[35.425262,47.761749],[35.423843,47.761569],[35.423794,47.761776]]]}},{"type":"Feature","properties":{"cadnum":"2322188803:11:001:0003"},"geometry":{"type":"Polygon","coordinates":[[[34.995158,47.93784],[34.995693,47.938049],[34.995767,47.937905],[34.995781,47.937744],[34.995417,47.937705],[34.995226,47.937694],[34.995158,47.93784]]]}},{"type":"Feature","properties":{"cadnum":"2322188803:11:001:0156"},"geometry":{"type":"Polygon","coordinates":[[[34.986632,47.942295],[34.986847,47.943],[34.98718,47.942968],[34.986965,47.942263],[34.986632,47.942295]]]}},{"type":"Feature","properties":{"cadnum":"2322188803:11:001:0212"},"geometry":{"type":"Polygon","coordinates":[[[35.003175,47.941027],[35.003575,47.941041],[35.003581,47.941031],[35.003917,47.941036],[35.003929,47.94093],[35.003946,47.940869],[35.003974,47.940665],[35.003296,47.940569],[35.003223,47.940835],[35.003217,47.940873],[35.003175,47.941027]]]}},{"type":"Feature","properties":{"cadnum":"2322188803:11:001:0211"},"geometry":{"type":"Polygon","coordinates":[[[35.003105,47.94131],[35.00389,47.941253],[35.003906,47.941078],[35.003151,47.941072],[35.003105,47.94131]]]}}]}