{"type":"FeatureCollection","features":[{"type":"Feature","properties":{"cadnum":"2322180404:13:001:0100"},"geometry":{"type":"Polygon","coordinates":[[[35.021052,48.020971],[35.0245,48.021299],[35.028165,48.021647],[35.028736,48.019312],[35.029592,48.015821],[35.028294,48.015637],[35.02775,48.01556],[35.027749,48.01556],[35.028161,48.014017],[35.024719,48.013503],[35.024955,48.01223],[35.0245,48.012194],[35.02275,48.012054],[35.022068,48.015637],[35.022067,48.015637],[35.021367,48.019312],[35.021052,48.020971]]]}},{"type":"Feature","properties":{"cadnum":"2322180404:13:001:0164"},"geometry":{"type":"Polygon","coordinates":[[[35.031789,48.013829],[35.032199,48.013874],[35.032374,48.013157],[35.031963,48.013112],[35.031789,48.013829]]]}},{"type":"Feature","properties":{"cadnum":"2322180404:13:001:0140"},"geometry":{"type":"Polygon","coordinates":[[[35.029758,48.012307],[35.029821,48.012294],[35.029821,48.012295],[35.029884,48.012281],[35.029915,48.012258],[35.029964,48.012251],[35.029993,48.012242],[35.029993,48.012241],[35.030218,48.012172],[35.03026,48.012159],[35.03037,48.012105],[35.030582,48.011981],[35.030626,48.0119],[35.030661,48.011863],[35.029871,48.011769],[35.029785,48.011759],[35.02978,48.011843],[35.029776,48.01186],[35.029766,48.012077],[35.029767,48.012077],[35.029767,48.012078],[35.029758,48.012307]]]}},{"type":"Feature","properties":{"cadnum":"2322180404:13:001:0161"},"geometry":{"type":"Polygon","coordinates":[[[35.030461,48.013683],[35.030971,48.013739],[35.031145,48.013022],[35.030888,48.012993],[35.030818,48.013278],[35.030567,48.01325],[35.030461,48.013683]]]}},{"type":"Feature","properties":{"cadnum":"2322180404:13:001:0162"},"geometry":{"type":"Polygon","coordinates":[[[35.030971,48.013739],[35.03138,48.013784],[35.031554,48.013067],[35.031145,48.013022],[35.030971,48.013739]]]}},{"type":"Feature","properties":{"cadnum":"2322180404:13:001:0163"},"geometry":{"type":"Polygon","coordinates":[[[35.03138,48.013784],[35.031789,48.013829],[35.031963,48.013112],[35.031554,48.013067],[35.03138,48.013784]]]}},{"type":"Feature","properties":{"cadnum":"2322180404:13:001:0115"},"geometry":{"type":"Polygon","coordinates":[[[35.028852,48.015556],[35.029446,48.015609],[35.029821,48.015643],[35.029821,48.015644],[35.029847,48.015645],[35.029925,48.015349],[35.029483,48.015307],[35.028928,48.015263],[35.028852,48.015556]]]}},{"type":"Feature","properties":{"cadnum":"2322180404:13:001:0118"},"geometry":{"type":"Polygon","coordinates":[[[35.02929,48.014658],[35.029821,48.014713],[35.030072,48.014738],[35.030154,48.014362],[35.029821,48.014327],[35.029821,48.014328],[35.029373,48.01428],[35.02929,48.014658]]]}},{"type":"Feature","properties":{"cadnum":"2322180404:13:001:0153"},"geometry":{"type":"Polygon","coordinates":[[[35.028844,48.014887],[35.029182,48.014918],[35.029993,48.014992],[35.029993,48.014991],[35.030012,48.014993],[35.030069,48.01474],[35.029821,48.014718],[35.0289,48.014634],[35.028844,48.014887]]]}},{"type":"Feature","properties":{"cadnum":"2322180404:13:001:0132"},"geometry":{"type":"Polygon","coordinates":[[[35.025443,48.012135],[35.025938,48.012191],[35.02595,48.012127],[35.02597,48.012011],[35.025978,48.011963],[35.025979,48.011955],[35.026023,48.011573],[35.025527,48.011556],[35.025475,48.011939],[35.025471,48.011963],[35.025443,48.012135]]]}},{"type":"Feature","properties":{"cadnum":"2322180404:13:001:0156"},"geometry":{"type":"Polygon","coordinates":[[[35.026023,48.011579],[35.026504,48.011596],[35.026565,48.011148],[35.026076,48.011126],[35.026023,48.011579]]]}},{"type":"Feature","properties":{"cadnum":"2322180404:13:001:0154"},"geometry":{"type":"Polygon","coordinates":[[[35.025527,48.011556],[35.026023,48.011573],[35.026066,48.011207],[35.025578,48.011191],[35.025527,48.011556]]]}},{"type":"Feature","properties":{"cadnum":"2322180404:13:001:0133"},"geometry":{"type":"Polygon","coordinates":[[[35.025938,48.012191],[35.026416,48.012238],[35.026419,48.012217],[35.026437,48.012078],[35.026437,48.012077],[35.026438,48.012077],[35.026504,48.011596],[35.026023,48.011579],[35.025979,48.011955],[35.02597,48.012011],[35.025958,48.012077],[35.025958,48.012078],[35.02595,48.012127],[35.025938,48.012191]]]}},{"type":"Feature","properties":{"cadnum":"2322180404:13:001:0151"},"geometry":{"type":"Polygon","coordinates":[[[35.029785,48.011759],[35.029821,48.011763],[35.029871,48.011769],[35.029993,48.011784],[35.030661,48.011863],[35.030715,48.011806],[35.030741,48.011773],[35.030752,48.01176],[35.030772,48.011676],[35.030776,48.011658],[35.030806,48.011531],[35.030281,48.011452],[35.029837,48.011407],[35.029813,48.011405],[35.029785,48.011759]]]}},{"type":"Feature","properties":{"cadnum":"2322180404:13:001:0150"},"geometry":{"type":"Polygon","coordinates":[[[35.02904,48.011329],[35.029182,48.01135],[35.029813,48.011405],[35.029821,48.011405],[35.029844,48.011408],[35.029993,48.011423],[35.030137,48.011438],[35.030233,48.011003],[35.029993,48.010965],[35.029198,48.010839],[35.02904,48.011329]]]}},{"type":"Feature","properties":{"cadnum":"2322180404:13:001:0047"},"geometry":{"type":"Polygon","coordinates":[[[35.028569,48.011873],[35.029159,48.011884],[35.029182,48.01135],[35.02904,48.011329],[35.029069,48.011232],[35.028594,48.011211],[35.028569,48.011873]]]}},{"type":"Feature","properties":{"cadnum":"2322180404:13:001:0038"},"geometry":{"type":"Polygon","coordinates":[[[35.028549,48.012382],[35.029137,48.012394],[35.029154,48.011987],[35.029159,48.011884],[35.028569,48.011873],[35.028559,48.012077],[35.02856,48.012077],[35.02856,48.012078],[35.028549,48.012382]]]}},{"type":"Feature","properties":{"cadnum":"2322180404:13:001:0102"},"geometry":{"type":"Polygon","coordinates":[[[35.03116,48.010553],[35.032092,48.010623],[35.032155,48.010309],[35.03122,48.010232],[35.031212,48.010264],[35.031197,48.010349],[35.031192,48.010377],[35.031185,48.010412],[35.03118,48.010453],[35.03116,48.010553]]]}},{"type":"Feature","properties":{"cadnum":"2322180404:13:001:0152"},"geometry":{"type":"Polygon","coordinates":[[[35.032092,48.010623],[35.032517,48.010655],[35.032929,48.010374],[35.032155,48.010309],[35.032092,48.010623]]]}},{"type":"Feature","properties":{"cadnum":"2322180404:13:001:0101"},"geometry":{"type":"Polygon","coordinates":[[[35.031222,48.010231],[35.033169,48.010392],[35.033224,48.010029],[35.031289,48.009859],[35.031222,48.010231]]]}},{"type":"Feature","properties":{"cadnum":"2322180404:13:001:0169"},"geometry":{"type":"Polygon","coordinates":[[[35.031103,48.010841],[35.032158,48.010966],[35.032602,48.010662],[35.032517,48.010655],[35.032092,48.010623],[35.03116,48.010553],[35.031103,48.010841]]]}},{"type":"Feature","properties":{"cadnum":"2322180404:13:001:0104"},"geometry":{"type":"Polygon","coordinates":[[[35.031042,48.011163],[35.03195,48.011271],[35.031889,48.011149],[35.032158,48.010966],[35.031103,48.010841],[35.031042,48.011163]]]}},{"type":"Feature","properties":{"cadnum":"2322180404:13:001:0141"},"geometry":{"type":"Polygon","coordinates":[[[35.030137,48.011438],[35.030281,48.011452],[35.030806,48.011531],[35.030905,48.011087],[35.030233,48.011003],[35.030137,48.011438]]]}},{"type":"Feature","properties":{"cadnum":"2322180404:13:001:0126"},"geometry":{"type":"Polygon","coordinates":[[[35.027275,48.013127],[35.027736,48.013189],[35.027938,48.012555],[35.027842,48.012543],[35.027481,48.012504],[35.027444,48.012609],[35.027432,48.012647],[35.027275,48.013127]]]}},{"type":"Feature","properties":{"cadnum":"2322180404:13:001:0155"},"geometry":{"type":"Polygon","coordinates":[[[35.027077,48.013734],[35.027535,48.013819],[35.027736,48.013189],[35.027275,48.013127],[35.027077,48.013734]]]}},{"type":"Feature","properties":{"cadnum":"2322180404:13:001:0128"},"geometry":{"type":"Polygon","coordinates":[[[35.026403,48.013058],[35.026831,48.013117],[35.027051,48.012444],[35.026622,48.012384],[35.026403,48.013058]]]}},{"type":"Feature","properties":{"cadnum":"2322180404:13:001:0129"},"geometry":{"type":"Polygon","coordinates":[[[35.025983,48.013],[35.026403,48.013058],[35.026622,48.012384],[35.026184,48.012323],[35.025983,48.013]]]}},{"type":"Feature","properties":{"cadnum":"2322180404:13:001:0127"},"geometry":{"type":"Polygon","coordinates":[[[35.026831,48.013117],[35.027259,48.013177],[35.027275,48.013127],[35.027432,48.012647],[35.027444,48.012609],[35.027481,48.012504],[35.027051,48.012444],[35.026831,48.013117]]]}},{"type":"Feature","properties":{"cadnum":"2322180404:13:001:0160"},"geometry":{"type":"Polygon","coordinates":[[[35.027804,48.015463],[35.028852,48.015556],[35.028928,48.015263],[35.027869,48.015181],[35.027804,48.015463]]]}},{"type":"Feature","properties":{"cadnum":"2322180404:13:001:0131"},"geometry":{"type":"Polygon","coordinates":[[[35.024902,48.012909],[35.025365,48.01297],[35.025573,48.012328],[35.025488,48.012319],[35.025012,48.012391],[35.024902,48.012909]]]}},{"type":"Feature","properties":{"cadnum":"2322180404:13:001:0167"},"geometry":{"type":"Polygon","coordinates":[[[35.028219,48.014548],[35.02929,48.014658],[35.029373,48.01428],[35.028301,48.014167],[35.028219,48.014548]]]}}]}