{"type":"FeatureCollection","features":[{"type":"Feature","properties":{"cadnum":"2322182402:08:001:0056"},"geometry":{"type":"Polygon","coordinates":[[[35.384417,47.686765],[35.384989,47.686908],[35.385115,47.686711],[35.385136,47.686659],[35.38515,47.686633],[35.385277,47.686456],[35.385089,47.686405],[35.384971,47.686377],[35.384916,47.686365],[35.384707,47.686312],[35.384651,47.686403],[35.384538,47.686561],[35.384417,47.686765]]]}},{"type":"Feature","properties":{"cadnum":"2322182402:08:002:0168"},"geometry":{"type":"Polygon","coordinates":[[[35.38136,47.685475],[35.38183,47.685475],[35.381935,47.684889],[35.381383,47.684889],[35.38136,47.685475]]]}},{"type":"Feature","properties":{"cadnum":"2322182402:08:002:0176"},"geometry":{"type":"Polygon","coordinates":[[[35.381383,47.684889],[35.381935,47.684889],[35.381995,47.684546],[35.381396,47.684504],[35.381383,47.684889]]]}},{"type":"Feature","properties":{"cadnum":"2322182402:08:001:0385"},"geometry":{"type":"Polygon","coordinates":[[[35.384242,47.68706],[35.384809,47.687189],[35.384989,47.686908],[35.384417,47.686765],[35.384242,47.68706]]]}},{"type":"Feature","properties":{"cadnum":"2322182402:08:001:0182"},"geometry":{"type":"Polygon","coordinates":[[[35.384821,47.68717],[35.385195,47.687238],[35.385466,47.686784],[35.385513,47.686722],[35.385624,47.686527],[35.385576,47.686515],[35.385525,47.686503],[35.385285,47.686445],[35.385277,47.686456],[35.38515,47.686633],[35.385136,47.686659],[35.385115,47.686711],[35.384989,47.686908],[35.384821,47.68717]]]}},{"type":"Feature","properties":{"cadnum":"2322182402:08:001:0382"},"geometry":{"type":"Polygon","coordinates":[[[35.384723,47.687823],[35.384915,47.687864],[35.385024,47.687889],[35.385117,47.687682],[35.385118,47.687682],[35.385266,47.687356],[35.385083,47.687318],[35.385026,47.687305],[35.384955,47.687292],[35.38489,47.687444],[35.384838,47.687566],[35.384837,47.687566],[35.384816,47.68762],[35.384786,47.687682],[35.384787,47.687682],[35.384723,47.687823]]]}},{"type":"Feature","properties":{"cadnum":"2322182402:08:002:0061"},"geometry":{"type":"Polygon","coordinates":[[[35.372922,47.679899],[35.374087,47.680143],[35.3742,47.679909],[35.373033,47.679666],[35.372922,47.679899]]]}},{"type":"Feature","properties":{"cadnum":"2322182402:08:002:0084"},"geometry":{"type":"Polygon","coordinates":[[[35.374929,47.6785],[35.375891,47.678439],[35.375912,47.678438],[35.376062,47.678428],[35.376227,47.678417],[35.37627,47.678189],[35.376062,47.678201],[35.374973,47.678262],[35.374929,47.6785]]]}},{"type":"Feature","properties":{"cadnum":"2322182402:08:002:0083"},"geometry":{"type":"Polygon","coordinates":[[[35.374973,47.678262],[35.375891,47.67821],[35.375891,47.678211],[35.376474,47.678177],[35.376513,47.677972],[35.376062,47.678],[35.37501,47.678064],[35.374973,47.678262]]]}},{"type":"Feature","properties":{"cadnum":"2322182402:08:002:0380"},"geometry":{"type":"Polygon","coordinates":[[[35.358183,47.675933],[35.358485,47.676026],[35.358639,47.675765],[35.358639,47.675764],[35.358428,47.675699],[35.358183,47.675933]]]}},{"type":"Feature","properties":{"cadnum":"2322182402:08:001:0317"},"geometry":{"type":"Polygon","coordinates":[[[35.355202,47.676267],[35.355786,47.676431],[35.355796,47.676175],[35.355805,47.675954],[35.355663,47.675838],[35.355576,47.67578],[35.355373,47.675902],[35.355278,47.676149],[35.355202,47.676267]]]}},{"type":"Feature","properties":{"cadnum":"2322182402:08:002:0019"},"geometry":{"type":"Polygon","coordinates":[[[35.357213,47.675616],[35.357685,47.67578],[35.358183,47.675933],[35.358428,47.675699],[35.357441,47.675397],[35.357213,47.675616]]]}},{"type":"Feature","properties":{"cadnum":"2322182402:08:001:1351"},"geometry":{"type":"Polygon","coordinates":[[[35.360015,47.680409],[35.36043,47.680665],[35.360642,47.680488],[35.360221,47.680234],[35.360015,47.680409]]]}},{"type":"Feature","properties":{"cadnum":"2322182402:08:001:0217"},"geometry":{"type":"Polygon","coordinates":[[[35.363742,47.681964],[35.364015,47.682072],[35.363974,47.682115],[35.364051,47.682148],[35.364349,47.681795],[35.364414,47.681823],[35.364589,47.68162],[35.364178,47.681473],[35.363881,47.681805],[35.363742,47.681964]]]}},{"type":"Feature","properties":{"cadnum":"2322182402:08:001:0383"},"geometry":{"type":"Polygon","coordinates":[[[35.359646,47.680241],[35.359721,47.680286],[35.359722,47.680286],[35.359965,47.680431],[35.360186,47.680263],[35.360185,47.680262],[35.359867,47.680072],[35.359738,47.68017],[35.359737,47.68017],[35.359646,47.680241]]]}},{"type":"Feature","properties":{"cadnum":"2322182402:08:001:0319"},"geometry":{"type":"Polygon","coordinates":[[[35.364254,47.681243],[35.36458,47.681362],[35.364777,47.68107],[35.364442,47.680945],[35.364302,47.681177],[35.364254,47.681243]]]}},{"type":"Feature","properties":{"cadnum":"2322182402:08:001:0233"},"geometry":{"type":"Polygon","coordinates":[[[35.359319,47.681202],[35.359325,47.681258],[35.359411,47.681304],[35.359517,47.68136],[35.359565,47.681328],[35.359583,47.681317],[35.359583,47.681316],[35.359683,47.681249],[35.359716,47.681228],[35.359796,47.68117],[35.359988,47.68105],[35.360373,47.680818],[35.36033,47.680792],[35.360166,47.680693],[35.359877,47.680897],[35.359588,47.68104],[35.359463,47.681112],[35.359396,47.68115],[35.359319,47.681202]]]}},{"type":"Feature","properties":{"cadnum":"2322182402:08:001:1350"},"geometry":{"type":"Polygon","coordinates":[[[35.360221,47.680234],[35.360306,47.680286],[35.360307,47.680286],[35.360642,47.680488],[35.361017,47.680175],[35.36112,47.680093],[35.360727,47.679806],[35.360297,47.68017],[35.360296,47.68017],[35.360221,47.680234]]]}},{"type":"Feature","properties":{"cadnum":"2322182402:08:001:0242"},"geometry":{"type":"Polygon","coordinates":[[[35.358849,47.680942],[35.359056,47.681059],[35.359411,47.680797],[35.359411,47.680798],[35.35947,47.680754],[35.359583,47.680671],[35.359603,47.680656],[35.359696,47.680595],[35.35983,47.680491],[35.35959,47.680345],[35.359539,47.680385],[35.359273,47.680593],[35.358849,47.680942]]]}},{"type":"Feature","properties":{"cadnum":"2322182402:08:001:0206"},"geometry":{"type":"Polygon","coordinates":[[[35.362781,47.683536],[35.363264,47.683868],[35.363263,47.683868],[35.363427,47.683981],[35.363428,47.683981],[35.363432,47.683984],[35.363433,47.683984],[35.363736,47.684149],[35.363979,47.683925],[35.362967,47.683423],[35.362781,47.683536]]]}},{"type":"Feature","properties":{"cadnum":"2322182402:08:001:0322"},"geometry":{"type":"Polygon","coordinates":[[[35.362967,47.683423],[35.363979,47.683925],[35.364104,47.683811],[35.363688,47.683641],[35.363011,47.683395],[35.362967,47.683423]]]}},{"type":"Feature","properties":{"cadnum":"2322182402:08:001:0066"},"geometry":{"type":"Polygon","coordinates":[[[35.387459,47.687297],[35.387651,47.687345],[35.388504,47.687499],[35.388765,47.687227],[35.387788,47.687045],[35.387717,47.687031],[35.387459,47.687297]]]}},{"type":"Feature","properties":{"cadnum":"2322182402:08:001:0558"},"geometry":{"type":"Polygon","coordinates":[[[35.115243,47.772116],[35.1158,47.772547],[35.1158,47.772548],[35.115943,47.772658],[35.115944,47.772659],[35.115971,47.772644],[35.116201,47.772512],[35.116222,47.772496],[35.115522,47.771956],[35.115243,47.772116]]]}},{"type":"Feature","properties":{"cadnum":"2322182402:08:001:1353"},"geometry":{"type":"Polygon","coordinates":[[[35.382907,47.691788],[35.383298,47.691892],[35.383346,47.691765],[35.383481,47.691365],[35.383509,47.691322],[35.383544,47.691267],[35.383287,47.691201],[35.383237,47.691188],[35.383094,47.691148],[35.383023,47.691263],[35.383022,47.691264],[35.383021,47.691264],[35.382965,47.691367],[35.382958,47.69138],[35.382933,47.691429],[35.38291,47.691484],[35.382997,47.691516],[35.382907,47.691788]]]}},{"type":"Feature","properties":{"cadnum":"2322182402:08:001:0280"},"geometry":{"type":"Polygon","coordinates":[[[35.382626,47.692546],[35.383016,47.69265],[35.383298,47.691892],[35.382907,47.691788],[35.382873,47.691896],[35.38278,47.692206],[35.382626,47.692546]]]}},{"type":"Feature","properties":{"cadnum":"2322182402:08:002:0025"},"geometry":{"type":"Polygon","coordinates":[[[35.360908,47.676211],[35.361018,47.67626],[35.361098,47.676301],[35.361167,47.676373],[35.361336,47.676471],[35.361336,47.676472],[35.361777,47.676727],[35.362025,47.676482],[35.362025,47.676481],[35.361388,47.67617],[35.361145,47.676049],[35.361096,47.676025],[35.360908,47.676211]]]}},{"type":"Feature","properties":{"cadnum":"2322182402:08:001:1348"},"geometry":{"type":"Polygon","coordinates":[[[35.362486,47.675695],[35.362702,47.675788],[35.362721,47.675765],[35.362775,47.675787],[35.363129,47.675457],[35.363131,47.675447],[35.362918,47.675247],[35.362486,47.675695]]]}},{"type":"Feature","properties":{"cadnum":"2322182402:08:001:1349"},"geometry":{"type":"Polygon","coordinates":[[[35.361982,47.676044],[35.362329,47.676193],[35.362692,47.675875],[35.362352,47.675716],[35.361982,47.676044]]]}},{"type":"Feature","properties":{"cadnum":"2322182402:08:002:0174"},"geometry":{"type":"Polygon","coordinates":[[[35.360538,47.676041],[35.360908,47.676211],[35.361096,47.676025],[35.360716,47.675836],[35.360538,47.676041]]]}},{"type":"Feature","properties":{"cadnum":"2322182402:08:002:0014"},"geometry":{"type":"Polygon","coordinates":[[[35.36189,47.675439],[35.362485,47.675689],[35.362798,47.675324],[35.362185,47.675067],[35.36189,47.675439]]]}},{"type":"Feature","properties":{"cadnum":"2322182402:08:001:0288"},"geometry":{"type":"Polygon","coordinates":[[[35.372525,47.687104],[35.372765,47.687249],[35.373426,47.686662],[35.373186,47.686503],[35.372525,47.687104]]]}},{"type":"Feature","properties":{"cadnum":"2322182402:08:001:0360"},"geometry":{"type":"Polygon","coordinates":[[[35.38146,47.689679],[35.381556,47.689702],[35.382069,47.689825],[35.382241,47.689342],[35.381639,47.68922],[35.38146,47.689679]]]}},{"type":"Feature","properties":{"cadnum":"2322182402:08:001:0114"},"geometry":{"type":"Polygon","coordinates":[[[35.381155,47.690463],[35.381384,47.690519],[35.381416,47.690526],[35.38148,47.690417],[35.381481,47.690417],[35.381545,47.690433],[35.381556,47.690405],[35.381743,47.689926],[35.381786,47.689812],[35.381786,47.689811],[35.381927,47.689835],[35.382058,47.689857],[35.382069,47.689825],[35.38146,47.689679],[35.381155,47.690463]]]}},{"type":"Feature","properties":{"cadnum":"2322182402:08:001:0348"},"geometry":{"type":"Polygon","coordinates":[[[35.377271,47.689264],[35.377324,47.689291],[35.377403,47.689218],[35.37735,47.689192],[35.377271,47.689264]]]}},{"type":"Feature","properties":{"cadnum":"2322182402:08:001:0175"},"geometry":{"type":"Polygon","coordinates":[[[35.366624,47.681672],[35.366687,47.681692],[35.36695,47.68138],[35.366885,47.681358],[35.366624,47.681672]]]}},{"type":"Feature","properties":{"cadnum":"2322182402:08:001:0004"},"geometry":{"type":"Polygon","coordinates":[[[35.365873,47.681425],[35.366624,47.681672],[35.366885,47.681358],[35.366136,47.681113],[35.365873,47.681425]]]}},{"type":"Feature","properties":{"cadnum":"2322182402:08:001:0165"},"geometry":{"type":"Polygon","coordinates":[[[35.368276,47.681644],[35.368743,47.681844],[35.369174,47.68139],[35.368705,47.681189],[35.368276,47.681644]]]}},{"type":"Feature","properties":{"cadnum":"2322182402:08:001:0358"},"geometry":{"type":"Polygon","coordinates":[[[35.368024,47.681914],[35.368473,47.682128],[35.368743,47.681844],[35.368276,47.681644],[35.368276,47.681645],[35.368024,47.681914]]]}},{"type":"Feature","properties":{"cadnum":"2322182402:08:001:1345"},"geometry":{"type":"Polygon","coordinates":[[[35.367652,47.68395],[35.367709,47.683984],[35.368033,47.684174],[35.368397,47.683868],[35.368402,47.683864],[35.36852,47.683774],[35.368543,47.683743],[35.368637,47.683656],[35.368338,47.683481],[35.367772,47.683868],[35.367652,47.68395]]]}},{"type":"Feature","properties":{"cadnum":"2322182402:08:001:0365"},"geometry":{"type":"Polygon","coordinates":[[[35.370281,47.682536],[35.370398,47.682592],[35.370398,47.682593],[35.370458,47.682621],[35.370569,47.682527],[35.370569,47.682526],[35.370918,47.682229],[35.370951,47.682198],[35.370762,47.682112],[35.37046,47.682379],[35.370281,47.682536]]]}},{"type":"Feature","properties":{"cadnum":"2322182402:08:002:0164"},"geometry":{"type":"Polygon","coordinates":[[[35.379252,47.684339],[35.379697,47.684383],[35.37976,47.684073],[35.379792,47.683868],[35.379813,47.683736],[35.379356,47.68369],[35.379327,47.683868],[35.37932,47.68391],[35.379308,47.683984],[35.379252,47.684339]]]}},{"type":"Feature","properties":{"cadnum":"2322182402:08:001:0350"},"geometry":{"type":"Polygon","coordinates":[[[35.379925,47.682977],[35.38063,47.682978],[35.380708,47.682481],[35.37998,47.682479],[35.379925,47.682977]]]}},{"type":"Feature","properties":{"cadnum":"2322182402:08:001:0161"},"geometry":{"type":"Polygon","coordinates":[[[35.37998,47.682479],[35.380708,47.682481],[35.380771,47.682075],[35.380023,47.682073],[35.37998,47.682479]]]}},{"type":"Feature","properties":{"cadnum":"2322182402:08:002:0202"},"geometry":{"type":"Polygon","coordinates":[[[35.379356,47.68369],[35.379813,47.683736],[35.379846,47.683542],[35.379379,47.683557],[35.379356,47.68369]]]}},{"type":"Feature","properties":{"cadnum":"2322182402:08:001:1357"},"geometry":{"type":"Polygon","coordinates":[[[35.390173,47.692455],[35.390876,47.692484],[35.390946,47.691798],[35.390963,47.691762],[35.390974,47.691549],[35.390694,47.691542],[35.390659,47.691778],[35.390572,47.692425],[35.390179,47.692394],[35.390173,47.692455]]]}},{"type":"Feature","properties":{"cadnum":"2322182402:08:001:1358"},"geometry":{"type":"Polygon","coordinates":[[[35.390132,47.692847],[35.390839,47.692866],[35.390876,47.692484],[35.390173,47.692455],[35.390132,47.692847]]]}},{"type":"Feature","properties":{"cadnum":"2322182402:08:002:0027"},"geometry":{"type":"Polygon","coordinates":[[[35.361435,47.677575],[35.361891,47.677803],[35.362268,47.677349],[35.36179,47.677111],[35.361435,47.677575]]]}},{"type":"Feature","properties":{"cadnum":"2322182402:08:002:0178"},"geometry":{"type":"Polygon","coordinates":[[[35.36179,47.677111],[35.362268,47.677349],[35.362509,47.67706],[35.362256,47.676959],[35.362195,47.677029],[35.361935,47.676922],[35.36179,47.677111]]]}},{"type":"Feature","properties":{"cadnum":"2322182402:08:001:0349"},"geometry":{"type":"Polygon","coordinates":[[[35.364371,47.679332],[35.364587,47.679438],[35.364664,47.679366],[35.364448,47.67926],[35.364371,47.679332]]]}},{"type":"Feature","properties":{"cadnum":"2322182402:08:002:0010"},"geometry":{"type":"Polygon","coordinates":[[[35.360172,47.67773],[35.360721,47.677933],[35.360722,47.677933],[35.361072,47.677526],[35.360546,47.677333],[35.360377,47.67745],[35.360172,47.67773]]]}},{"type":"Feature","properties":{"cadnum":"2322182402:08:002:0049"},"geometry":{"type":"Polygon","coordinates":[[[35.361935,47.676922],[35.362193,47.677027],[35.362252,47.676954],[35.362276,47.676966],[35.362599,47.676674],[35.362315,47.676533],[35.36227,47.676543],[35.361935,47.676922]]]}},{"type":"Feature","properties":{"cadnum":"2322182402:08:002:0026"},"geometry":{"type":"Polygon","coordinates":[[[35.360546,47.677333],[35.361072,47.677526],[35.361216,47.677357],[35.360811,47.677148],[35.360546,47.677333]]]}},{"type":"Feature","properties":{"cadnum":"2322182402:08:001:1344"},"geometry":{"type":"Polygon","coordinates":[[[35.367174,47.684279],[35.367731,47.684429],[35.368033,47.684174],[35.367652,47.68395],[35.367174,47.684279]]]}},{"type":"Feature","properties":{"cadnum":"2322182402:08:001:0357"},"geometry":{"type":"Polygon","coordinates":[[[35.384751,47.689755],[35.385335,47.689883],[35.385464,47.689611],[35.38489,47.68949],[35.384751,47.689755]]]}},{"type":"Feature","properties":{"cadnum":"2322182402:08:001:0381"},"geometry":{"type":"Polygon","coordinates":[[[35.382439,47.689327],[35.38304,47.689443],[35.383071,47.689378],[35.383278,47.688941],[35.382635,47.688799],[35.38247,47.689245],[35.382439,47.689327]]]}},{"type":"Feature","properties":{"cadnum":"2322182402:08:001:0104"},"geometry":{"type":"Polygon","coordinates":[[[35.38489,47.68949],[35.385464,47.689611],[35.385694,47.689126],[35.385138,47.689013],[35.38489,47.68949]]]}},{"type":"Feature","properties":{"cadnum":"2322182402:08:001:0100"},"geometry":{"type":"Polygon","coordinates":[[[35.382635,47.688799],[35.383278,47.688941],[35.383307,47.688878],[35.383484,47.688541],[35.383471,47.688536],[35.383394,47.688519],[35.382788,47.688386],[35.382635,47.688799]]]}},{"type":"Feature","properties":{"cadnum":"2322182402:08:002:0055"},"geometry":{"type":"Polygon","coordinates":[[[35.371377,47.682239],[35.371678,47.682379],[35.372287,47.681684],[35.371965,47.681545],[35.371377,47.682239]]]}},{"type":"Feature","properties":{"cadnum":"2322182402:08:002:0190"},"geometry":{"type":"Polygon","coordinates":[[[35.371965,47.681545],[35.372287,47.681684],[35.372545,47.68139],[35.372223,47.681242],[35.371965,47.681545]]]}},{"type":"Feature","properties":{"cadnum":"2322182402:08:002:0105"},"geometry":{"type":"Polygon","coordinates":[[[35.37697,47.68644],[35.377405,47.686473],[35.377403,47.686508],[35.377404,47.686508],[35.378085,47.686538],[35.378136,47.686317],[35.377037,47.686151],[35.37697,47.68644]]]}},{"type":"Feature","properties":{"cadnum":"2322182402:08:002:0195"},"geometry":{"type":"Polygon","coordinates":[[[35.378384,47.68659],[35.378639,47.686598],[35.378851,47.686535],[35.378812,47.686405],[35.378631,47.68634],[35.378401,47.686329],[35.378384,47.68659]]]}},{"type":"Feature","properties":{"cadnum":"2322182402:08:002:0187"},"geometry":{"type":"Polygon","coordinates":[[[35.376227,47.678417],[35.376749,47.678385],[35.376792,47.678159],[35.37627,47.678189],[35.376227,47.678417]]]}},{"type":"Feature","properties":{"cadnum":"2322182402:08:002:0180"},"geometry":{"type":"Polygon","coordinates":[[[35.376474,47.678177],[35.376903,47.678153],[35.376942,47.677945],[35.376513,47.677972],[35.376474,47.678177]]]}},{"type":"Feature","properties":{"cadnum":"2322182402:08:001:0388"},"geometry":{"type":"Polygon","coordinates":[[[35.391014,47.691237],[35.391047,47.691287],[35.391083,47.691276],[35.391051,47.691226],[35.391014,47.691237]]]}}]}