{"type":"FeatureCollection","features":[{"type":"Feature","properties":{"cadnum":"2322181603:04:002:0059"},"geometry":{"type":"Polygon","coordinates":[[[35.348428,47.807513],[35.348597,47.80755],[35.348597,47.807549],[35.348711,47.807573],[35.348715,47.807563],[35.348724,47.807542],[35.348729,47.807529],[35.348737,47.807512],[35.348744,47.807495],[35.348835,47.807287],[35.348918,47.807079],[35.348925,47.807063],[35.348661,47.807009],[35.348653,47.807027],[35.348575,47.807196],[35.348462,47.807436],[35.348456,47.807452],[35.348448,47.807469],[35.34844,47.807485],[35.348433,47.807501],[35.348428,47.807513]]]}},{"type":"Feature","properties":{"cadnum":"2322181603:07:001:0206"},"geometry":{"type":"Polygon","coordinates":[[[35.423374,47.766882],[35.423617,47.766902],[35.42363,47.766851],[35.423653,47.766775],[35.423716,47.766522],[35.423473,47.766501],[35.423374,47.766882]]]}},{"type":"Feature","properties":{"cadnum":"2322181603:10:001:0321"},"geometry":{"type":"Polygon","coordinates":[[[35.024732,47.934693],[35.024739,47.934734],[35.024749,47.934791],[35.024759,47.934849],[35.024767,47.934892],[35.025314,47.934824],[35.025317,47.934824],[35.025445,47.934805],[35.025607,47.934792],[35.025651,47.934788],[35.025614,47.93459],[35.025423,47.934607],[35.025183,47.934634],[35.024732,47.934693]]]}},{"type":"Feature","properties":{"cadnum":"2322181603:10:002:0282"},"geometry":{"type":"Polygon","coordinates":[[[35.024949,47.936131],[35.024987,47.936322],[35.025919,47.93624],[35.025881,47.93605],[35.024949,47.936131]]]}},{"type":"Feature","properties":{"cadnum":"2322181603:10:002:0304"},"geometry":{"type":"Polygon","coordinates":[[[35.023888,47.936667],[35.023934,47.936878],[35.023939,47.936913],[35.023965,47.937031],[35.024214,47.937008],[35.024267,47.937002],[35.024328,47.937],[35.024418,47.936997],[35.0245,47.936988],[35.0245,47.936987],[35.024786,47.936955],[35.024731,47.936601],[35.024449,47.93663],[35.024296,47.936644],[35.023888,47.936667]]]}},{"type":"Feature","properties":{"cadnum":"2322181603:10:002:0057"},"geometry":{"type":"Polygon","coordinates":[[[35.024578,47.935867],[35.024646,47.936216],[35.024957,47.936177],[35.024949,47.936131],[35.024988,47.936129],[35.024945,47.935935],[35.024929,47.935834],[35.024594,47.935866],[35.024578,47.935867]]]}},{"type":"Feature","properties":{"cadnum":"2322181603:10:002:0041"},"geometry":{"type":"Polygon","coordinates":[[[35.024904,47.935688],[35.02493,47.935838],[35.024959,47.935986],[35.025429,47.935919],[35.02587,47.935881],[35.025871,47.935881],[35.02581,47.935604],[35.025601,47.935624],[35.025498,47.93563],[35.025377,47.935639],[35.025356,47.93564],[35.024904,47.935688]]]}},{"type":"Feature","properties":{"cadnum":"2322181603:10:002:0288"},"geometry":{"type":"Polygon","coordinates":[[[35.024945,47.935935],[35.024988,47.936129],[35.025903,47.936048],[35.025864,47.935854],[35.024945,47.935935]]]}},{"type":"Feature","properties":{"cadnum":"2322181603:10:002:0268"},"geometry":{"type":"Polygon","coordinates":[[[35.024846,47.935245],[35.024883,47.935452],[35.025743,47.935378],[35.025706,47.935171],[35.024846,47.935245]]]}},{"type":"Feature","properties":{"cadnum":"2322181603:10:002:0162"},"geometry":{"type":"Polygon","coordinates":[[[35.023756,47.935944],[35.023825,47.936315],[35.023825,47.936316],[35.0245,47.936234],[35.0245,47.936233],[35.024613,47.936219],[35.024646,47.936216],[35.024578,47.935867],[35.024449,47.93588],[35.024163,47.935908],[35.023756,47.935944]]]}},{"type":"Feature","properties":{"cadnum":"2322181603:10:002:0305"},"geometry":{"type":"Polygon","coordinates":[[[35.024731,47.936601],[35.024786,47.936955],[35.02509,47.936921],[35.025031,47.936571],[35.024731,47.936601]]]}},{"type":"Feature","properties":{"cadnum":"2322181603:10:002:0290"},"geometry":{"type":"Polygon","coordinates":[[[35.025118,47.936711],[35.025158,47.936899],[35.02606,47.93682],[35.026018,47.936615],[35.025118,47.936711]]]}},{"type":"Feature","properties":{"cadnum":"2322181603:10:002:0423"},"geometry":{"type":"Polygon","coordinates":[[[35.02327,47.926273],[35.023503,47.927373],[35.023502,47.927373],[35.023617,47.92791],[35.023616,47.928132],[35.024047,47.928096],[35.024,47.927877],[35.024118,47.927894],[35.024118,47.927804],[35.0245,47.927806],[35.025239,47.927809],[35.024614,47.92775],[35.024592,47.927746],[35.024435,47.927686],[35.024289,47.92763],[35.024261,47.927611],[35.024122,47.927432],[35.024121,47.927431],[35.024118,47.927422],[35.02384,47.926243],[35.02327,47.926273]]]}},{"type":"Feature","properties":{"cadnum":"2322181603:10:002:0246"},"geometry":{"type":"Polygon","coordinates":[[[35.027559,47.93094],[35.027562,47.931054],[35.027567,47.931209],[35.028102,47.931199],[35.0281,47.931144],[35.028094,47.93093],[35.027559,47.93094]]]}},{"type":"Feature","properties":{"cadnum":"2322181603:10:002:0410"},"geometry":{"type":"Polygon","coordinates":[[[35.025487,47.929063],[35.025492,47.929662],[35.025814,47.929717],[35.02574,47.929053],[35.025487,47.929063]]]}},{"type":"Feature","properties":{"cadnum":"2322181603:10:002:0385"},"geometry":{"type":"Polygon","coordinates":[[[35.025762,47.928633],[35.025875,47.929351],[35.026455,47.929319],[35.026343,47.928601],[35.025762,47.928633]]]}},{"type":"Feature","properties":{"cadnum":"2322181603:10:002:0241"},"geometry":{"type":"Polygon","coordinates":[[[35.0277,47.932588],[35.027736,47.932856],[35.02827,47.932824],[35.028234,47.932555],[35.0277,47.932588]]]}},{"type":"Feature","properties":{"cadnum":"2322181603:10:002:0253"},"geometry":{"type":"Polygon","coordinates":[[[35.026677,47.932508],[35.02671,47.93274],[35.027509,47.93269],[35.027476,47.932456],[35.026677,47.932508]]]}},{"type":"Feature","properties":{"cadnum":"2322181603:10:002:0274"},"geometry":{"type":"Polygon","coordinates":[[[35.025793,47.933869],[35.025845,47.934137],[35.02662,47.934079],[35.026585,47.93381],[35.025793,47.933869]]]}},{"type":"Feature","properties":{"cadnum":"2322181603:10:002:0258"},"geometry":{"type":"Polygon","coordinates":[[[35.026899,47.933655],[35.026933,47.933888],[35.027732,47.933837],[35.027698,47.933604],[35.026899,47.933655]]]}},{"type":"Feature","properties":{"cadnum":"2322181603:10:002:0257"},"geometry":{"type":"Polygon","coordinates":[[[35.0269,47.933643],[35.027756,47.933589],[35.027739,47.933376],[35.026902,47.933429],[35.026902,47.93343],[35.0269,47.933643]]]}},{"type":"Feature","properties":{"cadnum":"2322181603:10:002:0255"},"geometry":{"type":"Polygon","coordinates":[[[35.02675,47.932916],[35.026789,47.933149],[35.026898,47.933143],[35.02759,47.933104],[35.027551,47.932872],[35.02675,47.932916]]]}},{"type":"Feature","properties":{"cadnum":"2322181603:10:002:0259"},"geometry":{"type":"Polygon","coordinates":[[[35.026966,47.934127],[35.027752,47.934076],[35.027733,47.933837],[35.02697,47.933885],[35.026966,47.934127]]]}},{"type":"Feature","properties":{"cadnum":"2322181603:10:002:0238"},"geometry":{"type":"Polygon","coordinates":[[[35.027819,47.933256],[35.027827,47.933527],[35.028361,47.933517],[35.028352,47.933247],[35.027819,47.933256]]]}},{"type":"Feature","properties":{"cadnum":"2322181603:10:002:0243"},"geometry":{"type":"Polygon","coordinates":[[[35.027646,47.931822],[35.027685,47.932091],[35.028217,47.932057],[35.028179,47.931788],[35.027646,47.931822]]]}},{"type":"Feature","properties":{"cadnum":"2322181603:10:002:0199"},"geometry":{"type":"Polygon","coordinates":[[[35.024068,47.931452],[35.024104,47.931641],[35.024328,47.931619],[35.024981,47.931551],[35.024949,47.931376],[35.0245,47.931415],[35.024068,47.931452]]]}},{"type":"Feature","properties":{"cadnum":"2322181603:10:002:0281"},"geometry":{"type":"Polygon","coordinates":[[[35.024216,47.932239],[35.024253,47.932469],[35.024261,47.932525],[35.024328,47.932519],[35.024381,47.932515],[35.0245,47.932505],[35.025165,47.932447],[35.025111,47.932162],[35.0245,47.932215],[35.024216,47.932239]]]}},{"type":"Feature","properties":{"cadnum":"2322181603:10:002:0244"},"geometry":{"type":"Polygon","coordinates":[[[35.027607,47.931553],[35.027646,47.931822],[35.028179,47.931788],[35.028141,47.931519],[35.027607,47.931553]]]}},{"type":"Feature","properties":{"cadnum":"2322181603:10:002:0275"},"geometry":{"type":"Polygon","coordinates":[[[35.024567,47.93366],[35.024613,47.933908],[35.02544,47.933818],[35.025401,47.933607],[35.024567,47.93366]]]}},{"type":"Feature","properties":{"cadnum":"2322181603:10:002:0025"},"geometry":{"type":"Polygon","coordinates":[[[35.024303,47.931622],[35.024328,47.931747],[35.024389,47.932043],[35.0245,47.932035],[35.025073,47.931991],[35.024996,47.93155],[35.024606,47.931593],[35.024417,47.931611],[35.024303,47.931622]]]}},{"type":"Feature","properties":{"cadnum":"2322181603:10:002:0193"},"geometry":{"type":"Polygon","coordinates":[[[35.022103,47.921781],[35.022181,47.922039],[35.022443,47.922016],[35.022384,47.921754],[35.022103,47.921781]]]}},{"type":"Feature","properties":{"cadnum":"2322181603:10:002:0316"},"geometry":{"type":"Polygon","coordinates":[[[35.02132,47.923526],[35.021358,47.923692],[35.021367,47.923732],[35.021385,47.923807],[35.021387,47.923814],[35.022385,47.923697],[35.022315,47.923399],[35.02132,47.923526]]]}},{"type":"Feature","properties":{"cadnum":"2322181603:10:002:0195"},"geometry":{"type":"Polygon","coordinates":[[[35.020895,47.921495],[35.020912,47.921625],[35.021983,47.921506],[35.02191,47.921223],[35.021267,47.921311],[35.021266,47.921311],[35.021201,47.921225],[35.021071,47.921276],[35.020988,47.92134],[35.020922,47.921461],[35.020925,47.921492],[35.020924,47.921492],[35.020895,47.921495]]]}},{"type":"Feature","properties":{"cadnum":"2322181603:10:002:0083"},"geometry":{"type":"Polygon","coordinates":[[[35.021187,47.922938],[35.02125,47.92324],[35.021521,47.923207],[35.021728,47.923187],[35.022245,47.923131],[35.022191,47.922837],[35.021682,47.922893],[35.021646,47.922897],[35.021523,47.922905],[35.021187,47.922938]]]}},{"type":"Feature","properties":{"cadnum":"2322181603:10:002:0094"},"geometry":{"type":"Polygon","coordinates":[[[35.019974,47.922674],[35.020017,47.922895],[35.020927,47.922777],[35.020874,47.922506],[35.020379,47.922562],[35.02005,47.922606],[35.020055,47.922671],[35.019974,47.922674]]]}},{"type":"Feature","properties":{"cadnum":"2322181603:10:002:0201"},"geometry":{"type":"Polygon","coordinates":[[[35.020234,47.92215],[35.020788,47.922074],[35.020694,47.921654],[35.020414,47.921849],[35.020314,47.921958],[35.020234,47.92215]]]}},{"type":"Feature","properties":{"cadnum":"2322181603:10:002:0192"},"geometry":{"type":"Polygon","coordinates":[[[35.020975,47.921883],[35.021034,47.92214],[35.022181,47.922039],[35.022103,47.921781],[35.020975,47.921883]]]}},{"type":"Feature","properties":{"cadnum":"2322181603:10:002:0130"},"geometry":{"type":"Polygon","coordinates":[[[35.022219,47.932845],[35.022351,47.933291],[35.022665,47.933255],[35.022978,47.933207],[35.022883,47.932755],[35.022569,47.932799],[35.022219,47.932845]]]}},{"type":"Feature","properties":{"cadnum":"2322181603:10:002:0325"},"geometry":{"type":"Polygon","coordinates":[[[35.022125,47.933737],[35.022186,47.934047],[35.022437,47.934024],[35.022385,47.933758],[35.022385,47.933757],[35.023049,47.933699],[35.023041,47.933656],[35.022125,47.933737]]]}},{"type":"Feature","properties":{"cadnum":"2322181603:10:002:0232"},"geometry":{"type":"Polygon","coordinates":[[[35.022094,47.934688],[35.02211,47.934734],[35.022127,47.934781],[35.022152,47.934849],[35.02216,47.93487],[35.022865,47.934812],[35.022872,47.934811],[35.023123,47.934792],[35.023226,47.934784],[35.023218,47.934683],[35.023215,47.934646],[35.023207,47.934563],[35.023049,47.934574],[35.023034,47.934575],[35.022962,47.934581],[35.022944,47.934582],[35.022891,47.934583],[35.022891,47.934605],[35.022892,47.934621],[35.022094,47.934688]]]}},{"type":"Feature","properties":{"cadnum":"2322181603:10:002:0300"},"geometry":{"type":"Polygon","coordinates":[[[35.022385,47.933757],[35.022437,47.934024],[35.023101,47.933966],[35.023049,47.933699],[35.022385,47.933757]]]}},{"type":"Feature","properties":{"cadnum":"2322181603:10:002:0301"},"geometry":{"type":"Polygon","coordinates":[[[35.022146,47.93238],[35.022254,47.93284],[35.022522,47.932805],[35.022569,47.932799],[35.02283,47.932762],[35.022856,47.932758],[35.022883,47.932755],[35.022785,47.932294],[35.022758,47.932297],[35.022732,47.932301],[35.022453,47.93234],[35.022146,47.93238]]]}},{"type":"Feature","properties":{"cadnum":"2322181603:10:002:0302"},"geometry":{"type":"Polygon","coordinates":[[[35.021862,47.932417],[35.021961,47.93288],[35.022229,47.932844],[35.022254,47.93284],[35.022146,47.93238],[35.021862,47.932417]]]}},{"type":"Feature","properties":{"cadnum":"2322181603:10:002:0390"},"geometry":{"type":"Polygon","coordinates":[[[35.023174,47.932965],[35.023246,47.933314],[35.023671,47.933269],[35.024083,47.933219],[35.024018,47.932873],[35.023575,47.932918],[35.023174,47.932965]]]}},{"type":"Feature","properties":{"cadnum":"2322181603:10:002:0164"},"geometry":{"type":"Polygon","coordinates":[[[35.024104,47.931641],[35.02419,47.932057],[35.024389,47.932043],[35.024303,47.931622],[35.024104,47.931641]]]}},{"type":"Feature","properties":{"cadnum":"2322181603:10:002:0334"},"geometry":{"type":"Polygon","coordinates":[[[35.022971,47.931888],[35.023002,47.932014],[35.023655,47.931945],[35.023667,47.932017],[35.024146,47.931965],[35.024106,47.931778],[35.023442,47.931834],[35.022971,47.931888]]]}},{"type":"Feature","properties":{"cadnum":"2322181603:10:002:0347"},"geometry":{"type":"Polygon","coordinates":[[[35.023053,47.932241],[35.02312,47.932606],[35.023129,47.932597],[35.023521,47.932553],[35.023958,47.932503],[35.023871,47.932155],[35.023495,47.93219],[35.023053,47.932241]]]}},{"type":"Feature","properties":{"cadnum":"2322181603:10:002:0391"},"geometry":{"type":"Polygon","coordinates":[[[35.024018,47.932873],[35.024083,47.933219],[35.024348,47.933187],[35.024327,47.933074],[35.024307,47.93296],[35.024287,47.932846],[35.024018,47.932873]]]}},{"type":"Feature","properties":{"cadnum":"2322181603:10:002:0165"},"geometry":{"type":"Polygon","coordinates":[[[35.021971,47.932878],[35.022098,47.933321],[35.022351,47.933291],[35.022219,47.932845],[35.021971,47.932878]]]}},{"type":"Feature","properties":{"cadnum":"2322181603:10:002:0425"},"geometry":{"type":"Polygon","coordinates":[[[35.022766,47.925168],[35.022834,47.925436],[35.023009,47.925418],[35.022942,47.925147],[35.022766,47.925168]]]}},{"type":"Feature","properties":{"cadnum":"2322181603:10:002:0320"},"geometry":{"type":"Polygon","coordinates":[[[35.02168,47.925297],[35.021733,47.925565],[35.022276,47.925499],[35.022834,47.925436],[35.022766,47.925168],[35.022223,47.925232],[35.02168,47.925297]]]}},{"type":"Feature","properties":{"cadnum":"2322181603:10:002:0212"},"geometry":{"type":"Polygon","coordinates":[[[35.02038,47.925179],[35.020444,47.925465],[35.02092,47.925419],[35.021425,47.925342],[35.021458,47.925338],[35.021393,47.925047],[35.021284,47.925064],[35.021241,47.925072],[35.020914,47.925122],[35.020831,47.925134],[35.020829,47.925131],[35.02038,47.925179]]]}},{"type":"Feature","properties":{"cadnum":"2322181603:10:002:0337"},"geometry":{"type":"Polygon","coordinates":[[[35.020172,47.925205],[35.020238,47.925485],[35.020444,47.925465],[35.02038,47.925179],[35.020172,47.925205]]]}},{"type":"Feature","properties":{"cadnum":"2322181603:10:001:0331"},"geometry":{"type":"Polygon","coordinates":[[[35.019345,47.925272],[35.019358,47.92561],[35.019652,47.925591],[35.020152,47.925548],[35.020149,47.925493],[35.020127,47.925221],[35.020104,47.925223],[35.019345,47.925272]]]}},{"type":"Feature","properties":{"cadnum":"2322181603:10:002:0341"},"geometry":{"type":"Polygon","coordinates":[[[35.019527,47.926903],[35.019601,47.927351],[35.019984,47.927299],[35.020285,47.927272],[35.020215,47.926849],[35.019872,47.926877],[35.019527,47.926903]]]}},{"type":"Feature","properties":{"cadnum":"2322181603:10:002:0327"},"geometry":{"type":"Polygon","coordinates":[[[35.021791,47.925844],[35.021822,47.925974],[35.022351,47.925912],[35.022354,47.925924],[35.023106,47.925835],[35.023069,47.925693],[35.022317,47.925782],[35.021791,47.925844]]]}},{"type":"Feature","properties":{"cadnum":"2322181603:10:002:0317"},"geometry":{"type":"Polygon","coordinates":[[[35.021393,47.923867],[35.021442,47.924122],[35.021901,47.924083],[35.022355,47.924037],[35.022409,47.924032],[35.022475,47.924026],[35.022633,47.924009],[35.022586,47.923772],[35.022368,47.923789],[35.022313,47.923794],[35.021393,47.923867]]]}},{"type":"Feature","properties":{"cadnum":"2322181603:10:002:0307"},"geometry":{"type":"Polygon","coordinates":[[[35.02292,47.926034],[35.022964,47.926309],[35.02314,47.926294],[35.023092,47.926021],[35.02292,47.926034]]]}},{"type":"Feature","properties":{"cadnum":"2322181603:10:002:0329"},"geometry":{"type":"Polygon","coordinates":[[[35.022778,47.925444],[35.022852,47.92572],[35.023068,47.925693],[35.023105,47.925689],[35.023034,47.925415],[35.023009,47.925418],[35.022834,47.925437],[35.022778,47.925444]]]}},{"type":"Feature","properties":{"cadnum":"2322181603:10:002:0198"},"geometry":{"type":"Polygon","coordinates":[[[35.021558,47.924718],[35.021615,47.925007],[35.02217,47.92495],[35.022633,47.924903],[35.022575,47.924612],[35.022079,47.924664],[35.021558,47.924718]]]}},{"type":"Feature","properties":{"cadnum":"2322181603:10:002:0230"},"geometry":{"type":"Polygon","coordinates":[[[35.021442,47.924122],[35.021445,47.924128],[35.021452,47.924164],[35.021501,47.924425],[35.02204,47.924355],[35.022527,47.924307],[35.022475,47.924026],[35.021901,47.924083],[35.021442,47.924122]]]}},{"type":"Feature","properties":{"cadnum":"2322181603:10:002:0306"},"geometry":{"type":"Polygon","coordinates":[[[35.021859,47.926129],[35.021909,47.926403],[35.022392,47.92636],[35.022964,47.926309],[35.02292,47.926034],[35.022302,47.926081],[35.022107,47.926095],[35.021859,47.926129]]]}},{"type":"Feature","properties":{"cadnum":"2322181603:10:002:0406"},"geometry":{"type":"Polygon","coordinates":[[[35.022473,47.924312],[35.022534,47.924617],[35.022575,47.924612],[35.022782,47.924591],[35.022723,47.924287],[35.022527,47.924307],[35.022473,47.924312]]]}},{"type":"Feature","properties":{"cadnum":"2322181603:10:002:0384"},"geometry":{"type":"Polygon","coordinates":[[[35.022586,47.923772],[35.022633,47.924009],[35.02272,47.924],[35.022699,47.923763],[35.022586,47.923772]]]}},{"type":"Feature","properties":{"cadnum":"2322181603:10:002:0318"},"geometry":{"type":"Polygon","coordinates":[[[35.021501,47.924425],[35.021558,47.924718],[35.022079,47.924664],[35.022534,47.924617],[35.022473,47.924312],[35.02204,47.924355],[35.021501,47.924425]]]}},{"type":"Feature","properties":{"cadnum":"2322181603:10:002:0420"},"geometry":{"type":"Polygon","coordinates":[[[35.020639,47.926322],[35.020688,47.9266],[35.021689,47.926485],[35.021634,47.926173],[35.021167,47.926243],[35.020639,47.926322]]]}},{"type":"Feature","properties":{"cadnum":"2322181603:10:002:0211"},"geometry":{"type":"Polygon","coordinates":[[[35.020336,47.924895],[35.020377,47.925179],[35.020829,47.925131],[35.020831,47.925134],[35.020914,47.925122],[35.021241,47.925072],[35.021284,47.925064],[35.021393,47.925047],[35.02135,47.924762],[35.020891,47.924822],[35.020756,47.92484],[35.020336,47.924895]]]}},{"type":"Feature","properties":{"cadnum":"2322181603:10:002:0167"},"geometry":{"type":"Polygon","coordinates":[[[35.019267,47.924119],[35.019268,47.924152],[35.019421,47.924138],[35.019587,47.924125],[35.019629,47.924705],[35.019718,47.924691],[35.019998,47.924649],[35.019946,47.924316],[35.019905,47.924083],[35.019598,47.924099],[35.019267,47.924119]]]}},{"type":"Feature","properties":{"cadnum":"2322181603:10:002:0231"},"geometry":{"type":"Polygon","coordinates":[[[35.022475,47.924026],[35.022527,47.924307],[35.022783,47.924282],[35.022748,47.923998],[35.022475,47.924026]]]}},{"type":"Feature","properties":{"cadnum":"2322181603:10:002:0151"},"geometry":{"type":"Polygon","coordinates":[[[35.019268,47.924152],[35.019311,47.924735],[35.019606,47.924709],[35.019629,47.924705],[35.019587,47.924125],[35.019421,47.924138],[35.019268,47.924152]]]}},{"type":"Feature","properties":{"cadnum":"2322181603:10:002:0163"},"geometry":{"type":"Polygon","coordinates":[[[35.020069,47.924915],[35.020101,47.925199],[35.020396,47.925184],[35.020364,47.9249],[35.020069,47.924915]]]}},{"type":"Feature","properties":{"cadnum":"2322181603:10:002:0328"},"geometry":{"type":"Polygon","coordinates":[[[35.01929,47.924979],[35.019307,47.925275],[35.020104,47.925223],[35.020069,47.924915],[35.019762,47.924937],[35.01929,47.924979]]]}},{"type":"Feature","properties":{"cadnum":"2322181603:10:002:0342"},"geometry":{"type":"Polygon","coordinates":[[[35.020215,47.926849],[35.020285,47.927272],[35.020493,47.927253],[35.020486,47.927201],[35.020442,47.926919],[35.020424,47.926832],[35.020215,47.926849]]]}},{"type":"Feature","properties":{"cadnum":"2322181603:10:002:0217"},"geometry":{"type":"Polygon","coordinates":[[[35.020173,47.926391],[35.020184,47.926405],[35.020375,47.926636],[35.020688,47.9266],[35.020639,47.926322],[35.020173,47.926391]]]}},{"type":"Feature","properties":{"cadnum":"2322181603:10:002:0220"},"geometry":{"type":"Polygon","coordinates":[[[35.021258,47.927083],[35.02132,47.927423],[35.021843,47.92738],[35.021781,47.927041],[35.021258,47.927083]]]}},{"type":"Feature","properties":{"cadnum":"2322181603:10:001:0332"},"geometry":{"type":"Polygon","coordinates":[[[35.022357,47.935398],[35.022551,47.93583],[35.022786,47.935804],[35.022695,47.935364],[35.022377,47.935396],[35.022357,47.935398]]]}},{"type":"Feature","properties":{"cadnum":"2322181603:10:002:0190"},"geometry":{"type":"Polygon","coordinates":[[[35.0222,47.935154],[35.022259,47.935408],[35.022322,47.935402],[35.022377,47.935396],[35.023332,47.935299],[35.023356,47.935297],[35.023301,47.935057],[35.023298,47.935041],[35.022802,47.935094],[35.0222,47.935154]]]}},{"type":"Feature","properties":{"cadnum":"2322181603:10:002:0168"},"geometry":{"type":"Polygon","coordinates":[[[35.022558,47.936198],[35.022976,47.936509],[35.023573,47.936413],[35.023514,47.936059],[35.02343,47.936066],[35.023278,47.93608],[35.023152,47.936092],[35.022909,47.936126],[35.022688,47.936156],[35.022558,47.936198]]]}},{"type":"Feature","properties":{"cadnum":"2322181603:10:002:0194"},"geometry":{"type":"Polygon","coordinates":[[[35.022543,47.935831],[35.022665,47.936164],[35.022688,47.936156],[35.022909,47.936126],[35.023152,47.936092],[35.023278,47.93608],[35.02343,47.936066],[35.023514,47.936059],[35.023458,47.93573],[35.022543,47.935831]]]}},{"type":"Feature","properties":{"cadnum":"2322181603:10:001:0333"},"geometry":{"type":"Polygon","coordinates":[[[35.022695,47.935364],[35.022786,47.935804],[35.023458,47.93573],[35.023369,47.935296],[35.022695,47.935364]]]}},{"type":"Feature","properties":{"cadnum":"2322181603:10:002:0422"},"geometry":{"type":"Polygon","coordinates":[[[35.023613,47.928496],[35.02392,47.928495],[35.023921,47.928495],[35.023921,47.928496],[35.024002,47.928902],[35.024002,47.928903],[35.023942,47.929419],[35.02397,47.929425],[35.023986,47.929326],[35.024051,47.929045],[35.024208,47.928881],[35.024149,47.92859],[35.024131,47.928503],[35.024071,47.928208],[35.024047,47.928096],[35.023616,47.928133],[35.023613,47.928496]]]}},{"type":"Feature","properties":{"cadnum":"2322181603:10:002:0346"},"geometry":{"type":"Polygon","coordinates":[[[35.02375,47.929551],[35.023825,47.929892],[35.024088,47.92987],[35.024087,47.929861],[35.024167,47.92986],[35.024138,47.929682],[35.02375,47.929551]]]}},{"type":"Feature","properties":{"cadnum":"2322181603:10:002:0225"},"geometry":{"type":"Polygon","coordinates":[[[35.020982,47.928809],[35.021395,47.928774],[35.022146,47.928706],[35.022105,47.928514],[35.021881,47.928539],[35.021634,47.928556],[35.021056,47.928579],[35.020982,47.928809]]]}},{"type":"Feature","properties":{"cadnum":"2322181603:10:002:0330"},"geometry":{"type":"Polygon","coordinates":[[[35.022201,47.9279],[35.022211,47.927936],[35.022241,47.928103],[35.022669,47.928059],[35.022771,47.928045],[35.023536,47.927992],[35.023537,47.927789],[35.022602,47.927863],[35.022201,47.9279]]]}},{"type":"Feature","properties":{"cadnum":"2322181603:10:002:0061"},"geometry":{"type":"Polygon","coordinates":[[[35.022661,47.930091],[35.02272,47.930457],[35.023513,47.930383],[35.02345,47.930001],[35.022661,47.930091]]]}},{"type":"Feature","properties":{"cadnum":"2322181603:10:002:0166"},"geometry":{"type":"Polygon","coordinates":[[[35.02345,47.930001],[35.023513,47.930383],[35.02377,47.930359],[35.023683,47.929974],[35.02345,47.930001]]]}},{"type":"Feature","properties":{"cadnum":"2322181603:10:002:0343"},"geometry":{"type":"Polygon","coordinates":[[[35.023579,47.929525],[35.023671,47.929939],[35.023833,47.929926],[35.023825,47.929892],[35.02375,47.929551],[35.023654,47.92952],[35.023579,47.929525]]]}},{"type":"Feature","properties":{"cadnum":"2322181603:10:002:0387"},"geometry":{"type":"Polygon","coordinates":[[[35.023006,47.929604],[35.02311,47.9297],[35.023111,47.9297],[35.023132,47.929815],[35.023592,47.929771],[35.023544,47.929556],[35.023006,47.929604]]]}},{"type":"Feature","properties":{"cadnum":"2322181603:10:002:0191"},"geometry":{"type":"Polygon","coordinates":[[[35.022326,47.928535],[35.022377,47.928831],[35.022412,47.928901],[35.022684,47.928872],[35.022669,47.928819],[35.023066,47.928778],[35.023096,47.928444],[35.022326,47.928535]]]}}]}