{"type":"FeatureCollection","features":[{"type":"Feature","properties":{"cadnum":"2322188601:05:001:0627"},"geometry":{"type":"Polygon","coordinates":[[[35.314358,47.79026],[35.314736,47.790631],[35.315061,47.790474],[35.314683,47.790103],[35.314358,47.79026]]]}},{"type":"Feature","properties":{"cadnum":"2322188601:05:001:0405"},"geometry":{"type":"Polygon","coordinates":[[[35.312121,47.790707],[35.312401,47.791003],[35.3124,47.791003],[35.312482,47.791089],[35.312507,47.791119],[35.312508,47.791119],[35.312568,47.791186],[35.312852,47.791463],[35.312883,47.791492],[35.312896,47.791505],[35.313174,47.791377],[35.313157,47.791362],[35.313126,47.791332],[35.312835,47.791061],[35.312357,47.790597],[35.312121,47.790707]]]}},{"type":"Feature","properties":{"cadnum":"2322188601:05:001:0618"},"geometry":{"type":"Polygon","coordinates":[[[35.311865,47.790437],[35.312121,47.790707],[35.312357,47.790597],[35.312082,47.790331],[35.311865,47.790437]]]}},{"type":"Feature","properties":{"cadnum":"2322188601:05:001:0557"},"geometry":{"type":"Polygon","coordinates":[[[35.314288,47.791148],[35.314301,47.791162],[35.314307,47.79117],[35.314314,47.791177],[35.314419,47.791276],[35.314546,47.791403],[35.315065,47.791199],[35.315245,47.791134],[35.315154,47.791038],[35.314976,47.790849],[35.314649,47.790995],[35.314623,47.791003],[35.314622,47.791003],[35.314561,47.791023],[35.314478,47.791061],[35.31438,47.791106],[35.314379,47.791106],[35.314351,47.791119],[35.314288,47.791148]]]}},{"type":"Feature","properties":{"cadnum":"2322188601:05:001:0337"},"geometry":{"type":"Polygon","coordinates":[[[35.298288,47.801834],[35.298301,47.801842],[35.298522,47.801983],[35.298992,47.801691],[35.29888,47.801607],[35.298795,47.801552],[35.298752,47.801523],[35.298714,47.801512],[35.298653,47.801556],[35.298652,47.801556],[35.298288,47.801834]]]}},{"type":"Feature","properties":{"cadnum":"2322188601:05:001:0299"},"geometry":{"type":"Polygon","coordinates":[[[35.300141,47.802065],[35.300159,47.802074],[35.300367,47.802181],[35.30038,47.802187],[35.300445,47.802131],[35.300483,47.802099],[35.300511,47.802075],[35.300726,47.801898],[35.300539,47.801808],[35.300381,47.801946],[35.300298,47.801909],[35.300271,47.801933],[35.300231,47.801968],[35.300216,47.801959],[35.30018,47.801992],[35.300177,47.80199],[35.300172,47.801995],[35.3002,47.802009],[35.300141,47.802065]]]}},{"type":"Feature","properties":{"cadnum":"2322188601:05:001:0167"},"geometry":{"type":"Polygon","coordinates":[[[35.300688,47.802383],[35.301441,47.802808],[35.301591,47.802896],[35.301856,47.803046],[35.301956,47.802844],[35.301638,47.802661],[35.301101,47.802363],[35.300867,47.802234],[35.300801,47.80229],[35.300769,47.802317],[35.300688,47.802383]]]}},{"type":"Feature","properties":{"cadnum":"2322188601:05:001:0571"},"geometry":{"type":"Polygon","coordinates":[[[35.302481,47.802297],[35.302591,47.802375],[35.302817,47.802242],[35.303016,47.80216],[35.303016,47.802159],[35.303104,47.802165],[35.303149,47.802131],[35.303196,47.802096],[35.303262,47.802076],[35.303383,47.801949],[35.303321,47.801921],[35.303313,47.801927],[35.30311,47.801817],[35.302622,47.802189],[35.302623,47.802189],[35.302481,47.802297]]]}},{"type":"Feature","properties":{"cadnum":"2322188601:05:001:0569"},"geometry":{"type":"Polygon","coordinates":[[[35.299186,47.802598],[35.299243,47.802628],[35.299389,47.802703],[35.299607,47.802521],[35.299598,47.802516],[35.299417,47.802424],[35.299404,47.802419],[35.299186,47.802598]]]}},{"type":"Feature","properties":{"cadnum":"2322188601:05:001:0570"},"geometry":{"type":"Polygon","coordinates":[[[35.299349,47.802842],[35.299449,47.803254],[35.300065,47.802751],[35.299767,47.802601],[35.299709,47.802572],[35.299477,47.802746],[35.299349,47.802842]]]}},{"type":"Feature","properties":{"cadnum":"2322188601:05:001:0550"},"geometry":{"type":"Polygon","coordinates":[[[35.302413,47.803143],[35.302552,47.803123],[35.30256,47.803159],[35.302649,47.803144],[35.302739,47.803127],[35.302463,47.803066],[35.302413,47.803143]]]}},{"type":"Feature","properties":{"cadnum":"2322188601:05:001:0109"},"geometry":{"type":"Polygon","coordinates":[[[35.302463,47.803066],[35.302739,47.803127],[35.302778,47.80312],[35.302945,47.803085],[35.302988,47.803018],[35.303007,47.802992],[35.303039,47.80294],[35.303077,47.802874],[35.303128,47.802785],[35.303187,47.802677],[35.303222,47.802613],[35.303263,47.802527],[35.303171,47.802499],[35.302872,47.80243],[35.302463,47.803066]]]}},{"type":"Feature","properties":{"cadnum":"2322188601:05:001:0160"},"geometry":{"type":"Polygon","coordinates":[[[35.302225,47.802137],[35.3023,47.802189],[35.302301,47.802189],[35.302302,47.802189],[35.302361,47.80223],[35.302538,47.802074],[35.302729,47.801905],[35.302756,47.801883],[35.302731,47.801869],[35.302779,47.801822],[35.302915,47.801709],[35.302729,47.801606],[35.302585,47.801732],[35.302578,47.801749],[35.302578,47.80175],[35.302524,47.801795],[35.302247,47.802045],[35.30224,47.802058],[35.302237,47.802074],[35.302236,47.802074],[35.302225,47.802137]]]}},{"type":"Feature","properties":{"cadnum":"2322188601:05:001:0332"},"geometry":{"type":"Polygon","coordinates":[[[35.299389,47.802703],[35.299471,47.802744],[35.299601,47.802651],[35.299701,47.80257],[35.299607,47.802521],[35.299389,47.802703]]]}},{"type":"Feature","properties":{"cadnum":"2322188601:05:001:0333"},"geometry":{"type":"Polygon","coordinates":[[[35.299173,47.802592],[35.299186,47.802598],[35.299403,47.802419],[35.299404,47.802419],[35.299417,47.802424],[35.299598,47.802516],[35.299862,47.802294],[35.299923,47.802243],[35.29992,47.802242],[35.299984,47.802186],[35.299881,47.802131],[35.299813,47.802095],[35.299693,47.802189],[35.299694,47.802189],[35.299467,47.802368],[35.299466,47.802368],[35.299459,47.802363],[35.299173,47.802592]]]}},{"type":"Feature","properties":{"cadnum":"2322188601:05:001:0095"},"geometry":{"type":"Polygon","coordinates":[[[35.300412,47.802627],[35.300969,47.802946],[35.30119,47.803075],[35.301345,47.803012],[35.301229,47.802912],[35.300543,47.802512],[35.300412,47.802627]]]}},{"type":"Feature","properties":{"cadnum":"2322188601:05:001:0464"},"geometry":{"type":"Polygon","coordinates":[[[35.303589,47.796301],[35.303668,47.796342],[35.303766,47.796392],[35.303942,47.796243],[35.303983,47.796267],[35.304147,47.796146],[35.303989,47.796054],[35.303914,47.79601],[35.303589,47.796301]]]}},{"type":"Feature","properties":{"cadnum":"2322188601:05:001:0453"},"geometry":{"type":"Polygon","coordinates":[[[35.303539,47.796928],[35.303549,47.796934],[35.303765,47.79706],[35.304053,47.797224],[35.304223,47.797079],[35.303998,47.796963],[35.30369,47.796792],[35.303576,47.796896],[35.303539,47.796928]]]}},{"type":"Feature","properties":{"cadnum":"2322188601:05:001:0482"},"geometry":{"type":"Polygon","coordinates":[[[35.301646,47.796554],[35.302029,47.796778],[35.302228,47.796854],[35.302511,47.797011],[35.302676,47.79687],[35.302628,47.796848],[35.302476,47.796761],[35.302166,47.796593],[35.301761,47.796354],[35.301646,47.796554]]]}},{"type":"Feature","properties":{"cadnum":"2322188601:05:001:0455"},"geometry":{"type":"Polygon","coordinates":[[[35.303193,47.797259],[35.30373,47.797503],[35.3039,47.797354],[35.303723,47.797267],[35.303396,47.797074],[35.303383,47.797074],[35.303193,47.797259]]]}},{"type":"Feature","properties":{"cadnum":"2322188601:05:001:0599"},"geometry":{"type":"Polygon","coordinates":[[[35.299811,47.796552],[35.300514,47.797215],[35.30069,47.797221],[35.299906,47.796506],[35.299811,47.796552]]]}},{"type":"Feature","properties":{"cadnum":"2322188601:05:001:0460"},"geometry":{"type":"Polygon","coordinates":[[[35.302928,47.796826],[35.30318,47.796967],[35.303383,47.797074],[35.303396,47.797074],[35.303549,47.796934],[35.30354,47.796928],[35.303576,47.796897],[35.303156,47.796674],[35.303152,47.796675],[35.30313,47.796662],[35.302928,47.796826]]]}},{"type":"Feature","properties":{"cadnum":"2322188601:05:001:0457"},"geometry":{"type":"Polygon","coordinates":[[[35.302784,47.797322],[35.303023,47.797429],[35.303029,47.797424],[35.303193,47.797259],[35.303336,47.79712],[35.303128,47.79701],[35.303057,47.79707],[35.303037,47.797081],[35.303045,47.797087],[35.303055,47.797096],[35.303039,47.797106],[35.302999,47.797122],[35.303018,47.797134],[35.303006,47.797145],[35.30298,47.797129],[35.302961,47.797142],[35.302979,47.797152],[35.302972,47.797158],[35.302948,47.797145],[35.302915,47.797173],[35.302876,47.797206],[35.302878,47.797208],[35.30285,47.797237],[35.302809,47.797268],[35.302827,47.797279],[35.302827,47.79728],[35.302797,47.797308],[35.3028,47.79731],[35.302791,47.797317],[35.30279,47.797316],[35.302784,47.797322]]]}},{"type":"Feature","properties":{"cadnum":"2322188601:05:002:0484"},"geometry":{"type":"Polygon","coordinates":[[[35.302345,47.795731],[35.303357,47.796284],[35.303464,47.796197],[35.302453,47.79565],[35.302345,47.795731]]]}},{"type":"Feature","properties":{"cadnum":"2322188601:05:001:0495"},"geometry":{"type":"Polygon","coordinates":[[[35.304392,47.795008],[35.304442,47.795054],[35.304479,47.795035],[35.30448,47.795035],[35.304627,47.794958],[35.304578,47.794913],[35.304577,47.794913],[35.304572,47.794915],[35.304422,47.794993],[35.304392,47.795008]]]}},{"type":"Feature","properties":{"cadnum":"2322188601:05:001:0586"},"geometry":{"type":"Polygon","coordinates":[[[35.301698,47.794944],[35.302296,47.795195],[35.302373,47.795115],[35.301765,47.794851],[35.301698,47.794944]]]}},{"type":"Feature","properties":{"cadnum":"2322188601:05:001:0500"},"geometry":{"type":"Polygon","coordinates":[[[35.30165,47.795161],[35.301827,47.795315],[35.301972,47.795436],[35.302319,47.795207],[35.301691,47.794947],[35.30165,47.795161]]]}},{"type":"Feature","properties":{"cadnum":"2322188601:05:001:0583"},"geometry":{"type":"Polygon","coordinates":[[[35.301877,47.794705],[35.301878,47.794705],[35.302118,47.794809],[35.302119,47.794809],[35.302393,47.794927],[35.302315,47.794716],[35.302315,47.794715],[35.30233,47.794596],[35.302127,47.79456],[35.301982,47.794602],[35.301888,47.794694],[35.301887,47.794694],[35.301877,47.794705]]]}},{"type":"Feature","properties":{"cadnum":"2322188601:05:001:0472"},"geometry":{"type":"Polygon","coordinates":[[[35.300781,47.798351],[35.300982,47.79844],[35.30106,47.798342],[35.301258,47.798018],[35.301316,47.797894],[35.3013,47.797891],[35.301305,47.797873],[35.301159,47.797844],[35.301147,47.797866],[35.301083,47.797851],[35.301018,47.797951],[35.301089,47.797975],[35.300781,47.798351]]]}},{"type":"Feature","properties":{"cadnum":"2322188601:05:002:0454"},"geometry":{"type":"Polygon","coordinates":[[[35.303396,47.797074],[35.303723,47.797267],[35.303898,47.797352],[35.304053,47.797224],[35.303765,47.79706],[35.303549,47.796934],[35.303396,47.797074]]]}},{"type":"Feature","properties":{"cadnum":"2322188601:05:001:0361"},"geometry":{"type":"Polygon","coordinates":[[[35.304246,47.797543],[35.30448,47.797673],[35.304643,47.797763],[35.304651,47.797757],[35.304651,47.797756],[35.30496,47.797492],[35.304914,47.797468],[35.304604,47.797303],[35.304354,47.797516],[35.304353,47.797516],[35.304304,47.797487],[35.304246,47.797543]]]}},{"type":"Feature","properties":{"cadnum":"2322188601:05:001:0359"},"geometry":{"type":"Polygon","coordinates":[[[35.303299,47.798405],[35.303307,47.798409],[35.303482,47.798499],[35.303904,47.798718],[35.30405,47.798579],[35.304111,47.79852],[35.303997,47.798461],[35.303519,47.798211],[35.303323,47.798384],[35.303322,47.798384],[35.3033,47.798405],[35.303299,47.798405]]]}},{"type":"Feature","properties":{"cadnum":"2322188601:05:001:0654"},"geometry":{"type":"Polygon","coordinates":[[[35.303522,47.79821],[35.303854,47.798384],[35.303853,47.798384],[35.304009,47.798465],[35.304075,47.798499],[35.304115,47.79852],[35.304237,47.798439],[35.304388,47.798316],[35.304388,47.798315],[35.30448,47.798364],[35.304564,47.798409],[35.304651,47.798456],[35.304733,47.798499],[35.304734,47.798499],[35.304748,47.798506],[35.304785,47.798529],[35.304961,47.798384],[35.305353,47.798062],[35.305078,47.797896],[35.305154,47.797833],[35.30527,47.797732],[35.30528,47.797655],[35.30496,47.797492],[35.304643,47.797763],[35.304269,47.797556],[35.303949,47.797848],[35.303987,47.797869],[35.303987,47.79787],[35.303937,47.797913],[35.303936,47.797913],[35.303892,47.79789],[35.303522,47.79821]]]}},{"type":"Feature","properties":{"cadnum":"2322188601:05:001:0474"},"geometry":{"type":"Polygon","coordinates":[[[35.300506,47.79823],[35.300513,47.798258],[35.300683,47.798317],[35.301136,47.797739],[35.301333,47.797785],[35.30139,47.79765],[35.301022,47.797546],[35.300506,47.79823]]]}},{"type":"Feature","properties":{"cadnum":"2322188601:05:001:0001"},"geometry":{"type":"Polygon","coordinates":[[[35.301856,47.798101],[35.301929,47.798176],[35.301989,47.798375],[35.302005,47.798384],[35.302004,47.798384],[35.302168,47.798477],[35.302208,47.798499],[35.302468,47.798646],[35.302464,47.798655],[35.302629,47.798746],[35.302835,47.798557],[35.302708,47.798493],[35.302607,47.798442],[35.302586,47.798431],[35.302027,47.798141],[35.301906,47.798068],[35.301856,47.798101]]]}},{"type":"Feature","properties":{"cadnum":"2322188601:05:001:0219"},"geometry":{"type":"Polygon","coordinates":[[[35.310352,47.794383],[35.310677,47.794559],[35.310908,47.794694],[35.311016,47.794757],[35.311106,47.794809],[35.311107,47.794809],[35.311121,47.794817],[35.311251,47.794717],[35.311327,47.794656],[35.310559,47.794228],[35.310352,47.794383]]]}},{"type":"Feature","properties":{"cadnum":"2322188601:05:001:0601"},"geometry":{"type":"Polygon","coordinates":[[[35.310828,47.796483],[35.311274,47.796707],[35.311378,47.796624],[35.311003,47.796432],[35.310858,47.796413],[35.310828,47.796483]]]}},{"type":"Feature","properties":{"cadnum":"2322188601:05:001:0610"},"geometry":{"type":"Polygon","coordinates":[[[35.312278,47.796139],[35.312794,47.796365],[35.312961,47.796155],[35.312477,47.795942],[35.312278,47.796139]]]}},{"type":"Feature","properties":{"cadnum":"2322188601:05:001:0288"},"geometry":{"type":"Polygon","coordinates":[[[35.311309,47.795572],[35.311518,47.795721],[35.312023,47.796069],[35.312338,47.795813],[35.3115,47.795372],[35.311315,47.795534],[35.311309,47.795572]]]}},{"type":"Feature","properties":{"cadnum":"2322188601:05:001:0120"},"geometry":{"type":"Polygon","coordinates":[[[35.309865,47.796764],[35.309973,47.796844],[35.310072,47.796917],[35.310144,47.796971],[35.310145,47.796971],[35.31015,47.796975],[35.310366,47.797165],[35.310692,47.797359],[35.310843,47.797219],[35.310814,47.797144],[35.310338,47.796846],[35.31021,47.796771],[35.310016,47.796642],[35.309865,47.796764]]]}},{"type":"Feature","properties":{"cadnum":"2322188601:05:001:0604"},"geometry":{"type":"Polygon","coordinates":[[[35.311022,47.796097],[35.311633,47.796411],[35.311732,47.796324],[35.311115,47.796016],[35.311022,47.796097]]]}},{"type":"Feature","properties":{"cadnum":"2322188601:05:001:0603"},"geometry":{"type":"Polygon","coordinates":[[[35.310941,47.796202],[35.311526,47.796496],[35.311633,47.796411],[35.311022,47.796097],[35.310941,47.796202]]]}},{"type":"Feature","properties":{"cadnum":"2322188601:05:001:0605"},"geometry":{"type":"Polygon","coordinates":[[[35.311115,47.796016],[35.311732,47.796324],[35.31185,47.796206],[35.311262,47.795887],[35.311115,47.796016]]]}},{"type":"Feature","properties":{"cadnum":"2322188601:05:001:0612"},"geometry":{"type":"Polygon","coordinates":[[[35.312731,47.795708],[35.313155,47.795907],[35.313195,47.795849],[35.313232,47.795795],[35.312837,47.79562],[35.312782,47.795663],[35.312731,47.795708]]]}},{"type":"Feature","properties":{"cadnum":"2322188601:05:001:0614"},"geometry":{"type":"Polygon","coordinates":[[[35.312938,47.795531],[35.313304,47.795694],[35.313563,47.795389],[35.313209,47.795262],[35.312938,47.795531]]]}},{"type":"Feature","properties":{"cadnum":"2322188601:05:001:0217"},"geometry":{"type":"Polygon","coordinates":[[[35.310009,47.79465],[35.310073,47.794694],[35.310083,47.794701],[35.310144,47.794742],[35.310145,47.794742],[35.310242,47.794809],[35.310243,47.794809],[35.310716,47.795131],[35.310776,47.795073],[35.310893,47.79499],[35.310451,47.794726],[35.31045,47.794725],[35.310147,47.794542],[35.310009,47.79465]]]}},{"type":"Feature","properties":{"cadnum":"2322188601:05:001:0606"},"geometry":{"type":"Polygon","coordinates":[[[35.311262,47.795887],[35.31185,47.796206],[35.311917,47.796133],[35.311409,47.79577],[35.311262,47.795887]]]}},{"type":"Feature","properties":{"cadnum":"2322188601:05:001:0615"},"geometry":{"type":"Polygon","coordinates":[[[35.313209,47.795262],[35.313563,47.795389],[35.313894,47.795101],[35.313559,47.795106],[35.313375,47.795147],[35.313209,47.795262]]]}},{"type":"Feature","properties":{"cadnum":"2322188601:05:001:0215"},"geometry":{"type":"Polygon","coordinates":[[[35.309706,47.794835],[35.309801,47.794892],[35.309808,47.794888],[35.309943,47.794978],[35.309973,47.795001],[35.309973,47.795002],[35.310069,47.795079],[35.310028,47.795121],[35.310144,47.795207],[35.310145,47.795207],[35.310198,47.795247],[35.310382,47.795369],[35.310553,47.795464],[35.310612,47.795416],[35.310613,47.795416],[35.310764,47.795511],[35.310844,47.795461],[35.31067,47.79536],[35.310414,47.795171],[35.310169,47.794999],[35.310083,47.794951],[35.310061,47.794935],[35.310081,47.794921],[35.310034,47.794888],[35.309892,47.794797],[35.30988,47.794805],[35.309831,47.794773],[35.309812,47.794761],[35.309706,47.794835]]]}},{"type":"Feature","properties":{"cadnum":"2322188601:05:001:0613"},"geometry":{"type":"Polygon","coordinates":[[[35.312837,47.79562],[35.313232,47.795795],[35.313276,47.79574],[35.313304,47.795694],[35.312938,47.795531],[35.312887,47.795577],[35.312837,47.79562]]]}},{"type":"Feature","properties":{"cadnum":"2322188601:05:001:0129"},"geometry":{"type":"Polygon","coordinates":[[[35.310716,47.795131],[35.311189,47.795459],[35.311473,47.795211],[35.311516,47.795173],[35.311012,47.794905],[35.310893,47.79499],[35.310776,47.795073],[35.310716,47.795131]]]}},{"type":"Feature","properties":{"cadnum":"2322188601:05:001:0611"},"geometry":{"type":"Polygon","coordinates":[[[35.312477,47.795942],[35.312961,47.796155],[35.313155,47.795907],[35.312731,47.795708],[35.312477,47.795942]]]}},{"type":"Feature","properties":{"cadnum":"2322188601:05:001:0561"},"geometry":{"type":"Polygon","coordinates":[[[35.312231,47.794797],[35.312253,47.794809],[35.31302,47.795214],[35.313182,47.79507],[35.312686,47.794809],[35.312393,47.794655],[35.312349,47.794694],[35.312231,47.794797]]]}},{"type":"Feature","properties":{"cadnum":"2322188601:05:001:0560"},"geometry":{"type":"Polygon","coordinates":[[[35.312034,47.794921],[35.312836,47.795343],[35.313021,47.795215],[35.312231,47.794797],[35.312202,47.794781],[35.312034,47.794921]]]}},{"type":"Feature","properties":{"cadnum":"2322188601:05:001:0025"},"geometry":{"type":"Polygon","coordinates":[[[35.309538,47.802183],[35.309658,47.802189],[35.309659,47.802189],[35.309727,47.802193],[35.30975,47.80215],[35.309835,47.80199],[35.309916,47.801825],[35.309973,47.801722],[35.310071,47.801543],[35.310144,47.801389],[35.309963,47.801358],[35.309959,47.801365],[35.309887,47.801352],[35.30984,47.801467],[35.309812,47.801565],[35.309754,47.801694],[35.309586,47.802074],[35.309585,47.802074],[35.309538,47.802183]]]}},{"type":"Feature","properties":{"cadnum":"2322188601:05:002:0052"},"geometry":{"type":"Polygon","coordinates":[[[35.302578,47.79039],[35.303079,47.790676],[35.303342,47.790469],[35.302839,47.790181],[35.302821,47.790196],[35.302578,47.79039]]]}},{"type":"Feature","properties":{"cadnum":"2322188601:05:002:0100"},"geometry":{"type":"Polygon","coordinates":[[[35.300318,47.788975],[35.300843,47.789254],[35.301001,47.789127],[35.301071,47.78907],[35.300534,47.788805],[35.300463,47.788861],[35.300318,47.788975]]]}},{"type":"Feature","properties":{"cadnum":"2322188601:05:002:0161"},"geometry":{"type":"Polygon","coordinates":[[[35.298408,47.788162],[35.298961,47.788417],[35.298985,47.788397],[35.298986,47.788396],[35.299147,47.78826],[35.29856,47.788031],[35.298408,47.788162]]]}},{"type":"Feature","properties":{"cadnum":"2322188601:05:002:0099"},"geometry":{"type":"Polygon","coordinates":[[[35.301099,47.789299],[35.30165,47.789559],[35.301824,47.789405],[35.301277,47.789148],[35.301099,47.789299]]]}},{"type":"Feature","properties":{"cadnum":"2322188601:05:002:0094"},"geometry":{"type":"Polygon","coordinates":[[[35.299772,47.790317],[35.300278,47.79061],[35.300539,47.790405],[35.300034,47.790112],[35.299772,47.790317]]]}},{"type":"Feature","properties":{"cadnum":"2322188601:05:002:0095"},"geometry":{"type":"Polygon","coordinates":[[[35.30005,47.790102],[35.300552,47.790398],[35.300621,47.790346],[35.300816,47.790195],[35.300314,47.7899],[35.30005,47.790102]]]}},{"type":"Feature","properties":{"cadnum":"2322188601:05:002:0129"},"geometry":{"type":"Polygon","coordinates":[[[35.299043,47.788378],[35.299158,47.788438],[35.299473,47.7886],[35.299567,47.788646],[35.299577,47.788651],[35.299614,47.788615],[35.299644,47.788588],[35.299685,47.788544],[35.29974,47.788491],[35.299745,47.788486],[35.299743,47.788484],[35.299216,47.788234],[35.299204,47.788244],[35.299043,47.788378]]]}},{"type":"Feature","properties":{"cadnum":"2322188601:05:002:0123"},"geometry":{"type":"Polygon","coordinates":[[[35.298479,47.789737],[35.298985,47.790031],[35.298986,47.79003],[35.299011,47.79001],[35.299158,47.789896],[35.299247,47.789827],[35.299158,47.789776],[35.299158,47.789775],[35.298741,47.789533],[35.298479,47.789737]]]}},{"type":"Feature","properties":{"cadnum":"2322188601:05:002:0098"},"geometry":{"type":"Polygon","coordinates":[[[35.300841,47.789494],[35.301343,47.789791],[35.301371,47.789769],[35.30158,47.789608],[35.301079,47.789311],[35.300841,47.789494]]]}},{"type":"Feature","properties":{"cadnum":"2322188601:05:002:0106"},"geometry":{"type":"Polygon","coordinates":[[[35.298716,47.790247],[35.298986,47.790404],[35.299066,47.79045],[35.299158,47.790503],[35.299222,47.79054],[35.299483,47.790336],[35.299158,47.790148],[35.298977,47.790043],[35.298716,47.790247]]]}},{"type":"Feature","properties":{"cadnum":"2322188601:05:002:0128"},"geometry":{"type":"Polygon","coordinates":[[[35.299725,47.788751],[35.300238,47.789039],[35.300463,47.788854],[35.299921,47.788591],[35.299725,47.788751]]]}},{"type":"Feature","properties":{"cadnum":"2322188601:05:002:0076"},"geometry":{"type":"Polygon","coordinates":[[[35.300869,47.790136],[35.30137,47.790434],[35.301631,47.790229],[35.301132,47.789931],[35.300869,47.790136]]]}},{"type":"Feature","properties":{"cadnum":"2322188601:05:002:0105"},"geometry":{"type":"Polygon","coordinates":[[[35.299017,47.790019],[35.299158,47.790092],[35.29955,47.790293],[35.299811,47.790088],[35.299279,47.789815],[35.299253,47.789835],[35.299017,47.790019]]]}},{"type":"Feature","properties":{"cadnum":"2322188601:05:002:0102"},"geometry":{"type":"Polygon","coordinates":[[[35.299839,47.789405],[35.300388,47.789661],[35.300627,47.789444],[35.300078,47.789189],[35.299839,47.789405]]]}},{"type":"Feature","properties":{"cadnum":"2322188601:05:002:0051"},"geometry":{"type":"Polygon","coordinates":[[[35.302843,47.790178],[35.303345,47.790467],[35.303611,47.790262],[35.303105,47.789971],[35.302843,47.790178]]]}},{"type":"Feature","properties":{"cadnum":"2322188601:05:002:0033"},"geometry":{"type":"Polygon","coordinates":[[[35.303847,47.790994],[35.303864,47.791003],[35.303923,47.791036],[35.304069,47.791119],[35.30407,47.791119],[35.304359,47.791281],[35.304479,47.791184],[35.30448,47.791184],[35.30448,47.791185],[35.304561,47.791119],[35.304644,47.791051],[35.30456,47.791003],[35.304132,47.790763],[35.304095,47.790793],[35.303847,47.790994]]]}},{"type":"Feature","properties":{"cadnum":"2322188601:05:002:0034"},"geometry":{"type":"Polygon","coordinates":[[[35.303552,47.791214],[35.303565,47.791221],[35.304079,47.791503],[35.30436,47.791283],[35.30393,47.79104],[35.303839,47.790988],[35.303819,47.791003],[35.303818,47.791003],[35.303707,47.791092],[35.303672,47.791119],[35.303552,47.791214]]]}},{"type":"Feature","properties":{"cadnum":"2322188601:05:002:0050"},"geometry":{"type":"Polygon","coordinates":[[[35.303565,47.790502],[35.304095,47.790787],[35.304225,47.790687],[35.304414,47.790541],[35.303848,47.790276],[35.303708,47.790388],[35.303565,47.790502]]]}},{"type":"Feature","properties":{"cadnum":"2322188601:05:002:0048"},"geometry":{"type":"Polygon","coordinates":[[[35.303038,47.790928],[35.303172,47.791003],[35.30355,47.791216],[35.30367,47.791119],[35.303671,47.791119],[35.30382,47.790999],[35.303307,47.790711],[35.303038,47.790928]]]}},{"type":"Feature","properties":{"cadnum":"2322188601:05:002:0069"},"geometry":{"type":"Polygon","coordinates":[[[35.30125,47.790736],[35.301776,47.791013],[35.302037,47.79081],[35.301512,47.790531],[35.30125,47.790736]]]}},{"type":"Feature","properties":{"cadnum":"2322188601:05:002:0079"},"geometry":{"type":"Polygon","coordinates":[[[35.300403,47.790526],[35.300899,47.790828],[35.301028,47.790725],[35.300533,47.790422],[35.300403,47.790526]]]}},{"type":"Feature","properties":{"cadnum":"2322188601:05:002:0132"},"geometry":{"type":"Polygon","coordinates":[[[35.298302,47.788962],[35.29882,47.789246],[35.298986,47.789116],[35.299082,47.789041],[35.298564,47.788757],[35.298302,47.788962]]]}},{"type":"Feature","properties":{"cadnum":"2322188601:05:002:0081"},"geometry":{"type":"Polygon","coordinates":[[[35.299825,47.790953],[35.299908,47.791003],[35.300324,47.791252],[35.300585,47.791048],[35.300086,47.790748],[35.299825,47.790953]]]}},{"type":"Feature","properties":{"cadnum":"2322188601:05:002:0070"},"geometry":{"type":"Polygon","coordinates":[[[35.301512,47.790531],[35.302037,47.79081],[35.3023,47.790606],[35.301775,47.790328],[35.301512,47.790531]]]}},{"type":"Feature","properties":{"cadnum":"2322188601:05:002:0056"},"geometry":{"type":"Polygon","coordinates":[[[35.301528,47.791211],[35.301927,47.791433],[35.302023,47.791486],[35.302041,47.791497],[35.302298,47.791289],[35.301834,47.791031],[35.301783,47.791003],[35.301782,47.791003],[35.301781,47.791003],[35.301773,47.791011],[35.30164,47.791119],[35.301528,47.791211]]]}},{"type":"Feature","properties":{"cadnum":"2322188601:05:002:0092"},"geometry":{"type":"Polygon","coordinates":[[[35.299277,47.790705],[35.299772,47.791006],[35.299835,47.790959],[35.300041,47.790805],[35.299546,47.790504],[35.299277,47.790705]]]}},{"type":"Feature","properties":{"cadnum":"2322188601:05:002:0131"},"geometry":{"type":"Polygon","coordinates":[[[35.298567,47.788755],[35.298986,47.788988],[35.298986,47.788989],[35.299086,47.789043],[35.299158,47.788986],[35.299345,47.788838],[35.299062,47.788683],[35.298824,47.788552],[35.298567,47.788755]]]}},{"type":"Feature","properties":{"cadnum":"2322188601:05:002:0127"},"geometry":{"type":"Polygon","coordinates":[[[35.299507,47.788921],[35.300016,47.789208],[35.300238,47.789039],[35.299725,47.788751],[35.299507,47.788921]]]}},{"type":"Feature","properties":{"cadnum":"2322188601:05:002:0074"},"geometry":{"type":"Polygon","coordinates":[[[35.301614,47.789591],[35.302155,47.789857],[35.302377,47.789678],[35.301824,47.789405],[35.301614,47.789591]]]}},{"type":"Feature","properties":{"cadnum":"2322188601:05:002:0103"},"geometry":{"type":"Polygon","coordinates":[[[35.299538,47.789592],[35.300061,47.789871],[35.300319,47.789665],[35.299796,47.789385],[35.299762,47.789414],[35.299538,47.789592]]]}},{"type":"Feature","properties":{"cadnum":"2322188601:05:002:0104"},"geometry":{"type":"Polygon","coordinates":[[[35.299279,47.789815],[35.29981,47.790087],[35.300073,47.789883],[35.29954,47.78961],[35.299279,47.789815]]]}},{"type":"Feature","properties":{"cadnum":"2322188601:05:002:0130"},"geometry":{"type":"Polygon","coordinates":[[[35.298824,47.788552],[35.298986,47.788641],[35.298986,47.788642],[35.299062,47.788683],[35.299158,47.788736],[35.299345,47.788838],[35.29956,47.788667],[35.299043,47.788383],[35.298824,47.788552]]]}},{"type":"Feature","properties":{"cadnum":"2322188601:05:002:0126"},"geometry":{"type":"Polygon","coordinates":[[[35.299243,47.789124],[35.299762,47.789414],[35.300016,47.789208],[35.299507,47.788921],[35.299243,47.789124]]]}},{"type":"Feature","properties":{"cadnum":"2322188601:05:002:0067"},"geometry":{"type":"Polygon","coordinates":[[[35.300723,47.791142],[35.301249,47.79142],[35.301262,47.79141],[35.301513,47.791217],[35.301263,47.791085],[35.300987,47.790939],[35.300904,47.791003],[35.300903,47.791003],[35.300832,47.791058],[35.300753,47.791119],[35.300723,47.791142]]]}},{"type":"Feature","properties":{"cadnum":"2322188601:05:001:0051"},"geometry":{"type":"Polygon","coordinates":[[[35.299794,47.801395],[35.299995,47.801504],[35.300228,47.80163],[35.300722,47.801895],[35.300876,47.801755],[35.29994,47.801261],[35.299794,47.801395]]]}},{"type":"Feature","properties":{"cadnum":"2322188601:05:001:0657"},"geometry":{"type":"Polygon","coordinates":[[[35.299296,47.801065],[35.299581,47.80122],[35.299865,47.800977],[35.29965,47.800847],[35.299611,47.800824],[35.299296,47.801065]]]}},{"type":"Feature","properties":{"cadnum":"2322188601:05:001:0156"},"geometry":{"type":"Polygon","coordinates":[[[35.303608,47.801169],[35.304084,47.801464],[35.304225,47.801345],[35.303733,47.801074],[35.303725,47.801078],[35.303608,47.801169]]]}},{"type":"Feature","properties":{"cadnum":"2322188601:05:001:0298"},"geometry":{"type":"Polygon","coordinates":[[[35.299872,47.801928],[35.300085,47.802036],[35.300141,47.802065],[35.3002,47.802009],[35.300172,47.801995],[35.300172,47.801994],[35.300177,47.80199],[35.30018,47.801992],[35.300216,47.801959],[35.300231,47.801968],[35.300271,47.801933],[35.300298,47.801909],[35.300381,47.801946],[35.300543,47.801805],[35.300413,47.80174],[35.300207,47.801622],[35.29999,47.801813],[35.299996,47.801816],[35.299872,47.801928]]]}},{"type":"Feature","properties":{"cadnum":"2322188601:05:001:0339"},"geometry":{"type":"Polygon","coordinates":[[[35.299216,47.801506],[35.299285,47.801545],[35.299247,47.801582],[35.29943,47.801685],[35.299528,47.801597],[35.299633,47.80149],[35.29978,47.801383],[35.299931,47.801244],[35.300097,47.801097],[35.299865,47.800977],[35.299581,47.80122],[35.299216,47.801506]]]}},{"type":"Feature","properties":{"cadnum":"2322188601:05:001:0295"},"geometry":{"type":"Polygon","coordinates":[[[35.299943,47.801249],[35.300515,47.801562],[35.300762,47.801694],[35.300767,47.801691],[35.300829,47.801724],[35.300865,47.801744],[35.300969,47.801654],[35.301021,47.801602],[35.301001,47.801591],[35.300427,47.801276],[35.300118,47.801115],[35.299943,47.801249]]]}},{"type":"Feature","properties":{"cadnum":"2322188601:05:001:0180"},"geometry":{"type":"Polygon","coordinates":[[[35.302806,47.800585],[35.303108,47.800744],[35.30316,47.800779],[35.303723,47.801078],[35.303731,47.801073],[35.303835,47.800987],[35.303295,47.800673],[35.303216,47.800625],[35.303151,47.800589],[35.303075,47.800546],[35.303018,47.800515],[35.302943,47.800476],[35.302806,47.800585]]]}},{"type":"Feature","properties":{"cadnum":"2322188601:05:001:0297"},"geometry":{"type":"Polygon","coordinates":[[[35.299619,47.801793],[35.299672,47.801821],[35.299736,47.801856],[35.299872,47.801927],[35.299996,47.801816],[35.29999,47.801814],[35.29999,47.801813],[35.300207,47.801622],[35.299975,47.801493],[35.299788,47.801649],[35.299792,47.801651],[35.299633,47.801781],[35.299619,47.801793]]]}},{"type":"Feature","properties":{"cadnum":"2322188601:05:001:0087"},"geometry":{"type":"Polygon","coordinates":[[[35.304291,47.801408],[35.30448,47.801507],[35.304624,47.801583],[35.304651,47.801591],[35.304698,47.801604],[35.305017,47.801776],[35.305292,47.801941],[35.305465,47.80179],[35.305105,47.801593],[35.30513,47.801573],[35.304911,47.80143],[35.304791,47.801379],[35.304531,47.801243],[35.30439,47.801355],[35.304367,47.801344],[35.304291,47.801408]]]}},{"type":"Feature","properties":{"cadnum":"2322188601:05:001:0277"},"geometry":{"type":"Polygon","coordinates":[[[35.303069,47.79896],[35.303248,47.799057],[35.303456,47.799172],[35.303706,47.799303],[35.303868,47.799177],[35.303514,47.79899],[35.303479,47.79902],[35.303293,47.798919],[35.303196,47.798863],[35.303069,47.79896]]]}},{"type":"Feature","properties":{"cadnum":"2322188601:05:001:0182"},"geometry":{"type":"Polygon","coordinates":[[[35.303147,47.800308],[35.303372,47.800426],[35.304069,47.800796],[35.304155,47.800719],[35.304175,47.800702],[35.304219,47.800655],[35.303318,47.80017],[35.303147,47.800308]]]}},{"type":"Feature","properties":{"cadnum":"2322188601:05:001:0649"},"geometry":{"type":"Polygon","coordinates":[[[35.299381,47.800145],[35.299684,47.800372],[35.299715,47.800392],[35.299723,47.800397],[35.299724,47.800405],[35.299896,47.800515],[35.299937,47.800541],[35.299952,47.800534],[35.299995,47.800508],[35.300167,47.800408],[35.300274,47.800346],[35.300236,47.800325],[35.300195,47.800302],[35.299995,47.800191],[35.300083,47.800132],[35.300063,47.800118],[35.299735,47.799894],[35.299381,47.800145]]]}},{"type":"Feature","properties":{"cadnum":"2322188601:05:001:0289"},"geometry":{"type":"Polygon","coordinates":[[[35.301284,47.800657],[35.30149,47.800764],[35.301831,47.800476],[35.301661,47.80038],[35.301599,47.80035],[35.301284,47.800657]]]}},{"type":"Feature","properties":{"cadnum":"2322188601:05:001:0352"},"geometry":{"type":"Polygon","coordinates":[[[35.301844,47.799626],[35.302286,47.799859],[35.302622,47.799587],[35.302178,47.799352],[35.301844,47.799626]]]}},{"type":"Feature","properties":{"cadnum":"2322188601:05:001:0650"},"geometry":{"type":"Polygon","coordinates":[[[35.299995,47.800191],[35.300195,47.800302],[35.300236,47.800325],[35.300274,47.800346],[35.300286,47.800339],[35.300302,47.800349],[35.300357,47.800308],[35.300318,47.800284],[35.300279,47.800259],[35.300083,47.800132],[35.299995,47.800191]]]}},{"type":"Feature","properties":{"cadnum":"2322188601:05:001:0354"},"geometry":{"type":"Polygon","coordinates":[[[35.302324,47.799215],[35.30233,47.799219],[35.30264,47.799393],[35.302728,47.799312],[35.302801,47.799256],[35.302477,47.79908],[35.302475,47.799082],[35.30246,47.799075],[35.302425,47.799106],[35.30244,47.799114],[35.302324,47.799215]]]}},{"type":"Feature","properties":{"cadnum":"2322188601:05:001:0272"},"geometry":{"type":"Polygon","coordinates":[[[35.304164,47.798643],[35.304386,47.798767],[35.304508,47.798675],[35.304277,47.798548],[35.304164,47.798643]]]}},{"type":"Feature","properties":{"cadnum":"2322188601:05:001:0003"},"geometry":{"type":"Polygon","coordinates":[[[35.301649,47.798808],[35.302241,47.7991],[35.302322,47.799028],[35.302306,47.79902],[35.302404,47.798939],[35.30184,47.798629],[35.301649,47.798808]]]}},{"type":"Feature","properties":{"cadnum":"2322188601:05:001:0651"},"geometry":{"type":"Polygon","coordinates":[[[35.299351,47.800123],[35.299381,47.800145],[35.299735,47.799894],[35.299691,47.799863],[35.299681,47.79986],[35.299351,47.800123]]]}},{"type":"Feature","properties":{"cadnum":"2322188601:07:001:0061"},"geometry":{"type":"Polygon","coordinates":[[[35.424626,47.758462],[35.425501,47.758552],[35.425501,47.758551],[35.426173,47.75862],[35.426213,47.758434],[35.425501,47.758358],[35.424669,47.758269],[35.424626,47.758462]]]}},{"type":"Feature","properties":{"cadnum":"2322188601:05:001:0377"},"geometry":{"type":"Polygon","coordinates":[[[35.307568,47.794761],[35.307663,47.794809],[35.307665,47.794809],[35.308274,47.795111],[35.308396,47.794988],[35.308008,47.794756],[35.308002,47.794751],[35.30796,47.794721],[35.30776,47.794606],[35.307651,47.794694],[35.30765,47.794694],[35.307568,47.794761]]]}},{"type":"Feature","properties":{"cadnum":"2322188601:05:001:0660"},"geometry":{"type":"Polygon","coordinates":[[[35.306714,47.798069],[35.307053,47.798237],[35.307477,47.797879],[35.307296,47.79779],[35.307285,47.797804],[35.307131,47.797945],[35.306962,47.797864],[35.306714,47.798069]]]}},{"type":"Feature","properties":{"cadnum":"2322188601:05:001:0199"},"geometry":{"type":"Polygon","coordinates":[[[35.305876,47.797952],[35.306015,47.798027],[35.306058,47.798049],[35.306129,47.798081],[35.306208,47.798013],[35.306085,47.797978],[35.306047,47.797958],[35.306073,47.797936],[35.306002,47.797898],[35.305964,47.797879],[35.305876,47.797952]]]}},{"type":"Feature","properties":{"cadnum":"2322188601:05:001:0444"},"geometry":{"type":"Polygon","coordinates":[[[35.30485,47.795532],[35.304992,47.795617],[35.305032,47.795642],[35.30551,47.79593],[35.30555,47.795954],[35.305744,47.795791],[35.305795,47.795748],[35.305755,47.795724],[35.305261,47.795446],[35.305221,47.795423],[35.305064,47.795335],[35.30485,47.795532]]]}},{"type":"Feature","properties":{"cadnum":"2322188601:05:001:0115"},"geometry":{"type":"Polygon","coordinates":[[[35.308748,47.797725],[35.309287,47.797997],[35.309509,47.79779],[35.308999,47.797508],[35.308748,47.797725]]]}},{"type":"Feature","properties":{"cadnum":"2322188601:05:001:0116"},"geometry":{"type":"Polygon","coordinates":[[[35.308999,47.797508],[35.309509,47.79779],[35.309537,47.797767],[35.309565,47.797782],[35.309784,47.797611],[35.309235,47.797305],[35.308999,47.797508]]]}},{"type":"Feature","properties":{"cadnum":"2322188601:05:001:0647"},"geometry":{"type":"Polygon","coordinates":[[[35.306361,47.795789],[35.306385,47.795804],[35.306526,47.795887],[35.306557,47.795865],[35.307041,47.796098],[35.307114,47.796035],[35.306522,47.795689],[35.306498,47.795675],[35.306361,47.795789]]]}},{"type":"Feature","properties":{"cadnum":"2322188601:05:001:0209"},"geometry":{"type":"Polygon","coordinates":[[[35.307769,47.796388],[35.308404,47.796714],[35.308644,47.796843],[35.308726,47.796778],[35.308533,47.79667],[35.308533,47.796669],[35.308707,47.796539],[35.308416,47.796401],[35.308169,47.796279],[35.308019,47.796195],[35.307769,47.796388]]]}},{"type":"Feature","properties":{"cadnum":"2322188601:05:001:0134"},"geometry":{"type":"Polygon","coordinates":[[[35.308176,47.796901],[35.308436,47.797065],[35.308641,47.796909],[35.309118,47.797176],[35.309267,47.797046],[35.308825,47.796795],[35.30879,47.79682],[35.308726,47.796778],[35.308644,47.796843],[35.308404,47.796714],[35.308176,47.796901]]]}},{"type":"Feature","properties":{"cadnum":"2322188601:05:001:0362"},"geometry":{"type":"Polygon","coordinates":[[[35.304583,47.797292],[35.304594,47.797297],[35.304914,47.797468],[35.305117,47.797561],[35.305117,47.79756],[35.305307,47.797402],[35.304805,47.797131],[35.304669,47.797251],[35.304649,47.797239],[35.304583,47.797292]]]}},{"type":"Feature","properties":{"cadnum":"2322188601:05:001:0208"},"geometry":{"type":"Polygon","coordinates":[[[35.307557,47.796564],[35.307784,47.796688],[35.307932,47.796775],[35.308176,47.796901],[35.308404,47.796714],[35.308157,47.796587],[35.30809,47.796552],[35.307769,47.796388],[35.307557,47.796564]]]}},{"type":"Feature","properties":{"cadnum":"2322188601:05:001:0367"},"geometry":{"type":"Polygon","coordinates":[[[35.305699,47.796336],[35.306356,47.796707],[35.306527,47.796567],[35.305865,47.796203],[35.305699,47.796336]]]}},{"type":"Feature","properties":{"cadnum":"2322188601:05:001:0378"},"geometry":{"type":"Polygon","coordinates":[[[35.307761,47.794606],[35.307913,47.794694],[35.307959,47.794721],[35.308111,47.794809],[35.308112,47.794809],[35.308406,47.794979],[35.30853,47.794884],[35.308205,47.794694],[35.308027,47.794589],[35.307964,47.794552],[35.307881,47.794508],[35.307761,47.794606]]]}},{"type":"Feature","properties":{"cadnum":"2322188601:05:001:0445"},"geometry":{"type":"Polygon","coordinates":[[[35.304772,47.795597],[35.304811,47.795638],[35.305104,47.795796],[35.305017,47.795872],[35.305409,47.796097],[35.305566,47.795964],[35.30553,47.795942],[35.304846,47.795529],[35.304772,47.795597]]]}},{"type":"Feature","properties":{"cadnum":"2322188601:05:001:0374"},"geometry":{"type":"Polygon","coordinates":[[[35.307116,47.795142],[35.307682,47.795458],[35.307847,47.795316],[35.307283,47.795001],[35.307116,47.795142]]]}},{"type":"Feature","properties":{"cadnum":"2322188601:05:001:0442"},"geometry":{"type":"Polygon","coordinates":[[[35.305692,47.79522],[35.305695,47.795235],[35.30585,47.795329],[35.306088,47.795444],[35.306128,47.795468],[35.306181,47.795422],[35.306182,47.795422],[35.306188,47.795425],[35.306317,47.795317],[35.306277,47.795297],[35.306277,47.795296],[35.306409,47.795193],[35.30601,47.794974],[35.305692,47.79522]]]}},{"type":"Feature","properties":{"cadnum":"2322188601:05:001:0438"},"geometry":{"type":"Polygon","coordinates":[[[35.30616,47.794333],[35.306363,47.794476],[35.306686,47.794665],[35.306706,47.794655],[35.306769,47.794694],[35.306792,47.794707],[35.306867,47.794751],[35.306912,47.794778],[35.306943,47.794793],[35.306993,47.794751],[35.30705,47.794704],[35.307051,47.794704],[35.307112,47.794652],[35.306317,47.794219],[35.306262,47.794258],[35.30616,47.794333]]]}},{"type":"Feature","properties":{"cadnum":"2322188601:05:001:0375"},"geometry":{"type":"Polygon","coordinates":[[[35.307283,47.795001],[35.307847,47.795316],[35.30787,47.79533],[35.308028,47.795207],[35.307745,47.795045],[35.30745,47.794871],[35.307283,47.795001]]]}},{"type":"Feature","properties":{"cadnum":"2322188601:05:001:0262"},"geometry":{"type":"Polygon","coordinates":[[[35.307457,47.7958],[35.307526,47.795841],[35.307515,47.795852],[35.307807,47.796036],[35.307856,47.795998],[35.307857,47.795998],[35.307878,47.796011],[35.308125,47.79581],[35.307716,47.795586],[35.307657,47.795632],[35.307457,47.7958]]]}},{"type":"Feature","properties":{"cadnum":"2322188601:05:001:0141"},"geometry":{"type":"Polygon","coordinates":[[[35.306969,47.798397],[35.307001,47.79843],[35.307132,47.798499],[35.307133,47.798499],[35.307394,47.798636],[35.307559,47.798457],[35.307558,47.798457],[35.30712,47.798235],[35.307097,47.798259],[35.307103,47.798262],[35.306969,47.798397]]]}},{"type":"Feature","properties":{"cadnum":"2322188601:05:001:0136"},"geometry":{"type":"Polygon","coordinates":[[[35.308229,47.797218],[35.30872,47.797517],[35.308872,47.797386],[35.308378,47.797109],[35.308229,47.797218]]]}},{"type":"Feature","properties":{"cadnum":"2322188601:05:001:0135"},"geometry":{"type":"Polygon","coordinates":[[[35.308378,47.797109],[35.308872,47.797386],[35.309118,47.797176],[35.308641,47.796909],[35.308378,47.797109]]]}},{"type":"Feature","properties":{"cadnum":"2322188601:05:001:0053"},"geometry":{"type":"Polygon","coordinates":[[[35.310304,47.801004],[35.310494,47.801098],[35.310878,47.800686],[35.310667,47.800633],[35.310651,47.800653],[35.310304,47.801004]]]}},{"type":"Feature","properties":{"cadnum":"2322188601:05:001:0628"},"geometry":{"type":"Polygon","coordinates":[[[35.31299,47.801103],[35.313513,47.801175],[35.31352,47.801149],[35.313544,47.801072],[35.313548,47.801058],[35.313619,47.800822],[35.313096,47.80075],[35.313022,47.800993],[35.313018,47.801007],[35.312998,47.801073],[35.31299,47.801103]]]}},{"type":"Feature","properties":{"cadnum":"2322188601:05:001:0055"},"geometry":{"type":"Polygon","coordinates":[[[35.310963,47.801181],[35.311295,47.801305],[35.311467,47.801151],[35.311585,47.801031],[35.311774,47.800808],[35.311448,47.800728],[35.311294,47.800889],[35.311207,47.800968],[35.310963,47.801181]]]}},{"type":"Feature","properties":{"cadnum":"2322188601:05:001:0572"},"geometry":{"type":"Polygon","coordinates":[[[35.313722,47.801589],[35.313971,47.801625],[35.314278,47.801516],[35.314394,47.801209],[35.313873,47.80116],[35.31383,47.801273],[35.313776,47.801436],[35.313722,47.801589]]]}},{"type":"Feature","properties":{"cadnum":"2322188601:05:001:0646"},"geometry":{"type":"Polygon","coordinates":[[[35.312934,47.801775],[35.313153,47.801825],[35.313254,47.801552],[35.313291,47.801463],[35.313346,47.801306],[35.313378,47.801212],[35.313185,47.801186],[35.313178,47.801204],[35.313159,47.801247],[35.313123,47.801239],[35.313064,47.801347],[35.313055,47.801345],[35.313022,47.801409],[35.313079,47.80142],[35.313044,47.801486],[35.313029,47.801484],[35.313012,47.801523],[35.312986,47.801532],[35.312961,47.801635],[35.312934,47.801775]]]}},{"type":"Feature","properties":{"cadnum":"2322188601:05:001:0059"},"geometry":{"type":"Polygon","coordinates":[[[35.312515,47.801524],[35.312882,47.801594],[35.312874,47.801619],[35.312961,47.801635],[35.312986,47.801532],[35.313012,47.801523],[35.313029,47.801484],[35.313044,47.801486],[35.313079,47.80142],[35.313023,47.801409],[35.313022,47.801409],[35.313055,47.801345],[35.313064,47.801347],[35.313123,47.801239],[35.313081,47.80123],[35.313032,47.801219],[35.312768,47.80116],[35.312515,47.801524]]]}},{"type":"Feature","properties":{"cadnum":"2322188601:05:001:0565"},"geometry":{"type":"Polygon","coordinates":[[[35.310118,47.800916],[35.310304,47.801004],[35.310651,47.800653],[35.310667,47.800633],[35.310449,47.800577],[35.310118,47.800916]]]}},{"type":"Feature","properties":{"cadnum":"2322188601:05:001:0032"},"geometry":{"type":"Polygon","coordinates":[[[35.310433,47.801319],[35.310667,47.801376],[35.31074,47.801399],[35.311131,47.801494],[35.311294,47.801305],[35.310962,47.801181],[35.310674,47.801066],[35.310505,47.801217],[35.310433,47.801319]]]}},{"type":"Feature","properties":{"cadnum":"2322188601:05:001:0061"},"geometry":{"type":"Polygon","coordinates":[[[35.312424,47.800794],[35.312639,47.800838],[35.312719,47.8007],[35.312726,47.800659],[35.313045,47.800157],[35.312777,47.800099],[35.312424,47.800794]]]}},{"type":"Feature","properties":{"cadnum":"2322188601:05:001:0062"},"geometry":{"type":"Polygon","coordinates":[[[35.312053,47.800725],[35.312403,47.800797],[35.312408,47.800788],[35.312419,47.80079],[35.312526,47.800577],[35.312683,47.800273],[35.312793,47.800053],[35.312816,47.800009],[35.312581,47.799958],[35.31255,47.799996],[35.312066,47.800701],[35.312053,47.800725]]]}},{"type":"Feature","properties":{"cadnum":"2322188601:05:001:0065"},"geometry":{"type":"Polygon","coordinates":[[[35.311097,47.800514],[35.311388,47.800577],[35.311441,47.800589],[35.311471,47.80053],[35.31176,47.799961],[35.311448,47.7999],[35.311439,47.799928],[35.311331,47.799908],[35.311097,47.800514]]]}},{"type":"Feature","properties":{"cadnum":"2322188601:05:001:0057"},"geometry":{"type":"Polygon","coordinates":[[[35.311811,47.801301],[35.312169,47.801419],[35.312208,47.801374],[35.312328,47.801217],[35.312498,47.800972],[35.312128,47.800883],[35.311811,47.801301]]]}},{"type":"Feature","properties":{"cadnum":"2322188601:05:002:0120"},"geometry":{"type":"Polygon","coordinates":[[[35.297702,47.790371],[35.297712,47.790377],[35.298218,47.790655],[35.298471,47.790446],[35.297967,47.790168],[35.297955,47.790162],[35.297702,47.790371]]]}},{"type":"Feature","properties":{"cadnum":"2322188601:05:002:0151"},"geometry":{"type":"Polygon","coordinates":[[[35.295957,47.79011],[35.296475,47.790393],[35.296727,47.790183],[35.296209,47.7899],[35.295957,47.79011]]]}},{"type":"Feature","properties":{"cadnum":"2322188601:05:002:0149"},"geometry":{"type":"Polygon","coordinates":[[[35.295434,47.790519],[35.295953,47.790802],[35.296213,47.790598],[35.295695,47.790314],[35.295434,47.790519]]]}},{"type":"Feature","properties":{"cadnum":"2322188601:05:002:0157"},"geometry":{"type":"Polygon","coordinates":[[[35.297472,47.7889],[35.298018,47.78919],[35.298044,47.78917],[35.298266,47.78899],[35.297727,47.788704],[35.297472,47.7889]]]}},{"type":"Feature","properties":{"cadnum":"2322188601:05:002:0136"},"geometry":{"type":"Polygon","coordinates":[[[35.297255,47.789783],[35.297777,47.790064],[35.298037,47.789859],[35.297515,47.789578],[35.297255,47.789783]]]}},{"type":"Feature","properties":{"cadnum":"2322188601:05:002:0138"},"geometry":{"type":"Polygon","coordinates":[[[35.296731,47.790186],[35.297248,47.790471],[35.297513,47.790268],[35.296996,47.789983],[35.296731,47.790186]]]}},{"type":"Feature","properties":{"cadnum":"2322188601:05:002:0121"},"geometry":{"type":"Polygon","coordinates":[[[35.297955,47.790162],[35.298471,47.790446],[35.298725,47.790237],[35.298209,47.789953],[35.297955,47.790162]]]}},{"type":"Feature","properties":{"cadnum":"2322188601:05:002:0140"},"geometry":{"type":"Polygon","coordinates":[[[35.296233,47.790612],[35.296747,47.790896],[35.297007,47.790689],[35.296492,47.790406],[35.296233,47.790612]]]}},{"type":"Feature","properties":{"cadnum":"2322188601:05:002:0135"},"geometry":{"type":"Polygon","coordinates":[[[35.297514,47.789577],[35.298037,47.789859],[35.298297,47.789655],[35.297773,47.789373],[35.297514,47.789577]]]}},{"type":"Feature","properties":{"cadnum":"2322188601:05:002:0142"},"geometry":{"type":"Polygon","coordinates":[[[35.295691,47.791007],[35.295694,47.791008],[35.295895,47.791119],[35.295896,47.791119],[35.296209,47.79129],[35.29647,47.791086],[35.296471,47.791085],[35.296468,47.791084],[35.295953,47.790802],[35.295696,47.791003],[35.295695,47.791003],[35.295691,47.791007]]]}},{"type":"Feature","properties":{"cadnum":"2322188601:05:002:0119"},"geometry":{"type":"Polygon","coordinates":[[[35.29744,47.790564],[35.297946,47.790857],[35.297973,47.790838],[35.298207,47.790652],[35.297702,47.790359],[35.29744,47.790564]]]}},{"type":"Feature","properties":{"cadnum":"2322188601:05:002:0116"},"geometry":{"type":"Polygon","coordinates":[[[35.296645,47.791181],[35.29715,47.791475],[35.297411,47.79127],[35.297151,47.791119],[35.29715,47.791119],[35.296906,47.790976],[35.296872,47.791003],[35.296801,47.791059],[35.296724,47.791119],[35.296645,47.791181]]]}},{"type":"Feature","properties":{"cadnum":"2322188601:05:002:0110"},"geometry":{"type":"Polygon","coordinates":[[[35.297672,47.791066],[35.297763,47.791119],[35.297764,47.791119],[35.298178,47.791358],[35.298439,47.791154],[35.298179,47.791003],[35.297934,47.790861],[35.297752,47.791003],[35.297751,47.791003],[35.297672,47.791066]]]}},{"type":"Feature","properties":{"cadnum":"2322188601:05:002:0122"},"geometry":{"type":"Polygon","coordinates":[[[35.298218,47.789942],[35.298724,47.790235],[35.298985,47.790031],[35.298479,47.789737],[35.298218,47.789942]]]}},{"type":"Feature","properties":{"cadnum":"2322188601:05:002:0486"},"geometry":{"type":"Polygon","coordinates":[[[35.296996,47.789983],[35.297515,47.790269],[35.297777,47.790064],[35.297255,47.789783],[35.296996,47.789983]]]}},{"type":"Feature","properties":{"cadnum":"2322188601:05:002:0150"},"geometry":{"type":"Polygon","coordinates":[[[35.295695,47.790314],[35.296213,47.790598],[35.296475,47.790393],[35.295957,47.79011],[35.295695,47.790314]]]}},{"type":"Feature","properties":{"cadnum":"2322188601:05:002:0160"},"geometry":{"type":"Polygon","coordinates":[[[35.298229,47.788318],[35.29878,47.788573],[35.298961,47.788417],[35.298408,47.788162],[35.298229,47.788318]]]}},{"type":"Feature","properties":{"cadnum":"2322188601:05:002:0147"},"geometry":{"type":"Polygon","coordinates":[[[35.294963,47.790916],[35.295121,47.791003],[35.295264,47.791082],[35.295331,47.791119],[35.295479,47.791201],[35.295709,47.79102],[35.295192,47.790735],[35.294963,47.790916]]]}},{"type":"Feature","properties":{"cadnum":"2322188601:05:002:0146"},"geometry":{"type":"Polygon","coordinates":[[[35.294665,47.791129],[35.295174,47.791421],[35.295433,47.791215],[35.295265,47.791119],[35.294926,47.790923],[35.294824,47.791003],[35.294785,47.791034],[35.294677,47.791119],[35.294678,47.791119],[35.294665,47.791129]]]}},{"type":"Feature","properties":{"cadnum":"2322188601:05:002:0143"},"geometry":{"type":"Polygon","coordinates":[[[35.295479,47.791201],[35.295996,47.791486],[35.296225,47.791304],[35.295734,47.791033],[35.295709,47.79102],[35.295583,47.791119],[35.295479,47.791201]]]}},{"type":"Feature","properties":{"cadnum":"2322188601:05:001:0579"},"geometry":{"type":"Polygon","coordinates":[[[35.304108,47.793477],[35.304189,47.793541],[35.304261,47.793625],[35.304458,47.793916],[35.304479,47.793908],[35.30448,47.793908],[35.30448,47.793909],[35.304591,47.793868],[35.304355,47.793555],[35.304185,47.793429],[35.304108,47.793477]]]}},{"type":"Feature","properties":{"cadnum":"2322188601:05:001:0582"},"geometry":{"type":"Polygon","coordinates":[[[35.304116,47.794042],[35.304197,47.794133],[35.30448,47.794128],[35.304533,47.794127],[35.304651,47.794114],[35.304776,47.7941],[35.304591,47.793868],[35.304458,47.793916],[35.304116,47.794042]]]}},{"type":"Feature","properties":{"cadnum":"2322188601:05:002:0014"},"geometry":{"type":"Polygon","coordinates":[[[35.303541,47.792832],[35.304084,47.793091],[35.304352,47.792885],[35.303812,47.792623],[35.303798,47.792633],[35.303541,47.792832]]]}},{"type":"Feature","properties":{"cadnum":"2322188601:05:002:0491"},"geometry":{"type":"Polygon","coordinates":[[[35.30436,47.792191],[35.30448,47.792251],[35.304897,47.792459],[35.305157,47.792254],[35.304622,47.791985],[35.304576,47.792021],[35.30436,47.792191]]]}},{"type":"Feature","properties":{"cadnum":"2322188601:05:001:0577"},"geometry":{"type":"Polygon","coordinates":[[[35.30436,47.793278],[35.30448,47.793437],[35.304495,47.793457],[35.304651,47.793665],[35.304968,47.794084],[35.30524,47.794063],[35.304737,47.79338],[35.304533,47.793129],[35.30436,47.793278]]]}},{"type":"Feature","properties":{"cadnum":"2322188601:05:002:0028"},"geometry":{"type":"Polygon","coordinates":[[[35.304042,47.791724],[35.30448,47.79195],[35.304572,47.791998],[35.304588,47.791984],[35.304651,47.791929],[35.304651,47.791928],[35.304826,47.791776],[35.304581,47.791649],[35.304297,47.791501],[35.304042,47.791724]]]}},{"type":"Feature","properties":{"cadnum":"2322188601:05:002:0046"},"geometry":{"type":"Polygon","coordinates":[[[35.302465,47.791335],[35.302999,47.791634],[35.303252,47.791423],[35.302721,47.791122],[35.302465,47.791335]]]}},{"type":"Feature","properties":{"cadnum":"2322188601:05:002:0023"},"geometry":{"type":"Polygon","coordinates":[[[35.302923,47.792588],[35.303413,47.792894],[35.303549,47.792794],[35.303695,47.792687],[35.303206,47.792382],[35.302923,47.792588]]]}},{"type":"Feature","properties":{"cadnum":"2322188601:05:002:0024"},"geometry":{"type":"Polygon","coordinates":[[[35.303206,47.792382],[35.303695,47.792687],[35.303708,47.792677],[35.303978,47.79248],[35.303489,47.792176],[35.303206,47.792382]]]}},{"type":"Feature","properties":{"cadnum":"2322188601:05:002:0487"},"geometry":{"type":"Polygon","coordinates":[[[35.302961,47.791664],[35.303472,47.791953],[35.303763,47.791726],[35.303252,47.791437],[35.302961,47.791664]]]}},{"type":"Feature","properties":{"cadnum":"2322188601:05:002:0493"},"geometry":{"type":"Polygon","coordinates":[[[35.302102,47.792344],[35.302129,47.792359],[35.302619,47.792636],[35.302894,47.79241],[35.302383,47.792121],[35.302375,47.792128],[35.30217,47.792288],[35.302102,47.792344]]]}},{"type":"Feature","properties":{"cadnum":"2322188601:05:002:0042"},"geometry":{"type":"Polygon","coordinates":[[[35.301363,47.792215],[35.301883,47.792497],[35.302161,47.792284],[35.301639,47.792002],[35.301363,47.792215]]]}},{"type":"Feature","properties":{"cadnum":"2322188601:05:002:0058"},"geometry":{"type":"Polygon","coordinates":[[[35.301261,47.791411],[35.301775,47.791698],[35.302041,47.791497],[35.302023,47.791486],[35.301927,47.791433],[35.301528,47.791211],[35.301513,47.791217],[35.301262,47.79141],[35.301261,47.791411]]]}},{"type":"Feature","properties":{"cadnum":"2322188601:05:002:0043"},"geometry":{"type":"Polygon","coordinates":[[[35.301649,47.792007],[35.30217,47.792288],[35.302375,47.792128],[35.302444,47.792073],[35.301922,47.791792],[35.301649,47.792007]]]}},{"type":"Feature","properties":{"cadnum":"2322188601:05:002:0060"},"geometry":{"type":"Polygon","coordinates":[[[35.300562,47.792012],[35.301034,47.792276],[35.301269,47.792091],[35.300757,47.791803],[35.300742,47.791813],[35.30079,47.791841],[35.300562,47.792012]]]}},{"type":"Feature","properties":{"cadnum":"2322188601:05:002:0065"},"geometry":{"type":"Polygon","coordinates":[[[35.300218,47.791536],[35.300742,47.791813],[35.300757,47.791803],[35.300985,47.791624],[35.300452,47.791342],[35.300218,47.791536]]]}},{"type":"Feature","properties":{"cadnum":"2322188601:05:002:0044"},"geometry":{"type":"Polygon","coordinates":[[[35.301922,47.791792],[35.302444,47.792073],[35.302652,47.79191],[35.302717,47.791858],[35.3022,47.791579],[35.302196,47.791577],[35.301938,47.79178],[35.301922,47.791792]]]}},{"type":"Feature","properties":{"cadnum":"2322188601:05:002:0038"},"geometry":{"type":"Polygon","coordinates":[[[35.302383,47.792121],[35.302894,47.79241],[35.303184,47.792182],[35.302673,47.791893],[35.302652,47.79191],[35.302444,47.792073],[35.302383,47.792121]]]}},{"type":"Feature","properties":{"cadnum":"2322188601:05:002:0059"},"geometry":{"type":"Polygon","coordinates":[[[35.300757,47.791803],[35.301269,47.792091],[35.30151,47.791899],[35.300999,47.791611],[35.300991,47.791619],[35.300757,47.791803]]]}},{"type":"Feature","properties":{"cadnum":"2322188601:05:002:0040"},"geometry":{"type":"Polygon","coordinates":[[[35.301745,47.792668],[35.302389,47.792822],[35.302619,47.792636],[35.302129,47.792359],[35.30193,47.79252],[35.301745,47.792668]]]}},{"type":"Feature","properties":{"cadnum":"2322188601:05:002:0036"},"geometry":{"type":"Polygon","coordinates":[[[35.303266,47.791445],[35.303641,47.791657],[35.303767,47.791727],[35.303778,47.791733],[35.304064,47.791503],[35.304054,47.791498],[35.303552,47.791215],[35.303293,47.791423],[35.303266,47.791445]]]}},{"type":"Feature","properties":{"cadnum":"2322188601:05:001:0250"},"geometry":{"type":"Polygon","coordinates":[[[35.311166,47.793175],[35.311292,47.793301],[35.31128,47.793307],[35.311326,47.793346],[35.31131,47.793355],[35.311534,47.793549],[35.311751,47.793428],[35.311366,47.793093],[35.311258,47.793137],[35.311166,47.793175]]]}},{"type":"Feature","properties":{"cadnum":"2322188601:05:001:0622"},"geometry":{"type":"Polygon","coordinates":[[[35.309655,47.793383],[35.309973,47.793705],[35.31012,47.793854],[35.310139,47.793869],[35.310144,47.793867],[35.310144,47.793866],[35.310443,47.793739],[35.310464,47.793728],[35.310351,47.793577],[35.310378,47.793559],[35.310329,47.793511],[35.310149,47.793599],[35.310148,47.793599],[35.310126,47.793579],[35.309868,47.793341],[35.309857,47.793345],[35.309821,47.793312],[35.30981,47.793302],[35.309655,47.793383]]]}},{"type":"Feature","properties":{"cadnum":"2322188601:05:001:0256"},"geometry":{"type":"Polygon","coordinates":[[[35.309808,47.793985],[35.309973,47.794138],[35.310132,47.794286],[35.310144,47.794278],[35.310397,47.794117],[35.310139,47.793869],[35.31012,47.793854],[35.310114,47.793847],[35.309874,47.793962],[35.309873,47.793962],[35.309864,47.79396],[35.309808,47.793985]]]}},{"type":"Feature","properties":{"cadnum":"2322188601:05:001:0254"},"geometry":{"type":"Polygon","coordinates":[[[35.310351,47.793577],[35.310464,47.793728],[35.310443,47.793739],[35.310686,47.793969],[35.310861,47.793878],[35.310728,47.793765],[35.310494,47.793503],[35.310378,47.793559],[35.310351,47.793577]]]}},{"type":"Feature","properties":{"cadnum":"2322188601:05:001:0621"},"geometry":{"type":"Polygon","coordinates":[[[35.30981,47.793302],[35.309821,47.793312],[35.309857,47.793345],[35.309868,47.793341],[35.309973,47.793437],[35.309973,47.793438],[35.310126,47.793579],[35.310144,47.793596],[35.310145,47.793596],[35.310148,47.793599],[35.310329,47.793511],[35.31,47.793201],[35.309851,47.793278],[35.30981,47.793302]]]}},{"type":"Feature","properties":{"cadnum":"2322188601:05:001:0228"},"geometry":{"type":"Polygon","coordinates":[[[35.312485,47.793181],[35.312619,47.793292],[35.312666,47.79327],[35.312745,47.793337],[35.313513,47.793854],[35.313673,47.793769],[35.312986,47.793286],[35.31295,47.793259],[35.312918,47.793237],[35.312875,47.793206],[35.312701,47.793066],[35.312485,47.793181]]]}},{"type":"Feature","properties":{"cadnum":"2322188601:05:001:0331"},"geometry":{"type":"Polygon","coordinates":[[[35.312707,47.792477],[35.313001,47.792716],[35.313293,47.792552],[35.313016,47.792314],[35.312739,47.792459],[35.312707,47.792477]]]}},{"type":"Feature","properties":{"cadnum":"2322188601:05:001:0233"},"geometry":{"type":"Polygon","coordinates":[[[35.313629,47.792555],[35.313713,47.792628],[35.313838,47.792724],[35.314196,47.792968],[35.314248,47.792723],[35.31405,47.792556],[35.313882,47.792417],[35.313676,47.792531],[35.313637,47.79255],[35.313629,47.792555]]]}},{"type":"Feature","properties":{"cadnum":"2322188601:05:001:0655"},"geometry":{"type":"Polygon","coordinates":[[[35.313122,47.792835],[35.31336,47.79299],[35.31339,47.793013],[35.31383,47.793357],[35.313983,47.793144],[35.313375,47.79269],[35.313122,47.792835]]]}},{"type":"Feature","properties":{"cadnum":"2322188601:05:001:0556"},"geometry":{"type":"Polygon","coordinates":[[[35.313956,47.791282],[35.314258,47.791506],[35.314338,47.791466],[35.314518,47.791375],[35.314276,47.791141],[35.313957,47.791276],[35.313956,47.791282]]]}},{"type":"Feature","properties":{"cadnum":"2322188601:05:001:0620"},"geometry":{"type":"Polygon","coordinates":[[[35.310615,47.791163],[35.311243,47.791832],[35.311351,47.791782],[35.310716,47.791103],[35.310615,47.791163]]]}},{"type":"Feature","properties":{"cadnum":"2322188601:05:001:0234"},"geometry":{"type":"Polygon","coordinates":[[[35.313882,47.792417],[35.31405,47.792556],[35.314248,47.792723],[35.314559,47.792984],[35.314632,47.792719],[35.314117,47.792292],[35.313882,47.792417]]]}},{"type":"Feature","properties":{"cadnum":"2322188601:05:001:0398"},"geometry":{"type":"Polygon","coordinates":[[[35.313297,47.791612],[35.313592,47.791908],[35.313701,47.791858],[35.31387,47.791783],[35.313572,47.791495],[35.313297,47.791612]]]}},{"type":"Feature","properties":{"cadnum":"2322188601:05:001:0661"},"geometry":{"type":"Polygon","coordinates":[[[35.311633,47.794399],[35.312088,47.794668],[35.312259,47.794542],[35.311806,47.794274],[35.311633,47.794399]]]}},{"type":"Feature","properties":{"cadnum":"2322188601:05:001:0394"},"geometry":{"type":"Polygon","coordinates":[[[35.312238,47.792081],[35.312494,47.79234],[35.312554,47.792401],[35.312765,47.792304],[35.312715,47.792247],[35.31268,47.792207],[35.312459,47.791985],[35.312238,47.792081]]]}},{"type":"Feature","properties":{"cadnum":"2322188601:05:001:0408"},"geometry":{"type":"Polygon","coordinates":[[[35.311728,47.791397],[35.311948,47.791596],[35.312208,47.791842],[35.312486,47.791704],[35.312212,47.791471],[35.311986,47.791271],[35.311728,47.791397]]]}},{"type":"Feature","properties":{"cadnum":"2322188601:05:001:0395"},"geometry":{"type":"Polygon","coordinates":[[[35.312459,47.791985],[35.31268,47.792207],[35.312715,47.792247],[35.312765,47.792304],[35.312908,47.792238],[35.313065,47.792162],[35.313002,47.792101],[35.312748,47.791858],[35.312459,47.791985]]]}},{"type":"Feature","properties":{"cadnum":"2322188601:05:001:0663"},"geometry":{"type":"Polygon","coordinates":[[[35.312748,47.791858],[35.313002,47.792101],[35.313065,47.792162],[35.31321,47.7921],[35.313319,47.792049],[35.313267,47.791999],[35.313009,47.79174],[35.312748,47.791858]]]}},{"type":"Feature","properties":{"cadnum":"2322188601:05:001:0388"},"geometry":{"type":"Polygon","coordinates":[[[35.31035,47.792998],[35.31071,47.793372],[35.310871,47.793501],[35.311052,47.793398],[35.310891,47.793261],[35.310512,47.792924],[35.31035,47.792998]]]}},{"type":"Feature","properties":{"cadnum":"2322188601:05:001:0226"},"geometry":{"type":"Polygon","coordinates":[[[35.312068,47.793405],[35.312224,47.793536],[35.312765,47.793906],[35.312959,47.793801],[35.312482,47.793448],[35.312389,47.793381],[35.312277,47.793292],[35.312068,47.793405]]]}},{"type":"Feature","properties":{"cadnum":"2322188601:05:001:0555"},"geometry":{"type":"Polygon","coordinates":[[[35.314637,47.792014],[35.31486,47.792203],[35.315009,47.792322],[35.3153,47.791797],[35.315206,47.791715],[35.314637,47.792014]]]}},{"type":"Feature","properties":{"cadnum":"2322188601:05:001:0387"},"geometry":{"type":"Polygon","coordinates":[[[35.309992,47.793192],[35.310014,47.793214],[35.310144,47.793333],[35.310145,47.793333],[35.310352,47.793524],[35.310371,47.793541],[35.310496,47.793481],[35.31071,47.793372],[35.310689,47.79335],[35.310376,47.793026],[35.31035,47.792998],[35.309992,47.793192]]]}},{"type":"Feature","properties":{"cadnum":"2322188601:05:001:0384"},"geometry":{"type":"Polygon","coordinates":[[[35.309316,47.79355],[35.309722,47.793899],[35.309816,47.793981],[35.309973,47.793908],[35.309973,47.793909],[35.31012,47.79384],[35.309647,47.793375],[35.309316,47.79355]]]}},{"type":"Feature","properties":{"cadnum":"2322188601:05:001:0255"},"geometry":{"type":"Polygon","coordinates":[[[35.31014,47.793869],[35.310397,47.794116],[35.310686,47.793969],[35.310441,47.793737],[35.31014,47.793869]]]}},{"type":"Feature","properties":{"cadnum":"2322188601:05:001:0013"},"geometry":{"type":"Polygon","coordinates":[[[35.305897,47.801898],[35.30618,47.802005],[35.306493,47.801695],[35.306588,47.801666],[35.306801,47.801459],[35.30659,47.801395],[35.306573,47.801399],[35.30651,47.801376],[35.306514,47.801372],[35.306375,47.801331],[35.306375,47.80133],[35.306397,47.801293],[35.306298,47.801263],[35.306263,47.801295],[35.306226,47.801329],[35.306136,47.801414],[35.306021,47.801563],[35.306179,47.801608],[35.305897,47.801898]]]}},{"type":"Feature","properties":{"cadnum":"2322188601:05:001:0616"},"geometry":{"type":"Polygon","coordinates":[[[35.305752,47.801851],[35.305897,47.801898],[35.306179,47.801608],[35.306021,47.801563],[35.305752,47.801851]]]}},{"type":"Feature","properties":{"cadnum":"2322188601:05:001:0082"},"geometry":{"type":"Polygon","coordinates":[[[35.305877,47.80095],[35.306261,47.801146],[35.306502,47.800942],[35.306094,47.800751],[35.305877,47.80095]]]}},{"type":"Feature","properties":{"cadnum":"2322188601:05:001:0084"},"geometry":{"type":"Polygon","coordinates":[[[35.305408,47.801516],[35.305797,47.801707],[35.305933,47.801577],[35.305936,47.80156],[35.305925,47.801548],[35.305854,47.801502],[35.306047,47.80134],[35.30576,47.801202],[35.305566,47.801375],[35.305408,47.801516]]]}},{"type":"Feature","properties":{"cadnum":"2322188601:05:001:0012"},"geometry":{"type":"Polygon","coordinates":[[[35.306297,47.801242],[35.306298,47.801263],[35.306397,47.801293],[35.306375,47.801331],[35.306514,47.801372],[35.30651,47.801376],[35.306573,47.801399],[35.30659,47.801395],[35.306591,47.801395],[35.306801,47.801459],[35.306808,47.801443],[35.306676,47.80141],[35.306627,47.801372],[35.306794,47.801216],[35.306789,47.801214],[35.306844,47.801165],[35.306851,47.801156],[35.306574,47.801013],[35.306565,47.801008],[35.306297,47.801242]]]}},{"type":"Feature","properties":{"cadnum":"2322188601:05:001:0023"},"geometry":{"type":"Polygon","coordinates":[[[35.309053,47.801749],[35.309393,47.801824],[35.309481,47.801688],[35.30951,47.801593],[35.30966,47.801323],[35.309348,47.801265],[35.309053,47.801749]]]}},{"type":"Feature","properties":{"cadnum":"2322188601:05:001:0038"},"geometry":{"type":"Polygon","coordinates":[[[35.308152,47.800886],[35.308276,47.800919],[35.308499,47.800969],[35.308563,47.800869],[35.308716,47.800718],[35.308433,47.800601],[35.308326,47.80071],[35.308152,47.800886]]]}},{"type":"Feature","properties":{"cadnum":"2322188601:05:001:0108"},"geometry":{"type":"Polygon","coordinates":[[[35.307527,47.798739],[35.307708,47.798842],[35.307802,47.798895],[35.308512,47.799216],[35.308728,47.799039],[35.308636,47.798991],[35.308056,47.798699],[35.307764,47.798544],[35.307527,47.798739]]]}},{"type":"Feature","properties":{"cadnum":"2322188601:05:001:0145"},"geometry":{"type":"Polygon","coordinates":[[[35.305762,47.799371],[35.30623,47.799621],[35.306392,47.79948],[35.306371,47.799469],[35.306277,47.799419],[35.306203,47.79938],[35.306195,47.799386],[35.305927,47.799246],[35.305876,47.799264],[35.30583,47.799296],[35.305762,47.799371]]]}},{"type":"Feature","properties":{"cadnum":"2322188601:05:001:0035"},"geometry":{"type":"Polygon","coordinates":[[[35.309172,47.801106],[35.309542,47.801194],[35.309694,47.801047],[35.309703,47.801036],[35.309762,47.80098],[35.309458,47.800857],[35.309431,47.800874],[35.309173,47.801104],[35.309172,47.801106]]]}},{"type":"Feature","properties":{"cadnum":"2322188601:05:001:0072"},"geometry":{"type":"Polygon","coordinates":[[[35.308402,47.800127],[35.308747,47.800218],[35.309242,47.799724],[35.308959,47.799619],[35.308402,47.800127]]]}},{"type":"Feature","properties":{"cadnum":"2322188601:05:001:0656"},"geometry":{"type":"Polygon","coordinates":[[[35.308433,47.800601],[35.308716,47.800718],[35.308971,47.800504],[35.30909,47.800383],[35.309163,47.80031],[35.308813,47.800236],[35.308775,47.800287],[35.308654,47.800393],[35.308433,47.800601]]]}},{"type":"Feature","properties":{"cadnum":"2322188601:05:001:0016"},"geometry":{"type":"Polygon","coordinates":[[[35.306949,47.801428],[35.307014,47.801405],[35.307037,47.801422],[35.307131,47.8014],[35.307223,47.801354],[35.307224,47.801354],[35.307269,47.801296],[35.307301,47.801259],[35.307565,47.800972],[35.307655,47.800883],[35.307462,47.800841],[35.307348,47.800954],[35.307324,47.800967],[35.307273,47.80102],[35.307327,47.801042],[35.306949,47.801428]]]}},{"type":"Feature","properties":{"cadnum":"2322188601:05:001:0017"},"geometry":{"type":"Polygon","coordinates":[[[35.307301,47.801259],[35.307571,47.801294],[35.307895,47.800932],[35.307655,47.800883],[35.307565,47.800972],[35.307301,47.801259]]]}},{"type":"Feature","properties":{"cadnum":"2322188601:05:001:0074"},"geometry":{"type":"Polygon","coordinates":[[[35.307792,47.799823],[35.308142,47.799932],[35.308156,47.799918],[35.308416,47.799686],[35.308801,47.799346],[35.308491,47.799206],[35.308357,47.799315],[35.308211,47.799426],[35.308079,47.799552],[35.308024,47.799615],[35.30794,47.799692],[35.307792,47.799823]]]}},{"type":"Feature","properties":{"cadnum":"2322188601:05:001:0015"},"geometry":{"type":"Polygon","coordinates":[[[35.306627,47.801372],[35.306676,47.80141],[35.306814,47.801445],[35.306918,47.80144],[35.306949,47.801428],[35.307327,47.801042],[35.307273,47.80102],[35.307324,47.800967],[35.307348,47.800954],[35.307462,47.800841],[35.307448,47.800837],[35.307457,47.800821],[35.30741,47.80081],[35.307401,47.800827],[35.3074,47.800827],[35.307258,47.800794],[35.307028,47.801031],[35.306872,47.801155],[35.306851,47.801156],[35.306844,47.801165],[35.306789,47.801214],[35.306794,47.801216],[35.306627,47.801372]]]}},{"type":"Feature","properties":{"cadnum":"2322188601:05:001:0014"},"geometry":{"type":"Polygon","coordinates":[[[35.306574,47.801013],[35.306851,47.801156],[35.306872,47.801155],[35.307028,47.801031],[35.307258,47.800795],[35.306904,47.800716],[35.306574,47.801013]]]}},{"type":"Feature","properties":{"cadnum":"2322188601:05:001:0073"},"geometry":{"type":"Polygon","coordinates":[[[35.308154,47.799919],[35.30826,47.799951],[35.308304,47.799966],[35.308302,47.79997],[35.308488,47.800026],[35.308514,47.800003],[35.309216,47.799389],[35.308897,47.799261],[35.308587,47.79953],[35.308162,47.799912],[35.308154,47.799919]]]}},{"type":"Feature","properties":{"cadnum":"2322188601:05:001:0101"},"geometry":{"type":"Polygon","coordinates":[[[35.306428,47.799658],[35.30681,47.799841],[35.306828,47.799829],[35.307055,47.799621],[35.306686,47.799427],[35.306663,47.79944],[35.306428,47.799658]]]}},{"type":"Feature","properties":{"cadnum":"2322188601:05:001:0096"},"geometry":{"type":"Polygon","coordinates":[[[35.305754,47.80026],[35.305793,47.800281],[35.305936,47.800358],[35.306341,47.800561],[35.306561,47.800358],[35.306282,47.800223],[35.305986,47.800068],[35.305754,47.80026]]]}},{"type":"Feature","properties":{"cadnum":"2322188601:05:001:0093"},"geometry":{"type":"Polygon","coordinates":[[[35.305522,47.800472],[35.305807,47.800615],[35.306094,47.800751],[35.306117,47.800761],[35.306239,47.800652],[35.305947,47.800514],[35.305648,47.800359],[35.305522,47.800472]]]}},{"type":"Feature","properties":{"cadnum":"2322188601:05:001:0494"},"geometry":{"type":"Polygon","coordinates":[[[35.304901,47.798831],[35.305056,47.798905],[35.305056,47.798906],[35.305043,47.798918],[35.305295,47.799039],[35.305249,47.799115],[35.305343,47.799159],[35.30543,47.7992],[35.305581,47.799069],[35.305641,47.79901],[35.305685,47.798969],[35.305592,47.798925],[35.305591,47.798924],[35.305625,47.798892],[35.305577,47.798869],[35.305365,47.79878],[35.305243,47.798729],[35.305145,47.798683],[35.305101,47.798681],[35.305046,47.798694],[35.304964,47.79877],[35.30495,47.798783],[35.304901,47.798831]]]}},{"type":"Feature","properties":{"cadnum":"2322188601:05:001:0143"},"geometry":{"type":"Polygon","coordinates":[[[35.305527,47.799118],[35.305852,47.799278],[35.305905,47.799235],[35.305923,47.799243],[35.306054,47.799123],[35.305949,47.799071],[35.305916,47.799103],[35.305739,47.799016],[35.305707,47.799047],[35.305644,47.799015],[35.305527,47.799118]]]}},{"type":"Feature","properties":{"cadnum":"2322188601:05:001:0070"},"geometry":{"type":"Polygon","coordinates":[[[35.309297,47.800178],[35.30969,47.800258],[35.309695,47.800248],[35.309713,47.800214],[35.310014,47.799653],[35.309703,47.799595],[35.309686,47.79962],[35.309478,47.799967],[35.309329,47.80014],[35.309301,47.800172],[35.309297,47.800178]]]}},{"type":"Feature","properties":{"cadnum":"2322188601:05:001:0071"},"geometry":{"type":"Polygon","coordinates":[[[35.308955,47.800082],[35.309297,47.800178],[35.309478,47.799967],[35.309722,47.79956],[35.309514,47.799505],[35.309082,47.799938],[35.309015,47.800008],[35.308955,47.800082]]]}},{"type":"Feature","properties":{"cadnum":"2322188601:05:002:0112"},"geometry":{"type":"Polygon","coordinates":[[[35.29715,47.791475],[35.297655,47.791768],[35.297916,47.791564],[35.297412,47.791271],[35.297411,47.79127],[35.29715,47.791475]]]}},{"type":"Feature","properties":{"cadnum":"2322188601:05:002:0162"},"geometry":{"type":"Polygon","coordinates":[[[35.297671,47.791922],[35.298375,47.792061],[35.298536,47.791937],[35.298033,47.79164],[35.297671,47.791922]]]}},{"type":"Feature","properties":{"cadnum":"2322188601:05:002:0088"},"geometry":{"type":"Polygon","coordinates":[[[35.298274,47.79146],[35.298776,47.791756],[35.299008,47.791582],[35.298505,47.791285],[35.298274,47.79146]]]}},{"type":"Feature","properties":{"cadnum":"2322188601:05:002:0115"},"geometry":{"type":"Polygon","coordinates":[[[35.296399,47.791371],[35.296905,47.791665],[35.29715,47.791475],[35.296645,47.791181],[35.296399,47.791371]]]}},{"type":"Feature","properties":{"cadnum":"2322188601:05:002:0087"},"geometry":{"type":"Polygon","coordinates":[[[35.298033,47.79164],[35.298536,47.791937],[35.298776,47.791756],[35.298274,47.79146],[35.298033,47.79164]]]}},{"type":"Feature","properties":{"cadnum":"2322188601:05:002:0113"},"geometry":{"type":"Polygon","coordinates":[[[35.296775,47.791767],[35.297498,47.791891],[35.297655,47.791768],[35.29715,47.791475],[35.296905,47.791665],[35.296775,47.791767]]]}},{"type":"Feature","properties":{"cadnum":"2322188601:05:001:0382"},"geometry":{"type":"Polygon","coordinates":[[[35.308404,47.794078],[35.309018,47.794447],[35.309188,47.794304],[35.308633,47.793909],[35.308404,47.794078]]]}},{"type":"Feature","properties":{"cadnum":"2322188601:05:001:0422"},"geometry":{"type":"Polygon","coordinates":[[[35.308426,47.792512],[35.309104,47.793293],[35.309306,47.793191],[35.309222,47.793107],[35.309231,47.793068],[35.30865,47.792416],[35.308426,47.792512]]]}},{"type":"Feature","properties":{"cadnum":"2322188601:05:001:0419"},"geometry":{"type":"Polygon","coordinates":[[[35.30883,47.792165],[35.30933,47.792707],[35.309655,47.793026],[35.309805,47.792954],[35.309471,47.792636],[35.308976,47.792122],[35.30883,47.792165]]]}},{"type":"Feature","properties":{"cadnum":"2322188601:05:001:0428"},"geometry":{"type":"Polygon","coordinates":[[[35.307899,47.792422],[35.308327,47.792927],[35.308467,47.7931],[35.308712,47.793023],[35.30862,47.792919],[35.308531,47.792812],[35.308135,47.792347],[35.307899,47.792422]]]}},{"type":"Feature","properties":{"cadnum":"2322188601:05:001:0436"},"geometry":{"type":"Polygon","coordinates":[[[35.306935,47.794169],[35.307348,47.794421],[35.307449,47.794489],[35.307738,47.794295],[35.307712,47.794252],[35.307351,47.794037],[35.30728,47.793997],[35.306935,47.794169]]]}},{"type":"Feature","properties":{"cadnum":"2322188601:05:001:0629"},"geometry":{"type":"Polygon","coordinates":[[[35.307013,47.792776],[35.30711,47.79286],[35.307177,47.792936],[35.307246,47.792984],[35.307579,47.793167],[35.307815,47.792983],[35.307437,47.792626],[35.307013,47.792776]]]}},{"type":"Feature","properties":{"cadnum":"2322188601:05:002:0021"},"geometry":{"type":"Polygon","coordinates":[[[35.305432,47.791363],[35.305947,47.791653],[35.30616,47.791474],[35.305705,47.791166],[35.305432,47.791363]]]}},{"type":"Feature","properties":{"cadnum":"2322188601:05:001:0491"},"geometry":{"type":"Polygon","coordinates":[[[35.308239,47.792289],[35.308426,47.792512],[35.30865,47.792416],[35.308571,47.792326],[35.308457,47.792199],[35.308239,47.792289]]]}},{"type":"Feature","properties":{"cadnum":"2322188601:05:002:0211"},"geometry":{"type":"Polygon","coordinates":[[[35.305008,47.792619],[35.305059,47.792673],[35.305314,47.79294],[35.305375,47.793004],[35.30543,47.793075],[35.305653,47.793336],[35.305755,47.793288],[35.305626,47.793124],[35.305724,47.793067],[35.305164,47.792501],[35.305008,47.792619]]]}},{"type":"Feature","properties":{"cadnum":"2322188601:05:001:0648"},"geometry":{"type":"Polygon","coordinates":[[[35.308571,47.792326],[35.309231,47.793068],[35.309231,47.793069],[35.309222,47.793107],[35.309306,47.793191],[35.309523,47.793084],[35.309234,47.792777],[35.308736,47.792243],[35.308571,47.792326]]]}}]}