{"type":"FeatureCollection","features":[{"type":"Feature","properties":{"cadnum":"2322185704:08:001:0022"},"geometry":{"type":"Polygon","coordinates":[[[34.971518,47.739652],[34.971953,47.739693],[34.972052,47.739311],[34.972052,47.73931],[34.972135,47.738994],[34.971733,47.738957],[34.971624,47.73931],[34.971624,47.739311],[34.971623,47.739311],[34.971518,47.739652]]]}},{"type":"Feature","properties":{"cadnum":"2322185704:08:001:0053"},"geometry":{"type":"Polygon","coordinates":[[[34.964956,47.737593],[34.965662,47.737656],[34.965781,47.737112],[34.96503,47.737065],[34.964956,47.737593]]]}},{"type":"Feature","properties":{"cadnum":"2322185704:08:001:0056"},"geometry":{"type":"Polygon","coordinates":[[[34.963926,47.739158],[34.964075,47.739172],[34.964075,47.739171],[34.964575,47.739215],[34.964754,47.738608],[34.964094,47.73852],[34.963926,47.739158]]]}},{"type":"Feature","properties":{"cadnum":"2322185704:08:001:0030"},"geometry":{"type":"Polygon","coordinates":[[[34.965694,47.739078],[34.966077,47.739138],[34.966296,47.738339],[34.965954,47.738296],[34.965694,47.739078]]]}},{"type":"Feature","properties":{"cadnum":"2322185704:08:001:0821"},"geometry":{"type":"Polygon","coordinates":[[[34.968459,47.73842],[34.968706,47.73845],[34.969005,47.738485],[34.969177,47.737956],[34.968631,47.737891],[34.968624,47.737913],[34.968501,47.738293],[34.968459,47.73842]]]}},{"type":"Feature","properties":{"cadnum":"2322185704:08:001:0052"},"geometry":{"type":"Polygon","coordinates":[[[34.964896,47.738032],[34.965561,47.738079],[34.965662,47.737656],[34.964956,47.737593],[34.964896,47.738032]]]}},{"type":"Feature","properties":{"cadnum":"2322185704:08:001:0054"},"geometry":{"type":"Polygon","coordinates":[[[34.967946,47.739267],[34.968322,47.739307],[34.968482,47.738594],[34.968057,47.738549],[34.967995,47.738825],[34.967946,47.739267]]]}},{"type":"Feature","properties":{"cadnum":"2322185704:08:001:0100"},"geometry":{"type":"Polygon","coordinates":[[[34.966048,47.739247],[34.966376,47.739287],[34.966618,47.738402],[34.966289,47.738362],[34.966175,47.738782],[34.966048,47.739247]]]}},{"type":"Feature","properties":{"cadnum":"2322185704:08:001:0055"},"geometry":{"type":"Polygon","coordinates":[[[34.964094,47.73852],[34.964754,47.738608],[34.964881,47.738175],[34.964207,47.738086],[34.964094,47.73852]]]}},{"type":"Feature","properties":{"cadnum":"2322185704:08:001:0820"},"geometry":{"type":"Polygon","coordinates":[[[34.969686,47.737457],[34.970145,47.737494],[34.970227,47.737031],[34.969791,47.736996],[34.969767,47.736996],[34.969686,47.737457]]]}}]}