{"type":"FeatureCollection","features":[{"type":"Feature","properties":{"cadnum":"2322480501:01:005:0005"},"geometry":{"type":"Polygon","coordinates":[[[34.831923,47.451753],[34.832067,47.451719],[34.832067,47.45172],[34.832239,47.451678],[34.832399,47.450973],[34.83208,47.450944],[34.831945,47.451493],[34.831933,47.451519],[34.831915,47.451693],[34.831923,47.451753]]]}},{"type":"Feature","properties":{"cadnum":"2322480501:01:004:0025"},"geometry":{"type":"Polygon","coordinates":[[[34.809345,47.459635],[34.810266,47.459591],[34.810267,47.459591],[34.810562,47.459576],[34.810604,47.459405],[34.810126,47.459416],[34.809389,47.459431],[34.809345,47.459635]]]}},{"type":"Feature","properties":{"cadnum":"2322480501:01:001:0128"},"geometry":{"type":"Polygon","coordinates":[[[34.817625,47.458091],[34.817842,47.458682],[34.817986,47.458926],[34.81836,47.458821],[34.818174,47.457987],[34.817625,47.458091]]]}},{"type":"Feature","properties":{"cadnum":"2322480501:01:004:0001"},"geometry":{"type":"Polygon","coordinates":[[[34.845843,47.452216],[34.846268,47.453014],[34.846622,47.452914],[34.846212,47.452112],[34.845843,47.452216]]]}}]}