{"type":"FeatureCollection","features":[{"type":"Feature","properties":{"cadnum":"2322187202:11:001:0166"},"geometry":{"type":"Polygon","coordinates":[[[34.88284,48.119455],[34.886999,48.119873],[34.886999,48.119874],[34.892664,48.120444],[34.892664,48.120443],[34.894147,48.120593],[34.894285,48.120035],[34.892664,48.119872],[34.886999,48.119302],[34.882988,48.118898],[34.88284,48.119455]]]}},{"type":"Feature","properties":{"cadnum":"2322187202:11:001:0156"},"geometry":{"type":"Polygon","coordinates":[[[34.896744,48.108465],[34.898157,48.108603],[34.898157,48.108602],[34.90365,48.109136],[34.904439,48.109212],[34.904639,48.108325],[34.90365,48.10823],[34.90365,48.108229],[34.898157,48.107696],[34.898157,48.107695],[34.896943,48.107577],[34.896744,48.108465]]]}},{"type":"Feature","properties":{"cadnum":"2322187202:11:001:0018"},"geometry":{"type":"Polygon","coordinates":[[[34.933108,48.063527],[34.933881,48.063579],[34.933896,48.063484],[34.93392,48.063329],[34.9336,48.063308],[34.933635,48.063077],[34.933181,48.063045],[34.933129,48.063384],[34.933119,48.063449],[34.933112,48.063499],[34.933108,48.063527]]]}},{"type":"Feature","properties":{"cadnum":"2322187202:11:001:0111"},"geometry":{"type":"Polygon","coordinates":[[[34.935766,48.06258],[34.936228,48.062674],[34.93634,48.062131],[34.936077,48.062077],[34.935766,48.06258]]]}},{"type":"Feature","properties":{"cadnum":"2322187202:11:001:0155"},"geometry":{"type":"Polygon","coordinates":[[[34.935425,48.06264],[34.935693,48.062698],[34.935766,48.06258],[34.936077,48.062077],[34.93616,48.061945],[34.935805,48.061869],[34.935425,48.06264]]]}},{"type":"Feature","properties":{"cadnum":"2322187202:11:001:0184"},"geometry":{"type":"Polygon","coordinates":[[[34.939349,48.059606],[34.939356,48.059713],[34.939362,48.0598],[34.939364,48.059828],[34.939375,48.059976],[34.939387,48.060152],[34.939687,48.060137],[34.939706,48.060427],[34.940144,48.060405],[34.940132,48.059964],[34.940116,48.05979],[34.940097,48.059584],[34.939349,48.059606]]]}},{"type":"Feature","properties":{"cadnum":"2322187202:11:001:1156"},"geometry":{"type":"Polygon","coordinates":[[[34.934117,48.064028],[34.935274,48.064118],[34.935379,48.063656],[34.934708,48.063605],[34.934223,48.063567],[34.934117,48.064028]]]}},{"type":"Feature","properties":{"cadnum":"2322187202:11:001:0107"},"geometry":{"type":"Polygon","coordinates":[[[34.933104,48.06377],[34.933518,48.063811],[34.933609,48.063821],[34.933816,48.063845],[34.933868,48.063579],[34.933754,48.063573],[34.93364,48.063567],[34.933438,48.063551],[34.933149,48.063537],[34.933104,48.06377]]]}},{"type":"Feature","properties":{"cadnum":"2322187202:11:001:0170"},"geometry":{"type":"Polygon","coordinates":[[[34.950087,48.062968],[34.951041,48.06329],[34.95123,48.063038],[34.950276,48.062715],[34.950087,48.062968]]]}},{"type":"Feature","properties":{"cadnum":"2322187202:11:001:0171"},"geometry":{"type":"Polygon","coordinates":[[[34.950276,48.062715],[34.95123,48.063038],[34.951349,48.062879],[34.950396,48.062558],[34.950276,48.062715]]]}},{"type":"Feature","properties":{"cadnum":"2322187202:11:001:0169"},"geometry":{"type":"Polygon","coordinates":[[[34.949059,48.061818],[34.949434,48.061946],[34.949535,48.061809],[34.949146,48.061701],[34.949059,48.061818]]]}},{"type":"Feature","properties":{"cadnum":"2322187202:11:001:0151"},"geometry":{"type":"Polygon","coordinates":[[[34.948585,48.062461],[34.948961,48.062588],[34.949163,48.062314],[34.949434,48.061946],[34.949059,48.061818],[34.948585,48.062461]]]}},{"type":"Feature","properties":{"cadnum":"2322187202:11:001:0132"},"geometry":{"type":"Polygon","coordinates":[[[34.950291,48.063882],[34.950974,48.064116],[34.951242,48.063766],[34.950559,48.063531],[34.950291,48.063882]]]}},{"type":"Feature","properties":{"cadnum":"2322187202:11:001:0172"},"geometry":{"type":"Polygon","coordinates":[[[34.950201,48.063998],[34.950884,48.064233],[34.950974,48.064116],[34.950291,48.063882],[34.950201,48.063998]]]}},{"type":"Feature","properties":{"cadnum":"2322187202:11:001:0121"},"geometry":{"type":"Polygon","coordinates":[[[34.942487,48.061891],[34.943051,48.061863],[34.943186,48.061321],[34.942648,48.061347],[34.942623,48.061349],[34.942487,48.061891]]]}},{"type":"Feature","properties":{"cadnum":"2322187202:11:001:0168"},"geometry":{"type":"Polygon","coordinates":[[[34.942312,48.062595],[34.942463,48.062587],[34.942875,48.062568],[34.942974,48.062166],[34.943051,48.061863],[34.942487,48.061891],[34.942312,48.062595]]]}},{"type":"Feature","properties":{"cadnum":"2322187202:11:001:0160"},"geometry":{"type":"Polygon","coordinates":[[[34.944535,48.060605],[34.945191,48.060702],[34.945336,48.060263],[34.944681,48.060165],[34.944535,48.060605]]]}},{"type":"Feature","properties":{"cadnum":"2322187202:11:001:0175"},"geometry":{"type":"Polygon","coordinates":[[[34.938955,48.059992],[34.938978,48.06047],[34.939407,48.060454],[34.939387,48.060152],[34.939375,48.059976],[34.938955,48.059992]]]}},{"type":"Feature","properties":{"cadnum":"2322187202:11:001:0167"},"geometry":{"type":"Polygon","coordinates":[[[34.937925,48.06003],[34.937977,48.060696],[34.938538,48.060663],[34.938499,48.060079],[34.938097,48.060044],[34.937925,48.06003]]]}},{"type":"Feature","properties":{"cadnum":"2322187202:11:001:0185"},"geometry":{"type":"Polygon","coordinates":[[[34.939706,48.060427],[34.939755,48.061137],[34.939756,48.061137],[34.940166,48.061124],[34.940144,48.060893],[34.940145,48.060893],[34.940159,48.060891],[34.940151,48.060703],[34.940144,48.060405],[34.939706,48.060427]]]}},{"type":"Feature","properties":{"cadnum":"2322187202:11:001:0178"},"geometry":{"type":"Polygon","coordinates":[[[34.940142,48.060348],[34.940151,48.060684],[34.940952,48.060659],[34.941024,48.060563],[34.941103,48.060329],[34.941103,48.060318],[34.940142,48.060348]]]}}]}