{"type":"FeatureCollection","features":[{"type":"Feature","properties":{"cadnum":"2322485501:01:001:0002"},"geometry":{"type":"Polygon","coordinates":[[[34.494123,47.493831],[34.494388,47.493841],[34.494534,47.492625],[34.49473,47.492641],[34.494765,47.49245],[34.49431,47.492412],[34.494123,47.493831]]]}},{"type":"Feature","properties":{"cadnum":"2322485501:01:001:0001"},"geometry":{"type":"Polygon","coordinates":[[[34.6274,47.370185],[34.627853,47.370222],[34.627903,47.370058],[34.627587,47.370014],[34.627485,47.370001],[34.627443,47.369994],[34.6274,47.370185]]]}}]}