{"type":"FeatureCollection","features":[{"type":"Feature","properties":{"cadnum":"2322785401:01:015:0003"},"geometry":{"type":"Polygon","coordinates":[[[36.689879,47.42846],[36.690817,47.428733],[36.691064,47.42835],[36.690145,47.428102],[36.690113,47.428093],[36.69005,47.42819],[36.690051,47.42819],[36.689879,47.42846]]]}},{"type":"Feature","properties":{"cadnum":"2322785401:01:013:0008"},"geometry":{"type":"Polygon","coordinates":[[[36.686651,47.434245],[36.687483,47.434517],[36.687689,47.434225],[36.686862,47.433955],[36.686651,47.434245]]]}},{"type":"Feature","properties":{"cadnum":"2322785401:01:013:0009"},"geometry":{"type":"Polygon","coordinates":[[[36.685691,47.43393],[36.68648,47.434189],[36.686651,47.434245],[36.686862,47.433955],[36.685899,47.433639],[36.685691,47.43393]]]}},{"type":"Feature","properties":{"cadnum":"2322785401:01:011:0012"},"geometry":{"type":"Polygon","coordinates":[[[36.692214,47.439019],[36.692414,47.439107],[36.69248,47.439039],[36.692279,47.438951],[36.692214,47.439019]]]}},{"type":"Feature","properties":{"cadnum":"2322785401:01:015:0002"},"geometry":{"type":"Polygon","coordinates":[[[36.690817,47.428733],[36.691462,47.428921],[36.691714,47.428525],[36.691064,47.42835],[36.690817,47.428733]]]}},{"type":"Feature","properties":{"cadnum":"2322785401:01:010:0011"},"geometry":{"type":"Polygon","coordinates":[[[36.678292,47.443691],[36.679403,47.444334],[36.679623,47.444153],[36.678515,47.443514],[36.678292,47.443691]]]}},{"type":"Feature","properties":{"cadnum":"2322785401:01:010:0010"},"geometry":{"type":"Polygon","coordinates":[[[36.679403,47.444334],[36.680371,47.444893],[36.680594,47.444715],[36.679623,47.444153],[36.679403,47.444334]]]}},{"type":"Feature","properties":{"cadnum":"2322785401:01:003:0004"},"geometry":{"type":"Polygon","coordinates":[[[36.664559,47.462424],[36.665387,47.462698],[36.6656,47.462398],[36.664769,47.462133],[36.664559,47.462424]]]}},{"type":"Feature","properties":{"cadnum":"2322785401:01:003:0003"},"geometry":{"type":"Polygon","coordinates":[[[36.665387,47.462698],[36.666181,47.46296],[36.666401,47.462654],[36.6656,47.462398],[36.665387,47.462698]]]}},{"type":"Feature","properties":{"cadnum":"2322785401:01:011:0014"},"geometry":{"type":"Polygon","coordinates":[[[36.682388,47.438581],[36.683264,47.438939],[36.683387,47.438989],[36.683435,47.438942],[36.683552,47.438826],[36.683422,47.43877],[36.682566,47.438402],[36.682388,47.438581]]]}},{"type":"Feature","properties":{"cadnum":"2322785401:01:011:0011"},"geometry":{"type":"Polygon","coordinates":[[[36.686914,47.444041],[36.687476,47.444432],[36.687683,47.443897],[36.686914,47.444041]]]}},{"type":"Feature","properties":{"cadnum":"2322785401:01:011:0003"},"geometry":{"type":"Polygon","coordinates":[[[36.68419,47.438827],[36.68448,47.43899],[36.684693,47.438815],[36.684405,47.438652],[36.68419,47.438827]]]}},{"type":"Feature","properties":{"cadnum":"2322785401:01:011:0013"},"geometry":{"type":"Polygon","coordinates":[[[36.684881,47.436661],[36.68551,47.4369],[36.685575,47.436924],[36.685786,47.436997],[36.685981,47.436713],[36.685561,47.436563],[36.685239,47.436426],[36.684881,47.436661]]]}},{"type":"Feature","properties":{"cadnum":"2322785401:01:011:0002"},"geometry":{"type":"Polygon","coordinates":[[[36.683877,47.438862],[36.684039,47.438954],[36.684188,47.438832],[36.684028,47.438743],[36.683877,47.438862]]]}},{"type":"Feature","properties":{"cadnum":"2322785401:01:013:0007"},"geometry":{"type":"Polygon","coordinates":[[[36.678779,47.432092],[36.679076,47.432172],[36.679198,47.431965],[36.678903,47.431884],[36.678779,47.432092]]]}},{"type":"Feature","properties":{"cadnum":"2322785401:01:013:0006"},"geometry":{"type":"Polygon","coordinates":[[[36.679076,47.432172],[36.680336,47.432512],[36.680457,47.432313],[36.679198,47.431965],[36.679076,47.432172]]]}},{"type":"Feature","properties":{"cadnum":"2322785401:01:011:0009"},"geometry":{"type":"Polygon","coordinates":[[[36.684337,47.43972],[36.684589,47.439829],[36.684456,47.439983],[36.684476,47.439993],[36.684797,47.440154],[36.684815,47.440136],[36.684878,47.440167],[36.685053,47.440074],[36.685439,47.439682],[36.684652,47.439338],[36.684641,47.439345],[36.684652,47.439349],[36.684652,47.43935],[36.684541,47.439466],[36.68454,47.439466],[36.68453,47.439462],[36.684494,47.439497],[36.684464,47.439576],[36.684337,47.43972]]]}},{"type":"Feature","properties":{"cadnum":"2322785401:01:011:0035"},"geometry":{"type":"Polygon","coordinates":[[[36.684689,47.441767],[36.685133,47.441904],[36.686179,47.44224],[36.686236,47.44217],[36.686299,47.442092],[36.685242,47.441727],[36.685178,47.441705],[36.685163,47.441719],[36.684811,47.441603],[36.684768,47.441662],[36.684689,47.441767]]]}},{"type":"Feature","properties":{"cadnum":"2322785401:01:011:0015"},"geometry":{"type":"Polygon","coordinates":[[[36.687432,47.441557],[36.688069,47.441725],[36.687991,47.441851],[36.688317,47.441944],[36.688434,47.441725],[36.688597,47.441416],[36.688685,47.441268],[36.687797,47.441029],[36.687728,47.441049],[36.687432,47.441557]]]}},{"type":"Feature","properties":{"cadnum":"2322785401:01:007:0003"},"geometry":{"type":"Polygon","coordinates":[[[36.668454,47.450008],[36.669977,47.450358],[36.670077,47.450172],[36.668561,47.449803],[36.668454,47.450008]]]}},{"type":"Feature","properties":{"cadnum":"2322785401:01:007:0002"},"geometry":{"type":"Polygon","coordinates":[[[36.667201,47.44972],[36.667743,47.449844],[36.668454,47.450008],[36.668561,47.449803],[36.667856,47.449631],[36.667318,47.4495],[36.667201,47.44972]]]}}]}