{"type":"FeatureCollection","features":[{"type":"Feature","properties":{"cadnum":"2322782002:02:001:0007"},"geometry":{"type":"Polygon","coordinates":[[[36.777475,47.372116],[36.777534,47.372301],[36.777563,47.372391],[36.777572,47.372418],[36.777802,47.37313],[36.778779,47.372964],[36.778599,47.372418],[36.7786,47.372418],[36.778494,47.372093],[36.777774,47.372198],[36.777733,47.37208],[36.777475,47.372116]]]}},{"type":"Feature","properties":{"cadnum":"2322782002:02:001:0006"},"geometry":{"type":"Polygon","coordinates":[[[36.777802,47.37313],[36.777896,47.373419],[36.778872,47.373254],[36.778779,47.372964],[36.777802,47.37313]]]}},{"type":"Feature","properties":{"cadnum":"2322782002:02:003:0008"},"geometry":{"type":"Polygon","coordinates":[[[36.805346,47.368091],[36.805464,47.368581],[36.805481,47.368653],[36.805492,47.368697],[36.805518,47.368802],[36.806463,47.36867],[36.806468,47.368669],[36.806306,47.367956],[36.805346,47.368091]]]}},{"type":"Feature","properties":{"cadnum":"2322782002:02:003:0010"},"geometry":{"type":"Polygon","coordinates":[[[36.782876,47.36978],[36.782983,47.370084],[36.783994,47.369996],[36.783747,47.369307],[36.782982,47.369434],[36.782876,47.36978]]]}},{"type":"Feature","properties":{"cadnum":"2322782002:02:002:0004"},"geometry":{"type":"Polygon","coordinates":[[[36.787506,47.36823],[36.787634,47.368566],[36.787634,47.368567],[36.787639,47.368581],[36.787675,47.368675],[36.787675,47.368676],[36.787676,47.368676],[36.787806,47.368656],[36.787806,47.368655],[36.78831,47.368574],[36.788131,47.36813],[36.787685,47.368201],[36.787506,47.36823]]]}},{"type":"Feature","properties":{"cadnum":"2322782002:02:002:0005"},"geometry":{"type":"Polygon","coordinates":[[[36.787675,47.368676],[36.787806,47.369018],[36.787891,47.369243],[36.788532,47.369128],[36.788359,47.368698],[36.788359,47.368697],[36.78831,47.368574],[36.788264,47.368581],[36.787675,47.368676]]]}},{"type":"Feature","properties":{"cadnum":"2322782002:02:001:0004"},"geometry":{"type":"Polygon","coordinates":[[[36.783059,47.372206],[36.783116,47.372418],[36.783117,47.372418],[36.783167,47.372601],[36.7839,47.372523],[36.783839,47.372301],[36.783838,47.372301],[36.78379,47.372128],[36.783059,47.372206]]]}},{"type":"Feature","properties":{"cadnum":"2322782002:02:001:0005"},"geometry":{"type":"Polygon","coordinates":[[[36.782833,47.371384],[36.783059,47.372206],[36.78379,47.372128],[36.783562,47.371304],[36.782833,47.371384]]]}},{"type":"Feature","properties":{"cadnum":"2322782002:02:003:0009"},"geometry":{"type":"Polygon","coordinates":[[[36.782982,47.369434],[36.783747,47.369307],[36.783581,47.368843],[36.783137,47.368915],[36.782982,47.369434]]]}},{"type":"Feature","properties":{"cadnum":"2322782002:02:003:0007"},"geometry":{"type":"Polygon","coordinates":[[[36.805518,47.368802],[36.805591,47.369106],[36.806537,47.368973],[36.806468,47.368669],[36.805518,47.368802]]]}},{"type":"Feature","properties":{"cadnum":"2322782002:02:003:0002"},"geometry":{"type":"Polygon","coordinates":[[[36.810088,47.365825],[36.81024,47.366418],[36.811308,47.366218],[36.81117,47.365832],[36.810853,47.365876],[36.810852,47.365876],[36.810811,47.365726],[36.810088,47.365825]]]}},{"type":"Feature","properties":{"cadnum":"2322782002:02:003:0001"},"geometry":{"type":"Polygon","coordinates":[[[36.809985,47.365425],[36.810088,47.365825],[36.810811,47.365726],[36.8107,47.365327],[36.809985,47.365425]]]}},{"type":"Feature","properties":{"cadnum":"2322782002:02:002:0007"},"geometry":{"type":"Polygon","coordinates":[[[36.793507,47.367691],[36.793859,47.368517],[36.794643,47.368363],[36.794294,47.367537],[36.793507,47.367691]]]}},{"type":"Feature","properties":{"cadnum":"2322782002:02:002:0001"},"geometry":{"type":"Polygon","coordinates":[[[36.793307,47.369094],[36.793308,47.369316],[36.793378,47.369667],[36.793583,47.370186],[36.79367,47.370294],[36.793835,47.370322],[36.794191,47.370112],[36.794616,47.369992],[36.794948,47.369942],[36.795489,47.369828],[36.795903,47.369785],[36.796356,47.369719],[36.796686,47.369575],[36.796937,47.369516],[36.79725,47.369375],[36.797545,47.369317],[36.797742,47.369153],[36.797712,47.368931],[36.797734,47.368581],[36.797733,47.368581],[36.797739,47.368494],[36.797386,47.368523],[36.797134,47.368558],[36.797049,47.368581],[36.797048,47.368581],[36.796747,47.368661],[36.796746,47.368661],[36.796621,47.368697],[36.796621,47.368698],[36.796346,47.368777],[36.796044,47.368794],[36.795737,47.368891],[36.795357,47.36887],[36.79488,47.368923],[36.794562,47.368819],[36.794402,47.368735],[36.794264,47.368762],[36.794124,47.368704],[36.794123,47.368704],[36.793854,47.368736],[36.79378,47.368819],[36.793795,47.368896],[36.793381,47.368999],[36.793307,47.369094]]]}},{"type":"Feature","properties":{"cadnum":"2322782002:02:002:0006"},"geometry":{"type":"Polygon","coordinates":[[[36.793358,47.367342],[36.793507,47.367691],[36.794294,47.367537],[36.794148,47.367188],[36.793358,47.367342]]]}},{"type":"Feature","properties":{"cadnum":"2322782002:02:003:0005"},"geometry":{"type":"Polygon","coordinates":[[[36.789663,47.367879],[36.78982,47.368335],[36.789883,47.368518],[36.790325,47.368449],[36.790106,47.367809],[36.789663,47.367879]]]}},{"type":"Feature","properties":{"cadnum":"2322782002:02:003:0006"},"geometry":{"type":"Polygon","coordinates":[[[36.789883,47.368518],[36.789905,47.368581],[36.789904,47.368581],[36.790191,47.369415],[36.790633,47.369342],[36.790623,47.369316],[36.79041,47.368698],[36.79041,47.368697],[36.790325,47.368449],[36.789883,47.368518]]]}},{"type":"Feature","properties":{"cadnum":"2322782002:02:003:0004"},"geometry":{"type":"Polygon","coordinates":[[[36.789203,47.368436],[36.789254,47.368581],[36.789253,47.368581],[36.789393,47.368982],[36.789739,47.36893],[36.789911,47.369461],[36.790191,47.369415],[36.789904,47.368581],[36.78982,47.368335],[36.789203,47.368436]]]}},{"type":"Feature","properties":{"cadnum":"2322782002:02:003:0003"},"geometry":{"type":"Polygon","coordinates":[[[36.789045,47.36798],[36.789203,47.368436],[36.78982,47.368335],[36.789663,47.367879],[36.789045,47.36798]]]}},{"type":"Feature","properties":{"cadnum":"2322782002:02:002:0003"},"geometry":{"type":"Polygon","coordinates":[[[36.791283,47.370816],[36.79139,47.371298],[36.792352,47.371172],[36.792242,47.37069],[36.791283,47.370816]]]}},{"type":"Feature","properties":{"cadnum":"2322782002:02:002:0002"},"geometry":{"type":"Polygon","coordinates":[[[36.79139,47.371298],[36.791457,47.371598],[36.79242,47.371473],[36.792352,47.371172],[36.79139,47.371298]]]}},{"type":"Feature","properties":{"cadnum":"2322782002:02:002:0009"},"geometry":{"type":"Polygon","coordinates":[[[36.790162,47.370948],[36.790289,47.371443],[36.79139,47.371299],[36.79139,47.371298],[36.791283,47.370816],[36.790162,47.370948]]]}},{"type":"Feature","properties":{"cadnum":"2322782002:02:002:0008"},"geometry":{"type":"Polygon","coordinates":[[[36.790289,47.371443],[36.790366,47.371742],[36.791236,47.371627],[36.791197,47.37145],[36.791197,47.371449],[36.791417,47.37142],[36.79139,47.371299],[36.790289,47.371443]]]}}]}