{"type":"FeatureCollection","features":[{"type":"Feature","properties":{"cadnum":"2322186805:06:001:0013"},"geometry":{"type":"Polygon","coordinates":[[[35.40819,47.850223],[35.408694,47.85026],[35.408716,47.850041],[35.408753,47.84969],[35.408396,47.84964],[35.408273,47.84989],[35.408211,47.850133],[35.408212,47.850133],[35.40819,47.850223]]]}},{"type":"Feature","properties":{"cadnum":"2322186805:06:001:0099"},"geometry":{"type":"Polygon","coordinates":[[[35.405827,47.850106],[35.406551,47.850115],[35.406556,47.849799],[35.40585,47.849839],[35.405834,47.850018],[35.405827,47.850106]]]}},{"type":"Feature","properties":{"cadnum":"2322186805:06:001:0052"},"geometry":{"type":"Polygon","coordinates":[[[35.410403,47.847218],[35.410443,47.847703],[35.411054,47.847631],[35.411022,47.847194],[35.411018,47.847146],[35.410403,47.847218]]]}},{"type":"Feature","properties":{"cadnum":"2322186805:06:001:0005"},"geometry":{"type":"Polygon","coordinates":[[[35.410023,47.8494],[35.410102,47.849674],[35.410207,47.850036],[35.410376,47.850003],[35.410436,47.849996],[35.410658,47.849957],[35.410471,47.84932],[35.410023,47.8494]]]}},{"type":"Feature","properties":{"cadnum":"2322186805:06:001:0020"},"geometry":{"type":"Polygon","coordinates":[[[35.412051,47.849234],[35.412082,47.849375],[35.413277,47.849228],[35.413222,47.848977],[35.412086,47.849123],[35.412059,47.849184],[35.412064,47.849231],[35.412064,47.849232],[35.412051,47.849234]]]}},{"type":"Feature","properties":{"cadnum":"2322186805:06:001:0065"},"geometry":{"type":"Polygon","coordinates":[[[35.413924,47.846814],[35.414034,47.847227],[35.414343,47.84719],[35.414429,47.847179],[35.414319,47.846766],[35.413924,47.846814]]]}},{"type":"Feature","properties":{"cadnum":"2322186805:06:001:0075"},"geometry":{"type":"Polygon","coordinates":[[[35.412082,47.849375],[35.412091,47.849412],[35.412105,47.84957],[35.41332,47.849428],[35.413277,47.849228],[35.412082,47.849375]]]}},{"type":"Feature","properties":{"cadnum":"2322186805:06:001:0098"},"geometry":{"type":"Polygon","coordinates":[[[35.414017,47.847412],[35.414195,47.847993],[35.414343,47.84797],[35.414343,47.847971],[35.41459,47.847932],[35.41443,47.847408],[35.414413,47.847351],[35.414017,47.847412]]]}},{"type":"Feature","properties":{"cadnum":"2322186805:06:001:0055"},"geometry":{"type":"Polygon","coordinates":[[[35.412099,47.846679],[35.412149,47.846864],[35.41264,47.846811],[35.412597,47.846626],[35.412099,47.846679]]]}},{"type":"Feature","properties":{"cadnum":"2322186805:06:001:0022"},"geometry":{"type":"Polygon","coordinates":[[[35.413595,47.847964],[35.413674,47.848209],[35.414244,47.84816],[35.414193,47.847993],[35.41417,47.847916],[35.413595,47.847964]]]}},{"type":"Feature","properties":{"cadnum":"2322186805:06:001:0088"},"geometry":{"type":"Polygon","coordinates":[[[35.409488,47.848252],[35.40994,47.848793],[35.410321,47.848696],[35.409838,47.848121],[35.409488,47.848252]]]}},{"type":"Feature","properties":{"cadnum":"2322186805:06:001:0092"},"geometry":{"type":"Polygon","coordinates":[[[35.413222,47.848977],[35.413277,47.849228],[35.413309,47.849377],[35.413758,47.849333],[35.413671,47.848933],[35.413222,47.848977]]]}},{"type":"Feature","properties":{"cadnum":"2322186805:06:001:0090"},"geometry":{"type":"Polygon","coordinates":[[[35.409139,47.848385],[35.409573,47.848895],[35.40994,47.848793],[35.409488,47.848252],[35.409139,47.848385]]]}},{"type":"Feature","properties":{"cadnum":"2322186805:06:001:0021"},"geometry":{"type":"Polygon","coordinates":[[[35.413431,47.847462],[35.413595,47.847964],[35.41417,47.847916],[35.414017,47.847412],[35.413431,47.847462]]]}},{"type":"Feature","properties":{"cadnum":"2322186805:06:001:0097"},"geometry":{"type":"Polygon","coordinates":[[[35.413898,47.84828],[35.414042,47.848797],[35.414343,47.848755],[35.414429,47.848743],[35.414515,47.848727],[35.414515,47.848726],[35.41496,47.848641],[35.414749,47.847917],[35.414586,47.847383],[35.41443,47.847408],[35.414515,47.847686],[35.41459,47.847932],[35.414515,47.847944],[35.414195,47.847993],[35.414253,47.848179],[35.413898,47.84828]]]}},{"type":"Feature","properties":{"cadnum":"2322186805:06:001:0072"},"geometry":{"type":"Polygon","coordinates":[[[35.410953,47.84812],[35.411663,47.848039],[35.411615,47.847755],[35.410985,47.847833],[35.410953,47.84812]]]}},{"type":"Feature","properties":{"cadnum":"2322186805:06:001:0051"},"geometry":{"type":"Polygon","coordinates":[[[35.412149,47.846864],[35.412308,47.847469],[35.412782,47.847418],[35.41264,47.846811],[35.412149,47.846864]]]}},{"type":"Feature","properties":{"cadnum":"2322186805:06:001:0040"},"geometry":{"type":"Polygon","coordinates":[[[35.419719,47.847478],[35.419836,47.847462],[35.42045,47.847373],[35.420426,47.847158],[35.419969,47.847168],[35.419733,47.847172],[35.419719,47.847478]]]}},{"type":"Feature","properties":{"cadnum":"2322186805:06:001:0084"},"geometry":{"type":"Polygon","coordinates":[[[35.419697,47.848058],[35.419836,47.848016],[35.419883,47.848001],[35.420008,47.847963],[35.4205,47.847813],[35.420484,47.847672],[35.419858,47.847867],[35.419702,47.847915],[35.419697,47.848058]]]}},{"type":"Feature","properties":{"cadnum":"2322186805:06:001:0081"},"geometry":{"type":"Polygon","coordinates":[[[35.418675,47.846223],[35.419097,47.846225],[35.419097,47.846198],[35.418675,47.846195],[35.418675,47.846223]]]}},{"type":"Feature","properties":{"cadnum":"2322186805:06:001:0070"},"geometry":{"type":"Polygon","coordinates":[[[35.419085,47.846474],[35.419689,47.84649],[35.419707,47.846332],[35.419727,47.846173],[35.419116,47.84616],[35.419086,47.846447],[35.419087,47.846447],[35.419088,47.846447],[35.419085,47.846474]]]}},{"type":"Feature","properties":{"cadnum":"2322186805:06:001:0066"},"geometry":{"type":"Polygon","coordinates":[[[35.415263,47.846343],[35.415267,47.846447],[35.415268,47.846447],[35.415294,47.846972],[35.415695,47.846982],[35.415664,47.846335],[35.415263,47.846343]]]}},{"type":"Feature","properties":{"cadnum":"2322186805:06:001:0080"},"geometry":{"type":"Polygon","coordinates":[[[35.418632,47.84697],[35.419013,47.846972],[35.419054,47.846676],[35.419076,47.846447],[35.419097,47.846225],[35.418675,47.846223],[35.41867,47.846332],[35.418669,47.846332],[35.418657,47.846672],[35.418632,47.84697]]]}},{"type":"Feature","properties":{"cadnum":"2322186805:06:001:0095"},"geometry":{"type":"Polygon","coordinates":[[[35.40585,47.849839],[35.406556,47.849799],[35.406564,47.849366],[35.405887,47.849403],[35.40585,47.849839]]]}},{"type":"Feature","properties":{"cadnum":"2322186805:06:001:0004"},"geometry":{"type":"Polygon","coordinates":[[[35.404018,47.849989],[35.404663,47.849961],[35.404664,47.849928],[35.404679,47.849493],[35.40402,47.849534],[35.404018,47.849989]]]}},{"type":"Feature","properties":{"cadnum":"2322186805:06:001:0093"},"geometry":{"type":"Polygon","coordinates":[[[35.405091,47.848535],[35.405229,47.849339],[35.405587,47.849312],[35.40545,47.848507],[35.405091,47.848535]]]}},{"type":"Feature","properties":{"cadnum":"2322186805:06:001:0087"},"geometry":{"type":"Polygon","coordinates":[[[35.4048,47.848555],[35.404804,47.849372],[35.405229,47.849339],[35.405091,47.848535],[35.4048,47.848555]]]}},{"type":"Feature","properties":{"cadnum":"2322186805:06:001:0083"},"geometry":{"type":"Polygon","coordinates":[[[35.4173,47.847827],[35.417783,47.847823],[35.417781,47.847198],[35.417301,47.847206],[35.4173,47.847746],[35.4173,47.847827]]]}},{"type":"Feature","properties":{"cadnum":"2322186805:06:001:0039"},"geometry":{"type":"Polygon","coordinates":[[[35.419013,47.846972],[35.419632,47.84698],[35.419652,47.84678],[35.419689,47.84649],[35.419085,47.846474],[35.419064,47.846675],[35.419013,47.846972]]]}},{"type":"Feature","properties":{"cadnum":"2322186805:06:001:0038"},"geometry":{"type":"Polygon","coordinates":[[[35.419157,47.84792],[35.419558,47.847926],[35.41958,47.847177],[35.419178,47.847172],[35.419157,47.84792]]]}},{"type":"Feature","properties":{"cadnum":"2322186805:06:001:0033"},"geometry":{"type":"Polygon","coordinates":[[[35.415861,47.847266],[35.416018,47.848007],[35.416345,47.847976],[35.416415,47.84797],[35.416258,47.847227],[35.415861,47.847266]]]}},{"type":"Feature","properties":{"cadnum":"2322186805:06:001:0086"},"geometry":{"type":"Polygon","coordinates":[[[35.4173,47.847952],[35.417783,47.847947],[35.417783,47.847823],[35.4173,47.847827],[35.4173,47.847952]]]}},{"type":"Feature","properties":{"cadnum":"2322186805:06:001:0082"},"geometry":{"type":"Polygon","coordinates":[[[35.416258,47.847227],[35.416415,47.84797],[35.416812,47.847932],[35.416655,47.847189],[35.416258,47.847227]]]}}]}