{"type":"FeatureCollection","features":[{"type":"Feature","properties":{"cadnum":"2322784403:03:001:0001"},"geometry":{"type":"Polygon","coordinates":[[[36.841604,47.402138],[36.841904,47.40217],[36.841905,47.40217],[36.842272,47.40221],[36.842468,47.40209],[36.842565,47.402031],[36.842566,47.402031],[36.842566,47.402032],[36.843539,47.401436],[36.842566,47.401108],[36.842565,47.401109],[36.841819,47.400857],[36.841618,47.402054],[36.841617,47.402054],[36.841604,47.402138]]]}},{"type":"Feature","properties":{"cadnum":"2322784403:03:002:0002"},"geometry":{"type":"Polygon","coordinates":[[[36.839659,47.397969],[36.840563,47.398336],[36.841379,47.398666],[36.841574,47.398452],[36.8418,47.398207],[36.840709,47.397787],[36.840459,47.398032],[36.839911,47.397774],[36.839659,47.397969]]]}},{"type":"Feature","properties":{"cadnum":"2322784403:03:001:0009"},"geometry":{"type":"Polygon","coordinates":[[[36.835847,47.410796],[36.835981,47.411639],[36.836246,47.413323],[36.836247,47.413323],[36.836282,47.413546],[36.836317,47.413994],[36.837072,47.414002],[36.837072,47.414003],[36.837205,47.414004],[36.837244,47.414005],[36.837244,47.414004],[36.837357,47.414006],[36.837944,47.413997],[36.837948,47.413975],[36.837838,47.413875],[36.837636,47.41387],[36.837162,47.413858],[36.836834,47.413531],[36.836705,47.413207],[36.836678,47.413139],[36.836805,47.412549],[36.836806,47.412549],[36.837072,47.412371],[36.837236,47.412261],[36.837244,47.412222],[36.837346,47.411719],[36.837216,47.411556],[36.836631,47.410826],[36.836459,47.410821],[36.835847,47.410796]]]}},{"type":"Feature","properties":{"cadnum":"2322784403:03:002:0004"},"geometry":{"type":"Polygon","coordinates":[[[36.840735,47.396746],[36.84234,47.397437],[36.842565,47.397268],[36.842566,47.397268],[36.842604,47.397239],[36.842737,47.39714],[36.842737,47.397139],[36.842967,47.396966],[36.842737,47.396859],[36.841337,47.396204],[36.840735,47.396746]]]}},{"type":"Feature","properties":{"cadnum":"2322784403:03:002:0001"},"geometry":{"type":"Polygon","coordinates":[[[36.842418,47.39544],[36.842565,47.39554],[36.842566,47.39554],[36.842566,47.395541],[36.843748,47.396342],[36.844442,47.395759],[36.842965,47.394749],[36.842773,47.395046],[36.842566,47.395277],[36.842418,47.39544]]]}},{"type":"Feature","properties":{"cadnum":"2322784403:03:001:0002"},"geometry":{"type":"Polygon","coordinates":[[[36.880657,47.425633],[36.881189,47.425704],[36.881189,47.425703],[36.881604,47.425759],[36.881639,47.425375],[36.881189,47.425357],[36.880791,47.42534],[36.880657,47.425633]]]}},{"type":"Feature","properties":{"cadnum":"2322784403:03:001:0007"},"geometry":{"type":"Polygon","coordinates":[[[36.837219,47.405039],[36.838122,47.405066],[36.838153,47.404711],[36.837296,47.404667],[36.837219,47.405039]]]}},{"type":"Feature","properties":{"cadnum":"2322784403:03:001:0003"},"geometry":{"type":"Polygon","coordinates":[[[36.881604,47.425759],[36.882312,47.425854],[36.882352,47.425405],[36.881639,47.425375],[36.881604,47.425759]]]}}]}