{"type":"FeatureCollection","features":[{"type":"Feature","properties":{"cadnum":"2322188807:12:001:0239"},"geometry":{"type":"Polygon","coordinates":[[[34.885072,47.88344],[34.885669,47.88363],[34.885851,47.883354],[34.885944,47.883196],[34.885482,47.883048],[34.885384,47.883017],[34.885272,47.883184],[34.885271,47.883184],[34.88527,47.883184],[34.885211,47.883273],[34.885189,47.8833],[34.885072,47.88344]]]}},{"type":"Feature","properties":{"cadnum":"2322188807:12:001:0315"},"geometry":{"type":"Polygon","coordinates":[[[34.88493,47.883611],[34.885586,47.883756],[34.885669,47.88363],[34.885072,47.88344],[34.88493,47.883611]]]}},{"type":"Feature","properties":{"cadnum":"2322188807:12:001:0220"},"geometry":{"type":"Polygon","coordinates":[[[34.89044,47.880251],[34.890857,47.880285],[34.890871,47.880236],[34.890454,47.8802],[34.89044,47.880251]]]}},{"type":"Feature","properties":{"cadnum":"2322188807:12:001:0177"},"geometry":{"type":"Polygon","coordinates":[[[34.890267,47.880954],[34.890422,47.880969],[34.890703,47.880999],[34.890702,47.880937],[34.890769,47.88066],[34.890859,47.880285],[34.890439,47.88025],[34.890365,47.880563],[34.890368,47.880607],[34.890368,47.880608],[34.890267,47.880954]]]}},{"type":"Feature","properties":{"cadnum":"2322188807:12:001:0100"},"geometry":{"type":"Polygon","coordinates":[[[34.888449,47.879879],[34.888922,47.879939],[34.88901,47.879615],[34.889011,47.879615],[34.889091,47.879324],[34.888622,47.879263],[34.888555,47.8795],[34.888449,47.879879]]]}},{"type":"Feature","properties":{"cadnum":"2322188807:12:001:0099"},"geometry":{"type":"Polygon","coordinates":[[[34.888366,47.880729],[34.888698,47.880767],[34.888794,47.880429],[34.888889,47.880053],[34.888532,47.880008],[34.888431,47.880382],[34.888422,47.880417],[34.888411,47.880471],[34.88838,47.880639],[34.888366,47.880729]]]}},{"type":"Feature","properties":{"cadnum":"2322188807:12:001:0191"},"geometry":{"type":"Polygon","coordinates":[[[34.888425,47.879963],[34.888524,47.879977],[34.8888,47.880012],[34.888898,47.880026],[34.888922,47.879939],[34.888449,47.879879],[34.888425,47.879963]]]}},{"type":"Feature","properties":{"cadnum":"2322188807:12:001:0290"},"geometry":{"type":"Polygon","coordinates":[[[34.881446,47.878752],[34.881678,47.878787],[34.881678,47.878786],[34.882128,47.878854],[34.882219,47.878503],[34.881537,47.878401],[34.881446,47.878752]]]}},{"type":"Feature","properties":{"cadnum":"2322188807:12:001:0274"},"geometry":{"type":"Polygon","coordinates":[[[34.886463,47.877608],[34.886747,47.87764],[34.886767,47.877557],[34.886767,47.877556],[34.886872,47.877569],[34.886849,47.877653],[34.887021,47.877673],[34.887081,47.877416],[34.886527,47.877353],[34.886463,47.877608]]]}},{"type":"Feature","properties":{"cadnum":"2322188807:12:001:0222"},"geometry":{"type":"Polygon","coordinates":[[[34.887047,47.877966],[34.887171,47.877981],[34.887344,47.878002],[34.887399,47.877769],[34.887105,47.877735],[34.887047,47.877966]]]}},{"type":"Feature","properties":{"cadnum":"2322188807:12:001:0275"},"geometry":{"type":"Polygon","coordinates":[[[34.886071,47.877454],[34.886212,47.87747],[34.886185,47.877575],[34.886463,47.877608],[34.886527,47.877353],[34.886133,47.877306],[34.886071,47.877454]]]}},{"type":"Feature","properties":{"cadnum":"2322188807:12:001:0273"},"geometry":{"type":"Polygon","coordinates":[[[34.887021,47.877673],[34.887171,47.877692],[34.887232,47.877699],[34.887566,47.877735],[34.887624,47.877478],[34.887294,47.87744],[34.887081,47.877416],[34.887021,47.877673]]]}},{"type":"Feature","properties":{"cadnum":"2322188807:12:001:0102"},"geometry":{"type":"Polygon","coordinates":[[[34.881605,47.878218],[34.882064,47.878281],[34.882203,47.877709],[34.881745,47.877651],[34.881605,47.878218]]]}},{"type":"Feature","properties":{"cadnum":"2322188807:12:001:0307"},"geometry":{"type":"Polygon","coordinates":[[[34.885254,47.879537],[34.885392,47.879558],[34.885669,47.879599],[34.885681,47.879558],[34.885694,47.879515],[34.885288,47.879454],[34.885269,47.8795],[34.885254,47.879537]]]}},{"type":"Feature","properties":{"cadnum":"2322188807:12:001:0054"},"geometry":{"type":"Polygon","coordinates":[[[34.88296,47.878353],[34.88342,47.878409],[34.883585,47.877844],[34.883125,47.877788],[34.88296,47.878353]]]}},{"type":"Feature","properties":{"cadnum":"2322188807:12:001:0113"},"geometry":{"type":"Polygon","coordinates":[[[34.885688,47.879541],[34.885824,47.879558],[34.886207,47.879606],[34.886345,47.879019],[34.885865,47.878962],[34.885699,47.8795],[34.885698,47.8795],[34.885694,47.879515],[34.885688,47.879541]]]}},{"type":"Feature","properties":{"cadnum":"2322188807:12:001:0055"},"geometry":{"type":"Polygon","coordinates":[[[34.883613,47.87784],[34.884073,47.877896],[34.884226,47.87733],[34.883766,47.877274],[34.883613,47.87784]]]}},{"type":"Feature","properties":{"cadnum":"2322188807:12:001:0308"},"geometry":{"type":"Polygon","coordinates":[[[34.881181,47.877618],[34.881678,47.877685],[34.881735,47.877692],[34.881751,47.877624],[34.881597,47.877605],[34.881196,47.877554],[34.881181,47.877618]]]}},{"type":"Feature","properties":{"cadnum":"2322188807:12:001:0053"},"geometry":{"type":"Polygon","coordinates":[[[34.881283,47.877458],[34.881506,47.877486],[34.881575,47.877495],[34.881678,47.877508],[34.881678,47.877507],[34.881792,47.877521],[34.881942,47.877002],[34.881647,47.87697],[34.881439,47.876947],[34.881283,47.877458]]]}},{"type":"Feature","properties":{"cadnum":"2322188807:12:001:0066"},"geometry":{"type":"Polygon","coordinates":[[[34.881051,47.878143],[34.881506,47.878204],[34.881506,47.878205],[34.881605,47.878218],[34.881678,47.877925],[34.881735,47.877692],[34.881506,47.877662],[34.881181,47.877618],[34.881051,47.878143]]]}},{"type":"Feature","properties":{"cadnum":"2322188807:12:001:0277"},"geometry":{"type":"Polygon","coordinates":[[[34.885903,47.877816],[34.88635,47.87787],[34.886413,47.877655],[34.886005,47.877607],[34.885903,47.877816]]]}},{"type":"Feature","properties":{"cadnum":"2322188807:12:001:0303"},"geometry":{"type":"Polygon","coordinates":[[[34.885653,47.879651],[34.88618,47.879717],[34.886207,47.879606],[34.885824,47.879558],[34.885688,47.879541],[34.885682,47.879558],[34.885669,47.879599],[34.885663,47.879615],[34.885664,47.879615],[34.885664,47.879616],[34.885653,47.879651]]]}},{"type":"Feature","properties":{"cadnum":"2322188807:12:001:0115"},"geometry":{"type":"Polygon","coordinates":[[[34.885124,47.879517],[34.885254,47.879537],[34.885288,47.879454],[34.885694,47.879515],[34.885865,47.878962],[34.885391,47.878908],[34.885245,47.879214],[34.885124,47.879517]]]}},{"type":"Feature","properties":{"cadnum":"2322188807:12:001:0276"},"geometry":{"type":"Polygon","coordinates":[[[34.886276,47.878117],[34.886579,47.878155],[34.886713,47.877692],[34.886413,47.877655],[34.88635,47.87787],[34.886276,47.878117]]]}},{"type":"Feature","properties":{"cadnum":"2322188807:12:001:0251"},"geometry":{"type":"Polygon","coordinates":[[[34.928665,47.850158],[34.928766,47.850593],[34.928817,47.85086],[34.929232,47.850806],[34.92918,47.850536],[34.929094,47.85011],[34.928665,47.850158]]]}},{"type":"Feature","properties":{"cadnum":"2322188807:12:001:0266"},"geometry":{"type":"Polygon","coordinates":[[[34.928817,47.85086],[34.92886,47.851079],[34.929139,47.851043],[34.929276,47.851026],[34.929232,47.850806],[34.928817,47.85086]]]}},{"type":"Feature","properties":{"cadnum":"2322188807:12:001:0086"},"geometry":{"type":"Polygon","coordinates":[[[34.992165,47.939638],[34.992586,47.939633],[34.992575,47.939187],[34.992567,47.938912],[34.992272,47.938917],[34.992272,47.938916],[34.992297,47.938543],[34.992244,47.938544],[34.992238,47.938621],[34.992233,47.938707],[34.992218,47.938912],[34.992187,47.939203],[34.992165,47.939638]]]}},{"type":"Feature","properties":{"cadnum":"2322188807:12:001:0309"},"geometry":{"type":"Polygon","coordinates":[[[34.992272,47.938917],[34.992567,47.938912],[34.992555,47.938538],[34.992297,47.938543],[34.992272,47.938917]]]}},{"type":"Feature","properties":{"cadnum":"2322188807:12:001:0324"},"geometry":{"type":"Polygon","coordinates":[[[34.86879,47.879534],[34.86879,47.879535],[34.868921,47.879615],[34.869408,47.879914],[34.869498,47.8795],[34.86953,47.879355],[34.869203,47.879182],[34.86883,47.8795],[34.868829,47.8795],[34.86879,47.879534]]]}},{"type":"Feature","properties":{"cadnum":"2322188807:12:003:0210"},"geometry":{"type":"Polygon","coordinates":[[[34.882929,47.881007],[34.8833,47.881129],[34.883483,47.880733],[34.883515,47.880604],[34.883566,47.88038],[34.883212,47.88033],[34.883135,47.880509],[34.883122,47.880507],[34.883066,47.880637],[34.88308,47.880643],[34.88308,47.880644],[34.882929,47.881007]]]}},{"type":"Feature","properties":{"cadnum":"2322188807:12:001:0240"},"geometry":{"type":"Polygon","coordinates":[[[34.885366,47.882829],[34.886141,47.883078],[34.886257,47.88286],[34.886263,47.882716],[34.885549,47.882501],[34.885366,47.882829]]]}},{"type":"Feature","properties":{"cadnum":"2322188807:12:003:0315"},"geometry":{"type":"Polygon","coordinates":[[[34.882917,47.881036],[34.883287,47.881157],[34.8833,47.881129],[34.882929,47.881007],[34.882917,47.881036]]]}},{"type":"Feature","properties":{"cadnum":"2322188807:12:001:0316"},"geometry":{"type":"Polygon","coordinates":[[[34.884613,47.881953],[34.885107,47.882071],[34.885539,47.882174],[34.885655,47.881959],[34.885958,47.881403],[34.88589,47.881394],[34.885706,47.88173],[34.884935,47.881578],[34.885124,47.881173],[34.884989,47.881147],[34.884613,47.881953]]]}},{"type":"Feature","properties":{"cadnum":"2322188807:12:001:0254"},"geometry":{"type":"Polygon","coordinates":[[[34.885549,47.882501],[34.886263,47.882716],[34.886278,47.882299],[34.885714,47.882202],[34.885549,47.882501]]]}},{"type":"Feature","properties":{"cadnum":"2322188807:12:001:0241"},"geometry":{"type":"Polygon","coordinates":[[[34.881003,47.882172],[34.881506,47.882305],[34.881574,47.882323],[34.881649,47.882184],[34.881678,47.882134],[34.881678,47.882133],[34.881828,47.881861],[34.881678,47.881822],[34.881259,47.881711],[34.881003,47.882172]]]}},{"type":"Feature","properties":{"cadnum":"2322188807:12:001:0317"},"geometry":{"type":"Polygon","coordinates":[[[34.884935,47.881578],[34.885706,47.88173],[34.88589,47.881394],[34.885596,47.881355],[34.885551,47.881355],[34.885489,47.881347],[34.885387,47.881327],[34.885356,47.881311],[34.885386,47.881225],[34.885124,47.881173],[34.884935,47.881578]]]}},{"type":"Feature","properties":{"cadnum":"2322188807:12:001:0116"},"geometry":{"type":"Polygon","coordinates":[[[34.884994,47.88033],[34.885315,47.880366],[34.885421,47.879813],[34.885099,47.879784],[34.884994,47.88033]]]}},{"type":"Feature","properties":{"cadnum":"2322188807:12:001:0040"},"geometry":{"type":"Polygon","coordinates":[[[34.87954,47.877932],[34.88,47.87799],[34.880168,47.877425],[34.879708,47.877367],[34.87954,47.877932]]]}},{"type":"Feature","properties":{"cadnum":"2322188807:12:001:0331"},"geometry":{"type":"Polygon","coordinates":[[[34.879249,47.877298],[34.879708,47.877359],[34.879873,47.876794],[34.879872,47.876794],[34.879414,47.876733],[34.879249,47.877298]]]}},{"type":"Feature","properties":{"cadnum":"2322188807:12:001:0026"},"geometry":{"type":"Polygon","coordinates":[[[34.876121,47.877511],[34.876581,47.877567],[34.876746,47.877002],[34.876286,47.876946],[34.876121,47.877511]]]}},{"type":"Feature","properties":{"cadnum":"2322188807:12:001:0024"},"geometry":{"type":"Polygon","coordinates":[[[34.875661,47.877454],[34.876013,47.877497],[34.876013,47.877498],[34.876121,47.877511],[34.876184,47.877296],[34.876184,47.877295],[34.876286,47.876946],[34.876013,47.876912],[34.875826,47.876889],[34.875661,47.877454]]]}},{"type":"Feature","properties":{"cadnum":"2322188807:12:001:0325"},"geometry":{"type":"Polygon","coordinates":[[[34.880166,47.877419],[34.880626,47.87748],[34.880791,47.876915],[34.880331,47.876854],[34.880166,47.877419]]]}},{"type":"Feature","properties":{"cadnum":"2322188807:12:001:0330"},"geometry":{"type":"Polygon","coordinates":[[[34.879708,47.877359],[34.880166,47.877419],[34.880331,47.876854],[34.879873,47.876794],[34.879708,47.877359]]]}},{"type":"Feature","properties":{"cadnum":"2322188807:12:001:0023"},"geometry":{"type":"Polygon","coordinates":[[[34.875826,47.876889],[34.876184,47.876934],[34.876184,47.876933],[34.876185,47.876933],[34.876286,47.876946],[34.876451,47.876381],[34.876013,47.876327],[34.875991,47.876324],[34.875826,47.876889]]]}},{"type":"Feature","properties":{"cadnum":"2322188807:12:001:0038"},"geometry":{"type":"Polygon","coordinates":[[[34.87908,47.877872],[34.87954,47.877932],[34.879708,47.877367],[34.879248,47.877308],[34.87908,47.877872]]]}},{"type":"Feature","properties":{"cadnum":"2322188807:12:001:0190"},"geometry":{"type":"Polygon","coordinates":[[[34.87596,47.8784],[34.875961,47.8784],[34.876013,47.878409],[34.876013,47.87841],[34.876386,47.878475],[34.876387,47.878467],[34.876185,47.878432],[34.876184,47.878432],[34.875963,47.878393],[34.87596,47.8784]]]}},{"type":"Feature","properties":{"cadnum":"2322188807:12:001:0044"},"geometry":{"type":"Polygon","coordinates":[[[34.878321,47.878528],[34.878781,47.878585],[34.87892,47.878017],[34.87846,47.87796],[34.878321,47.878528]]]}},{"type":"Feature","properties":{"cadnum":"2322188807:12:001:0149"},"geometry":{"type":"Polygon","coordinates":[[[34.875963,47.878393],[34.876013,47.878402],[34.876387,47.878467],[34.876612,47.877778],[34.876193,47.877726],[34.876184,47.87775],[34.875963,47.878393]]]}},{"type":"Feature","properties":{"cadnum":"2322188807:12:001:0248"},"geometry":{"type":"Polygon","coordinates":[[[34.89287,47.878649],[34.893178,47.878687],[34.893235,47.878458],[34.892929,47.878421],[34.89287,47.878649]]]}},{"type":"Feature","properties":{"cadnum":"2322188807:12:001:0253"},"geometry":{"type":"Polygon","coordinates":[[[34.893714,47.878997],[34.89401,47.879034],[34.894132,47.878569],[34.894126,47.878562],[34.893836,47.878528],[34.893774,47.878763],[34.893714,47.878997]]]}},{"type":"Feature","properties":{"cadnum":"2322188807:12:001:0322"},"geometry":{"type":"Polygon","coordinates":[[[34.893628,47.878451],[34.893941,47.878487],[34.893985,47.878244],[34.893671,47.878209],[34.893628,47.878451]]]}},{"type":"Feature","properties":{"cadnum":"2322188807:12:001:0255"},"geometry":{"type":"Polygon","coordinates":[[[34.89332,47.878415],[34.893628,47.878451],[34.893671,47.878209],[34.893359,47.878173],[34.89332,47.878415]]]}},{"type":"Feature","properties":{"cadnum":"2322188807:12:001:0247"},"geometry":{"type":"Polygon","coordinates":[[[34.892511,47.878842],[34.892664,47.878861],[34.893119,47.878917],[34.893178,47.878687],[34.89287,47.878649],[34.892567,47.878613],[34.892511,47.878842]]]}},{"type":"Feature","properties":{"cadnum":"2322188807:12:001:0256"},"geometry":{"type":"Polygon","coordinates":[[[34.893009,47.878377],[34.89332,47.878415],[34.893359,47.878173],[34.89307,47.878138],[34.893009,47.878377]]]}},{"type":"Feature","properties":{"cadnum":"2322188807:12:001:0249"},"geometry":{"type":"Polygon","coordinates":[[[34.893116,47.878927],[34.893414,47.878962],[34.893471,47.878723],[34.893178,47.878687],[34.893119,47.878917],[34.893116,47.878927]]]}},{"type":"Feature","properties":{"cadnum":"2322188807:12:001:0250"},"geometry":{"type":"Polygon","coordinates":[[[34.893178,47.878687],[34.893471,47.878723],[34.893529,47.878494],[34.893235,47.878458],[34.893178,47.878687]]]}},{"type":"Feature","properties":{"cadnum":"2322188807:12:001:0252"},"geometry":{"type":"Polygon","coordinates":[[[34.893471,47.878723],[34.893774,47.878763],[34.893836,47.878528],[34.893529,47.878494],[34.893471,47.878723]]]}},{"type":"Feature","properties":{"cadnum":"2322188807:12:001:0300"},"geometry":{"type":"Polygon","coordinates":[[[34.880738,47.882101],[34.881003,47.882172],[34.881259,47.881711],[34.881248,47.881708],[34.88089,47.88162],[34.880814,47.881766],[34.880826,47.881822],[34.880738,47.882101]]]}},{"type":"Feature","properties":{"cadnum":"2322188807:12:001:0244"},"geometry":{"type":"Polygon","coordinates":[[[34.878718,47.881714],[34.879332,47.881722],[34.879402,47.881331],[34.878788,47.881323],[34.878718,47.881714]]]}},{"type":"Feature","properties":{"cadnum":"2322188807:12:001:0336"},"geometry":{"type":"Polygon","coordinates":[[[34.877602,47.881738],[34.877648,47.88203],[34.877654,47.882075],[34.877674,47.882379],[34.878114,47.882361],[34.878085,47.881689],[34.877602,47.881738]]]}},{"type":"Feature","properties":{"cadnum":"2322188807:12:001:0338"},"geometry":{"type":"Polygon","coordinates":[[[34.877674,47.882379],[34.87768,47.882453],[34.878118,47.882434],[34.878114,47.882361],[34.877674,47.882379]]]}},{"type":"Feature","properties":{"cadnum":"2322188807:12:001:0192"},"geometry":{"type":"Polygon","coordinates":[[[34.872914,47.879338],[34.873343,47.879364],[34.873449,47.878965],[34.87303,47.878905],[34.872914,47.879338]]]}},{"type":"Feature","properties":{"cadnum":"2322188807:12:001:0154"},"geometry":{"type":"Polygon","coordinates":[[[34.872669,47.878705],[34.873105,47.878767],[34.873191,47.878503],[34.873317,47.878108],[34.872884,47.878044],[34.872669,47.878705]]]}},{"type":"Feature","properties":{"cadnum":"2322188807:12:001:0021"},"geometry":{"type":"Polygon","coordinates":[[[34.875366,47.876832],[34.875826,47.876889],[34.875991,47.876324],[34.875531,47.876267],[34.875366,47.876832]]]}},{"type":"Feature","properties":{"cadnum":"2322188807:12:001:0073"},"geometry":{"type":"Polygon","coordinates":[[[34.87106,47.877702],[34.871387,47.877749],[34.871598,47.87709],[34.871271,47.877043],[34.87106,47.877702]]]}},{"type":"Feature","properties":{"cadnum":"2322188807:12:001:0022"},"geometry":{"type":"Polygon","coordinates":[[[34.875201,47.877397],[34.875661,47.877454],[34.875826,47.876889],[34.875366,47.876832],[34.875201,47.877397]]]}},{"type":"Feature","properties":{"cadnum":"2322188807:12:001:0185"},"geometry":{"type":"Polygon","coordinates":[[[34.870188,47.879275],[34.870227,47.87927],[34.87052,47.879259],[34.870627,47.879255],[34.870691,47.87888],[34.870691,47.878879],[34.870746,47.878558],[34.870645,47.878544],[34.870369,47.878505],[34.870188,47.879275]]]}},{"type":"Feature","properties":{"cadnum":"2322188807:12:001:0265"},"geometry":{"type":"Polygon","coordinates":[[[34.889992,47.878023],[34.890289,47.878057],[34.890347,47.877813],[34.890041,47.877777],[34.889992,47.878023]]]}},{"type":"Feature","properties":{"cadnum":"2322188807:12:001:0270"},"geometry":{"type":"Polygon","coordinates":[[[34.888224,47.877813],[34.888477,47.877843],[34.888784,47.877878],[34.888836,47.87763],[34.888527,47.877591],[34.888273,47.877561],[34.888224,47.877813]]]}},{"type":"Feature","properties":{"cadnum":"2322188807:12:001:0272"},"geometry":{"type":"Polygon","coordinates":[[[34.887566,47.877735],[34.887871,47.877771],[34.88793,47.877518],[34.887624,47.877478],[34.887566,47.877735]]]}},{"type":"Feature","properties":{"cadnum":"2322188807:12:001:0262"},"geometry":{"type":"Polygon","coordinates":[[[34.890898,47.878129],[34.891202,47.878165],[34.891258,47.877924],[34.890947,47.877887],[34.890898,47.878129]]]}},{"type":"Feature","properties":{"cadnum":"2322188807:12:001:0237"},"geometry":{"type":"Polygon","coordinates":[[[34.890693,47.878633],[34.890715,47.878636],[34.890993,47.878668],[34.890994,47.878665],[34.891055,47.878434],[34.890748,47.878397],[34.890693,47.878633]]]}},{"type":"Feature","properties":{"cadnum":"2322188807:12:001:0236"},"geometry":{"type":"Polygon","coordinates":[[[34.890391,47.878599],[34.890693,47.878633],[34.890748,47.878397],[34.8908,47.878168],[34.890497,47.878136],[34.890391,47.878599]]]}},{"type":"Feature","properties":{"cadnum":"2322188807:12:001:0245"},"geometry":{"type":"Polygon","coordinates":[[[34.892203,47.878815],[34.892508,47.878852],[34.892511,47.878842],[34.892567,47.878613],[34.892274,47.87858],[34.892203,47.878815]]]}},{"type":"Feature","properties":{"cadnum":"2322188807:12:001:0321"},"geometry":{"type":"Polygon","coordinates":[[[34.891959,47.878547],[34.892274,47.87858],[34.892334,47.878351],[34.892022,47.878316],[34.891959,47.878547]]]}},{"type":"Feature","properties":{"cadnum":"2322188807:12:001:0319"},"geometry":{"type":"Polygon","coordinates":[[[34.891055,47.878434],[34.891662,47.87851],[34.891724,47.878281],[34.891409,47.878238],[34.89112,47.878207],[34.891055,47.878434]]]}},{"type":"Feature","properties":{"cadnum":"2322188807:12:001:0230"},"geometry":{"type":"Polygon","coordinates":[[[34.888851,47.878191],[34.889173,47.878227],[34.889178,47.878212],[34.88922,47.877982],[34.88891,47.877947],[34.888855,47.878175],[34.888851,47.878191]]]}},{"type":"Feature","properties":{"cadnum":"2322188807:12:001:0232"},"geometry":{"type":"Polygon","coordinates":[[[34.889397,47.878482],[34.889707,47.878517],[34.889764,47.878286],[34.889477,47.87825],[34.889397,47.878482]]]}},{"type":"Feature","properties":{"cadnum":"2322188807:12:001:0231"},"geometry":{"type":"Polygon","coordinates":[[[34.889178,47.878212],[34.889477,47.87825],[34.889519,47.878015],[34.88922,47.877982],[34.889178,47.878212]]]}},{"type":"Feature","properties":{"cadnum":"2322188807:12:001:0229"},"geometry":{"type":"Polygon","coordinates":[[[34.888796,47.878412],[34.889099,47.878448],[34.889397,47.878482],[34.889477,47.87825],[34.889178,47.878212],[34.889173,47.878227],[34.888851,47.878191],[34.888796,47.878412]]]}},{"type":"Feature","properties":{"cadnum":"2322188807:12:001:0228"},"geometry":{"type":"Polygon","coordinates":[[[34.888249,47.878106],[34.888551,47.87814],[34.888612,47.877907],[34.888305,47.877874],[34.888249,47.878106]]]}},{"type":"Feature","properties":{"cadnum":"2322188807:12:001:0271"},"geometry":{"type":"Polygon","coordinates":[[[34.887871,47.877771],[34.88817,47.877806],[34.888224,47.877813],[34.888273,47.877561],[34.888225,47.877556],[34.88793,47.877518],[34.887871,47.877771]]]}},{"type":"Feature","properties":{"cadnum":"2322188807:12:001:0233"},"geometry":{"type":"Polygon","coordinates":[[[34.889477,47.87825],[34.889764,47.878286],[34.889819,47.878048],[34.889519,47.878015],[34.889477,47.87825]]]}},{"type":"Feature","properties":{"cadnum":"2322188807:12:001:0235"},"geometry":{"type":"Polygon","coordinates":[[[34.890014,47.878552],[34.890308,47.878586],[34.890329,47.87854],[34.890381,47.878357],[34.89007,47.878321],[34.890014,47.878552]]]}},{"type":"Feature","properties":{"cadnum":"2322188807:12:001:0225"},"geometry":{"type":"Polygon","coordinates":[[[34.887589,47.878268],[34.887892,47.878305],[34.887947,47.878072],[34.888005,47.877841],[34.887703,47.877805],[34.887646,47.878038],[34.887589,47.878268]]]}},{"type":"Feature","properties":{"cadnum":"2322188807:12:001:0226"},"geometry":{"type":"Polygon","coordinates":[[[34.887947,47.878072],[34.888249,47.878106],[34.888305,47.877874],[34.888005,47.877841],[34.887947,47.878072]]]}},{"type":"Feature","properties":{"cadnum":"2322188807:12:001:0234"},"geometry":{"type":"Polygon","coordinates":[[[34.889764,47.878286],[34.89007,47.878321],[34.890381,47.878357],[34.890406,47.878132],[34.890403,47.878124],[34.890328,47.878113],[34.890125,47.878088],[34.889819,47.878048],[34.889764,47.878286]]]}},{"type":"Feature","properties":{"cadnum":"2322188807:12:001:0238"},"geometry":{"type":"Polygon","coordinates":[[[34.890748,47.878397],[34.891055,47.878434],[34.89112,47.878207],[34.8908,47.878168],[34.890748,47.878397]]]}},{"type":"Feature","properties":{"cadnum":"2322188807:12:001:0318"},"geometry":{"type":"Polygon","coordinates":[[[34.890994,47.878665],[34.891603,47.878738],[34.891662,47.87851],[34.891055,47.878434],[34.890994,47.878665]]]}},{"type":"Feature","properties":{"cadnum":"2322188807:12:001:0243"},"geometry":{"type":"Polygon","coordinates":[[[34.891902,47.878778],[34.892203,47.878815],[34.892274,47.87858],[34.891959,47.878547],[34.891902,47.878778]]]}},{"type":"Feature","properties":{"cadnum":"2322188807:12:001:0320"},"geometry":{"type":"Polygon","coordinates":[[[34.891602,47.878742],[34.891902,47.878778],[34.891959,47.878547],[34.891662,47.87851],[34.891603,47.878738],[34.891602,47.878742]]]}},{"type":"Feature","properties":{"cadnum":"2322188807:12:001:0260"},"geometry":{"type":"Polygon","coordinates":[[[34.891504,47.8782],[34.891811,47.878234],[34.891855,47.877995],[34.891562,47.877961],[34.891504,47.8782]]]}},{"type":"Feature","properties":{"cadnum":"2322188807:12:001:0258"},"geometry":{"type":"Polygon","coordinates":[[[34.892111,47.878272],[34.89242,47.878306],[34.89248,47.878069],[34.892157,47.87803],[34.892157,47.878031],[34.892111,47.878272]]]}},{"type":"Feature","properties":{"cadnum":"2322188807:12:001:0261"},"geometry":{"type":"Polygon","coordinates":[[[34.891202,47.878165],[34.891504,47.8782],[34.891562,47.877961],[34.891258,47.877924],[34.891202,47.878165]]]}},{"type":"Feature","properties":{"cadnum":"2322188807:12:001:0259"},"geometry":{"type":"Polygon","coordinates":[[[34.891811,47.878234],[34.892111,47.878272],[34.892157,47.878031],[34.892157,47.87803],[34.891855,47.877995],[34.891811,47.878234]]]}},{"type":"Feature","properties":{"cadnum":"2322188807:12:001:0264"},"geometry":{"type":"Polygon","coordinates":[[[34.890289,47.878057],[34.890597,47.878092],[34.890643,47.87785],[34.890347,47.877813],[34.890289,47.878057]]]}},{"type":"Feature","properties":{"cadnum":"2322188807:12:001:0267"},"geometry":{"type":"Polygon","coordinates":[[[34.889384,47.87795],[34.889688,47.877985],[34.889742,47.877742],[34.889439,47.877702],[34.889384,47.87795]]]}},{"type":"Feature","properties":{"cadnum":"2322188807:12:001:0302"},"geometry":{"type":"Polygon","coordinates":[[[34.869325,47.87914],[34.869377,47.879171],[34.869495,47.879235],[34.869515,47.879242],[34.869651,47.87929],[34.870018,47.879293],[34.870188,47.879275],[34.870285,47.878866],[34.869472,47.878767],[34.869439,47.878839],[34.869424,47.878858],[34.869369,47.878967],[34.869325,47.87914]]]}},{"type":"Feature","properties":{"cadnum":"2322188807:12:001:0180"},"geometry":{"type":"Polygon","coordinates":[[[34.869472,47.878767],[34.870285,47.878866],[34.870369,47.878505],[34.869668,47.87841],[34.869641,47.878406],[34.869554,47.878464],[34.869483,47.878746],[34.869472,47.878767]]]}}]}