{"type":"FeatureCollection","features":[{"type":"Feature","properties":{"cadnum":"2322783001:01:006:0011"},"geometry":{"type":"Polygon","coordinates":[[[36.44014,47.316853],[36.441736,47.316657],[36.442934,47.316509],[36.443026,47.316074],[36.441736,47.316235],[36.441736,47.316234],[36.440191,47.316425],[36.440171,47.316586],[36.440172,47.316586],[36.44014,47.316853]]]}},{"type":"Feature","properties":{"cadnum":"2322783001:01:001:0002"},"geometry":{"type":"Polygon","coordinates":[[[36.446456,47.327071],[36.446623,47.327641],[36.446622,47.327641],[36.446767,47.328132],[36.447058,47.328088],[36.448188,47.327915],[36.448176,47.327757],[36.448108,47.326853],[36.447217,47.326971],[36.446456,47.327071]]]}},{"type":"Feature","properties":{"cadnum":"2322783001:01:001:0022"},"geometry":{"type":"Polygon","coordinates":[[[36.446744,47.324716],[36.446798,47.324928],[36.447058,47.3249],[36.447058,47.324901],[36.447345,47.324869],[36.447292,47.324657],[36.447058,47.324683],[36.446744,47.324716]]]}},{"type":"Feature","properties":{"cadnum":"2322783001:01:001:0023"},"geometry":{"type":"Polygon","coordinates":[[[36.447292,47.324657],[36.447345,47.324869],[36.44844,47.32475],[36.4484,47.324539],[36.447292,47.324657]]]}},{"type":"Feature","properties":{"cadnum":"2322783001:01:001:0008"},"geometry":{"type":"Polygon","coordinates":[[[36.444114,47.322598],[36.444217,47.322947],[36.444538,47.322907],[36.444451,47.322557],[36.444114,47.322598]]]}},{"type":"Feature","properties":{"cadnum":"2322783001:01:001:0010"},"geometry":{"type":"Polygon","coordinates":[[[36.443497,47.321985],[36.443591,47.322519],[36.443968,47.322474],[36.443875,47.321953],[36.443497,47.321985]]]}},{"type":"Feature","properties":{"cadnum":"2322783001:01:001:0012"},"geometry":{"type":"Polygon","coordinates":[[[36.446106,47.322675],[36.446171,47.322933],[36.446642,47.322875],[36.446964,47.322836],[36.446902,47.322598],[36.446482,47.322639],[36.446224,47.322664],[36.446106,47.322675]]]}},{"type":"Feature","properties":{"cadnum":"2322783001:01:001:0019"},"geometry":{"type":"Polygon","coordinates":[[[36.443595,47.323737],[36.443665,47.323917],[36.443689,47.323978],[36.44371,47.324034],[36.443711,47.324034],[36.443743,47.324115],[36.444509,47.324004],[36.444544,47.323999],[36.444447,47.323657],[36.443595,47.323737]]]}},{"type":"Feature","properties":{"cadnum":"2322783001:01:001:0013"},"geometry":{"type":"Polygon","coordinates":[[[36.445518,47.323012],[36.445591,47.323272],[36.44671,47.323128],[36.446642,47.322875],[36.446171,47.322933],[36.445518,47.323012]]]}},{"type":"Feature","properties":{"cadnum":"2322783001:01:001:0009"},"geometry":{"type":"Polygon","coordinates":[[[36.443756,47.322642],[36.443866,47.323025],[36.444228,47.322982],[36.444217,47.322947],[36.444114,47.322598],[36.443756,47.322642]]]}},{"type":"Feature","properties":{"cadnum":"2322783001:01:001:0016"},"geometry":{"type":"Polygon","coordinates":[[[36.443486,47.323251],[36.443572,47.323587],[36.444471,47.323494],[36.444386,47.323159],[36.443486,47.323251]]]}},{"type":"Feature","properties":{"cadnum":"2322783001:01:001:0003"},"geometry":{"type":"Polygon","coordinates":[[[36.441829,47.323371],[36.441856,47.323931],[36.443131,47.323766],[36.443005,47.323237],[36.441829,47.323371]]]}},{"type":"Feature","properties":{"cadnum":"2322783001:01:001:0004"},"geometry":{"type":"Polygon","coordinates":[[[36.443005,47.323237],[36.443131,47.323766],[36.443563,47.32371],[36.443409,47.323191],[36.443005,47.323237]]]}},{"type":"Feature","properties":{"cadnum":"2322783001:01:001:0015"},"geometry":{"type":"Polygon","coordinates":[[[36.444386,47.323159],[36.444471,47.323494],[36.445341,47.323403],[36.445257,47.32307],[36.444845,47.323114],[36.444386,47.323159]]]}},{"type":"Feature","properties":{"cadnum":"2322783001:01:006:0002"},"geometry":{"type":"Polygon","coordinates":[[[36.441074,47.320527],[36.441436,47.320957],[36.441564,47.320942],[36.441565,47.320942],[36.442513,47.320826],[36.442557,47.320346],[36.441655,47.320457],[36.441074,47.320527]]]}},{"type":"Feature","properties":{"cadnum":"2322783001:01:006:0001"},"geometry":{"type":"Polygon","coordinates":[[[36.441436,47.320957],[36.441565,47.321163],[36.441565,47.321164],[36.44173,47.321427],[36.441736,47.321437],[36.441862,47.321638],[36.442474,47.321564],[36.442513,47.320826],[36.441736,47.320921],[36.441436,47.320957]]]}},{"type":"Feature","properties":{"cadnum":"2322783001:01:001:0006"},"geometry":{"type":"Polygon","coordinates":[[[36.446169,47.322339],[36.446224,47.322664],[36.446482,47.322639],[36.446407,47.322308],[36.446169,47.322339]]]}},{"type":"Feature","properties":{"cadnum":"2322783001:01:001:0005"},"geometry":{"type":"Polygon","coordinates":[[[36.445498,47.322159],[36.445528,47.322254],[36.446304,47.322122],[36.44614,47.321544],[36.445924,47.32158],[36.445761,47.321856],[36.445699,47.322083],[36.445498,47.322159]]]}},{"type":"Feature","properties":{"cadnum":"2322783001:01:001:0017"},"geometry":{"type":"Polygon","coordinates":[[[36.443572,47.323587],[36.443595,47.323737],[36.444447,47.323657],[36.444872,47.323616],[36.445396,47.32361],[36.445341,47.323403],[36.444471,47.323494],[36.443572,47.323587]]]}},{"type":"Feature","properties":{"cadnum":"2322783001:01:001:0011"},"geometry":{"type":"Polygon","coordinates":[[[36.445448,47.322739],[36.445518,47.323012],[36.446171,47.322933],[36.446106,47.322675],[36.445863,47.322699],[36.445448,47.322739]]]}},{"type":"Feature","properties":{"cadnum":"2322783001:01:001:0018"},"geometry":{"type":"Polygon","coordinates":[[[36.444447,47.323657],[36.444521,47.323917],[36.44452,47.323917],[36.444544,47.323999],[36.44547,47.323866],[36.445396,47.32361],[36.444872,47.323616],[36.444447,47.323657]]]}},{"type":"Feature","properties":{"cadnum":"2322783001:01:001:0007"},"geometry":{"type":"Polygon","coordinates":[[[36.446407,47.322308],[36.446482,47.322639],[36.446902,47.322598],[36.447064,47.32258],[36.447007,47.322242],[36.446407,47.322308]]]}},{"type":"Feature","properties":{"cadnum":"2322783001:01:006:0007"},"geometry":{"type":"Polygon","coordinates":[[[36.440309,47.319596],[36.440423,47.31974],[36.441736,47.31958],[36.442635,47.31947],[36.442648,47.319312],[36.441655,47.319433],[36.440309,47.319596]]]}},{"type":"Feature","properties":{"cadnum":"2322783001:01:006:0009"},"geometry":{"type":"Polygon","coordinates":[[[36.439989,47.319193],[36.440044,47.319261],[36.441564,47.319076],[36.441565,47.319076],[36.441638,47.319067],[36.441736,47.319055],[36.442679,47.31894],[36.442735,47.318273],[36.441696,47.318399],[36.440022,47.318603],[36.439989,47.319193]]]}},{"type":"Feature","properties":{"cadnum":"2322783001:01:001:0027"},"geometry":{"type":"Polygon","coordinates":[[[36.446897,47.328162],[36.447028,47.328632],[36.447058,47.328629],[36.447058,47.32863],[36.44764,47.328576],[36.447506,47.328096],[36.447058,47.328145],[36.446897,47.328162]]]}},{"type":"Feature","properties":{"cadnum":"2322783001:01:001:0031"},"geometry":{"type":"Polygon","coordinates":[[[36.447028,47.328632],[36.447058,47.328752],[36.447144,47.329103],[36.447229,47.329095],[36.447762,47.329042],[36.447649,47.328576],[36.44764,47.328576],[36.447229,47.328614],[36.447229,47.328613],[36.447028,47.328632]]]}},{"type":"Feature","properties":{"cadnum":"2322783001:01:001:0032"},"geometry":{"type":"Polygon","coordinates":[[[36.447649,47.328576],[36.447762,47.329042],[36.448313,47.328988],[36.448305,47.328519],[36.448257,47.328523],[36.447649,47.328576]]]}},{"type":"Feature","properties":{"cadnum":"2322783001:01:001:0028"},"geometry":{"type":"Polygon","coordinates":[[[36.447506,47.328096],[36.44764,47.328576],[36.447649,47.328576],[36.448257,47.328523],[36.448277,47.32802],[36.447506,47.328096]]]}},{"type":"Feature","properties":{"cadnum":"2322783001:01:003:0002"},"geometry":{"type":"Polygon","coordinates":[[[36.443839,47.336585],[36.445039,47.336913],[36.445265,47.336634],[36.444074,47.336296],[36.443839,47.336585]]]}},{"type":"Feature","properties":{"cadnum":"2322783001:01:003:0001"},"geometry":{"type":"Polygon","coordinates":[[[36.445039,47.336913],[36.445926,47.337154],[36.446146,47.336884],[36.445265,47.336634],[36.445039,47.336913]]]}},{"type":"Feature","properties":{"cadnum":"2322783001:01:001:0025"},"geometry":{"type":"Polygon","coordinates":[[[36.443403,47.324959],[36.443587,47.325564],[36.444249,47.325479],[36.444154,47.325164],[36.444067,47.324875],[36.443403,47.324959]]]}},{"type":"Feature","properties":{"cadnum":"2322783001:01:001:0024"},"geometry":{"type":"Polygon","coordinates":[[[36.444154,47.325164],[36.444249,47.325479],[36.445143,47.325364],[36.445045,47.325039],[36.444154,47.325164]]]}},{"type":"Feature","properties":{"cadnum":"2322783001:01:001:0020"},"geometry":{"type":"Polygon","coordinates":[[[36.44428,47.324333],[36.444343,47.324575],[36.444668,47.324527],[36.445549,47.324399],[36.445489,47.324165],[36.44428,47.324333]]]}},{"type":"Feature","properties":{"cadnum":"2322783001:01:001:0021"},"geometry":{"type":"Polygon","coordinates":[[[36.443485,47.324437],[36.443509,47.32468],[36.444343,47.324575],[36.44428,47.324333],[36.443808,47.324395],[36.443485,47.324437]]]}},{"type":"Feature","properties":{"cadnum":"2322783001:01:002:0004"},"geometry":{"type":"Polygon","coordinates":[[[36.44784,47.332958],[36.44936,47.333603],[36.44979,47.33314],[36.449061,47.332831],[36.448556,47.332616],[36.448286,47.332503],[36.44784,47.332958]]]}},{"type":"Feature","properties":{"cadnum":"2322783001:01:002:0003"},"geometry":{"type":"Polygon","coordinates":[[[36.447378,47.332763],[36.44784,47.332958],[36.448286,47.332503],[36.447825,47.332307],[36.447378,47.332763]]]}},{"type":"Feature","properties":{"cadnum":"2322783001:01:002:0002"},"geometry":{"type":"Polygon","coordinates":[[[36.448556,47.332616],[36.449061,47.332831],[36.449673,47.332257],[36.449155,47.332056],[36.448556,47.332616]]]}},{"type":"Feature","properties":{"cadnum":"2322783001:01:002:0001"},"geometry":{"type":"Polygon","coordinates":[[[36.447672,47.331789],[36.448572,47.332167],[36.448798,47.331917],[36.44788,47.33156],[36.447672,47.331789]]]}},{"type":"Feature","properties":{"cadnum":"2322783001:01:001:0029"},"geometry":{"type":"Polygon","coordinates":[[[36.44603,47.32827],[36.446136,47.32866],[36.446743,47.328579],[36.446602,47.328066],[36.446171,47.328134],[36.446203,47.328249],[36.44603,47.32827]]]}},{"type":"Feature","properties":{"cadnum":"2322783001:01:001:0034"},"geometry":{"type":"Polygon","coordinates":[[[36.445125,47.328794],[36.445325,47.329291],[36.446037,47.329402],[36.446281,47.329359],[36.446123,47.328662],[36.445237,47.32878],[36.445125,47.328794]]]}},{"type":"Feature","properties":{"cadnum":"2322783001:01:001:0026"},"geometry":{"type":"Polygon","coordinates":[[[36.445265,47.328008],[36.44533,47.328231],[36.446171,47.328134],[36.446602,47.328066],[36.446539,47.32785],[36.445265,47.328008]]]}},{"type":"Feature","properties":{"cadnum":"2322783001:01:001:0033"},"geometry":{"type":"Polygon","coordinates":[[[36.446123,47.328662],[36.446281,47.329359],[36.446448,47.329329],[36.44639,47.329069],[36.446818,47.328914],[36.446743,47.328579],[36.446136,47.32866],[36.446123,47.328662]]]}},{"type":"Feature","properties":{"cadnum":"2322783001:01:001:0030"},"geometry":{"type":"Polygon","coordinates":[[[36.445128,47.32838],[36.445237,47.32878],[36.446123,47.328662],[36.446136,47.32866],[36.44603,47.32827],[36.445128,47.32838]]]}},{"type":"Feature","properties":{"cadnum":"2322783001:01:006:0013"},"geometry":{"type":"Polygon","coordinates":[[[36.442931,47.317445],[36.445856,47.317551],[36.445954,47.317151],[36.443147,47.31705],[36.442953,47.317098],[36.442931,47.317445]]]}},{"type":"Feature","properties":{"cadnum":"2322783001:01:006:0012"},"geometry":{"type":"Polygon","coordinates":[[[36.442747,47.320058],[36.445017,47.320175],[36.445195,47.319675],[36.442788,47.319552],[36.442747,47.320058]]]}}]}