{"type":"FeatureCollection","features":[{"type":"Feature","properties":{"cadnum":"2322184901:04:001:0395"},"geometry":{"type":"Polygon","coordinates":[[[35.087942,47.65915],[35.088995,47.659363],[35.089086,47.659156],[35.088033,47.658943],[35.087942,47.65915]]]}},{"type":"Feature","properties":{"cadnum":"2322184901:04:001:0411"},"geometry":{"type":"Polygon","coordinates":[[[35.086569,47.65888],[35.087647,47.659092],[35.08774,47.658875],[35.086659,47.658672],[35.086569,47.65888]]]}},{"type":"Feature","properties":{"cadnum":"2322184901:04:002:0314"},"geometry":{"type":"Polygon","coordinates":[[[35.090167,47.659935],[35.090246,47.659951],[35.090333,47.659969],[35.090418,47.659986],[35.090579,47.660017],[35.09122,47.660145],[35.09131,47.659937],[35.090256,47.659728],[35.090167,47.659935]]]}},{"type":"Feature","properties":{"cadnum":"2322184901:04:001:0508"},"geometry":{"type":"Polygon","coordinates":[[[35.088927,47.65981],[35.089719,47.659959],[35.089981,47.660012],[35.090072,47.659802],[35.089722,47.659733],[35.089388,47.659668],[35.089033,47.659597],[35.089032,47.659597],[35.088927,47.65981]]]}},{"type":"Feature","properties":{"cadnum":"2322184901:04:001:0402"},"geometry":{"type":"Polygon","coordinates":[[[35.087284,47.660645],[35.08834,47.660848],[35.088428,47.660641],[35.087372,47.660437],[35.087284,47.660645]]]}},{"type":"Feature","properties":{"cadnum":"2322184901:04:001:0406"},"geometry":{"type":"Polygon","coordinates":[[[35.086916,47.659839],[35.087265,47.659911],[35.087599,47.659204],[35.087225,47.659127],[35.086916,47.659839]]]}},{"type":"Feature","properties":{"cadnum":"2322184901:04:001:0405"},"geometry":{"type":"Polygon","coordinates":[[[35.086144,47.659863],[35.086207,47.659947],[35.08716,47.660134],[35.087265,47.659911],[35.086916,47.659839],[35.086565,47.659772],[35.086212,47.659704],[35.086144,47.659863]]]}},{"type":"Feature","properties":{"cadnum":"2322184901:04:001:0396"},"geometry":{"type":"Polygon","coordinates":[[[35.087796,47.659467],[35.088849,47.65968],[35.088945,47.659474],[35.087894,47.659262],[35.087796,47.659467]]]}},{"type":"Feature","properties":{"cadnum":"2322184901:04:001:0407"},"geometry":{"type":"Polygon","coordinates":[[[35.086565,47.659772],[35.086916,47.659839],[35.087225,47.659127],[35.086872,47.65906],[35.086565,47.659772]]]}},{"type":"Feature","properties":{"cadnum":"2322184901:04:001:0409"},"geometry":{"type":"Polygon","coordinates":[[[35.086108,47.659575],[35.086357,47.659892],[35.086416,47.659754],[35.086712,47.659049],[35.08636,47.658981],[35.086108,47.659575]]]}},{"type":"Feature","properties":{"cadnum":"2322184901:04:001:0403"},"geometry":{"type":"Polygon","coordinates":[[[35.086979,47.660865],[35.087186,47.661165],[35.087915,47.660965],[35.087758,47.660736],[35.087257,47.66064],[35.086979,47.660865]]]}},{"type":"Feature","properties":{"cadnum":"2322184901:04:002:0351"},"geometry":{"type":"Polygon","coordinates":[[[35.089309,47.658934],[35.090246,47.659124],[35.090246,47.659125],[35.090364,47.659148],[35.090411,47.659037],[35.090451,47.65894],[35.090264,47.658902],[35.089403,47.658725],[35.089309,47.658934]]]}},{"type":"Feature","properties":{"cadnum":"2322184901:04:001:0394"},"geometry":{"type":"Polygon","coordinates":[[[35.088033,47.658943],[35.089086,47.659156],[35.089179,47.658946],[35.088125,47.658737],[35.088033,47.658943]]]}},{"type":"Feature","properties":{"cadnum":"2322184901:04:001:0412"},"geometry":{"type":"Polygon","coordinates":[[[35.086659,47.658672],[35.08774,47.658875],[35.087823,47.658666],[35.086749,47.658466],[35.086659,47.658672]]]}},{"type":"Feature","properties":{"cadnum":"2322184901:04:001:0392"},"geometry":{"type":"Polygon","coordinates":[[[35.088233,47.658534],[35.089287,47.658743],[35.08936,47.658535],[35.088307,47.658323],[35.088233,47.658534]]]}},{"type":"Feature","properties":{"cadnum":"2322184901:04:001:0558"},"geometry":{"type":"Polygon","coordinates":[[[35.089995,47.660388],[35.090246,47.660438],[35.090396,47.660468],[35.090418,47.660469],[35.090461,47.660471],[35.090572,47.660493],[35.090934,47.660564],[35.091036,47.660342],[35.090553,47.660236],[35.090505,47.660225],[35.090246,47.660169],[35.090113,47.66014],[35.090062,47.660244],[35.090045,47.660287],[35.089995,47.660388]]]}},{"type":"Feature","properties":{"cadnum":"2322184901:04:001:0311"},"geometry":{"type":"Polygon","coordinates":[[[35.089863,47.660655],[35.090214,47.660716],[35.090246,47.66072],[35.090246,47.660721],[35.090268,47.660724],[35.090418,47.660747],[35.090462,47.660754],[35.090925,47.660817],[35.091011,47.660608],[35.090246,47.660493],[35.089948,47.660447],[35.089863,47.660655]]]}},{"type":"Feature","properties":{"cadnum":"2322184901:04:001:0348"},"geometry":{"type":"Polygon","coordinates":[[[35.089033,47.659597],[35.089388,47.659668],[35.090072,47.659802],[35.090142,47.659637],[35.090163,47.659591],[35.090071,47.659574],[35.089918,47.659542],[35.089779,47.659514],[35.089656,47.65949],[35.089121,47.659383],[35.089033,47.659597]]]}},{"type":"Feature","properties":{"cadnum":"2322184901:04:001:0410"},"geometry":{"type":"Polygon","coordinates":[[[35.085552,47.658868],[35.086108,47.659575],[35.08636,47.658981],[35.085654,47.658848],[35.085552,47.658868]]]}},{"type":"Feature","properties":{"cadnum":"2322184901:04:001:0398"},"geometry":{"type":"Polygon","coordinates":[[[35.087758,47.6598],[35.088815,47.660003],[35.088909,47.659796],[35.087852,47.659593],[35.087758,47.6598]]]}},{"type":"Feature","properties":{"cadnum":"2322184901:04:001:0408"},"geometry":{"type":"Polygon","coordinates":[[[35.086212,47.659704],[35.086565,47.659772],[35.086872,47.65906],[35.086521,47.658992],[35.086212,47.659704]]]}},{"type":"Feature","properties":{"cadnum":"2322184901:04:001:0401"},"geometry":{"type":"Polygon","coordinates":[[[35.087496,47.660422],[35.088552,47.660626],[35.08864,47.660418],[35.087583,47.660215],[35.087496,47.660422]]]}},{"type":"Feature","properties":{"cadnum":"2322184901:04:001:0537"},"geometry":{"type":"Polygon","coordinates":[[[35.087758,47.660736],[35.087915,47.660965],[35.08834,47.660848],[35.087758,47.660736]]]}},{"type":"Feature","properties":{"cadnum":"2322184901:04:001:0404"},"geometry":{"type":"Polygon","coordinates":[[[35.086246,47.659998],[35.086845,47.660799],[35.087135,47.660186],[35.086246,47.659998]]]}},{"type":"Feature","properties":{"cadnum":"2322184901:04:001:0399"},"geometry":{"type":"Polygon","coordinates":[[[35.087665,47.660006],[35.088721,47.660209],[35.088815,47.660003],[35.087758,47.6598],[35.087665,47.660006]]]}},{"type":"Feature","properties":{"cadnum":"2322184901:04:002:0352"},"geometry":{"type":"Polygon","coordinates":[[[35.089403,47.658725],[35.090246,47.658898],[35.090264,47.658902],[35.090418,47.658933],[35.090451,47.65894],[35.090541,47.658729],[35.090246,47.65867],[35.089497,47.658516],[35.089403,47.658725]]]}},{"type":"Feature","properties":{"cadnum":"2322184901:04:001:0441"},"geometry":{"type":"Polygon","coordinates":[[[35.085681,47.658267],[35.086749,47.658466],[35.086837,47.658259],[35.085767,47.658058],[35.085681,47.658267]]]}},{"type":"Feature","properties":{"cadnum":"2322184901:04:001:0443"},"geometry":{"type":"Polygon","coordinates":[[[35.085511,47.658681],[35.086569,47.65888],[35.086659,47.658672],[35.085595,47.658475],[35.085511,47.658681]]]}},{"type":"Feature","properties":{"cadnum":"2322184901:04:001:0414"},"geometry":{"type":"Polygon","coordinates":[[[35.086849,47.658261],[35.087909,47.658458],[35.087994,47.65825],[35.086935,47.658053],[35.086849,47.658261]]]}},{"type":"Feature","properties":{"cadnum":"2322184901:04:001:0391"},"geometry":{"type":"Polygon","coordinates":[[[35.088307,47.658323],[35.08936,47.658535],[35.089451,47.658328],[35.088398,47.658116],[35.088307,47.658323]]]}},{"type":"Feature","properties":{"cadnum":"2322184901:04:001:0440"},"geometry":{"type":"Polygon","coordinates":[[[35.085767,47.658058],[35.08594,47.658091],[35.086837,47.658259],[35.086927,47.658051],[35.086925,47.658051],[35.085853,47.65785],[35.085801,47.657975],[35.0858,47.657975],[35.085767,47.658058]]]}},{"type":"Feature","properties":{"cadnum":"2322184901:04:001:0439"},"geometry":{"type":"Polygon","coordinates":[[[35.085869,47.65785],[35.086527,47.657975],[35.086915,47.658049],[35.086926,47.658051],[35.087014,47.657843],[35.085956,47.657642],[35.085869,47.65785]]]}},{"type":"Feature","properties":{"cadnum":"2322184901:04:001:0416"},"geometry":{"type":"Polygon","coordinates":[[[35.087017,47.657844],[35.087721,47.657975],[35.088066,47.658039],[35.08808,47.658042],[35.088166,47.657834],[35.087107,47.657637],[35.087017,47.657844]]]}},{"type":"Feature","properties":{"cadnum":"2322184901:04:001:0415"},"geometry":{"type":"Polygon","coordinates":[[[35.086935,47.658053],[35.087139,47.658091],[35.087994,47.65825],[35.088072,47.658041],[35.088029,47.658033],[35.087014,47.657843],[35.086964,47.657975],[35.086963,47.657975],[35.086935,47.658053]]]}},{"type":"Feature","properties":{"cadnum":"2322184901:04:001:0445"},"geometry":{"type":"Polygon","coordinates":[[[35.084658,47.65775],[35.084753,47.657877],[35.084753,47.657878],[35.08476,47.657886],[35.084925,47.657917],[35.085236,47.657975],[35.085697,47.658062],[35.08576,47.658074],[35.085849,47.657866],[35.084759,47.657656],[35.084702,47.657644],[35.084658,47.65775]]]}},{"type":"Feature","properties":{"cadnum":"2322184901:04:001:0444"},"geometry":{"type":"Polygon","coordinates":[[[35.084681,47.657803],[35.084902,47.658091],[35.084904,47.658091],[35.085108,47.658356],[35.085434,47.658414],[35.08556,47.658091],[35.085609,47.657968],[35.084925,47.657847],[35.084681,47.657803]]]}},{"type":"Feature","properties":{"cadnum":"2322184901:04:002:0301"},"geometry":{"type":"Polygon","coordinates":[[[35.210571,47.676225],[35.211074,47.676414],[35.211096,47.676422],[35.211096,47.676423],[35.21119,47.676458],[35.211225,47.676471],[35.211225,47.676472],[35.21125,47.676481],[35.211267,47.676488],[35.211268,47.676488],[35.211501,47.676575],[35.211504,47.676576],[35.211647,47.676414],[35.211257,47.676296],[35.210677,47.676108],[35.210571,47.676225]]]}},{"type":"Feature","properties":{"cadnum":"2322184901:06:001:0001"},"geometry":{"type":"Polygon","coordinates":[[[35.106209,47.689711],[35.1064,47.690142],[35.106726,47.690099],[35.106755,47.690096],[35.106897,47.690077],[35.106897,47.690076],[35.106912,47.690074],[35.107038,47.690024],[35.106815,47.689836],[35.106609,47.689663],[35.106209,47.689711]]]}},{"type":"Feature","properties":{"cadnum":"2322184901:04:002:0008"},"geometry":{"type":"Polygon","coordinates":[[[35.106546,47.655168],[35.106897,47.655198],[35.107022,47.655208],[35.107207,47.654593],[35.106738,47.654537],[35.106588,47.655074],[35.106546,47.655168]]]}},{"type":"Feature","properties":{"cadnum":"2322184901:04:002:0511"},"geometry":{"type":"Polygon","coordinates":[[[35.10653,47.655851],[35.10657,47.655854],[35.106586,47.655876],[35.106538,47.655969],[35.106652,47.656043],[35.106726,47.656008],[35.106726,47.656009],[35.106836,47.655955],[35.106897,47.655909],[35.106951,47.655869],[35.107027,47.655803],[35.107056,47.655774],[35.107139,47.655655],[35.107046,47.655619],[35.107026,47.655615],[35.107033,47.6556],[35.107068,47.655515],[35.107086,47.655481],[35.107116,47.65544],[35.107065,47.655426],[35.106999,47.655524],[35.107047,47.655539],[35.106821,47.655877],[35.106821,47.655878],[35.106726,47.655852],[35.106644,47.65566],[35.10653,47.655851]]]}},{"type":"Feature","properties":{"cadnum":"2322184901:04:002:0010"},"geometry":{"type":"Polygon","coordinates":[[[35.106254,47.65501],[35.106337,47.655026],[35.106384,47.655037],[35.106479,47.655065],[35.106498,47.655111],[35.106551,47.655111],[35.106669,47.654626],[35.106726,47.654553],[35.10682,47.654429],[35.106537,47.654322],[35.106491,47.654391],[35.106492,47.654391],[35.106487,47.654399],[35.106472,47.654422],[35.106474,47.65444],[35.106361,47.654644],[35.106301,47.654815],[35.106345,47.654817],[35.106325,47.654919],[35.106291,47.654919],[35.106254,47.65501]]]}},{"type":"Feature","properties":{"cadnum":"2322184901:04:002:0006"},"geometry":{"type":"Polygon","coordinates":[[[35.106644,47.65566],[35.106726,47.655852],[35.106821,47.655878],[35.106897,47.655764],[35.106897,47.655763],[35.107048,47.655539],[35.106999,47.655524],[35.107065,47.655426],[35.106805,47.655355],[35.106644,47.65566]]]}},{"type":"Feature","properties":{"cadnum":"2322184901:04:002:0497"},"geometry":{"type":"Polygon","coordinates":[[[35.104592,47.653448],[35.104646,47.653466],[35.104646,47.653467],[35.104644,47.653476],[35.104638,47.653491],[35.104679,47.653507],[35.10463,47.653596],[35.104639,47.653598],[35.104721,47.653618],[35.104705,47.653644],[35.104718,47.653656],[35.104871,47.653707],[35.104891,47.653713],[35.105013,47.653576],[35.105079,47.653499],[35.105091,47.653481],[35.104762,47.653316],[35.104687,47.653356],[35.104681,47.653353],[35.104647,47.653368],[35.10463,47.653396],[35.104622,47.653412],[35.104621,47.653412],[35.104613,47.65341],[35.104592,47.653448]]]}},{"type":"Feature","properties":{"cadnum":"2322184901:04:002:0510"},"geometry":{"type":"Polygon","coordinates":[[[35.102236,47.653169],[35.102596,47.653274],[35.102676,47.653153],[35.102398,47.652951],[35.102324,47.652947],[35.10224,47.653146],[35.102236,47.653169]]]}},{"type":"Feature","properties":{"cadnum":"2322184901:04:002:0501"},"geometry":{"type":"Polygon","coordinates":[[[35.102119,47.653816],[35.102189,47.653804],[35.102242,47.653632],[35.102181,47.653621],[35.102119,47.653816]]]}},{"type":"Feature","properties":{"cadnum":"2322184901:04:002:0498"},"geometry":{"type":"Polygon","coordinates":[[[35.101435,47.653331],[35.101439,47.653351],[35.101498,47.653407],[35.101684,47.653167],[35.101685,47.653167],[35.102095,47.653296],[35.102161,47.652934],[35.102158,47.652918],[35.102237,47.65284],[35.102237,47.652839],[35.10245,47.652727],[35.10243,47.652701],[35.102063,47.652812],[35.101906,47.652795],[35.101714,47.65297],[35.101617,47.653088],[35.101462,47.653274],[35.101444,47.653313],[35.101435,47.653331]]]}},{"type":"Feature","properties":{"cadnum":"2322184901:04:002:0064"},"geometry":{"type":"Polygon","coordinates":[[[35.101498,47.653407],[35.10198,47.653578],[35.102053,47.653475],[35.102071,47.653438],[35.102084,47.65336],[35.102095,47.653296],[35.101684,47.653167],[35.101498,47.653407]]]}},{"type":"Feature","properties":{"cadnum":"2322184901:04:002:0308"},"geometry":{"type":"Polygon","coordinates":[[[35.101442,47.652306],[35.101444,47.652311],[35.101734,47.65257],[35.101899,47.652699],[35.101997,47.652612],[35.102006,47.652589],[35.102002,47.652506],[35.101984,47.652452],[35.102002,47.652443],[35.101955,47.65225],[35.101973,47.652243],[35.101903,47.652119],[35.101442,47.652306]]]}},{"type":"Feature","properties":{"cadnum":"2322184901:04:002:0528"},"geometry":{"type":"Polygon","coordinates":[[[35.101006,47.652964],[35.101232,47.653147],[35.101233,47.653147],[35.101233,47.653148],[35.101328,47.653224],[35.101404,47.653159],[35.101553,47.653032],[35.101899,47.652699],[35.101734,47.65257],[35.101398,47.652753],[35.101006,47.652964]]]}},{"type":"Feature","properties":{"cadnum":"2322184901:04:002:0038"},"geometry":{"type":"Polygon","coordinates":[[[35.103683,47.654218],[35.104043,47.654306],[35.104207,47.653896],[35.103884,47.653826],[35.103683,47.654218]]]}},{"type":"Feature","properties":{"cadnum":"2322184901:04:002:0031"},"geometry":{"type":"Polygon","coordinates":[[[35.102258,47.653878],[35.102531,47.653945],[35.102572,47.653878],[35.102621,47.653793],[35.102574,47.653781],[35.102493,47.65376],[35.102535,47.6537],[35.102497,47.65369],[35.102419,47.653667],[35.102362,47.653652],[35.102344,47.653688],[35.102356,47.653709],[35.102356,47.65371],[35.102258,47.653878]]]}},{"type":"Feature","properties":{"cadnum":"2322184901:04:002:0527"},"geometry":{"type":"Polygon","coordinates":[[[35.102059,47.652358],[35.102083,47.65268],[35.102658,47.652429],[35.102871,47.65234],[35.102912,47.652325],[35.102855,47.652175],[35.1028,47.652202],[35.102757,47.652214],[35.10261,47.652245],[35.102059,47.652358]]]}},{"type":"Feature","properties":{"cadnum":"2322184901:04:002:0495"},"geometry":{"type":"Polygon","coordinates":[[[35.102179,47.653485],[35.102291,47.653514],[35.102326,47.653382],[35.102397,47.65334],[35.102596,47.653274],[35.102236,47.653169],[35.102179,47.653485]]]}},{"type":"Feature","properties":{"cadnum":"2322184901:04:002:0302"},"geometry":{"type":"Polygon","coordinates":[[[35.100427,47.651673],[35.100566,47.651829],[35.100994,47.651622],[35.100936,47.651564],[35.101045,47.651518],[35.1011,47.65157],[35.101232,47.65151],[35.101233,47.65151],[35.101233,47.651511],[35.101301,47.65148],[35.101404,47.651433],[35.101404,47.651432],[35.101439,47.651417],[35.101324,47.651285],[35.101039,47.651405],[35.100909,47.651464],[35.100427,47.651673]]]}},{"type":"Feature","properties":{"cadnum":"2322184901:04:002:0460"},"geometry":{"type":"Polygon","coordinates":[[[35.105126,47.654045],[35.10578,47.654186],[35.105956,47.653898],[35.105657,47.653811],[35.105348,47.653945],[35.105189,47.653911],[35.105126,47.654045]]]}},{"type":"Feature","properties":{"cadnum":"2322184901:04:002:0002"},"geometry":{"type":"Polygon","coordinates":[[[35.105124,47.654426],[35.105731,47.654519],[35.105921,47.654276],[35.105315,47.654143],[35.105242,47.654265],[35.105235,47.654275],[35.105234,47.654275],[35.105168,47.654366],[35.10515,47.654391],[35.105124,47.654426]]]}},{"type":"Feature","properties":{"cadnum":"2322184901:04:002:0007"},"geometry":{"type":"Polygon","coordinates":[[[35.105782,47.6545],[35.10593,47.654537],[35.106358,47.654642],[35.106417,47.654539],[35.106463,47.654457],[35.106417,47.654412],[35.106498,47.654301],[35.106388,47.654265],[35.106353,47.654254],[35.106264,47.654235],[35.106207,47.654233],[35.10603,47.654274],[35.106028,47.654275],[35.106027,47.654275],[35.105934,47.654331],[35.105879,47.654391],[35.10588,47.654391],[35.105833,47.654443],[35.105782,47.6545]]]}},{"type":"Feature","properties":{"cadnum":"2322184901:04:002:0502"},"geometry":{"type":"Polygon","coordinates":[[[35.105189,47.653911],[35.105348,47.653945],[35.105657,47.653811],[35.105627,47.653798],[35.105645,47.653771],[35.105571,47.653736],[35.105562,47.653717],[35.105548,47.653715],[35.105539,47.653711],[35.105464,47.653761],[35.105395,47.653782],[35.105356,47.653773],[35.105312,47.653809],[35.105249,47.653836],[35.105228,47.653831],[35.105189,47.653911]]]}},{"type":"Feature","properties":{"cadnum":"2322184901:04:002:0018"},"geometry":{"type":"Polygon","coordinates":[[[35.104801,47.653959],[35.104811,47.653975],[35.104969,47.654013],[35.105005,47.653934],[35.10501,47.653921],[35.105032,47.653877],[35.104913,47.653851],[35.104874,47.653842],[35.104801,47.653959]]]}},{"type":"Feature","properties":{"cadnum":"2322184901:04:002:0509"},"geometry":{"type":"Polygon","coordinates":[[[35.104996,47.653749],[35.105065,47.653765],[35.10506,47.653776],[35.105073,47.653829],[35.105132,47.653841],[35.105107,47.653893],[35.105087,47.653938],[35.105044,47.654027],[35.105126,47.654045],[35.105189,47.653911],[35.105228,47.653831],[35.105248,47.653737],[35.10528,47.653681],[35.105339,47.653611],[35.105153,47.653532],[35.105053,47.653662],[35.105035,47.653681],[35.105016,47.653709],[35.104996,47.653749]]]}},{"type":"Feature","properties":{"cadnum":"2322184901:04:001:0423"},"geometry":{"type":"Polygon","coordinates":[[[35.087764,47.656235],[35.088819,47.656441],[35.088909,47.656234],[35.087854,47.656027],[35.087764,47.656235]]]}},{"type":"Feature","properties":{"cadnum":"2322184901:04:001:0577"},"geometry":{"type":"Polygon","coordinates":[[[35.085956,47.657642],[35.087014,47.657843],[35.087107,47.657637],[35.08605,47.657436],[35.085956,47.657642]]]}},{"type":"Feature","properties":{"cadnum":"2322184901:04:001:0436"},"geometry":{"type":"Polygon","coordinates":[[[35.086209,47.657064],[35.087268,47.657261],[35.087357,47.657055],[35.086299,47.656857],[35.086209,47.657064]]]}},{"type":"Feature","properties":{"cadnum":"2322184901:04:001:0417"},"geometry":{"type":"Polygon","coordinates":[[[35.087178,47.657468],[35.088259,47.65768],[35.088353,47.657474],[35.087268,47.657261],[35.087178,47.657468]]]}},{"type":"Feature","properties":{"cadnum":"2322184901:04:002:0418"},"geometry":{"type":"Polygon","coordinates":[[[35.087392,47.657081],[35.088445,47.65728],[35.08852,47.657074],[35.087463,47.656866],[35.087392,47.657081]]]}},{"type":"Feature","properties":{"cadnum":"2322184901:04:001:0419"},"geometry":{"type":"Polygon","coordinates":[[[35.087463,47.656866],[35.08852,47.657074],[35.088598,47.656866],[35.087533,47.656656],[35.087463,47.656866]]]}},{"type":"Feature","properties":{"cadnum":"2322184901:04:001:0435"},"geometry":{"type":"Polygon","coordinates":[[[35.086299,47.656857],[35.087356,47.657054],[35.087445,47.656847],[35.086389,47.65665],[35.086299,47.656857]]]}},{"type":"Feature","properties":{"cadnum":"2322184901:04:001:0386"},"geometry":{"type":"Polygon","coordinates":[[[35.088866,47.657198],[35.089922,47.657401],[35.090012,47.657195],[35.088956,47.65699],[35.088866,47.657198]]]}},{"type":"Feature","properties":{"cadnum":"2322184901:04:001:0359"},"geometry":{"type":"Polygon","coordinates":[[[35.089946,47.657345],[35.090418,47.657437],[35.090418,47.657436],[35.091003,47.657549],[35.091092,47.657342],[35.090418,47.657212],[35.090036,47.657138],[35.089946,47.657345]]]}},{"type":"Feature","properties":{"cadnum":"2322184901:04:001:0385"},"geometry":{"type":"Polygon","coordinates":[[[35.088943,47.656988],[35.090012,47.657195],[35.090092,47.656986],[35.089026,47.65678],[35.088943,47.656988]]]}},{"type":"Feature","properties":{"cadnum":"2322184901:04:001:0572"},"geometry":{"type":"Polygon","coordinates":[[[35.088776,47.657405],[35.089832,47.657608],[35.089922,47.657401],[35.088866,47.657198],[35.088776,47.657405]]]}},{"type":"Feature","properties":{"cadnum":"2322184901:04:001:0517"},"geometry":{"type":"Polygon","coordinates":[[[35.089994,47.657121],[35.090246,47.657172],[35.090246,47.657173],[35.090402,47.657204],[35.090418,47.657207],[35.091047,47.657333],[35.091138,47.657126],[35.090418,47.656982],[35.090418,47.656981],[35.090085,47.656915],[35.089994,47.657121]]]}},{"type":"Feature","properties":{"cadnum":"2322184901:04:002:0447"},"geometry":{"type":"Polygon","coordinates":[[[35.084726,47.65741],[35.084753,47.657414],[35.084753,47.657415],[35.085748,47.657595],[35.08583,47.657389],[35.084816,47.657202],[35.084726,47.65741]]]}},{"type":"Feature","properties":{"cadnum":"2322184901:04:001:0446"},"geometry":{"type":"Polygon","coordinates":[[[35.084701,47.657644],[35.084753,47.657655],[35.085846,47.657866],[35.085935,47.657658],[35.084789,47.657437],[35.084701,47.657644]]]}},{"type":"Feature","properties":{"cadnum":"2322184901:04:001:0448"},"geometry":{"type":"Polygon","coordinates":[[[35.085016,47.657135],[35.086071,47.657338],[35.08616,47.65713],[35.085104,47.656927],[35.085016,47.657135]]]}},{"type":"Feature","properties":{"cadnum":"2322184901:04:001:0432"},"geometry":{"type":"Polygon","coordinates":[[[35.086522,47.656226],[35.087626,47.656433],[35.087716,47.656225],[35.086608,47.656018],[35.086522,47.656226]]]}},{"type":"Feature","properties":{"cadnum":"2322184901:04:001:0430"},"geometry":{"type":"Polygon","coordinates":[[[35.086694,47.655811],[35.087805,47.656018],[35.087411,47.655562],[35.086712,47.655768],[35.086694,47.655811]]]}},{"type":"Feature","properties":{"cadnum":"2322184901:04:001:0431"},"geometry":{"type":"Polygon","coordinates":[[[35.086608,47.656018],[35.087671,47.656217],[35.087756,47.656009],[35.086694,47.655811],[35.086608,47.656018]]]}},{"type":"Feature","properties":{"cadnum":"2322184901:04:001:0424"},"geometry":{"type":"Polygon","coordinates":[[[35.08787,47.656023],[35.088906,47.656229],[35.088992,47.656018],[35.087957,47.655811],[35.08787,47.656023]]]}},{"type":"Feature","properties":{"cadnum":"2322184901:04:001:0428"},"geometry":{"type":"Polygon","coordinates":[[[35.088076,47.655392],[35.088083,47.655399],[35.089163,47.655609],[35.088755,47.655168],[35.088685,47.655188],[35.08809,47.655364],[35.088076,47.655392]]]}},{"type":"Feature","properties":{"cadnum":"2322184901:04:001:0433"},"geometry":{"type":"Polygon","coordinates":[[[35.086437,47.656435],[35.087537,47.65664],[35.087626,47.656442],[35.086519,47.656234],[35.086437,47.656435]]]}},{"type":"Feature","properties":{"cadnum":"2322184901:04:001:0420"},"geometry":{"type":"Polygon","coordinates":[[[35.087705,47.65669],[35.088759,47.656896],[35.08885,47.656689],[35.087795,47.656483],[35.087705,47.65669]]]}},{"type":"Feature","properties":{"cadnum":"2322184901:04:001:0434"},"geometry":{"type":"Polygon","coordinates":[[[35.08635,47.656643],[35.087447,47.656847],[35.087537,47.65664],[35.086437,47.656435],[35.08635,47.656643]]]}},{"type":"Feature","properties":{"cadnum":"2322184901:04:001:0427"},"geometry":{"type":"Polygon","coordinates":[[[35.088755,47.655168],[35.089163,47.655609],[35.089181,47.655614],[35.089466,47.65496],[35.088755,47.655168]]]}},{"type":"Feature","properties":{"cadnum":"2322184901:04:001:0380"},"geometry":{"type":"Polygon","coordinates":[[[35.089387,47.655873],[35.090246,47.656046],[35.090297,47.656057],[35.090418,47.656081],[35.090418,47.65608],[35.090439,47.656084],[35.090531,47.655878],[35.090418,47.655855],[35.089478,47.655666],[35.089387,47.655873]]]}},{"type":"Feature","properties":{"cadnum":"2322184901:04:001:0379"},"geometry":{"type":"Polygon","coordinates":[[[35.089478,47.655666],[35.090246,47.65582],[35.090246,47.655821],[35.090531,47.655878],[35.090622,47.655671],[35.090382,47.655623],[35.089569,47.655459],[35.089478,47.655666]]]}},{"type":"Feature","properties":{"cadnum":"2322184901:04:002:0362"},"geometry":{"type":"Polygon","coordinates":[[[35.090316,47.656511],[35.090418,47.656532],[35.090418,47.656531],[35.091369,47.656723],[35.091455,47.656515],[35.090402,47.656303],[35.090316,47.656511]]]}},{"type":"Feature","properties":{"cadnum":"2322184901:04:001:0382"},"geometry":{"type":"Polygon","coordinates":[[[35.089226,47.656369],[35.090246,47.656566],[35.090246,47.656567],[35.090281,47.656573],[35.090372,47.656365],[35.089315,47.656162],[35.089226,47.656369]]]}},{"type":"Feature","properties":{"cadnum":"2322184901:04:001:0384"},"geometry":{"type":"Polygon","coordinates":[[[35.088929,47.656708],[35.08999,47.656927],[35.090081,47.656721],[35.089014,47.656504],[35.088929,47.656708]]]}},{"type":"Feature","properties":{"cadnum":"2322184901:04:001:0449"},"geometry":{"type":"Polygon","coordinates":[[[35.084973,47.65684],[35.085981,47.657019],[35.086065,47.656809],[35.085061,47.656634],[35.084973,47.65684]]]}},{"type":"Feature","properties":{"cadnum":"2322184901:04:001:0450"},"geometry":{"type":"Polygon","coordinates":[[[35.085061,47.656634],[35.086125,47.65682],[35.086213,47.656612],[35.08515,47.656426],[35.085061,47.656634]]]}},{"type":"Feature","properties":{"cadnum":"2322184901:04:001:0454"},"geometry":{"type":"Polygon","coordinates":[[[35.084124,47.656634],[35.08441,47.657039],[35.084753,47.65693],[35.084891,47.656886],[35.084606,47.65648],[35.084124,47.656634]]]}},{"type":"Feature","properties":{"cadnum":"2322184901:04:002:0054"},"geometry":{"type":"Polygon","coordinates":[[[35.101585,47.654915],[35.101852,47.654976],[35.101981,47.655004],[35.102123,47.654563],[35.101772,47.654484],[35.101585,47.654915]]]}},{"type":"Feature","properties":{"cadnum":"2322184901:04:002:0470"},"geometry":{"type":"Polygon","coordinates":[[[35.104785,47.654927],[35.105216,47.655008],[35.105252,47.654913],[35.105248,47.654909],[35.105254,47.654878],[35.105255,47.654878],[35.10536,47.654639],[35.105352,47.654603],[35.10537,47.654566],[35.105102,47.654519],[35.105023,47.654681],[35.105022,47.654681],[35.10501,47.654689],[35.104945,47.654793],[35.104945,47.654794],[35.104862,47.654774],[35.104785,47.654927]]]}},{"type":"Feature","properties":{"cadnum":"2322184901:04:002:0019"},"geometry":{"type":"Polygon","coordinates":[[[35.105343,47.655028],[35.105792,47.655102],[35.105869,47.654936],[35.105739,47.654905],[35.105818,47.654743],[35.10545,47.654655],[35.105436,47.654688],[35.105406,47.654803],[35.105421,47.654834],[35.105343,47.655028]]]}},{"type":"Feature","properties":{"cadnum":"2322184901:04:002:0058"},"geometry":{"type":"Polygon","coordinates":[[[35.100719,47.654933],[35.101124,47.655016],[35.101232,47.655037],[35.101233,47.655037],[35.101308,47.655051],[35.101377,47.654906],[35.101393,47.65487],[35.101399,47.654862],[35.100787,47.654739],[35.100719,47.654933]]]}},{"type":"Feature","properties":{"cadnum":"2322184901:04:002:0004"},"geometry":{"type":"Polygon","coordinates":[[[35.10596,47.655856],[35.106208,47.655915],[35.106499,47.655338],[35.106259,47.655281],[35.10596,47.655856]]]}},{"type":"Feature","properties":{"cadnum":"2322184901:04:002:0253"},"geometry":{"type":"Polygon","coordinates":[[[35.096882,47.658796],[35.097103,47.658836],[35.097241,47.658863],[35.097253,47.658833],[35.097275,47.658795],[35.097272,47.658794],[35.097283,47.658767],[35.097307,47.658721],[35.097134,47.658691],[35.097013,47.658669],[35.096934,47.658654],[35.096929,47.658671],[35.096925,47.65868],[35.096882,47.658796]]]}},{"type":"Feature","properties":{"cadnum":"2322184901:04:002:0249"},"geometry":{"type":"Polygon","coordinates":[[[35.096623,47.659315],[35.097071,47.659391],[35.097121,47.659267],[35.09713,47.659246],[35.097052,47.659233],[35.097044,47.659254],[35.096787,47.65921],[35.096669,47.65919],[35.096623,47.659315]]]}},{"type":"Feature","properties":{"cadnum":"2322184901:04:002:0245"},"geometry":{"type":"Polygon","coordinates":[[[35.096417,47.659933],[35.096911,47.659844],[35.096966,47.65968],[35.096854,47.659664],[35.096812,47.659737],[35.096784,47.659774],[35.096667,47.65976],[35.096551,47.65974],[35.096493,47.659728],[35.096417,47.659933]]]}},{"type":"Feature","properties":{"cadnum":"2322184901:04:002:0248"},"geometry":{"type":"Polygon","coordinates":[[[35.096571,47.659457],[35.096635,47.659465],[35.096886,47.659507],[35.096875,47.659524],[35.096917,47.659558],[35.097005,47.659568],[35.097044,47.659568],[35.097067,47.659514],[35.097024,47.659508],[35.097071,47.659391],[35.096623,47.659315],[35.096571,47.659457]]]}},{"type":"Feature","properties":{"cadnum":"2322184901:04:002:0246"},"geometry":{"type":"Polygon","coordinates":[[[35.096478,47.659722],[35.096536,47.65973],[35.096751,47.659761],[35.096768,47.65976],[35.096812,47.659653],[35.096812,47.659652],[35.096834,47.659648],[35.096941,47.659663],[35.096954,47.659621],[35.096827,47.659603],[35.096811,47.659629],[35.096626,47.659601],[35.096529,47.659587],[35.096478,47.659722]]]}},{"type":"Feature","properties":{"cadnum":"2322184901:04:002:0500"},"geometry":{"type":"Polygon","coordinates":[[[35.100393,47.658145],[35.100676,47.658195],[35.100743,47.658018],[35.100746,47.658009],[35.100746,47.658008],[35.10083,47.657796],[35.100591,47.657755],[35.100549,47.657747],[35.100459,47.657975],[35.100457,47.657979],[35.100413,47.658091],[35.100414,47.658091],[35.100393,47.658145]]]}},{"type":"Feature","properties":{"cadnum":"2322184901:04:002:0243"},"geometry":{"type":"Polygon","coordinates":[[[35.095938,47.660024],[35.096183,47.659972],[35.096266,47.659742],[35.096291,47.659677],[35.096085,47.659642],[35.096059,47.659704],[35.096058,47.659704],[35.096014,47.659696],[35.095969,47.659863],[35.095938,47.660024]]]}},{"type":"Feature","properties":{"cadnum":"2322184901:04:002:0506"},"geometry":{"type":"Polygon","coordinates":[[[35.097656,47.658258],[35.097954,47.658317],[35.098124,47.658348],[35.098177,47.658231],[35.098212,47.658159],[35.098212,47.658158],[35.098239,47.658159],[35.098266,47.658165],[35.098344,47.657994],[35.098291,47.657976],[35.098267,47.657968],[35.098105,47.657941],[35.097963,47.657914],[35.097917,47.657872],[35.097821,47.657851],[35.097751,47.657839],[35.09773,47.657896],[35.097803,47.657909],[35.097793,47.657944],[35.097838,47.657951],[35.097832,47.657973],[35.097831,47.657973],[35.097785,47.657967],[35.097782,47.657975],[35.097778,47.65799],[35.097823,47.657997],[35.097817,47.658019],[35.097771,47.658013],[35.097752,47.65801],[35.09772,47.658091],[35.097721,47.658091],[35.097656,47.658258]]]}},{"type":"Feature","properties":{"cadnum":"2322184901:04:002:0476"},"geometry":{"type":"Polygon","coordinates":[[[35.097051,47.658115],[35.097056,47.658115],[35.097284,47.658156],[35.097339,47.658013],[35.097404,47.658025],[35.097448,47.657906],[35.097385,47.657896],[35.097154,47.657849],[35.097105,47.657975],[35.097051,47.658115]]]}},{"type":"Feature","properties":{"cadnum":"2322184901:04:002:0265"},"geometry":{"type":"Polygon","coordinates":[[[35.098418,47.658196],[35.099095,47.658317],[35.099152,47.658133],[35.098496,47.65802],[35.098493,47.658019],[35.098462,47.658091],[35.098418,47.658196]]]}},{"type":"Feature","properties":{"cadnum":"2322184901:04:002:0076"},"geometry":{"type":"Polygon","coordinates":[[[35.100296,47.654217],[35.100534,47.654275],[35.100653,47.654304],[35.100812,47.654333],[35.100892,47.654347],[35.100939,47.65424],[35.100966,47.654152],[35.101022,47.654101],[35.101064,47.653993],[35.100543,47.653676],[35.100296,47.654217]]]}},{"type":"Feature","properties":{"cadnum":"2322184901:04:002:0519"},"geometry":{"type":"Polygon","coordinates":[[[35.099836,47.653391],[35.100392,47.6535],[35.100498,47.653286],[35.100343,47.653079],[35.100113,47.652813],[35.100094,47.652828],[35.099996,47.653055],[35.099836,47.653391]]]}},{"type":"Feature","properties":{"cadnum":"2322184901:04:002:0093"},"geometry":{"type":"Polygon","coordinates":[[[35.098853,47.654293],[35.098866,47.654296],[35.099346,47.654391],[35.099364,47.654394],[35.099406,47.654312],[35.099431,47.654262],[35.099535,47.654063],[35.098986,47.653959],[35.098861,47.654275],[35.09886,47.654275],[35.098853,47.654293]]]}},{"type":"Feature","properties":{"cadnum":"2322184901:04:002:0280"},"geometry":{"type":"Polygon","coordinates":[[[35.100314,47.652331],[35.100625,47.652637],[35.101169,47.652419],[35.101029,47.65226],[35.10086,47.652086],[35.100314,47.652331]]]}},{"type":"Feature","properties":{"cadnum":"2322184901:04:002:0083"},"geometry":{"type":"Polygon","coordinates":[[[35.099535,47.654063],[35.099771,47.654109],[35.100072,47.654167],[35.100235,47.653831],[35.099953,47.653781],[35.099684,47.653729],[35.099535,47.654063]]]}},{"type":"Feature","properties":{"cadnum":"2322184901:04:002:0490"},"geometry":{"type":"Polygon","coordinates":[[[35.09968,47.650826],[35.099814,47.650922],[35.099831,47.650935],[35.099969,47.650837],[35.099952,47.650825],[35.099816,47.650727],[35.09968,47.650826]]]}},{"type":"Feature","properties":{"cadnum":"2322184901:04:002:0530"},"geometry":{"type":"Polygon","coordinates":[[[35.099434,47.651527],[35.099625,47.651722],[35.099929,47.651581],[35.099972,47.651552],[35.099984,47.651522],[35.099902,47.651463],[35.09993,47.651399],[35.100027,47.65136],[35.100221,47.651214],[35.099972,47.65107],[35.099474,47.651413],[35.099504,47.651435],[35.09952,47.651485],[35.099434,47.651527]]]}},{"type":"Feature","properties":{"cadnum":"2322184901:04:002:0531"},"geometry":{"type":"Polygon","coordinates":[[[35.099289,47.650869],[35.099382,47.650927],[35.099464,47.650979],[35.09968,47.650826],[35.099816,47.650727],[35.099887,47.650677],[35.100252,47.65042],[35.100264,47.650412],[35.100082,47.650301],[35.0997,47.650575],[35.099289,47.650869]]]}},{"type":"Feature","properties":{"cadnum":"2322184901:04:002:0491"},"geometry":{"type":"Polygon","coordinates":[[[35.099132,47.651086],[35.099144,47.651097],[35.099148,47.651096],[35.099185,47.651123],[35.099179,47.651128],[35.099262,47.651206],[35.099269,47.651212],[35.099293,47.651235],[35.099323,47.651261],[35.099339,47.651276],[35.099511,47.651162],[35.099524,47.651153],[35.099543,47.651135],[35.099599,47.651099],[35.099831,47.650935],[35.099814,47.650922],[35.09968,47.650826],[35.099464,47.650979],[35.099382,47.650927],[35.099132,47.651086]]]}},{"type":"Feature","properties":{"cadnum":"2322184901:04:002:0296"},"geometry":{"type":"Polygon","coordinates":[[[35.099816,47.650727],[35.099952,47.650825],[35.099969,47.650837],[35.100166,47.65069],[35.100241,47.650637],[35.10042,47.650509],[35.100382,47.650486],[35.100359,47.65048],[35.100317,47.650451],[35.100304,47.650437],[35.100264,47.650412],[35.100252,47.65042],[35.100033,47.650575],[35.100032,47.650575],[35.099887,47.650677],[35.099869,47.65069],[35.099816,47.650727]]]}},{"type":"Feature","properties":{"cadnum":"2322184901:04:002:0283"},"geometry":{"type":"Polygon","coordinates":[[[35.099575,47.651745],[35.099604,47.651781],[35.099595,47.651784],[35.099678,47.651872],[35.100247,47.65165],[35.100217,47.651609],[35.100161,47.651539],[35.10022,47.651502],[35.100027,47.65136],[35.10002,47.651391],[35.100082,47.651469],[35.100034,47.651511],[35.099984,47.651522],[35.099972,47.651552],[35.099929,47.651581],[35.099575,47.651745]]]}},{"type":"Feature","properties":{"cadnum":"2322184901:04:002:0281"},"geometry":{"type":"Polygon","coordinates":[[[35.100022,47.65205],[35.100188,47.652236],[35.100235,47.652217],[35.100339,47.652319],[35.10086,47.652086],[35.100594,47.651818],[35.100022,47.65205]]]}},{"type":"Feature","properties":{"cadnum":"2322184901:04:002:0049"},"geometry":{"type":"Polygon","coordinates":[[[35.098646,47.650581],[35.098646,47.650582],[35.098753,47.65069],[35.098805,47.650743],[35.098968,47.650622],[35.099055,47.650558],[35.099394,47.650312],[35.0997,47.650082],[35.099486,47.649965],[35.09878,47.650487],[35.098655,47.650575],[35.098654,47.650575],[35.098646,47.650581]]]}},{"type":"Feature","properties":{"cadnum":"2322184901:04:002:0133"},"geometry":{"type":"Polygon","coordinates":[[[35.097882,47.653201],[35.098333,47.65328],[35.09838,47.653136],[35.098368,47.653134],[35.098424,47.652965],[35.098018,47.652886],[35.097882,47.653201]]]}},{"type":"Feature","properties":{"cadnum":"2322184901:04:001:0155"},"geometry":{"type":"Polygon","coordinates":[[[35.098017,47.652886],[35.098424,47.652965],[35.098483,47.652808],[35.098601,47.652494],[35.098667,47.65232],[35.0982,47.652467],[35.098017,47.652886]]]}},{"type":"Feature","properties":{"cadnum":"2322184901:04:002:0130"},"geometry":{"type":"Polygon","coordinates":[[[35.097524,47.654015],[35.098004,47.654106],[35.098125,47.65382],[35.097648,47.653732],[35.097524,47.654015]]]}},{"type":"Feature","properties":{"cadnum":"2322184901:04:002:0504"},"geometry":{"type":"Polygon","coordinates":[[[35.097848,47.654504],[35.098459,47.654586],[35.098478,47.654588],[35.098585,47.654318],[35.098566,47.654316],[35.097956,47.654224],[35.097935,47.654275],[35.097914,47.654326],[35.097886,47.654391],[35.097887,47.654391],[35.097874,47.65442],[35.097848,47.654504]]]}},{"type":"Feature","properties":{"cadnum":"2322184901:04:002:0135"},"geometry":{"type":"Polygon","coordinates":[[[35.09739,47.653078],[35.097728,47.653148],[35.097943,47.652572],[35.097534,47.652693],[35.09739,47.653078]]]}},{"type":"Feature","properties":{"cadnum":"2322184901:04:001:0202"},"geometry":{"type":"Polygon","coordinates":[[[35.096523,47.653571],[35.096948,47.653665],[35.09708,47.653362],[35.096655,47.65327],[35.096523,47.653571]]]}},{"type":"Feature","properties":{"cadnum":"2322184901:04:002:0162"},"geometry":{"type":"Polygon","coordinates":[[[35.09569,47.654055],[35.095739,47.654066],[35.095896,47.654098],[35.095911,47.654101],[35.096065,47.654131],[35.09617,47.653902],[35.096197,47.653834],[35.095818,47.653754],[35.095699,47.654034],[35.095691,47.654053],[35.09569,47.654055]]]}},{"type":"Feature","properties":{"cadnum":"2322184901:04:002:0156"},"geometry":{"type":"Polygon","coordinates":[[[35.096386,47.653874],[35.096846,47.653974],[35.096871,47.653906],[35.09696,47.653667],[35.096948,47.653665],[35.096523,47.653571],[35.096458,47.653714],[35.096442,47.653748],[35.096386,47.653874]]]}},{"type":"Feature","properties":{"cadnum":"2322184901:04:002:0521"},"geometry":{"type":"Polygon","coordinates":[[[35.095375,47.653655],[35.095739,47.653736],[35.095739,47.653737],[35.095818,47.653754],[35.095911,47.653524],[35.095942,47.653447],[35.09591,47.653441],[35.095502,47.653355],[35.09544,47.653513],[35.095375,47.653655]]]}},{"type":"Feature","properties":{"cadnum":"2322184901:04:002:0176"},"geometry":{"type":"Polygon","coordinates":[[[35.095502,47.653355],[35.095739,47.653405],[35.095739,47.653406],[35.09591,47.653441],[35.095911,47.653441],[35.095942,47.653447],[35.095983,47.653349],[35.096084,47.6531],[35.096081,47.653083],[35.095739,47.653177],[35.095558,47.653227],[35.095502,47.653355]]]}},{"type":"Feature","properties":{"cadnum":"2322184901:04:002:0163"},"geometry":{"type":"Polygon","coordinates":[[[35.095545,47.65436],[35.095547,47.65436],[35.095739,47.654402],[35.095796,47.654414],[35.095911,47.654439],[35.095922,47.654441],[35.095983,47.654308],[35.096065,47.654131],[35.095896,47.654098],[35.09569,47.654055],[35.095686,47.654055],[35.095584,47.654275],[35.095545,47.65436]]]}},{"type":"Feature","properties":{"cadnum":"2322184901:04:002:0227"},"geometry":{"type":"Polygon","coordinates":[[[35.093946,47.659381],[35.094312,47.65946],[35.094475,47.659119],[35.094103,47.659038],[35.093946,47.659381]]]}},{"type":"Feature","properties":{"cadnum":"2322184901:04:001:0574"},"geometry":{"type":"Polygon","coordinates":[[[35.091001,47.660847],[35.091436,47.660779],[35.091658,47.660231],[35.091286,47.660155],[35.091001,47.660847]]]}},{"type":"Feature","properties":{"cadnum":"2322184901:04:002:0461"},"geometry":{"type":"Polygon","coordinates":[[[35.094738,47.660245],[35.095277,47.660124],[35.095384,47.65985],[35.094951,47.659769],[35.094738,47.660245]]]}},{"type":"Feature","properties":{"cadnum":"2322184901:04:002:0229"},"geometry":{"type":"Polygon","coordinates":[[[35.093631,47.660069],[35.094033,47.660138],[35.094103,47.659968],[35.094158,47.659813],[35.093785,47.659729],[35.093631,47.660069]]]}},{"type":"Feature","properties":{"cadnum":"2322184901:04:002:0231"},"geometry":{"type":"Polygon","coordinates":[[[35.094011,47.660216],[35.094335,47.660259],[35.094322,47.660317],[35.094331,47.660335],[35.09454,47.660299],[35.094692,47.659923],[35.094158,47.659813],[35.094103,47.659968],[35.094021,47.660166],[35.094021,47.66017],[35.094011,47.660216]]]}},{"type":"Feature","properties":{"cadnum":"2322184901:04:001:0573"},"geometry":{"type":"Polygon","coordinates":[[[35.091436,47.660779],[35.091547,47.660762],[35.092195,47.660658],[35.092316,47.660362],[35.092294,47.660357],[35.092243,47.660347],[35.091689,47.660238],[35.091658,47.660231],[35.091436,47.660779]]]}},{"type":"Feature","properties":{"cadnum":"2322184901:04:001:0507"},"geometry":{"type":"Polygon","coordinates":[[[35.091286,47.660155],[35.091689,47.660238],[35.092243,47.660347],[35.092294,47.660357],[35.092316,47.660362],[35.092411,47.660128],[35.092407,47.660127],[35.092356,47.660116],[35.091379,47.659914],[35.091286,47.660155]]]}},{"type":"Feature","properties":{"cadnum":"2322184901:04:001:0201"},"geometry":{"type":"Polygon","coordinates":[[[35.091438,47.659925],[35.092019,47.660046],[35.092412,47.660128],[35.092509,47.659895],[35.092385,47.65987],[35.092071,47.65981],[35.09153,47.659707],[35.091438,47.659925]]]}},{"type":"Feature","properties":{"cadnum":"2322184901:04:002:0200"},"geometry":{"type":"Polygon","coordinates":[[[35.091485,47.659697],[35.092509,47.659894],[35.092598,47.659657],[35.09157,47.659472],[35.091485,47.659697]]]}},{"type":"Feature","properties":{"cadnum":"2322184901:04:002:0232"},"geometry":{"type":"Polygon","coordinates":[[[35.094158,47.659813],[35.094692,47.659923],[35.094841,47.659576],[35.094296,47.659479],[35.094158,47.659813]]]}},{"type":"Feature","properties":{"cadnum":"2322184901:04:002:0208"},"geometry":{"type":"Polygon","coordinates":[[[35.092843,47.659543],[35.093227,47.659618],[35.093376,47.659281],[35.092989,47.659197],[35.092843,47.659543]]]}},{"type":"Feature","properties":{"cadnum":"2322184901:04:001:0197"},"geometry":{"type":"Polygon","coordinates":[[[35.091747,47.65899],[35.092289,47.659094],[35.092806,47.659198],[35.09291,47.658961],[35.092349,47.65886],[35.091842,47.658763],[35.091747,47.65899]]]}},{"type":"Feature","properties":{"cadnum":"2322184901:04:001:0320"},"geometry":{"type":"Polygon","coordinates":[[[35.090734,47.658682],[35.091788,47.658891],[35.091842,47.658763],[35.091876,47.658683],[35.090822,47.658475],[35.090734,47.658682]]]}},{"type":"Feature","properties":{"cadnum":"2322184901:04:001:0321"},"geometry":{"type":"Polygon","coordinates":[[[35.090839,47.658461],[35.091902,47.658647],[35.091994,47.65844],[35.09093,47.658254],[35.090839,47.658461]]]}},{"type":"Feature","properties":{"cadnum":"2322184901:04:002:0212"},"geometry":{"type":"Polygon","coordinates":[[[35.093429,47.658179],[35.093822,47.658271],[35.093898,47.658091],[35.093974,47.657912],[35.093582,47.657826],[35.093517,47.657975],[35.093516,47.657975],[35.093479,47.658062],[35.093466,47.658091],[35.093429,47.658179]]]}},{"type":"Feature","properties":{"cadnum":"2322184901:04:002:0216"},"geometry":{"type":"Polygon","coordinates":[[[35.092931,47.660271],[35.092932,47.660323],[35.093052,47.660499],[35.093278,47.660464],[35.093433,47.660087],[35.09306,47.660016],[35.092936,47.660265],[35.092931,47.660271]]]}},{"type":"Feature","properties":{"cadnum":"2322184901:04:002:0204"},"geometry":{"type":"Polygon","coordinates":[[[35.092452,47.660449],[35.09249,47.660454],[35.092542,47.660459],[35.093054,47.660516],[35.092928,47.66034],[35.092928,47.660288],[35.092627,47.660231],[35.092576,47.660221],[35.092558,47.660217],[35.092452,47.660449]]]}},{"type":"Feature","properties":{"cadnum":"2322184901:04:002:0499"},"geometry":{"type":"Polygon","coordinates":[[[35.092368,47.660636],[35.093054,47.660516],[35.092452,47.660449],[35.092368,47.660636]]]}},{"type":"Feature","properties":{"cadnum":"2322184901:04:002:0275"},"geometry":{"type":"Polygon","coordinates":[[[35.094255,47.658709],[35.094637,47.658777],[35.094787,47.658458],[35.094404,47.658375],[35.094255,47.658709]]]}},{"type":"Feature","properties":{"cadnum":"2322184901:04:001:0198"},"geometry":{"type":"Polygon","coordinates":[[[35.091652,47.659216],[35.092307,47.659353],[35.092707,47.659428],[35.092806,47.659198],[35.092289,47.659094],[35.091747,47.65899],[35.091652,47.659216]]]}},{"type":"Feature","properties":{"cadnum":"2322184901:04:002:0209"},"geometry":{"type":"Polygon","coordinates":[[[35.092942,47.659186],[35.093327,47.65927],[35.093481,47.658933],[35.093079,47.658858],[35.092942,47.659186]]]}},{"type":"Feature","properties":{"cadnum":"2322184901:04:002:0228"},"geometry":{"type":"Polygon","coordinates":[[[35.093785,47.659729],[35.094158,47.659813],[35.094296,47.659479],[35.093936,47.659394],[35.093785,47.659729]]]}},{"type":"Feature","properties":{"cadnum":"2322184901:04:001:0479"},"geometry":{"type":"Polygon","coordinates":[[[35.092706,47.659873],[35.093085,47.659954],[35.093227,47.659618],[35.092843,47.659543],[35.092706,47.659873]]]}},{"type":"Feature","properties":{"cadnum":"2322184901:04:002:0012"},"geometry":{"type":"Polygon","coordinates":[[[35.093687,47.65862],[35.094059,47.658685],[35.094192,47.658336],[35.093822,47.658271],[35.093687,47.65862]]]}},{"type":"Feature","properties":{"cadnum":"2322184901:04:002:0099"},"geometry":{"type":"Polygon","coordinates":[[[35.099017,47.655136],[35.099567,47.655254],[35.099728,47.654903],[35.099182,47.6548],[35.099018,47.655131],[35.099017,47.655136]]]}},{"type":"Feature","properties":{"cadnum":"2322184901:04:002:0068"},"geometry":{"type":"Polygon","coordinates":[[[35.099222,47.656447],[35.099694,47.656541],[35.099814,47.656565],[35.099792,47.656611],[35.099858,47.656624],[35.099906,47.65651],[35.099952,47.656412],[35.099304,47.656279],[35.099222,47.656447]]]}},{"type":"Feature","properties":{"cadnum":"2322184901:04:002:0273"},"geometry":{"type":"Polygon","coordinates":[[[35.099304,47.656279],[35.099952,47.656412],[35.100105,47.656448],[35.100219,47.65617],[35.099429,47.656018],[35.099304,47.656279]]]}},{"type":"Feature","properties":{"cadnum":"2322184901:04:002:0270"},"geometry":{"type":"Polygon","coordinates":[[[35.098746,47.657479],[35.099411,47.657622],[35.099438,47.65761],[35.099445,47.657611],[35.099555,47.65739],[35.099549,47.657389],[35.099527,47.657365],[35.09887,47.657233],[35.098746,47.657479]]]}},{"type":"Feature","properties":{"cadnum":"2322184901:04:002:0274"},"geometry":{"type":"Polygon","coordinates":[[[35.097595,47.657186],[35.097778,47.657213],[35.098051,47.656582],[35.097915,47.656556],[35.097848,47.656562],[35.097811,47.656578],[35.097743,47.656727],[35.097782,47.656731],[35.097595,47.657186]]]}},{"type":"Feature","properties":{"cadnum":"2322184901:04:002:0512"},"geometry":{"type":"Polygon","coordinates":[[[35.097262,47.657823],[35.097308,47.657832],[35.09762,47.657891],[35.097671,47.65777],[35.097783,47.657792],[35.097763,47.65784],[35.097821,47.657851],[35.097895,47.657865],[35.097941,47.657755],[35.097899,47.657747],[35.097899,47.657746],[35.097912,47.65772],[35.097967,47.657736],[35.097992,47.657694],[35.097936,47.657678],[35.097928,47.657691],[35.097877,47.657677],[35.097663,47.657635],[35.09761,47.657625],[35.097495,47.657602],[35.097432,47.657589],[35.097363,47.657576],[35.097274,47.657792],[35.097262,47.657823]]]}},{"type":"Feature","properties":{"cadnum":"2322184901:04:002:0267"},"geometry":{"type":"Polygon","coordinates":[[[35.098573,47.657839],[35.099241,47.657964],[35.099336,47.65779],[35.099253,47.657775],[35.09925,47.657782],[35.098651,47.657666],[35.098573,47.657839]]]}},{"type":"Feature","properties":{"cadnum":"2322184901:04:002:0479"},"geometry":{"type":"Polygon","coordinates":[[[35.098237,47.656986],[35.098289,47.656996],[35.098274,47.657033],[35.098518,47.657073],[35.098603,47.656903],[35.098624,47.656825],[35.098671,47.656693],[35.098387,47.656641],[35.098237,47.656986]]]}},{"type":"Feature","properties":{"cadnum":"2322184901:04:002:0481"},"geometry":{"type":"Polygon","coordinates":[[[35.097909,47.657232],[35.097964,47.657242],[35.09796,47.657373],[35.097992,47.657379],[35.09797,47.657429],[35.098071,47.657448],[35.098061,47.657473],[35.098104,47.657481],[35.098108,47.657472],[35.098258,47.6575],[35.098259,47.657497],[35.098497,47.65755],[35.098589,47.657363],[35.098678,47.657179],[35.098581,47.65716],[35.098593,47.657132],[35.098556,47.657124],[35.098546,47.657148],[35.098525,47.657143],[35.098522,47.657147],[35.098463,47.657136],[35.098462,47.657139],[35.098253,47.657092],[35.0982,47.657082],[35.098219,47.657034],[35.098164,47.657024],[35.098161,47.657033],[35.098139,47.657028],[35.098116,47.657045],[35.098097,47.657051],[35.098062,47.657059],[35.098049,47.657058],[35.098038,47.657056],[35.098023,47.657096],[35.098004,47.657095],[35.097988,47.657098],[35.097975,47.657104],[35.097964,47.657111],[35.097915,47.657221],[35.097909,47.657232]]]}},{"type":"Feature","properties":{"cadnum":"2322184901:04:002:0102"},"geometry":{"type":"Polygon","coordinates":[[[35.098192,47.65579],[35.098686,47.65587],[35.0988,47.65561],[35.098305,47.65551],[35.098192,47.65579]]]}},{"type":"Feature","properties":{"cadnum":"2322184901:04:002:0141"},"geometry":{"type":"Polygon","coordinates":[[[35.097117,47.655959],[35.09768,47.656097],[35.097689,47.656081],[35.097699,47.656064],[35.097705,47.656053],[35.097715,47.656036],[35.09775,47.655975],[35.097149,47.655835],[35.097117,47.655959]]]}},{"type":"Feature","properties":{"cadnum":"2322184901:04:002:0119"},"geometry":{"type":"Polygon","coordinates":[[[35.097168,47.65584],[35.097606,47.655942],[35.097754,47.655974],[35.097778,47.655929],[35.097884,47.655952],[35.0979,47.655923],[35.097671,47.65586],[35.097671,47.655859],[35.097763,47.65566],[35.097394,47.655579],[35.097329,47.655738],[35.097308,47.65578],[35.097196,47.655771],[35.097182,47.655802],[35.097168,47.65584]]]}},{"type":"Feature","properties":{"cadnum":"2322184901:04:002:0121"},"geometry":{"type":"Polygon","coordinates":[[[35.096913,47.656372],[35.097385,47.656467],[35.097499,47.656488],[35.097559,47.656367],[35.097617,47.656251],[35.097693,47.65611],[35.097685,47.656108],[35.097117,47.655962],[35.097075,47.656043],[35.097035,47.656127],[35.096913,47.656372]]]}},{"type":"Feature","properties":{"cadnum":"2322184901:04:002:0146"},"geometry":{"type":"Polygon","coordinates":[[[35.096029,47.655773],[35.096513,47.655878],[35.096653,47.655575],[35.096167,47.65548],[35.096096,47.655622],[35.096079,47.65567],[35.096069,47.655668],[35.096029,47.655773]]]}},{"type":"Feature","properties":{"cadnum":"2322184901:04:002:0149"},"geometry":{"type":"Polygon","coordinates":[[[35.095554,47.655691],[35.095911,47.655767],[35.096017,47.65579],[35.096029,47.655774],[35.096069,47.655668],[35.096079,47.65567],[35.096095,47.655625],[35.095854,47.655578],[35.095619,47.655532],[35.095554,47.655691]]]}},{"type":"Feature","properties":{"cadnum":"2322184901:04:001:0563"},"geometry":{"type":"Polygon","coordinates":[[[35.096524,47.656288],[35.096913,47.656372],[35.097035,47.656127],[35.097072,47.656049],[35.096678,47.655968],[35.096524,47.656288]]]}},{"type":"Feature","properties":{"cadnum":"2322184901:04:002:0240"},"geometry":{"type":"Polygon","coordinates":[[[35.097671,47.655859],[35.0979,47.655923],[35.097992,47.655722],[35.097763,47.65566],[35.097671,47.655859]]]}},{"type":"Feature","properties":{"cadnum":"2322184901:04:002:0126"},"geometry":{"type":"Polygon","coordinates":[[[35.096938,47.655411],[35.097422,47.655501],[35.0975,47.655327],[35.0975,47.655326],[35.097575,47.655141],[35.097099,47.655046],[35.096938,47.655411]]]}},{"type":"Feature","properties":{"cadnum":"2322184901:04:002:0117"},"geometry":{"type":"Polygon","coordinates":[[[35.0975,47.655326],[35.09811,47.655459],[35.098212,47.655222],[35.097598,47.655089],[35.097575,47.655141],[35.0975,47.655326]]]}},{"type":"Feature","properties":{"cadnum":"2322184901:04:002:0520"},"geometry":{"type":"Polygon","coordinates":[[[35.097099,47.655046],[35.097575,47.655141],[35.097598,47.655089],[35.097699,47.654844],[35.097722,47.654784],[35.097247,47.654691],[35.097103,47.655037],[35.097099,47.655046]]]}},{"type":"Feature","properties":{"cadnum":"2322184901:04:002:0153"},"geometry":{"type":"Polygon","coordinates":[[[35.09597,47.654775],[35.096425,47.654879],[35.096561,47.654578],[35.096097,47.654477],[35.09597,47.654775]]]}},{"type":"Feature","properties":{"cadnum":"2322184901:04:002:0151"},"geometry":{"type":"Polygon","coordinates":[[[35.095692,47.655383],[35.095739,47.655393],[35.095857,47.655416],[35.095911,47.655427],[35.095959,47.655436],[35.096167,47.65548],[35.096171,47.655471],[35.096291,47.655191],[35.096292,47.655179],[35.095832,47.655082],[35.095692,47.655383]]]}},{"type":"Feature","properties":{"cadnum":"2322184901:04:002:0164"},"geometry":{"type":"Polygon","coordinates":[[[35.095419,47.654657],[35.095739,47.654724],[35.095785,47.654733],[35.095911,47.654465],[35.095911,47.654464],[35.095922,47.654441],[35.095796,47.654414],[35.095545,47.65436],[35.095419,47.654657]]]}},{"type":"Feature","properties":{"cadnum":"2322184901:04:002:0493"},"geometry":{"type":"Polygon","coordinates":[[[35.095247,47.653962],[35.095686,47.654055],[35.09569,47.654055],[35.095691,47.654053],[35.095699,47.654034],[35.095818,47.653754],[35.095375,47.653655],[35.095247,47.653962]]]}},{"type":"Feature","properties":{"cadnum":"2322184901:04:001:0561"},"geometry":{"type":"Polygon","coordinates":[[[35.093954,47.653932],[35.094956,47.654135],[35.095065,47.653878],[35.094648,47.65379],[35.09452,47.653756],[35.094487,47.653752],[35.094135,47.653681],[35.094131,47.653681],[35.093954,47.653932]]]}},{"type":"Feature","properties":{"cadnum":"2322184901:04:001:0177"},"geometry":{"type":"Polygon","coordinates":[[[35.094135,47.653681],[35.094487,47.653752],[35.09452,47.653756],[35.094648,47.65379],[35.095065,47.653878],[35.095265,47.653421],[35.095283,47.653366],[35.09477,47.65351],[35.094135,47.653681]]]}},{"type":"Feature","properties":{"cadnum":"2322184901:04:002:0492"},"geometry":{"type":"Polygon","coordinates":[[[35.095029,47.654474],[35.095452,47.65457],[35.095544,47.654363],[35.095538,47.654362],[35.095118,47.65427],[35.095116,47.654275],[35.095079,47.65436],[35.095065,47.654391],[35.095029,47.654474]]]}},{"type":"Feature","properties":{"cadnum":"2322184901:04:002:0173"},"geometry":{"type":"Polygon","coordinates":[[[35.095117,47.65427],[35.095143,47.654275],[35.095528,47.654356],[35.095545,47.65436],[35.095686,47.654055],[35.095247,47.653962],[35.095117,47.65427]]]}},{"type":"Feature","properties":{"cadnum":"2322184901:04:001:0179"},"geometry":{"type":"Polygon","coordinates":[[[35.093831,47.654196],[35.094307,47.654275],[35.094373,47.654286],[35.094624,47.654333],[35.094856,47.654376],[35.094956,47.654135],[35.093954,47.653932],[35.093831,47.654196]]]}},{"type":"Feature","properties":{"cadnum":"2322184901:04:001:0372"},"geometry":{"type":"Polygon","coordinates":[[[35.091374,47.654436],[35.092271,47.654622],[35.092412,47.654297],[35.092435,47.654245],[35.092183,47.654186],[35.091893,47.654275],[35.091843,47.654291],[35.091519,47.654391],[35.091374,47.654436]]]}},{"type":"Feature","properties":{"cadnum":"2322184901:04:002:0045"},"geometry":{"type":"Polygon","coordinates":[[[35.09794,47.64968],[35.098088,47.649849],[35.098096,47.649845],[35.098424,47.649679],[35.098407,47.649619],[35.098486,47.649534],[35.098415,47.649397],[35.098257,47.649477],[35.098265,47.64949],[35.098265,47.649491],[35.09794,47.64968]]]}},{"type":"Feature","properties":{"cadnum":"2322184901:04:002:0291"},"geometry":{"type":"Polygon","coordinates":[[[35.098088,47.649849],[35.098236,47.650024],[35.098237,47.650024],[35.098843,47.649615],[35.09854,47.649475],[35.098407,47.649619],[35.098424,47.649679],[35.098088,47.649849]]]}},{"type":"Feature","properties":{"cadnum":"2322184901:04:002:0044"},"geometry":{"type":"Polygon","coordinates":[[[35.097712,47.64948],[35.097921,47.649691],[35.098265,47.649491],[35.098257,47.649477],[35.098415,47.649397],[35.098324,47.649325],[35.097917,47.649152],[35.097818,47.649203],[35.09796,47.649288],[35.097822,47.649375],[35.097849,47.649397],[35.097849,47.649398],[35.097712,47.64948]]]}},{"type":"Feature","properties":{"cadnum":"2322184901:04:001:0463"},"geometry":{"type":"Polygon","coordinates":[[[35.091477,47.657013],[35.092539,47.657198],[35.092631,47.656991],[35.091567,47.656806],[35.091477,47.657013]]]}},{"type":"Feature","properties":{"cadnum":"2322184901:04:001:0535"},"geometry":{"type":"Polygon","coordinates":[[[35.092385,47.657524],[35.092506,47.657547],[35.092631,47.657254],[35.092515,47.657233],[35.092454,47.657373],[35.092385,47.657524]]]}},{"type":"Feature","properties":{"cadnum":"2322184901:04:001:0324"},"geometry":{"type":"Polygon","coordinates":[[[35.091113,47.65784],[35.092176,47.658026],[35.092267,47.657819],[35.091204,47.657634],[35.091113,47.65784]]]}},{"type":"Feature","properties":{"cadnum":"2322184901:04:002:0213"},"geometry":{"type":"Polygon","coordinates":[[[35.094455,47.655838],[35.094622,47.655874],[35.094845,47.655924],[35.09485,47.655911],[35.095003,47.655567],[35.094603,47.655478],[35.094455,47.655838]]]}},{"type":"Feature","properties":{"cadnum":"2322184901:04:001:0527"},"geometry":{"type":"Polygon","coordinates":[[[35.090911,47.655123],[35.091967,47.655326],[35.092058,47.65512],[35.091001,47.654916],[35.090911,47.655123]]]}},{"type":"Feature","properties":{"cadnum":"2322184901:04:001:0185"},"geometry":{"type":"Polygon","coordinates":[[[35.093379,47.656081],[35.093661,47.656142],[35.094075,47.656217],[35.094271,47.65575],[35.094265,47.655726],[35.094232,47.655711],[35.094135,47.655688],[35.094079,47.655828],[35.093844,47.65578],[35.093539,47.6557],[35.093379,47.656081]]]}},{"type":"Feature","properties":{"cadnum":"2322184901:04:001:0332"},"geometry":{"type":"Polygon","coordinates":[[[35.091839,47.656185],[35.092904,47.656371],[35.092995,47.656164],[35.091931,47.655978],[35.091839,47.656185]]]}},{"type":"Feature","properties":{"cadnum":"2322184901:04:001:0576"},"geometry":{"type":"Polygon","coordinates":[[[35.091931,47.655978],[35.092995,47.656164],[35.093087,47.655957],[35.092023,47.655771],[35.091931,47.655978]]]}},{"type":"Feature","properties":{"cadnum":"2322184901:04:001:0534"},"geometry":{"type":"Polygon","coordinates":[[[35.093088,47.656018],[35.093379,47.656081],[35.093539,47.6557],[35.093252,47.655626],[35.093088,47.656018]]]}},{"type":"Feature","properties":{"cadnum":"2322184901:04:001:0457"},"geometry":{"type":"Polygon","coordinates":[[[35.092011,47.655769],[35.092023,47.655771],[35.093087,47.655957],[35.093177,47.65575],[35.092102,47.655562],[35.092011,47.655769]]]}},{"type":"Feature","properties":{"cadnum":"2322184901:04:001:0187"},"geometry":{"type":"Polygon","coordinates":[[[35.0929,47.656639],[35.093272,47.656713],[35.09382,47.656822],[35.093948,47.656522],[35.093399,47.656414],[35.093179,47.656368],[35.093028,47.656338],[35.0929,47.656639]]]}},{"type":"Feature","properties":{"cadnum":"2322184901:04:001:0533"},"geometry":{"type":"Polygon","coordinates":[[[35.092804,47.65662],[35.0929,47.656639],[35.093028,47.656338],[35.092939,47.656321],[35.0929,47.656405],[35.092804,47.65662]]]}},{"type":"Feature","properties":{"cadnum":"2322184901:04:001:0366"},"geometry":{"type":"Polygon","coordinates":[[[35.090622,47.655671],[35.091673,47.655885],[35.091766,47.655679],[35.090714,47.655464],[35.090622,47.655671]]]}},{"type":"Feature","properties":{"cadnum":"2322184901:04:002:0170"},"geometry":{"type":"Polygon","coordinates":[[[35.094731,47.655172],[35.095152,47.655259],[35.095281,47.654962],[35.094856,47.654872],[35.094731,47.655172]]]}},{"type":"Feature","properties":{"cadnum":"2322184901:04:002:0166"},"geometry":{"type":"Polygon","coordinates":[[[35.095152,47.655259],[35.095513,47.655336],[35.095652,47.655036],[35.095281,47.654962],[35.095152,47.655259]]]}},{"type":"Feature","properties":{"cadnum":"2322184901:04:002:0165"},"geometry":{"type":"Polygon","coordinates":[[[35.095281,47.654963],[35.095632,47.655031],[35.095651,47.655035],[35.095785,47.654733],[35.095769,47.654729],[35.095419,47.654657],[35.095281,47.654963]]]}},{"type":"Feature","properties":{"cadnum":"2322184901:04:002:0169"},"geometry":{"type":"Polygon","coordinates":[[[35.094603,47.655478],[35.095003,47.655567],[35.095152,47.655259],[35.094731,47.655172],[35.094603,47.655478]]]}},{"type":"Feature","properties":{"cadnum":"2322184901:04:001:0570"},"geometry":{"type":"Polygon","coordinates":[[[35.093417,47.65515],[35.093441,47.655155],[35.093549,47.655175],[35.093891,47.655242],[35.094443,47.655344],[35.094544,47.655109],[35.093528,47.654916],[35.093465,47.655057],[35.093417,47.65515]]]}},{"type":"Feature","properties":{"cadnum":"2322184901:04:001:0536"},"geometry":{"type":"Polygon","coordinates":[[[35.093325,47.655423],[35.093429,47.655446],[35.093549,47.655175],[35.093441,47.655155],[35.093325,47.655423]]]}},{"type":"Feature","properties":{"cadnum":"2322184901:04:001:0370"},"geometry":{"type":"Polygon","coordinates":[[[35.091016,47.654919],[35.091503,47.655012],[35.092058,47.65512],[35.092149,47.654909],[35.092061,47.654888],[35.091595,47.654796],[35.091113,47.654698],[35.091016,47.654919]]]}},{"type":"Feature","properties":{"cadnum":"2322184901:04:001:0181"},"geometry":{"type":"Polygon","coordinates":[[[35.093635,47.654656],[35.094649,47.65486],[35.09475,47.65462],[35.094205,47.654504],[35.093741,47.654406],[35.093651,47.654614],[35.093635,47.654656]]]}},{"type":"Feature","properties":{"cadnum":"2322184901:04:001:0336"},"geometry":{"type":"Polygon","coordinates":[[[35.092235,47.655127],[35.093273,47.65537],[35.09338,47.655167],[35.092317,47.654918],[35.092235,47.655127]]]}},{"type":"Feature","properties":{"cadnum":"2322184901:04:001:0581"},"geometry":{"type":"Polygon","coordinates":[[[35.092317,47.654918],[35.09338,47.655167],[35.093466,47.654962],[35.092403,47.654713],[35.092317,47.654918]]]}},{"type":"Feature","properties":{"cadnum":"2322184901:04:002:0184"},"geometry":{"type":"Polygon","coordinates":[[[35.093429,47.655446],[35.093704,47.655512],[35.093737,47.655547],[35.093763,47.655555],[35.094298,47.655684],[35.094408,47.655424],[35.094424,47.655389],[35.094443,47.655344],[35.093891,47.655242],[35.093549,47.655175],[35.093429,47.655446]]]}},{"type":"Feature","properties":{"cadnum":"2322184901:04:002:0371"},"geometry":{"type":"Polygon","coordinates":[[[35.091103,47.65469],[35.092153,47.654907],[35.092248,47.654698],[35.091265,47.654494],[35.091257,47.654495],[35.091181,47.654518],[35.091103,47.65469]]]}}]}