{"type":"FeatureCollection","features":[{"type":"Feature","properties":{"cadnum":"2322755400:01:021:0011"},"geometry":{"type":"Polygon","coordinates":[[[36.706124,47.328395],[36.706167,47.328452],[36.706249,47.328423],[36.706207,47.328366],[36.706124,47.328395]]]}},{"type":"Feature","properties":{"cadnum":"2322755400:01:021:0021"},"geometry":{"type":"Polygon","coordinates":[[[36.705352,47.328949],[36.705619,47.329286],[36.70603,47.329125],[36.705754,47.328795],[36.705352,47.328949]]]}},{"type":"Feature","properties":{"cadnum":"2322755400:01:021:0020"},"geometry":{"type":"Polygon","coordinates":[[[36.705511,47.330434],[36.705825,47.33087],[36.706089,47.330779],[36.705785,47.330345],[36.705666,47.330384],[36.705511,47.330434]]]}},{"type":"Feature","properties":{"cadnum":"2322755400:01:021:0014"},"geometry":{"type":"Polygon","coordinates":[[[36.70661,47.330043],[36.706744,47.33023],[36.706928,47.330475],[36.707192,47.330382],[36.707,47.330146],[36.706867,47.329962],[36.70661,47.330043]]]}},{"type":"Feature","properties":{"cadnum":"2322755400:01:021:0022"},"geometry":{"type":"Polygon","coordinates":[[[36.709874,47.330757],[36.71022,47.331211],[36.71052,47.331108],[36.710164,47.330629],[36.709874,47.330757]]]}},{"type":"Feature","properties":{"cadnum":"2322755400:01:021:0025"},"geometry":{"type":"Polygon","coordinates":[[[36.705251,47.330538],[36.705408,47.330753],[36.705562,47.330964],[36.705825,47.33087],[36.705511,47.330434],[36.705345,47.330504],[36.705251,47.330538]]]}},{"type":"Feature","properties":{"cadnum":"2322755400:01:020:0001"},"geometry":{"type":"Polygon","coordinates":[[[36.705325,47.328428],[36.705365,47.328482],[36.705424,47.328559],[36.705464,47.328612],[36.705472,47.328609],[36.705877,47.328466],[36.705947,47.328442],[36.706002,47.328422],[36.706693,47.328184],[36.706834,47.328137],[36.706818,47.328115],[36.706745,47.328019],[36.706697,47.327953],[36.706557,47.327999],[36.705808,47.328257],[36.705768,47.328272],[36.705519,47.328359],[36.705325,47.328428]]]}},{"type":"Feature","properties":{"cadnum":"2322755400:01:021:0027"},"geometry":{"type":"Polygon","coordinates":[[[36.706622,47.328849],[36.706716,47.32896],[36.706768,47.329015],[36.706936,47.32896],[36.707384,47.328812],[36.707223,47.328624],[36.706622,47.328849]]]}},{"type":"Feature","properties":{"cadnum":"2322755400:01:021:0007"},"geometry":{"type":"Polygon","coordinates":[[[36.703779,47.328963],[36.703795,47.328986],[36.703812,47.329008],[36.703889,47.32911],[36.703918,47.329147],[36.704932,47.328797],[36.705236,47.328691],[36.705273,47.328678],[36.705408,47.328632],[36.705408,47.328631],[36.705464,47.328612],[36.705424,47.328559],[36.705365,47.328482],[36.705325,47.328428],[36.705151,47.328488],[36.704794,47.328613],[36.703779,47.328963]]]}},{"type":"Feature","properties":{"cadnum":"2322755400:01:019:0001"},"geometry":{"type":"Polygon","coordinates":[[[36.706697,47.327953],[36.706745,47.328019],[36.706818,47.328115],[36.706834,47.328137],[36.706856,47.328129],[36.706964,47.328092],[36.707921,47.327757],[36.7083,47.327625],[36.708395,47.327592],[36.708455,47.32757],[36.708538,47.32754],[36.709049,47.327362],[36.709124,47.327335],[36.709156,47.327324],[36.709855,47.327082],[36.709901,47.327066],[36.709991,47.327035],[36.710487,47.326866],[36.710729,47.326782],[36.71073,47.326782],[36.711992,47.326341],[36.712394,47.326206],[36.712386,47.326194],[36.712273,47.326018],[36.712268,47.326008],[36.711824,47.32615],[36.710829,47.326509],[36.71035,47.326681],[36.709718,47.326897],[36.709017,47.32714],[36.7084,47.327358],[36.70816,47.327442],[36.70759,47.327641],[36.707589,47.327641],[36.706697,47.327953]]]}},{"type":"Feature","properties":{"cadnum":"2322755400:01:021:0028"},"geometry":{"type":"Polygon","coordinates":[[[36.707401,47.330479],[36.707712,47.330868],[36.708054,47.330744],[36.707772,47.330346],[36.707401,47.330479]]]}},{"type":"Feature","properties":{"cadnum":"2322755400:01:020:0004"},"geometry":{"type":"Polygon","coordinates":[[[36.708651,47.330002],[36.708836,47.330211],[36.709071,47.330115],[36.709107,47.3301],[36.709456,47.329957],[36.70927,47.329743],[36.709,47.329857],[36.708651,47.330002]]]}},{"type":"Feature","properties":{"cadnum":"2322755400:01:021:0015"},"geometry":{"type":"Polygon","coordinates":[[[36.706816,47.329983],[36.707135,47.330402],[36.707398,47.330311],[36.707078,47.329891],[36.706816,47.329983]]]}},{"type":"Feature","properties":{"cadnum":"2322755400:01:021:0013"},"geometry":{"type":"Polygon","coordinates":[[[36.706569,47.329619],[36.706838,47.329975],[36.707088,47.329886],[36.707143,47.329866],[36.706852,47.32952],[36.706569,47.329619]]]}},{"type":"Feature","properties":{"cadnum":"2322755400:01:021:0017"},"geometry":{"type":"Polygon","coordinates":[[[36.706852,47.32952],[36.707146,47.329869],[36.707346,47.329803],[36.707436,47.329772],[36.70729,47.32959],[36.707142,47.329416],[36.706852,47.32952]]]}},{"type":"Feature","properties":{"cadnum":"2322755400:01:021:0100"},"geometry":{"type":"Polygon","coordinates":[[[36.704707,47.330259],[36.704991,47.330631],[36.705236,47.330543],[36.705251,47.330538],[36.705345,47.330504],[36.705231,47.330364],[36.705042,47.33014],[36.704707,47.330259]]]}},{"type":"Feature","properties":{"cadnum":"2322755400:01:018:0001"},"geometry":{"type":"Polygon","coordinates":[[[36.700406,47.328147],[36.700484,47.328266],[36.701636,47.329165],[36.703643,47.328483],[36.704,47.328871],[36.705236,47.328426],[36.705303,47.328402],[36.705408,47.328364],[36.705753,47.32824],[36.705835,47.328238],[36.70754,47.327641],[36.707541,47.327641],[36.708982,47.327136],[36.709578,47.326938],[36.710901,47.326474],[36.710901,47.326473],[36.71212,47.326044],[36.712207,47.325972],[36.712,47.325515],[36.711978,47.325498],[36.710901,47.325663],[36.707795,47.326135],[36.70719,47.326243],[36.707156,47.326188],[36.705871,47.326511],[36.705908,47.326575],[36.705236,47.326722],[36.704043,47.326982],[36.703815,47.326748],[36.703277,47.326893],[36.703427,47.327206],[36.702151,47.32738],[36.702133,47.327465],[36.701887,47.327641],[36.701886,47.327641],[36.701766,47.327727],[36.701765,47.327727],[36.701668,47.327757],[36.700406,47.328147]]]}},{"type":"Feature","properties":{"cadnum":"2322755400:01:021:0023"},"geometry":{"type":"Polygon","coordinates":[[[36.70486,47.329698],[36.705008,47.329881],[36.705058,47.32994],[36.705093,47.329983],[36.705236,47.329932],[36.705325,47.3299],[36.705408,47.32987],[36.705507,47.329834],[36.705289,47.329544],[36.70486,47.329698]]]}},{"type":"Feature","properties":{"cadnum":"2322755400:01:020:0002"},"geometry":{"type":"Polygon","coordinates":[[[36.708007,47.329323],[36.708173,47.329514],[36.708829,47.329255],[36.708662,47.329069],[36.708007,47.329323]]]}},{"type":"Feature","properties":{"cadnum":"2322755400:01:021:0019"},"geometry":{"type":"Polygon","coordinates":[[[36.706556,47.330086],[36.706681,47.330244],[36.706877,47.3305],[36.707135,47.330402],[36.706819,47.329987],[36.706776,47.330003],[36.706556,47.330086]]]}},{"type":"Feature","properties":{"cadnum":"2322755400:01:021:0004"},"geometry":{"type":"Polygon","coordinates":[[[36.707205,47.332061],[36.707208,47.332087],[36.707321,47.332104],[36.707353,47.332108],[36.709584,47.332442],[36.709606,47.332411],[36.709803,47.332444],[36.709836,47.332409],[36.710156,47.331401],[36.71017,47.331357],[36.710106,47.331348],[36.710047,47.331341],[36.710072,47.331256],[36.709964,47.331233],[36.709561,47.331138],[36.709269,47.331076],[36.709136,47.331075],[36.707854,47.331061],[36.707657,47.331114],[36.707523,47.331094],[36.707396,47.33148],[36.707263,47.331887],[36.707216,47.332007],[36.707205,47.332061]]]}},{"type":"Feature","properties":{"cadnum":"2322755400:01:021:0026"},"geometry":{"type":"Polygon","coordinates":[[[36.705938,47.331829],[36.706171,47.331904],[36.706356,47.331938],[36.706749,47.331997],[36.706845,47.331434],[36.706866,47.331315],[36.706834,47.331324],[36.706688,47.331364],[36.706585,47.331392],[36.706582,47.331393],[36.706476,47.331422],[36.70632,47.331465],[36.706319,47.331465],[36.706264,47.33148],[36.706045,47.331541],[36.706034,47.331544],[36.706017,47.331548],[36.706012,47.331566],[36.705938,47.331829]]]}},{"type":"Feature","properties":{"cadnum":"2322755400:01:021:0018"},"geometry":{"type":"Polygon","coordinates":[[[36.706505,47.32909],[36.706611,47.329216],[36.706773,47.329422],[36.707148,47.329281],[36.707204,47.329262],[36.707009,47.329041],[36.706934,47.328961],[36.706767,47.329018],[36.706734,47.328985],[36.706505,47.32909]]]}},{"type":"Feature","properties":{"cadnum":"2322755400:01:020:0003"},"geometry":{"type":"Polygon","coordinates":[[[36.708487,47.329817],[36.708651,47.330002],[36.708958,47.329873],[36.709,47.329857],[36.709044,47.329838],[36.70934,47.329714],[36.709293,47.329659],[36.709279,47.329643],[36.709171,47.32952],[36.708487,47.329817]]]}},{"type":"Feature","properties":{"cadnum":"2322755400:01:021:0006"},"geometry":{"type":"Polygon","coordinates":[[[36.705831,47.330122],[36.70597,47.330274],[36.706112,47.330449],[36.706409,47.330327],[36.706122,47.330001],[36.705831,47.330122]]]}},{"type":"Feature","properties":{"cadnum":"2322755400:01:021:0016"},"geometry":{"type":"Polygon","coordinates":[[[36.707078,47.329891],[36.707229,47.33009],[36.707259,47.330129],[36.707401,47.330307],[36.707668,47.33021],[36.707346,47.329803],[36.707145,47.32987],[36.707078,47.329891]]]}},{"type":"Feature","properties":{"cadnum":"2322755400:01:021:0005"},"geometry":{"type":"Polygon","coordinates":[[[36.705047,47.330109],[36.705159,47.330239],[36.705236,47.330208],[36.705372,47.330152],[36.705408,47.330137],[36.705536,47.330084],[36.706033,47.329887],[36.706152,47.329837],[36.706022,47.329704],[36.705774,47.329806],[36.705439,47.329946],[36.705236,47.33003],[36.705047,47.330109]]]}},{"type":"Feature","properties":{"cadnum":"2322755400:01:021:0070"},"geometry":{"type":"Polygon","coordinates":[[[36.705393,47.331214],[36.705497,47.331364],[36.705539,47.331425],[36.705577,47.33148],[36.705684,47.331635],[36.706014,47.331536],[36.705974,47.33148],[36.705706,47.331109],[36.705393,47.331214]]]}},{"type":"Feature","properties":{"cadnum":"2322755400:02:009:0015"},"geometry":{"type":"Polygon","coordinates":[[[36.695012,47.321057],[36.695146,47.321208],[36.695442,47.321083],[36.695635,47.321007],[36.695804,47.320942],[36.695678,47.320784],[36.69542,47.320888],[36.695012,47.321057]]]}},{"type":"Feature","properties":{"cadnum":"2322755400:02:009:0025"},"geometry":{"type":"Polygon","coordinates":[[[36.696798,47.323801],[36.696875,47.323917],[36.696927,47.323996],[36.697364,47.323864],[36.697709,47.323734],[36.697583,47.323558],[36.697493,47.323584],[36.697292,47.323662],[36.696798,47.323801]]]}},{"type":"Feature","properties":{"cadnum":"2322755400:02:016:0017"},"geometry":{"type":"Polygon","coordinates":[[[36.696734,47.320597],[36.696871,47.320784],[36.697479,47.320564],[36.69734,47.320372],[36.696734,47.320597]]]}},{"type":"Feature","properties":{"cadnum":"2322755400:02:009:0010"},"geometry":{"type":"Polygon","coordinates":[[[36.695542,47.32368],[36.695641,47.323876],[36.695827,47.323846],[36.695884,47.323833],[36.695961,47.323805],[36.696428,47.323675],[36.696323,47.323478],[36.695922,47.323588],[36.695542,47.32368]]]}},{"type":"Feature","properties":{"cadnum":"2322755400:02:009:0012"},"geometry":{"type":"Polygon","coordinates":[[[36.697126,47.323938],[36.697197,47.324034],[36.697276,47.324137],[36.697509,47.324055],[36.697783,47.323949],[36.697866,47.323916],[36.69773,47.323735],[36.697383,47.323861],[36.697195,47.323917],[36.697194,47.323917],[36.697126,47.323938]]]}},{"type":"Feature","properties":{"cadnum":"2322755400:02:016:0022"},"geometry":{"type":"Polygon","coordinates":[[[36.696942,47.322354],[36.697089,47.322558],[36.697383,47.322466],[36.69767,47.322378],[36.697518,47.322174],[36.696942,47.322354]]]}},{"type":"Feature","properties":{"cadnum":"2322755400:02:016:0018"},"geometry":{"type":"Polygon","coordinates":[[[36.69701,47.320982],[36.69716,47.321188],[36.697785,47.320985],[36.697627,47.320767],[36.69701,47.320982]]]}},{"type":"Feature","properties":{"cadnum":"2322755400:02:009:0019"},"geometry":{"type":"Polygon","coordinates":[[[36.696432,47.323039],[36.69655,47.323218],[36.696877,47.323123],[36.697178,47.323012],[36.69705,47.322829],[36.696735,47.322941],[36.696432,47.323039]]]}},{"type":"Feature","properties":{"cadnum":"2322755400:02:016:0023"},"geometry":{"type":"Polygon","coordinates":[[[36.697797,47.320646],[36.69796,47.32086],[36.698516,47.32068],[36.698346,47.320447],[36.697797,47.320646]]]}},{"type":"Feature","properties":{"cadnum":"2322755400:02:016:0028"},"geometry":{"type":"Polygon","coordinates":[[[36.696042,47.320145],[36.696165,47.32031],[36.696166,47.32031],[36.696395,47.320615],[36.696541,47.320564],[36.696641,47.320529],[36.696456,47.320287],[36.696272,47.320057],[36.696042,47.320145]]]}},{"type":"Feature","properties":{"cadnum":"2322755400:02:016:0020"},"geometry":{"type":"Polygon","coordinates":[[[36.69832,47.323145],[36.698626,47.323555],[36.698858,47.323478],[36.698709,47.323262],[36.698563,47.323064],[36.69832,47.323145]]]}},{"type":"Feature","properties":{"cadnum":"2322755400:02:016:0025"},"geometry":{"type":"Polygon","coordinates":[[[36.695897,47.320982],[36.696036,47.321162],[36.696614,47.320972],[36.696458,47.32077],[36.695897,47.320982]]]}},{"type":"Feature","properties":{"cadnum":"2322755400:02:016:0016"},"geometry":{"type":"Polygon","coordinates":[[[36.696635,47.320368],[36.696787,47.320577],[36.69734,47.320372],[36.697294,47.32031],[36.697195,47.320174],[36.697138,47.320194],[36.696635,47.320368]]]}},{"type":"Feature","properties":{"cadnum":"2322755400:02:016:0013"},"geometry":{"type":"Polygon","coordinates":[[[36.697972,47.320083],[36.698053,47.320194],[36.698096,47.320252],[36.698133,47.320301],[36.698138,47.32031],[36.698139,47.32031],[36.698261,47.320476],[36.698511,47.320388],[36.698389,47.320225],[36.698217,47.319996],[36.697972,47.320083]]]}},{"type":"Feature","properties":{"cadnum":"2322755400:02:016:0027"},"geometry":{"type":"Polygon","coordinates":[[[36.699373,47.322816],[36.699517,47.323011],[36.699743,47.322939],[36.699782,47.322927],[36.699915,47.322885],[36.699915,47.322884],[36.700093,47.322827],[36.699948,47.322621],[36.699743,47.322691],[36.699373,47.322816]]]}},{"type":"Feature","properties":{"cadnum":"2322755400:02:016:0015"},"geometry":{"type":"Polygon","coordinates":[[[36.698716,47.322011],[36.698882,47.322265],[36.699455,47.32209],[36.699289,47.321835],[36.698716,47.322011]]]}},{"type":"Feature","properties":{"cadnum":"2322755400:02:016:0029"},"geometry":{"type":"Polygon","coordinates":[[[36.699667,47.322213],[36.699743,47.32232],[36.699743,47.322321],[36.699823,47.322432],[36.699915,47.322562],[36.699915,47.322561],[36.699952,47.322614],[36.700219,47.32253],[36.699934,47.322129],[36.699791,47.322174],[36.699667,47.322213]]]}},{"type":"Feature","properties":{"cadnum":"2322755400:02:016:0014"},"geometry":{"type":"Polygon","coordinates":[[[36.698811,47.320563],[36.698957,47.320759],[36.699517,47.320573],[36.699364,47.320368],[36.699164,47.32044],[36.698811,47.320563]]]}},{"type":"Feature","properties":{"cadnum":"2322755400:02:016:0024"},"geometry":{"type":"Polygon","coordinates":[[[36.698563,47.323064],[36.698709,47.323262],[36.699059,47.323147],[36.699287,47.32307],[36.699142,47.322876],[36.698563,47.323064]]]}},{"type":"Feature","properties":{"cadnum":"2322755400:02:016:0019"},"geometry":{"type":"Polygon","coordinates":[[[36.698957,47.320759],[36.699101,47.320955],[36.699661,47.320765],[36.699517,47.320573],[36.698957,47.320759]]]}},{"type":"Feature","properties":{"cadnum":"2322755400:02:007:0013"},"geometry":{"type":"Polygon","coordinates":[[[36.682664,47.329064],[36.682942,47.329221],[36.683264,47.329388],[36.683264,47.329389],[36.683266,47.32939],[36.683429,47.329262],[36.683093,47.32905],[36.683004,47.329],[36.682848,47.328922],[36.682841,47.328927],[36.682805,47.328954],[36.682664,47.329064]]]}},{"type":"Feature","properties":{"cadnum":"2322755400:02:006:0009"},"geometry":{"type":"Polygon","coordinates":[[[36.683232,47.327693],[36.683232,47.327694],[36.683264,47.327714],[36.683295,47.327734],[36.683331,47.327757],[36.683338,47.327761],[36.683435,47.327823],[36.683436,47.327823],[36.683705,47.327993],[36.683948,47.327794],[36.683844,47.32773],[36.683452,47.327486],[36.683354,47.327578],[36.683288,47.327641],[36.683287,47.327641],[36.683232,47.327693]]]}},{"type":"Feature","properties":{"cadnum":"2322755400:02:005:0001"},"geometry":{"type":"Polygon","coordinates":[[[36.681404,47.328008],[36.681966,47.328389],[36.682199,47.32823],[36.681637,47.327849],[36.681404,47.328008]]]}},{"type":"Feature","properties":{"cadnum":"2322755400:02:007:0016"},"geometry":{"type":"Polygon","coordinates":[[[36.681854,47.328576],[36.682466,47.328944],[36.682644,47.328807],[36.682035,47.328438],[36.681854,47.328576]]]}},{"type":"Feature","properties":{"cadnum":"2322755400:02:007:0011"},"geometry":{"type":"Polygon","coordinates":[[[36.681967,47.330439],[36.682494,47.33076],[36.682609,47.330669],[36.68271,47.330589],[36.682188,47.330276],[36.682082,47.330354],[36.682027,47.330396],[36.681967,47.330439]]]}},{"type":"Feature","properties":{"cadnum":"2322755400:01:017:0016"},"geometry":{"type":"Polygon","coordinates":[[[36.680916,47.331291],[36.681043,47.331364],[36.681044,47.331365],[36.681247,47.33148],[36.681248,47.33148],[36.681323,47.331523],[36.681338,47.331511],[36.681456,47.331576],[36.681657,47.33143],[36.681142,47.331113],[36.680916,47.331291]]]}},{"type":"Feature","properties":{"cadnum":"2322755400:02:004:0007"},"geometry":{"type":"Polygon","coordinates":[[[36.680008,47.33114],[36.680396,47.331364],[36.680395,47.331364],[36.680594,47.331478],[36.680596,47.331479],[36.6806,47.33148],[36.680601,47.33148],[36.680635,47.331487],[36.680686,47.331448],[36.680838,47.331333],[36.680218,47.33097],[36.680209,47.330977],[36.680175,47.331003],[36.680008,47.33114]]]}},{"type":"Feature","properties":{"cadnum":"2322755400:02:007:0014"},"geometry":{"type":"Polygon","coordinates":[[[36.682324,47.329331],[36.682927,47.329693],[36.683014,47.329623],[36.683104,47.329552],[36.682491,47.329201],[36.682419,47.329259],[36.682395,47.329277],[36.682324,47.329331]]]}},{"type":"Feature","properties":{"cadnum":"2322755400:02:007:0017"},"geometry":{"type":"Polygon","coordinates":[[[36.682491,47.329201],[36.683095,47.329546],[36.683218,47.329448],[36.683268,47.32941],[36.682942,47.329221],[36.682664,47.329064],[36.682662,47.329067],[36.682632,47.329091],[36.682491,47.329201]]]}},{"type":"Feature","properties":{"cadnum":"2322755400:02:007:0012"},"geometry":{"type":"Polygon","coordinates":[[[36.681785,47.330599],[36.682018,47.330757],[36.682285,47.330924],[36.682487,47.330763],[36.681972,47.330449],[36.681869,47.330532],[36.681785,47.330599]]]}},{"type":"Feature","properties":{"cadnum":"2322755400:01:017:0023"},"geometry":{"type":"Polygon","coordinates":[[[36.683329,47.33037],[36.683435,47.330435],[36.683435,47.330434],[36.683436,47.330434],[36.683902,47.330715],[36.684121,47.330556],[36.683545,47.330198],[36.683329,47.33037]]]}},{"type":"Feature","properties":{"cadnum":"2322755400:02:007:0015"},"geometry":{"type":"Polygon","coordinates":[[[36.681491,47.329957],[36.682059,47.33033],[36.682204,47.330216],[36.682218,47.330206],[36.68165,47.32983],[36.681491,47.329957]]]}},{"type":"Feature","properties":{"cadnum":"2322755400:02:007:0010"},"geometry":{"type":"Polygon","coordinates":[[[36.682627,47.329963],[36.683116,47.33026],[36.683331,47.330092],[36.682837,47.329795],[36.682627,47.329963]]]}},{"type":"Feature","properties":{"cadnum":"2322755400:01:021:0024"},"geometry":{"type":"Polygon","coordinates":[[[36.704754,47.329166],[36.704787,47.32921],[36.704811,47.329201],[36.704881,47.3293],[36.704881,47.329301],[36.704853,47.329311],[36.704877,47.329348],[36.704974,47.329465],[36.705187,47.329389],[36.704967,47.329085],[36.704754,47.329166]]]}},{"type":"Feature","properties":{"cadnum":"2322755400:01:001:0072"},"geometry":{"type":"Polygon","coordinates":[[[36.701434,47.330324],[36.701658,47.33062],[36.701915,47.330534],[36.701689,47.330235],[36.701434,47.330324]]]}},{"type":"Feature","properties":{"cadnum":"2322755400:01:001:0063"},"geometry":{"type":"Polygon","coordinates":[[[36.703038,47.328712],[36.703097,47.328797],[36.703206,47.328758],[36.703155,47.328685],[36.703317,47.328628],[36.70341,47.32882],[36.70341,47.328821],[36.703356,47.328839],[36.703411,47.328919],[36.703312,47.328951],[36.703359,47.329021],[36.703717,47.328902],[36.703721,47.328908],[36.703759,47.328896],[36.703755,47.32889],[36.703949,47.328825],[36.703831,47.328699],[36.703733,47.32873],[36.703596,47.328522],[36.703038,47.328712]]]}},{"type":"Feature","properties":{"cadnum":"2322755400:01:001:0027"},"geometry":{"type":"Polygon","coordinates":[[[36.699926,47.329049],[36.700162,47.329317],[36.700248,47.329398],[36.700286,47.329444],[36.700581,47.329342],[36.700603,47.329335],[36.70029,47.328921],[36.699926,47.329049]]]}},{"type":"Feature","properties":{"cadnum":"2322755400:01:001:0049"},"geometry":{"type":"Polygon","coordinates":[[[36.699601,47.330945],[36.699743,47.331144],[36.699743,47.331145],[36.699778,47.331193],[36.699915,47.331148],[36.700244,47.331038],[36.700068,47.33079],[36.699915,47.330841],[36.699601,47.330945]]]}},{"type":"Feature","properties":{"cadnum":"2322755400:01:001:0067"},"geometry":{"type":"Polygon","coordinates":[[[36.700816,47.3314],[36.700816,47.331401],[36.700881,47.33148],[36.701143,47.331805],[36.701436,47.331702],[36.70118,47.331364],[36.701179,47.331364],[36.701125,47.331291],[36.700919,47.331364],[36.700918,47.331364],[36.700817,47.3314],[36.700816,47.3314]]]}},{"type":"Feature","properties":{"cadnum":"2322755400:01:001:0021"},"geometry":{"type":"Polygon","coordinates":[[[36.701849,47.329094],[36.702129,47.329415],[36.702463,47.329301],[36.702184,47.32898],[36.701849,47.329094]]]}},{"type":"Feature","properties":{"cadnum":"2322755400:01:017:0005"},"geometry":{"type":"Polygon","coordinates":[[[36.688369,47.330985],[36.688592,47.331364],[36.688607,47.331389],[36.68866,47.33148],[36.688661,47.33148],[36.688757,47.331644],[36.688786,47.331694],[36.688929,47.331678],[36.689544,47.331611],[36.689413,47.331468],[36.689276,47.331316],[36.690947,47.330728],[36.691045,47.330852],[36.691494,47.330854],[36.691609,47.330988],[36.69193,47.33088],[36.691884,47.330527],[36.692019,47.330414],[36.692318,47.33026],[36.692741,47.33011],[36.692812,47.330206],[36.692854,47.330256],[36.693043,47.330191],[36.693133,47.33016],[36.693094,47.330108],[36.693315,47.330029],[36.693439,47.330193],[36.69425,47.329907],[36.694338,47.329876],[36.694422,47.329846],[36.694564,47.329795],[36.694921,47.330282],[36.695625,47.330044],[36.695371,47.3297],[36.696232,47.329384],[36.696094,47.329196],[36.697235,47.32877],[36.697968,47.328495],[36.698078,47.328637],[36.699223,47.328217],[36.699407,47.328192],[36.699498,47.328212],[36.699743,47.328222],[36.700105,47.328236],[36.701764,47.327725],[36.701764,47.327724],[36.701679,47.327579],[36.702212,47.326983],[36.702161,47.32691],[36.702106,47.326828],[36.702675,47.326645],[36.705408,47.326234],[36.705408,47.326233],[36.706225,47.32611],[36.710901,47.325453],[36.710901,47.325452],[36.711156,47.325416],[36.710841,47.325164],[36.71053,47.324915],[36.705996,47.325322],[36.705995,47.325322],[36.705408,47.325265],[36.704515,47.325177],[36.704555,47.325463],[36.704555,47.325464],[36.703718,47.325548],[36.702875,47.325501],[36.702499,47.325333],[36.7012,47.325494],[36.701349,47.325729],[36.701348,47.325729],[36.700792,47.325974],[36.700296,47.326002],[36.699849,47.325946],[36.699564,47.325948],[36.699362,47.32565],[36.699083,47.325687],[36.699026,47.325704],[36.699034,47.32603],[36.698964,47.326108],[36.698225,47.32636],[36.69796,47.326009],[36.697863,47.325846],[36.696656,47.326154],[36.696778,47.326308],[36.697191,47.326801],[36.69662,47.326818],[36.695944,47.32684],[36.695193,47.326673],[36.694858,47.326543],[36.694458,47.326209],[36.694361,47.326101],[36.694239,47.325964],[36.693993,47.325639],[36.693915,47.325477],[36.693789,47.325553],[36.694422,47.326765],[36.694544,47.326998],[36.694568,47.327641],[36.694567,47.327641],[36.694568,47.327643],[36.69452,47.327757],[36.694521,47.327757],[36.69427,47.328368],[36.694027,47.328632],[36.693322,47.328947],[36.691331,47.329821],[36.690409,47.330234],[36.689967,47.330455],[36.689452,47.330836],[36.689135,47.331057],[36.689096,47.330788],[36.689075,47.3307],[36.688929,47.33076],[36.688929,47.330759],[36.688369,47.330985]]]}},{"type":"Feature","properties":{"cadnum":"2322755400:01:021:0009"},"geometry":{"type":"Polygon","coordinates":[[[36.704408,47.32985],[36.704487,47.329956],[36.70463,47.330151],[36.705074,47.329992],[36.705093,47.329983],[36.705058,47.32994],[36.705008,47.329881],[36.704858,47.329696],[36.70479,47.329717],[36.704704,47.329748],[36.7047,47.329743],[36.704666,47.329754],[36.704424,47.329841],[36.704408,47.32985]]]}},{"type":"Feature","properties":{"cadnum":"2322755400:01:001:0065"},"geometry":{"type":"Polygon","coordinates":[[[36.704657,47.331348],[36.704667,47.331364],[36.704666,47.331364],[36.704725,47.331455],[36.704742,47.33148],[36.704754,47.331498],[36.704919,47.331774],[36.705265,47.331674],[36.705081,47.33141],[36.704979,47.331252],[36.704657,47.331348]]]}},{"type":"Feature","properties":{"cadnum":"2322755400:01:001:0037"},"geometry":{"type":"Polygon","coordinates":[[[36.704135,47.330928],[36.704404,47.331333],[36.704692,47.331228],[36.704405,47.33083],[36.704135,47.330928]]]}},{"type":"Feature","properties":{"cadnum":"2322755400:01:001:0035"},"geometry":{"type":"Polygon","coordinates":[[[36.699282,47.329309],[36.699345,47.329375],[36.699431,47.329528],[36.699915,47.329325],[36.699915,47.329324],[36.700088,47.329251],[36.699918,47.329046],[36.699774,47.329106],[36.699282,47.329309]]]}},{"type":"Feature","properties":{"cadnum":"2322755400:01:001:0057"},"geometry":{"type":"Polygon","coordinates":[[[36.701931,47.331095],[36.702118,47.331364],[36.702117,47.331364],[36.702211,47.331498],[36.702505,47.331405],[36.702219,47.331005],[36.701931,47.331095]]]}},{"type":"Feature","properties":{"cadnum":"2322755400:01:001:0061"},"geometry":{"type":"Polygon","coordinates":[[[36.703697,47.330532],[36.703795,47.330659],[36.703804,47.33067],[36.703997,47.330923],[36.70429,47.330826],[36.703993,47.330436],[36.703697,47.330532]]]}},{"type":"Feature","properties":{"cadnum":"2322755400:01:001:0036"},"geometry":{"type":"Polygon","coordinates":[[[36.699431,47.329528],[36.699522,47.329688],[36.699723,47.329961],[36.699743,47.329947],[36.699798,47.329907],[36.699915,47.329821],[36.700125,47.329667],[36.699983,47.329495],[36.70018,47.329407],[36.700174,47.329353],[36.700088,47.329251],[36.699743,47.329397],[36.699431,47.329528]]]}},{"type":"Feature","properties":{"cadnum":"2322755400:01:001:0050"},"geometry":{"type":"Polygon","coordinates":[[[36.700497,47.330626],[36.700595,47.330751],[36.700643,47.330813],[36.700725,47.330936],[36.700934,47.330867],[36.700843,47.330741],[36.700874,47.330731],[36.700846,47.330694],[36.700733,47.330546],[36.700497,47.330626]]]}},{"type":"Feature","properties":{"cadnum":"2322755400:01:001:0024"},"geometry":{"type":"Polygon","coordinates":[[[36.685682,47.334882],[36.685707,47.3349],[36.685931,47.335051],[36.685938,47.335056],[36.686874,47.334582],[36.687074,47.334481],[36.687864,47.334048],[36.687955,47.333999],[36.688147,47.333894],[36.68855,47.333694],[36.688757,47.333592],[36.688757,47.333593],[36.688845,47.333548],[36.688929,47.333507],[36.688929,47.333506],[36.689229,47.333356],[36.6893,47.33332],[36.689338,47.333301],[36.689422,47.333258],[36.690121,47.332905],[36.690189,47.33287],[36.690236,47.332846],[36.690535,47.332694],[36.690629,47.332644],[36.690671,47.332622],[36.690856,47.332524],[36.691178,47.332364],[36.692197,47.331862],[36.692255,47.331837],[36.692538,47.331707],[36.693052,47.331483],[36.693053,47.331483],[36.693071,47.331469],[36.69314,47.331423],[36.693272,47.33136],[36.693374,47.331312],[36.69372,47.331149],[36.693779,47.331122],[36.693865,47.331088],[36.694195,47.330958],[36.69425,47.330937],[36.69425,47.330938],[36.694989,47.33066],[36.695374,47.330516],[36.695519,47.33047],[36.696523,47.330154],[36.696769,47.330066],[36.697083,47.329951],[36.697261,47.329891],[36.697333,47.329865],[36.697365,47.329861],[36.697429,47.329854],[36.697526,47.329874],[36.697595,47.329905],[36.697677,47.32998],[36.697762,47.33011],[36.698,47.330469],[36.698185,47.330716],[36.698214,47.330738],[36.698307,47.330808],[36.698349,47.330819],[36.698441,47.330847],[36.698554,47.330865],[36.698691,47.330887],[36.698728,47.330883],[36.698858,47.33087],[36.698999,47.330857],[36.699277,47.330776],[36.699311,47.330766],[36.699915,47.330553],[36.699915,47.330552],[36.700288,47.33042],[36.70111,47.330131],[36.703469,47.329306],[36.703497,47.329296],[36.703606,47.329258],[36.703799,47.32919],[36.703864,47.329166],[36.703918,47.329147],[36.703889,47.32911],[36.703812,47.329008],[36.703795,47.328986],[36.703779,47.328963],[36.703328,47.329122],[36.70097,47.329948],[36.700148,47.330237],[36.699915,47.330319],[36.69918,47.330579],[36.698916,47.330656],[36.698705,47.330677],[36.698428,47.330653],[36.698248,47.330395],[36.69804,47.330025],[36.697939,47.329874],[36.697808,47.329752],[36.697655,47.329685],[36.69745,47.329643],[36.697282,47.329674],[36.697183,47.329713],[36.696986,47.329798],[36.696778,47.329876],[36.696393,47.329996],[36.69585,47.330165],[36.695784,47.33019],[36.695741,47.330205],[36.695724,47.33018],[36.695471,47.330269],[36.695489,47.330294],[36.695492,47.330297],[36.69544,47.330325],[36.695159,47.330457],[36.694666,47.330649],[36.694329,47.330796],[36.694335,47.330803],[36.694334,47.330803],[36.693505,47.331158],[36.693504,47.331158],[36.693476,47.331126],[36.693034,47.331274],[36.692892,47.331308],[36.692762,47.331364],[36.692761,47.331364],[36.692579,47.331444],[36.692495,47.33148],[36.69237,47.331535],[36.692024,47.331692],[36.69098,47.332205],[36.690672,47.332358],[36.690496,47.332452],[36.690412,47.332496],[36.69035,47.332529],[36.68994,47.332739],[36.68924,47.333092],[36.689048,47.333191],[36.688863,47.333283],[36.688666,47.333381],[36.688549,47.333439],[36.688466,47.33348],[36.688371,47.333527],[36.687967,47.333728],[36.68766,47.333882],[36.687587,47.333919],[36.687004,47.334212],[36.686824,47.334302],[36.686535,47.334449],[36.685857,47.334793],[36.685706,47.33487],[36.685682,47.334882]]]}},{"type":"Feature","properties":{"cadnum":"2322755400:01:001:0045"},"geometry":{"type":"Polygon","coordinates":[[[36.701652,47.330621],[36.701732,47.330738],[36.701803,47.330838],[36.701884,47.330952],[36.70211,47.330881],[36.701894,47.330544],[36.701652,47.330621]]]}},{"type":"Feature","properties":{"cadnum":"2322755400:01:017:0009"},"geometry":{"type":"Polygon","coordinates":[[[36.689961,47.327885],[36.690388,47.328187],[36.690433,47.328149],[36.690484,47.328103],[36.690618,47.327991],[36.69053,47.327943],[36.69051,47.327919],[36.69048,47.3279],[36.690352,47.327817],[36.69016,47.327697],[36.690095,47.327757],[36.690096,47.327757],[36.689961,47.327885]]]}},{"type":"Feature","properties":{"cadnum":"2322755400:01:017:0002"},"geometry":{"type":"Polygon","coordinates":[[[36.693169,47.33077],[36.693506,47.331157],[36.694333,47.330802],[36.694027,47.330447],[36.693169,47.33077]]]}},{"type":"Feature","properties":{"cadnum":"2322755400:01:001:0066"},"geometry":{"type":"Polygon","coordinates":[[[36.693318,47.331418],[36.693365,47.33148],[36.693366,47.33148],[36.693523,47.331687],[36.693558,47.331736],[36.693582,47.331728],[36.693789,47.331663],[36.693638,47.331453],[36.693555,47.331336],[36.693474,47.331364],[36.693322,47.331416],[36.693318,47.331418]]]}},{"type":"Feature","properties":{"cadnum":"2322755400:01:001:0058"},"geometry":{"type":"Polygon","coordinates":[[[36.692969,47.331541],[36.693226,47.331851],[36.693271,47.331836],[36.693558,47.331736],[36.693523,47.331687],[36.693318,47.331418],[36.693141,47.33148],[36.692969,47.331541]]]}},{"type":"Feature","properties":{"cadnum":"2322755400:01:017:0019"},"geometry":{"type":"Polygon","coordinates":[[[36.68987,47.328905],[36.69033,47.32922],[36.690425,47.329139],[36.690541,47.329039],[36.69033,47.328894],[36.690074,47.328717],[36.690031,47.328758],[36.689997,47.328787],[36.68987,47.328905]]]}},{"type":"Feature","properties":{"cadnum":"2322755400:01:017:0008"},"geometry":{"type":"Polygon","coordinates":[[[36.692417,47.331247],[36.692528,47.33121],[36.692578,47.331276],[36.692466,47.331315],[36.692454,47.331319],[36.692487,47.331364],[36.692552,47.331452],[36.692863,47.331318],[36.69274,47.331148],[36.69255,47.331121],[36.69248,47.331145],[36.692417,47.331247]]]}},{"type":"Feature","properties":{"cadnum":"2322755400:01:001:0002"},"geometry":{"type":"Polygon","coordinates":[[[36.692684,47.331056],[36.692732,47.331115],[36.692784,47.331098],[36.692799,47.331116],[36.692838,47.331164],[36.692882,47.331148],[36.692843,47.3311],[36.692819,47.331069],[36.692791,47.331078],[36.692755,47.331032],[36.692684,47.331056]]]}},{"type":"Feature","properties":{"cadnum":"2322755400:01:017:0014"},"geometry":{"type":"Polygon","coordinates":[[[36.692071,47.327681],[36.692157,47.327757],[36.69235,47.327927],[36.692503,47.328031],[36.692705,47.327854],[36.692501,47.327706],[36.692493,47.327699],[36.692264,47.32751],[36.692116,47.327641],[36.692115,47.327641],[36.692071,47.327681]]]}},{"type":"Feature","properties":{"cadnum":"2322755400:01:017:0015"},"geometry":{"type":"Polygon","coordinates":[[[36.688765,47.327845],[36.688929,47.327963],[36.689021,47.32803],[36.689214,47.328161],[36.68945,47.327964],[36.689005,47.327641],[36.689004,47.327641],[36.688867,47.327757],[36.688868,47.327757],[36.688765,47.327845]]]}},{"type":"Feature","properties":{"cadnum":"2322755400:02:013:0001"},"geometry":{"type":"Polygon","coordinates":[[[36.695933,47.316425],[36.696002,47.316469],[36.696002,47.31647],[36.696172,47.316578],[36.696184,47.316586],[36.696228,47.316614],[36.696401,47.316496],[36.696684,47.316302],[36.696389,47.316113],[36.695933,47.316425]]]}},{"type":"Feature","properties":{"cadnum":"2322755400:02:009:0018"},"geometry":{"type":"Polygon","coordinates":[[[36.695876,47.324277],[36.695983,47.324477],[36.696385,47.324375],[36.696699,47.324292],[36.696572,47.324106],[36.69625,47.324195],[36.695876,47.324277]]]}},{"type":"Feature","properties":{"cadnum":"2322755400:02:009:0003"},"geometry":{"type":"Polygon","coordinates":[[[36.697957,47.324829],[36.698122,47.325171],[36.698437,47.325101],[36.698272,47.324759],[36.697957,47.324829]]]}},{"type":"Feature","properties":{"cadnum":"2322755400:01:017:0006"},"geometry":{"type":"Polygon","coordinates":[[[36.697274,47.324982],[36.697459,47.325385],[36.697835,47.325305],[36.697651,47.324902],[36.697274,47.324982]]]}},{"type":"Feature","properties":{"cadnum":"2322755400:02:009:0005"},"geometry":{"type":"Polygon","coordinates":[[[36.697257,47.324333],[36.697386,47.324515],[36.697615,47.324445],[36.698024,47.324287],[36.697882,47.324098],[36.697257,47.324333]]]}},{"type":"Feature","properties":{"cadnum":"2322755400:02:009:0009"},"geometry":{"type":"Polygon","coordinates":[[[36.696136,47.324861],[36.696246,47.325057],[36.696963,47.32489],[36.697046,47.32487],[36.696932,47.324673],[36.696136,47.324861]]]}},{"type":"Feature","properties":{"cadnum":"2322755400:02:009:0011"},"geometry":{"type":"Polygon","coordinates":[[[36.694644,47.32579],[36.694809,47.325904],[36.695387,47.325503],[36.6953,47.325414],[36.695248,47.325361],[36.694969,47.325538],[36.694644,47.32579]]]}},{"type":"Feature","properties":{"cadnum":"2322755400:02:016:0009"},"geometry":{"type":"Polygon","coordinates":[[[36.698599,47.324645],[36.698886,47.325076],[36.698846,47.32511],[36.698834,47.32512],[36.698968,47.325344],[36.69901,47.325409],[36.699094,47.325545],[36.699173,47.325674],[36.699183,47.325674],[36.699362,47.32565],[36.699564,47.325948],[36.699743,47.325947],[36.699849,47.325946],[36.699915,47.325954],[36.700296,47.326002],[36.700525,47.325989],[36.700657,47.325982],[36.700792,47.325974],[36.700981,47.325891],[36.701037,47.325866],[36.701236,47.325779],[36.701043,47.325499],[36.700584,47.324834],[36.700555,47.324795],[36.700509,47.324724],[36.70047,47.324668],[36.700301,47.32443],[36.700116,47.324484],[36.699876,47.324564],[36.699915,47.324634],[36.699943,47.324684],[36.699912,47.324694],[36.699915,47.324698],[36.699946,47.32475],[36.699769,47.324788],[36.699648,47.324814],[36.699561,47.324665],[36.699506,47.324573],[36.699447,47.32448],[36.699417,47.324435],[36.699392,47.324402],[36.699361,47.32439],[36.699317,47.324382],[36.699285,47.324379],[36.699235,47.324383],[36.699181,47.324395],[36.699112,47.324415],[36.699075,47.324434],[36.699035,47.324461],[36.698964,47.324503],[36.698799,47.324568],[36.698599,47.324645]]]}},{"type":"Feature","properties":{"cadnum":"2322755400:02:009:0013"},"geometry":{"type":"Polygon","coordinates":[[[36.694461,47.325662],[36.694644,47.32579],[36.694969,47.325538],[36.695248,47.325361],[36.695188,47.325305],[36.695088,47.325218],[36.694914,47.325331],[36.694682,47.32548],[36.694599,47.325544],[36.694461,47.325662]]]}},{"type":"Feature","properties":{"cadnum":"2322755400:01:017:0027"},"geometry":{"type":"Polygon","coordinates":[[[36.69532,47.326271],[36.695564,47.326459],[36.696102,47.326194],[36.695892,47.325999],[36.695503,47.326184],[36.695469,47.326201],[36.69532,47.326271]]]}},{"type":"Feature","properties":{"cadnum":"2322755400:02:005:0002"},"geometry":{"type":"Polygon","coordinates":[[[36.675231,47.323964],[36.675233,47.323965],[36.675421,47.324034],[36.675503,47.324064],[36.676812,47.324544],[36.676895,47.32447],[36.677442,47.324012],[36.67777,47.32379],[36.677771,47.32379],[36.677867,47.323725],[36.676666,47.323285],[36.675815,47.322973],[36.675438,47.322835],[36.675323,47.323596],[36.675242,47.323917],[36.675241,47.323917],[36.675231,47.323964]]]}},{"type":"Feature","properties":{"cadnum":"2322755400:02:005:0003"},"geometry":{"type":"Polygon","coordinates":[[[36.67542,47.320697],[36.675548,47.322261],[36.675483,47.322548],[36.675438,47.322835],[36.675815,47.322973],[36.676666,47.323285],[36.677771,47.323689],[36.677771,47.32369],[36.677867,47.323725],[36.677942,47.323675],[36.677965,47.32366],[36.677867,47.323562],[36.677171,47.322825],[36.676364,47.322029],[36.675952,47.3216],[36.67587,47.32148],[36.675801,47.321379],[36.675725,47.321232],[36.675552,47.320662],[36.67542,47.320697]]]}},{"type":"Feature","properties":{"cadnum":"2322755400:02:011:0001"},"geometry":{"type":"Polygon","coordinates":[[[36.674887,47.318393],[36.67549,47.320193],[36.67549,47.320194],[36.675489,47.320194],[36.67552,47.320284],[36.67552,47.320285],[36.675589,47.32031],[36.677942,47.321182],[36.683435,47.323217],[36.683436,47.323217],[36.685269,47.323895],[36.687956,47.322504],[36.685679,47.320194],[36.68479,47.319291],[36.683878,47.319457],[36.683264,47.319439],[36.682762,47.319424],[36.681498,47.319307],[36.679922,47.318776],[36.677834,47.318048],[36.676393,47.317543],[36.674887,47.318393]]]}},{"type":"Feature","properties":{"cadnum":"2322755400:02:011:0003"},"geometry":{"type":"Polygon","coordinates":[[[36.675857,47.321345],[36.675862,47.321361],[36.676018,47.321574],[36.676376,47.321944],[36.677229,47.322796],[36.677771,47.323369],[36.677904,47.32351],[36.677942,47.32355],[36.678008,47.323619],[36.678999,47.322497],[36.677942,47.32211],[36.677461,47.321933],[36.675857,47.321345]]]}},{"type":"Feature","properties":{"cadnum":"2322755400:02:011:0002"},"geometry":{"type":"Polygon","coordinates":[[[36.675595,47.320571],[36.675719,47.320968],[36.675829,47.321268],[36.675857,47.321345],[36.677461,47.321933],[36.677771,47.322047],[36.678999,47.322497],[36.679452,47.321985],[36.677847,47.321396],[36.67565,47.320591],[36.675595,47.320571]]]}},{"type":"Feature","properties":{"cadnum":"2322755400:01:003:0003"},"geometry":{"type":"Polygon","coordinates":[[[36.682443,47.333401],[36.68247,47.333413],[36.683264,47.333594],[36.683328,47.333609],[36.683435,47.333633],[36.683436,47.333633],[36.683469,47.333641],[36.683553,47.333644],[36.683631,47.33366],[36.683736,47.333683],[36.683803,47.333712],[36.684255,47.333817],[36.684921,47.33397],[36.684936,47.333968],[36.685098,47.33394],[36.685147,47.333952],[36.685194,47.333971],[36.685325,47.334035],[36.685495,47.33403],[36.685742,47.334021],[36.686268,47.333768],[36.686328,47.333738],[36.686202,47.333606],[36.686242,47.333592],[36.686,47.33336],[36.685817,47.333225],[36.6868,47.332955],[36.686802,47.332923],[36.686511,47.332529],[36.686486,47.332487],[36.686128,47.332603],[36.686018,47.332648],[36.683771,47.333092],[36.683634,47.333082],[36.683264,47.333155],[36.682491,47.333307],[36.682519,47.333385],[36.682443,47.333401]]]}},{"type":"Feature","properties":{"cadnum":"2322755400:02:016:0011"},"geometry":{"type":"Polygon","coordinates":[[[36.70143,47.323692],[36.701461,47.32374],[36.701532,47.323843],[36.701772,47.323771],[36.701814,47.323758],[36.702083,47.32368],[36.701974,47.323515],[36.701646,47.323615],[36.701593,47.323632],[36.701597,47.323639],[36.701555,47.323653],[36.701511,47.323666],[36.70143,47.323692]]]}},{"type":"Feature","properties":{"cadnum":"2322755400:02:016:0026"},"geometry":{"type":"Polygon","coordinates":[[[36.700396,47.322682],[36.700547,47.322895],[36.700799,47.322806],[36.701096,47.322705],[36.700945,47.3225],[36.700742,47.32257],[36.700396,47.322682]]]}},{"type":"Feature","properties":{"cadnum":"2322755400:02:016:0030"},"geometry":{"type":"Polygon","coordinates":[[[36.701752,47.324151],[36.701929,47.324393],[36.702519,47.324192],[36.702344,47.323949],[36.702096,47.324034],[36.701752,47.324151]]]}},{"type":"Feature","properties":{"cadnum":"2322755400:01:017:0028"},"geometry":{"type":"Polygon","coordinates":[[[36.68772,47.328733],[36.688143,47.329056],[36.688207,47.329001],[36.688367,47.328866],[36.688131,47.328714],[36.688001,47.328614],[36.687979,47.328599],[36.687925,47.328562],[36.68772,47.328733]]]}},{"type":"Feature","properties":{"cadnum":"2322755400:01:017:0031"},"geometry":{"type":"Polygon","coordinates":[[[36.688042,47.327566],[36.688139,47.327641],[36.688465,47.327889],[36.688691,47.327705],[36.688261,47.327389],[36.688042,47.327566]]]}},{"type":"Feature","properties":{"cadnum":"2322755400:01:017:0012"},"geometry":{"type":"Polygon","coordinates":[[[36.687925,47.328562],[36.687979,47.328599],[36.688001,47.328614],[36.688131,47.328714],[36.688367,47.328866],[36.688558,47.328698],[36.688137,47.328384],[36.687925,47.328562]]]}},{"type":"Feature","properties":{"cadnum":"2322755400:01:017:0029"},"geometry":{"type":"Polygon","coordinates":[[[36.686114,47.328142],[36.68634,47.328311],[36.686556,47.328454],[36.686764,47.328291],[36.686328,47.32797],[36.686114,47.328142]]]}},{"type":"Feature","properties":{"cadnum":"2322755400:01:017:0032"},"geometry":{"type":"Polygon","coordinates":[[[36.688207,47.329001],[36.688428,47.329116],[36.688447,47.329126],[36.688833,47.328788],[36.68882,47.328779],[36.688611,47.328652],[36.688367,47.328866],[36.688207,47.329001]]]}},{"type":"Feature","properties":{"cadnum":"2322755400:01:017:0017"},"geometry":{"type":"Polygon","coordinates":[[[36.685163,47.328876],[36.685634,47.329185],[36.685886,47.32898],[36.685612,47.328784],[36.685444,47.328664],[36.685163,47.328876]]]}},{"type":"Feature","properties":{"cadnum":"2322755400:02:008:0005"},"geometry":{"type":"Polygon","coordinates":[[[36.685239,47.327768],[36.685831,47.328144],[36.686005,47.328017],[36.685483,47.327644],[36.685482,47.327643],[36.68544,47.327613],[36.685405,47.327641],[36.685404,47.327641],[36.685332,47.327697],[36.685253,47.327757],[36.685239,47.327768]]]}},{"type":"Feature","properties":{"cadnum":"2322755400:01:017:0024"},"geometry":{"type":"Polygon","coordinates":[[[36.686051,47.328851],[36.686233,47.328969],[36.686248,47.328979],[36.686662,47.328631],[36.686647,47.328621],[36.686478,47.328512],[36.686347,47.328616],[36.686112,47.328801],[36.686051,47.328851]]]}},{"type":"Feature","properties":{"cadnum":"2322755400:01:017:0010"},"geometry":{"type":"Polygon","coordinates":[[[36.684409,47.33146],[36.684433,47.33148],[36.684434,47.33148],[36.684435,47.33148],[36.684542,47.331565],[36.685148,47.331488],[36.685039,47.331408],[36.684762,47.331206],[36.684543,47.331364],[36.684542,47.331364],[36.684409,47.33146]]]}},{"type":"Feature","properties":{"cadnum":"2322755400:01:017:0026"},"geometry":{"type":"Polygon","coordinates":[[[36.683371,47.331269],[36.683503,47.331364],[36.683502,47.331364],[36.683586,47.331423],[36.68369,47.33148],[36.683691,47.33148],[36.683946,47.331618],[36.684149,47.331439],[36.683588,47.331098],[36.683371,47.331269]]]}},{"type":"Feature","properties":{"cadnum":"2322755400:02:009:0002"},"geometry":{"type":"Polygon","coordinates":[[[36.687409,47.329245],[36.687452,47.329274],[36.687459,47.329269],[36.687473,47.329278],[36.687465,47.329283],[36.687877,47.329558],[36.687951,47.329493],[36.688078,47.329379],[36.687622,47.329058],[36.687409,47.329245]]]}},{"type":"Feature","properties":{"cadnum":"2322755400:02:007:0009"},"geometry":{"type":"Polygon","coordinates":[[[36.687247,47.329765],[36.687503,47.329929],[36.687895,47.32958],[36.687649,47.329447],[36.68757,47.329509],[36.687351,47.329681],[36.687247,47.329765]]]}},{"type":"Feature","properties":{"cadnum":"2322755400:02:007:0005"},"geometry":{"type":"Polygon","coordinates":[[[36.686568,47.329727],[36.68657,47.32975],[36.686702,47.329837],[36.686735,47.329857],[36.686773,47.329882],[36.686891,47.329958],[36.686977,47.330012],[36.687047,47.329955],[36.68711,47.329901],[36.687246,47.329775],[36.686827,47.329491],[36.686568,47.329727]]]}},{"type":"Feature","properties":{"cadnum":"2322755400:01:017:0033"},"geometry":{"type":"Polygon","coordinates":[[[36.686953,47.33087],[36.68707,47.330963],[36.687814,47.330752],[36.687456,47.330534],[36.686953,47.33087]]]}},{"type":"Feature","properties":{"cadnum":"2322755400:01:017:0020"},"geometry":{"type":"Polygon","coordinates":[[[36.686827,47.329491],[36.687239,47.329771],[36.68735,47.329682],[36.687451,47.329601],[36.687278,47.329462],[36.687056,47.329283],[36.686827,47.329491]]]}},{"type":"Feature","properties":{"cadnum":"2322755400:02:004:0004"},"geometry":{"type":"Polygon","coordinates":[[[36.68373,47.330886],[36.684189,47.331177],[36.684278,47.331227],[36.684278,47.331232],[36.68435,47.331273],[36.684551,47.331104],[36.683933,47.330739],[36.68373,47.330886]]]}},{"type":"Feature","properties":{"cadnum":"2322755400:01:017:0013"},"geometry":{"type":"Polygon","coordinates":[[[36.684385,47.330454],[36.68463,47.330602],[36.684963,47.330799],[36.685172,47.330635],[36.684597,47.330292],[36.684385,47.330454]]]}},{"type":"Feature","properties":{"cadnum":"2322755400:01:017:0011"},"geometry":{"type":"Polygon","coordinates":[[[36.684173,47.329634],[36.684818,47.32995],[36.685013,47.329772],[36.684368,47.329458],[36.684173,47.329634]]]}},{"type":"Feature","properties":{"cadnum":"2322755400:01:003:0016"},"geometry":{"type":"Polygon","coordinates":[[[36.688984,47.332655],[36.689017,47.332686],[36.689127,47.332787],[36.689135,47.332795],[36.689523,47.332598],[36.689515,47.332591],[36.689405,47.332491],[36.689373,47.33246],[36.688984,47.332655]]]}},{"type":"Feature","properties":{"cadnum":"2322755400:01:003:0002"},"geometry":{"type":"Polygon","coordinates":[[[36.688635,47.332205],[36.688757,47.332316],[36.688774,47.332332],[36.688929,47.332254],[36.688929,47.332253],[36.689313,47.332056],[36.689174,47.331929],[36.688929,47.332055],[36.688635,47.332205]]]}},{"type":"Feature","properties":{"cadnum":"2322755400:01:001:0017"},"geometry":{"type":"Polygon","coordinates":[[[36.692098,47.331929],[36.692373,47.33223],[36.692487,47.332183],[36.692588,47.332135],[36.69231,47.331826],[36.692098,47.331929]]]}},{"type":"Feature","properties":{"cadnum":"2322755400:01:001:0059"},"geometry":{"type":"Polygon","coordinates":[[[36.69277,47.331612],[36.693061,47.331915],[36.693226,47.331851],[36.692969,47.331541],[36.69277,47.331612]]]}},{"type":"Feature","properties":{"cadnum":"2322755400:01:001:0041"},"geometry":{"type":"Polygon","coordinates":[[[36.69256,47.332044],[36.692905,47.332464],[36.693201,47.332329],[36.69277,47.331948],[36.69256,47.332044]]]}},{"type":"Feature","properties":{"cadnum":"2322755400:01:001:0064"},"geometry":{"type":"Polygon","coordinates":[[[36.692992,47.333209],[36.693184,47.33348],[36.693598,47.33335],[36.693399,47.333069],[36.693113,47.333167],[36.692992,47.333209]]]}},{"type":"Feature","properties":{"cadnum":"2322755400:01:017:0003"},"geometry":{"type":"Polygon","coordinates":[[[36.689926,47.333826],[36.689995,47.333894],[36.690101,47.333846],[36.690031,47.333778],[36.689926,47.333826]]]}},{"type":"Feature","properties":{"cadnum":"2322755400:01:001:0078"},"geometry":{"type":"Polygon","coordinates":[[[36.692613,47.333338],[36.692792,47.333603],[36.693184,47.33348],[36.692992,47.333209],[36.69287,47.333251],[36.692613,47.333338]]]}},{"type":"Feature","properties":{"cadnum":"2322755400:01:001:0070"},"geometry":{"type":"Polygon","coordinates":[[[36.691634,47.332146],[36.691796,47.332311],[36.691941,47.332467],[36.692165,47.332355],[36.69222,47.332326],[36.692204,47.332313],[36.691884,47.332028],[36.691634,47.332146]]]}},{"type":"Feature","properties":{"cadnum":"2322755400:01:001:0052"},"geometry":{"type":"Polygon","coordinates":[[[36.693403,47.33307],[36.693601,47.333349],[36.693995,47.333223],[36.693786,47.332897],[36.693542,47.332978],[36.693563,47.333014],[36.693563,47.333015],[36.693403,47.33307]]]}},{"type":"Feature","properties":{"cadnum":"2322755400:01:001:0043"},"geometry":{"type":"Polygon","coordinates":[[[36.690739,47.332614],[36.69117,47.332889],[36.691332,47.332794],[36.690963,47.332498],[36.690739,47.332614]]]}},{"type":"Feature","properties":{"cadnum":"2322755400:01:001:0047"},"geometry":{"type":"Polygon","coordinates":[[[36.692586,47.331692],[36.692878,47.332005],[36.693067,47.331922],[36.69277,47.331612],[36.692586,47.331692]]]}},{"type":"Feature","properties":{"cadnum":"2322755400:01:003:0007"},"geometry":{"type":"Polygon","coordinates":[[[36.688517,47.332891],[36.688744,47.333101],[36.688757,47.333094],[36.6891,47.332915],[36.689028,47.332848],[36.68891,47.33274],[36.688876,47.33271],[36.688517,47.332891]]]}},{"type":"Feature","properties":{"cadnum":"2322755400:01:001:0055"},"geometry":{"type":"Polygon","coordinates":[[[36.694226,47.331516],[36.69425,47.331545],[36.69434,47.331653],[36.694422,47.331627],[36.694738,47.331528],[36.694607,47.331367],[36.694368,47.33146],[36.694226,47.331516]]]}},{"type":"Feature","properties":{"cadnum":"2322755400:01:001:0069"},"geometry":{"type":"Polygon","coordinates":[[[36.691884,47.332028],[36.692204,47.332313],[36.692377,47.332234],[36.692098,47.331929],[36.691884,47.332028]]]}},{"type":"Feature","properties":{"cadnum":"2322755400:01:001:0080"},"geometry":{"type":"Polygon","coordinates":[[[36.693545,47.332457],[36.693822,47.332865],[36.694131,47.332763],[36.694178,47.332747],[36.693901,47.332338],[36.693545,47.332457]]]}},{"type":"Feature","properties":{"cadnum":"2322755400:01:001:0044"},"geometry":{"type":"Polygon","coordinates":[[[36.691793,47.334049],[36.692149,47.334531],[36.692445,47.334431],[36.692301,47.334237],[36.69209,47.333948],[36.691793,47.334049]]]}},{"type":"Feature","properties":{"cadnum":"2322755400:01:001:0076"},"geometry":{"type":"Polygon","coordinates":[[[36.693805,47.331633],[36.694174,47.332136],[36.69425,47.33211],[36.694262,47.332106],[36.694422,47.332053],[36.694422,47.332052],[36.694428,47.33205],[36.694451,47.332033],[36.694377,47.331938],[36.694065,47.331541],[36.693805,47.331633]]]}},{"type":"Feature","properties":{"cadnum":"2322755400:01:001:0071"},"geometry":{"type":"Polygon","coordinates":[[[36.693669,47.331689],[36.694045,47.332178],[36.694174,47.332136],[36.693809,47.331637],[36.693669,47.331689]]]}},{"type":"Feature","properties":{"cadnum":"2322755400:01:001:0048"},"geometry":{"type":"Polygon","coordinates":[[[36.693144,47.332574],[36.693543,47.332982],[36.69359,47.332959],[36.693736,47.33289],[36.69335,47.33248],[36.693144,47.332574]]]}},{"type":"Feature","properties":{"cadnum":"2322755400:01:001:0032"},"geometry":{"type":"Polygon","coordinates":[[[36.691434,47.332242],[36.691772,47.332557],[36.691941,47.332467],[36.691796,47.332311],[36.691634,47.332146],[36.691434,47.332242]]]}},{"type":"Feature","properties":{"cadnum":"2322755400:02:016:0021"},"geometry":{"type":"Polygon","coordinates":[[[36.698378,47.319968],[36.698523,47.320167],[36.698795,47.320066],[36.699075,47.319967],[36.69892,47.319763],[36.698378,47.319968]]]}},{"type":"Feature","properties":{"cadnum":"2322755400:02:006:0006"},"geometry":{"type":"Polygon","coordinates":[[[36.682915,47.327073],[36.683264,47.327268],[36.683426,47.327359],[36.683435,47.327351],[36.683667,47.327145],[36.683264,47.326918],[36.683158,47.326858],[36.682915,47.327073]]]}},{"type":"Feature","properties":{"cadnum":"2322755400:02:006:0001"},"geometry":{"type":"Polygon","coordinates":[[[36.682637,47.327202],[36.68322,47.327528],[36.683264,47.327492],[36.683264,47.327493],[36.683426,47.327359],[36.682915,47.327073],[36.682841,47.327031],[36.682637,47.327202]]]}},{"type":"Feature","properties":{"cadnum":"2322755400:02:004:0006"},"geometry":{"type":"Polygon","coordinates":[[[36.679782,47.327306],[36.679786,47.327327],[36.680276,47.327474],[36.68074,47.327629],[36.680814,47.327582],[36.681103,47.327365],[36.681315,47.327208],[36.68092,47.326918],[36.680882,47.326891],[36.680738,47.326786],[36.680398,47.326972],[36.679782,47.327306]]]}},{"type":"Feature","properties":{"cadnum":"2322755400:02:006:0011"},"geometry":{"type":"Polygon","coordinates":[[[36.683075,47.325258],[36.683264,47.325378],[36.683375,47.325448],[36.683435,47.325406],[36.683435,47.325405],[36.68373,47.325197],[36.683431,47.325006],[36.683075,47.325258]]]}},{"type":"Feature","properties":{"cadnum":"2322755400:02:006:0002"},"geometry":{"type":"Polygon","coordinates":[[[36.681439,47.325557],[36.682003,47.325924],[36.682235,47.325757],[36.681672,47.325392],[36.681439,47.325557]]]}},{"type":"Feature","properties":{"cadnum":"2322755400:02:006:0015"},"geometry":{"type":"Polygon","coordinates":[[[36.682536,47.325646],[36.683088,47.326027],[36.683342,47.325934],[36.682747,47.3255],[36.682536,47.325646]]]}},{"type":"Feature","properties":{"cadnum":"2322755400:02:016:0001"},"geometry":{"type":"Polygon","coordinates":[[[36.703375,47.325215],[36.703454,47.325476],[36.704086,47.325389],[36.704025,47.325189],[36.703602,47.325248],[36.703583,47.325186],[36.703375,47.325215]]]}},{"type":"Feature","properties":{"cadnum":"2322755400:02:016:0010"},"geometry":{"type":"Polygon","coordinates":[[[36.702399,47.325083],[36.702548,47.325333],[36.703167,47.325177],[36.703018,47.324926],[36.702399,47.325083]]]}},{"type":"Feature","properties":{"cadnum":"2322755400:02:010:0011"},"geometry":{"type":"Polygon","coordinates":[[[36.687802,47.324004],[36.687834,47.324034],[36.687835,47.324034],[36.688278,47.324437],[36.688528,47.324275],[36.688326,47.324101],[36.688225,47.324008],[36.688065,47.323862],[36.687962,47.323917],[36.687802,47.324004]]]}},{"type":"Feature","properties":{"cadnum":"2322755400:02:006:0005"},"geometry":{"type":"Polygon","coordinates":[[[36.684418,47.324441],[36.684954,47.3247],[36.68564,47.324186],[36.685266,47.323938],[36.685265,47.323937],[36.685102,47.324034],[36.684418,47.324441]]]}},{"type":"Feature","properties":{"cadnum":"2322755400:02:006:0003"},"geometry":{"type":"Polygon","coordinates":[[[36.684197,47.324335],[36.684418,47.324441],[36.685265,47.323937],[36.685145,47.323858],[36.685081,47.323858],[36.684971,47.323917],[36.684956,47.323925],[36.684764,47.324034],[36.684765,47.324034],[36.684653,47.324097],[36.684197,47.324335]]]}},{"type":"Feature","properties":{"cadnum":"2322755400:02:010:0013"},"geometry":{"type":"Polygon","coordinates":[[[36.68803,47.32383],[36.688125,47.323917],[36.688219,47.324003],[36.688253,47.324034],[36.688326,47.324101],[36.688528,47.324275],[36.688757,47.324106],[36.688672,47.324034],[36.68828,47.323695],[36.68803,47.32383]]]}},{"type":"Feature","properties":{"cadnum":"2322755400:02:010:0004"},"geometry":{"type":"Polygon","coordinates":[[[36.687201,47.322912],[36.687354,47.323061],[36.687428,47.323133],[36.687459,47.323154],[36.687498,47.323149],[36.687759,47.323026],[36.687747,47.323015],[36.687904,47.32294],[36.687809,47.322843],[36.687777,47.322804],[36.687781,47.322802],[36.687663,47.322666],[36.687201,47.322912]]]}},{"type":"Feature","properties":{"cadnum":"2322755400:02:011:0007"},"geometry":{"type":"Polygon","coordinates":[[[36.685557,47.319751],[36.685938,47.320193],[36.685938,47.320194],[36.687679,47.322215],[36.68828,47.32175],[36.686938,47.320194],[36.686937,47.320194],[36.6863,47.319453],[36.685557,47.319751]]]}},{"type":"Feature","properties":{"cadnum":"2322755400:02:011:0008"},"geometry":{"type":"Polygon","coordinates":[[[36.687018,47.319174],[36.687895,47.320193],[36.687895,47.320194],[36.688757,47.321194],[36.688757,47.321195],[36.68911,47.321604],[36.689741,47.321132],[36.689033,47.32031],[36.688929,47.320188],[36.687887,47.318978],[36.687018,47.319174]]]}},{"type":"Feature","properties":{"cadnum":"2322755400:02:010:0018"},"geometry":{"type":"Polygon","coordinates":[[[36.688262,47.323459],[36.688756,47.32385],[36.688757,47.323851],[36.688757,47.323852],[36.688824,47.32391],[36.688939,47.323995],[36.689096,47.323905],[36.688845,47.323675],[36.688432,47.323381],[36.688262,47.323459]]]}},{"type":"Feature","properties":{"cadnum":"2322755400:02:006:0004"},"geometry":{"type":"Polygon","coordinates":[[[36.685321,47.323901],[36.685349,47.323917],[36.685531,47.324022],[36.685536,47.324025],[36.685566,47.324034],[36.685567,47.324034],[36.685709,47.324075],[36.685875,47.324071],[36.686013,47.323999],[36.686575,47.323705],[36.686122,47.323557],[36.685321,47.323901]]]}},{"type":"Feature","properties":{"cadnum":"2322755400:02:011:0005"},"geometry":{"type":"Polygon","coordinates":[[[36.6863,47.319453],[36.687038,47.32031],[36.687039,47.32031],[36.68828,47.32175],[36.688583,47.321979],[36.688757,47.321855],[36.68911,47.321604],[36.688929,47.321394],[36.687995,47.32031],[36.687018,47.319174],[36.6863,47.319453]]]}},{"type":"Feature","properties":{"cadnum":"2322755400:02:007:0007"},"geometry":{"type":"Polygon","coordinates":[[[36.688108,47.323545],[36.688538,47.323917],[36.688537,47.323917],[36.688757,47.324106],[36.688918,47.323994],[36.688891,47.323975],[36.688799,47.323913],[36.688727,47.323855],[36.68825,47.323468],[36.688108,47.323545]]]}},{"type":"Feature","properties":{"cadnum":"2322755400:01:001:0074"},"geometry":{"type":"Polygon","coordinates":[[[36.699432,47.332878],[36.699743,47.333305],[36.699868,47.333476],[36.699915,47.33346],[36.700442,47.333273],[36.69999,47.332674],[36.69975,47.332762],[36.699432,47.332878]]]}},{"type":"Feature","properties":{"cadnum":"2322755400:01:002:0001"},"geometry":{"type":"Polygon","coordinates":[[[36.694549,47.334513],[36.695064,47.334922],[36.695316,47.334773],[36.694796,47.334366],[36.694549,47.334513]]]}},{"type":"Feature","properties":{"cadnum":"2322755400:01:001:0073"},"geometry":{"type":"Polygon","coordinates":[[[36.6964,47.332536],[36.69645,47.33262],[36.696572,47.332827],[36.696785,47.332845],[36.696967,47.333126],[36.697548,47.332952],[36.697686,47.332911],[36.697697,47.332927],[36.697744,47.332913],[36.697756,47.332931],[36.698532,47.332683],[36.698554,47.33272],[36.698853,47.332628],[36.698642,47.332315],[36.697906,47.332535],[36.697823,47.332373],[36.697787,47.332304],[36.697673,47.332333],[36.697665,47.332317],[36.697584,47.332338],[36.697536,47.332261],[36.697474,47.332182],[36.696612,47.332464],[36.6964,47.332536]]]}},{"type":"Feature","properties":{"cadnum":"2322755400:01:001:0031"},"geometry":{"type":"Polygon","coordinates":[[[36.696644,47.333898],[36.697568,47.335203],[36.697569,47.335203],[36.697588,47.33523],[36.698059,47.335087],[36.699915,47.334521],[36.700493,47.334344],[36.701856,47.333929],[36.701224,47.332995],[36.699743,47.333521],[36.6992,47.333713],[36.698796,47.333189],[36.696644,47.333898]]]}},{"type":"Feature","properties":{"cadnum":"2322755400:01:001:0046"},"geometry":{"type":"Polygon","coordinates":[[[36.694365,47.331053],[36.694508,47.331232],[36.694611,47.331364],[36.694613,47.331366],[36.694702,47.33148],[36.694703,47.33148],[36.694726,47.331509],[36.694787,47.33149],[36.694951,47.331439],[36.694952,47.331438],[36.694951,47.331438],[36.694726,47.33115],[36.694732,47.331148],[36.694673,47.331077],[36.694666,47.331078],[36.694576,47.330969],[36.694365,47.331053]]]}},{"type":"Feature","properties":{"cadnum":"2322755400:02:009:0016"},"geometry":{"type":"Polygon","coordinates":[[[36.69364,47.323622],[36.693685,47.323645],[36.693686,47.323645],[36.693809,47.323751],[36.693992,47.323917],[36.693991,47.323917],[36.694061,47.32398],[36.694261,47.323809],[36.69384,47.323456],[36.69364,47.323622]]]}},{"type":"Feature","properties":{"cadnum":"2322755400:02:009:0014"},"geometry":{"type":"Polygon","coordinates":[[[36.693491,47.323753],[36.693652,47.323867],[36.69364,47.323877],[36.693661,47.323894],[36.693622,47.323917],[36.693621,47.323917],[36.693613,47.323923],[36.693615,47.323924],[36.693722,47.324034],[36.69385,47.324165],[36.694061,47.32398],[36.693809,47.323751],[36.693686,47.323645],[36.693685,47.323645],[36.69364,47.323622],[36.693491,47.323753]]]}},{"type":"Feature","properties":{"cadnum":"2322755400:02:009:0022"},"geometry":{"type":"Polygon","coordinates":[[[36.689444,47.326115],[36.689665,47.326262],[36.69007,47.325907],[36.689879,47.325752],[36.689444,47.326115]]]}},{"type":"Feature","properties":{"cadnum":"2322755400:02:010:0003"},"geometry":{"type":"Polygon","coordinates":[[[36.690955,47.32489],[36.691113,47.325045],[36.69134,47.325267],[36.691505,47.325079],[36.691542,47.325036],[36.691223,47.324755],[36.690955,47.32489]]]}},{"type":"Feature","properties":{"cadnum":"2322755400:02:009:0023"},"geometry":{"type":"Polygon","coordinates":[[[36.690816,47.325524],[36.691006,47.32565],[36.691265,47.325446],[36.691074,47.325321],[36.690816,47.325524]]]}},{"type":"Feature","properties":{"cadnum":"2322755400:02:010:0017"},"geometry":{"type":"Polygon","coordinates":[[[36.68921,47.323914],[36.689214,47.323917],[36.689213,47.323917],[36.689293,47.32399],[36.68934,47.324034],[36.689341,47.324034],[36.689434,47.324118],[36.689554,47.324034],[36.689555,47.324034],[36.689837,47.323836],[36.689599,47.323641],[36.68921,47.323914]]]}},{"type":"Feature","properties":{"cadnum":"2322755400:02:009:0007"},"geometry":{"type":"Polygon","coordinates":[[[36.69195,47.326139],[36.692344,47.326464],[36.692539,47.326294],[36.692143,47.325971],[36.69195,47.326139]]]}},{"type":"Feature","properties":{"cadnum":"2322755400:02:009:0020"},"geometry":{"type":"Polygon","coordinates":[[[36.689885,47.32574],[36.690083,47.325892],[36.69061,47.32541],[36.690447,47.325263],[36.69024,47.325438],[36.690039,47.325608],[36.689885,47.32574]]]}},{"type":"Feature","properties":{"cadnum":"2322755400:02:009:0024"},"geometry":{"type":"Polygon","coordinates":[[[36.689837,47.326215],[36.690133,47.326425],[36.690421,47.326182],[36.690125,47.325954],[36.689837,47.326215]]]}},{"type":"Feature","properties":{"cadnum":"2322755400:02:009:0017"},"geometry":{"type":"Polygon","coordinates":[[[36.692402,47.325414],[36.692564,47.325564],[36.692985,47.325199],[36.692823,47.325049],[36.692579,47.325261],[36.692402,47.325414]]]}},{"type":"Feature","properties":{"cadnum":"2322755400:01:017:0022"},"geometry":{"type":"Polygon","coordinates":[[[36.692073,47.32699],[36.692496,47.327339],[36.692694,47.327168],[36.692284,47.326809],[36.692073,47.32699]]]}},{"type":"Feature","properties":{"cadnum":"2322755400:01:017:0025"},"geometry":{"type":"Polygon","coordinates":[[[36.692284,47.326809],[36.692692,47.327165],[36.692808,47.327071],[36.692912,47.326986],[36.69274,47.326848],[36.692493,47.326635],[36.692284,47.326809]]]}},{"type":"Feature","properties":{"cadnum":"2322755400:02:009:0021"},"geometry":{"type":"Polygon","coordinates":[[[36.693244,47.324692],[36.69339,47.324807],[36.693407,47.32482],[36.693931,47.324353],[36.693913,47.324341],[36.693767,47.324243],[36.693665,47.32433],[36.693462,47.324505],[36.693244,47.324692]]]}},{"type":"Feature","properties":{"cadnum":"2322755400:02:010:0009"},"geometry":{"type":"Polygon","coordinates":[[[36.689322,47.324287],[36.689647,47.324584],[36.689654,47.32459],[36.689877,47.324778],[36.690038,47.324649],[36.689491,47.324183],[36.689322,47.324287]]]}},{"type":"Feature","properties":{"cadnum":"2322755400:01:017:0018"},"geometry":{"type":"Polygon","coordinates":[[[36.693331,47.326633],[36.693777,47.326913],[36.693995,47.326719],[36.693985,47.326697],[36.693625,47.326418],[36.693389,47.326591],[36.693331,47.326633]]]}},{"type":"Feature","properties":{"cadnum":"2322755400:01:017:0030"},"geometry":{"type":"Polygon","coordinates":[[[36.690841,47.327109],[36.691261,47.327412],[36.691454,47.327243],[36.691029,47.326942],[36.690841,47.327109]]]}},{"type":"Feature","properties":{"cadnum":"2322755400:02:010:0002"},"geometry":{"type":"Polygon","coordinates":[[[36.688273,47.326963],[36.688273,47.326964],[36.688599,47.327463],[36.688757,47.327347],[36.688863,47.327269],[36.688619,47.32688],[36.688273,47.326963]]]}},{"type":"Feature","properties":{"cadnum":"2322755400:01:017:0021"},"geometry":{"type":"Polygon","coordinates":[[[36.691029,47.326942],[36.691454,47.327243],[36.691663,47.327069],[36.691247,47.326761],[36.691029,47.326942]]]}},{"type":"Feature","properties":{"cadnum":"2322755400:01:003:0017"},"geometry":{"type":"Polygon","coordinates":[[[36.684252,47.332698],[36.684368,47.332963],[36.686069,47.332625],[36.685966,47.332375],[36.684252,47.332698]]]}},{"type":"Feature","properties":{"cadnum":"2322755400:01:003:0012"},"geometry":{"type":"Polygon","coordinates":[[[36.687301,47.333493],[36.687338,47.333529],[36.687433,47.33362],[36.68744,47.333627],[36.687549,47.333574],[36.687408,47.33344],[36.687301,47.333493]]]}},{"type":"Feature","properties":{"cadnum":"2322755400:01:003:0013"},"geometry":{"type":"Polygon","coordinates":[[[36.686959,47.333656],[36.686996,47.333693],[36.687091,47.333784],[36.687098,47.333792],[36.687272,47.333708],[36.687264,47.333701],[36.687169,47.33361],[36.687132,47.333573],[36.686959,47.333656]]]}},{"type":"Feature","properties":{"cadnum":"2322755400:01:003:0004"},"geometry":{"type":"Polygon","coordinates":[[[36.685902,47.33403],[36.686022,47.334049],[36.686226,47.334212],[36.686735,47.333958],[36.686855,47.333899],[36.686763,47.333813],[36.686617,47.333671],[36.686394,47.333773],[36.68641,47.333787],[36.685902,47.33403]]]}},{"type":"Feature","properties":{"cadnum":"2322755400:01:003:0014"},"geometry":{"type":"Polygon","coordinates":[[[36.685667,47.334542],[36.685752,47.334791],[36.686376,47.334498],[36.68641,47.334468],[36.686508,47.334431],[36.686378,47.33439],[36.686315,47.334398],[36.68623,47.334391],[36.686028,47.334362],[36.685667,47.334542]]]}},{"type":"Feature","properties":{"cadnum":"2322755400:01:003:0009"},"geometry":{"type":"Polygon","coordinates":[[[36.688318,47.33308],[36.688458,47.333211],[36.688687,47.333097],[36.688546,47.332966],[36.688318,47.33308]]]}},{"type":"Feature","properties":{"cadnum":"2322755400:01:003:0006"},"geometry":{"type":"Polygon","coordinates":[[[36.686721,47.333772],[36.686865,47.333905],[36.687077,47.333803],[36.686932,47.33367],[36.686721,47.333772]]]}},{"type":"Feature","properties":{"cadnum":"2322755400:02:005:0004"},"geometry":{"type":"Polygon","coordinates":[[[36.674866,47.325624],[36.674901,47.32625],[36.675196,47.325999],[36.675721,47.325534],[36.676231,47.325067],[36.676812,47.324545],[36.675393,47.324036],[36.674866,47.325624]]]}},{"type":"Feature","properties":{"cadnum":"2322755400:02:011:0004"},"geometry":{"type":"Polygon","coordinates":[[[36.689096,47.318928],[36.690284,47.32031],[36.690285,47.32031],[36.690498,47.320556],[36.690872,47.320271],[36.691844,47.319533],[36.691597,47.319365],[36.691658,47.31928],[36.691238,47.318995],[36.689096,47.318928]]]}},{"type":"Feature","properties":{"cadnum":"2322755400:02:011:0006"},"geometry":{"type":"Polygon","coordinates":[[[36.687887,47.318978],[36.688757,47.319989],[36.688933,47.320193],[36.688933,47.320194],[36.689741,47.321132],[36.690498,47.320556],[36.690185,47.320194],[36.690184,47.320194],[36.689096,47.318928],[36.688921,47.31893],[36.688583,47.318933],[36.687887,47.318978]]]}},{"type":"Feature","properties":{"cadnum":"2322755400:02:006:0008"},"geometry":{"type":"Polygon","coordinates":[[[36.686403,47.325345],[36.686578,47.325471],[36.68663,47.325514],[36.686827,47.325655],[36.68694,47.325568],[36.686957,47.325554],[36.686532,47.325245],[36.686403,47.325345]]]}},{"type":"Feature","properties":{"cadnum":"2322755400:02:010:0007"},"geometry":{"type":"Polygon","coordinates":[[[36.687427,47.325712],[36.688093,47.326269],[36.688222,47.326166],[36.688105,47.326075],[36.688096,47.326067],[36.688076,47.326053],[36.687546,47.325614],[36.687432,47.325707],[36.687427,47.325712]]]}},{"type":"Feature","properties":{"cadnum":"2322755400:02:010:0016"},"geometry":{"type":"Polygon","coordinates":[[[36.687298,47.325812],[36.687644,47.326105],[36.687833,47.326264],[36.687971,47.326372],[36.688093,47.326269],[36.687427,47.325712],[36.687298,47.325812]]]}},{"type":"Feature","properties":{"cadnum":"2322755400:02:010:0015"},"geometry":{"type":"Polygon","coordinates":[[[36.688115,47.325484],[36.688442,47.325739],[36.688592,47.325846],[36.688812,47.32567],[36.688341,47.325316],[36.688115,47.325484]]]}},{"type":"Feature","properties":{"cadnum":"2322755400:02:008:0006"},"geometry":{"type":"Polygon","coordinates":[[[36.686089,47.327046],[36.686678,47.327527],[36.686823,47.327421],[36.686242,47.326939],[36.686089,47.327046]]]}},{"type":"Feature","properties":{"cadnum":"2322755400:02:006:0014"},"geometry":{"type":"Polygon","coordinates":[[[36.684815,47.326432],[36.685279,47.326764],[36.685467,47.326613],[36.685259,47.326294],[36.685143,47.32621],[36.684815,47.326432]]]}},{"type":"Feature","properties":{"cadnum":"2322755400:02:007:0004"},"geometry":{"type":"Polygon","coordinates":[[[36.687428,47.327111],[36.68785,47.327437],[36.688065,47.327259],[36.688037,47.32724],[36.687641,47.326935],[36.687428,47.327111]]]}},{"type":"Feature","properties":{"cadnum":"2322755400:02:007:0003"},"geometry":{"type":"Polygon","coordinates":[[[36.684974,47.327003],[36.685231,47.327178],[36.685513,47.327368],[36.685676,47.327234],[36.685444,47.327032],[36.68521,47.326821],[36.684974,47.327003]]]}},{"type":"Feature","properties":{"cadnum":"2322755400:02:006:0013"},"geometry":{"type":"Polygon","coordinates":[[[36.683952,47.327128],[36.684425,47.327453],[36.684641,47.327283],[36.68418,47.32695],[36.683952,47.327128]]]}},{"type":"Feature","properties":{"cadnum":"2322755400:02:006:0012"},"geometry":{"type":"Polygon","coordinates":[[[36.683663,47.327287],[36.683906,47.32745],[36.684172,47.327628],[36.684394,47.327461],[36.684134,47.327276],[36.683873,47.327108],[36.683663,47.327287]]]}},{"type":"Feature","properties":{"cadnum":"2322755400:02:006:0010"},"geometry":{"type":"Polygon","coordinates":[[[36.684168,47.326941],[36.684641,47.327283],[36.684864,47.327117],[36.684392,47.326776],[36.684168,47.326941]]]}},{"type":"Feature","properties":{"cadnum":"2322755400:01:001:0028"},"geometry":{"type":"Polygon","coordinates":[[[36.701363,47.332576],[36.701436,47.332692],[36.701619,47.332987],[36.701898,47.332892],[36.701721,47.332598],[36.701653,47.332479],[36.701363,47.332576]]]}},{"type":"Feature","properties":{"cadnum":"2322755400:01:001:0068"},"geometry":{"type":"Polygon","coordinates":[[[36.703168,47.331803],[36.703504,47.332236],[36.703784,47.332141],[36.703457,47.331708],[36.703168,47.331803]]]}},{"type":"Feature","properties":{"cadnum":"2322755400:01:001:0060"},"geometry":{"type":"Polygon","coordinates":[[[36.703457,47.331708],[36.703651,47.331964],[36.704206,47.331794],[36.704035,47.331531],[36.703457,47.331708]]]}},{"type":"Feature","properties":{"cadnum":"2322755400:01:001:0062"},"geometry":{"type":"Polygon","coordinates":[[[36.701653,47.331698],[36.70178,47.331879],[36.701845,47.331966],[36.701937,47.332096],[36.702228,47.332001],[36.702075,47.331779],[36.701945,47.331606],[36.701653,47.331698]]]}},{"type":"Feature","properties":{"cadnum":"2322755400:01:001:0023"},"geometry":{"type":"Polygon","coordinates":[[[36.69624,47.330505],[36.696336,47.33064],[36.696407,47.330617],[36.696311,47.330482],[36.69624,47.330505]]]}},{"type":"Feature","properties":{"cadnum":"2322755400:01:001:0056"},"geometry":{"type":"Polygon","coordinates":[[[36.695534,47.331123],[36.695625,47.331228],[36.695673,47.331283],[36.695846,47.331234],[36.696437,47.331046],[36.696306,47.330864],[36.69596,47.330982],[36.695727,47.331062],[36.695534,47.331123]]]}},{"type":"Feature","properties":{"cadnum":"2322755400:01:001:0075"},"geometry":{"type":"Polygon","coordinates":[[[36.698336,47.329934],[36.69834,47.329939],[36.698351,47.329954],[36.698414,47.330043],[36.698672,47.329961],[36.698587,47.329843],[36.698485,47.32988],[36.698463,47.329889],[36.698336,47.329934]]]}},{"type":"Feature","properties":{"cadnum":"2322755400:01:001:0005"},"geometry":{"type":"Polygon","coordinates":[[[36.697911,47.329831],[36.698037,47.33001],[36.698048,47.330027],[36.698342,47.329929],[36.69845,47.329891],[36.698497,47.329876],[36.698509,47.329871],[36.698371,47.32968],[36.698332,47.329693],[36.698284,47.329709],[36.698216,47.329731],[36.698149,47.329753],[36.697994,47.329804],[36.697944,47.32982],[36.697926,47.329826],[36.697911,47.329831]]]}},{"type":"Feature","properties":{"cadnum":"2322755400:01:001:0051"},"geometry":{"type":"Polygon","coordinates":[[[36.695161,47.33032],[36.695209,47.330377],[36.695229,47.330399],[36.695456,47.330311],[36.69539,47.330233],[36.695161,47.33032]]]}},{"type":"Feature","properties":{"cadnum":"2322755400:01:001:0026"},"geometry":{"type":"Polygon","coordinates":[[[36.69633,47.33043],[36.696431,47.330563],[36.696502,47.330539],[36.6964,47.330406],[36.69633,47.33043]]]}},{"type":"Feature","properties":{"cadnum":"2322755400:01:001:0077"},"geometry":{"type":"Polygon","coordinates":[[[36.695586,47.330657],[36.695664,47.330772],[36.695615,47.330787],[36.695654,47.330827],[36.695708,47.33091],[36.69565,47.330931],[36.695731,47.33106],[36.695963,47.330981],[36.695815,47.330775],[36.695704,47.330619],[36.695586,47.330657]]]}},{"type":"Feature","properties":{"cadnum":"2322755400:01:001:0038"},"geometry":{"type":"Polygon","coordinates":[[[36.698076,47.329268],[36.698181,47.329409],[36.698381,47.32934],[36.698277,47.3292],[36.698076,47.329268]]]}},{"type":"Feature","properties":{"cadnum":"2322755400:01:001:0079"},"geometry":{"type":"Polygon","coordinates":[[[36.6965,47.330348],[36.696655,47.330559],[36.696711,47.330576],[36.697195,47.330396],[36.697041,47.330175],[36.6965,47.330348]]]}},{"type":"Feature","properties":{"cadnum":"2322755400:01:001:0053"},"geometry":{"type":"Polygon","coordinates":[[[36.697854,47.329729],[36.697926,47.329826],[36.697938,47.329822],[36.697994,47.329804],[36.698149,47.329753],[36.698284,47.329709],[36.698212,47.329611],[36.698149,47.329631],[36.697923,47.329707],[36.697854,47.329729]]]}},{"type":"Feature","properties":{"cadnum":"2322755400:01:001:0042"},"geometry":{"type":"Polygon","coordinates":[[[36.699006,47.331125],[36.6991,47.331252],[36.699168,47.331228],[36.699356,47.331167],[36.699428,47.331252],[36.699742,47.331157],[36.699577,47.33093],[36.699079,47.331099],[36.699006,47.331125]]]}},{"type":"Feature","properties":{"cadnum":"2322755400:01:001:0054"},"geometry":{"type":"Polygon","coordinates":[[[36.697764,47.3295],[36.697901,47.329707],[36.698257,47.329597],[36.698121,47.329391],[36.697764,47.3295]]]}},{"type":"Feature","properties":{"cadnum":"2322755400:01:017:0007"},"geometry":{"type":"Polygon","coordinates":[[[36.694563,47.330529],[36.69465,47.330634],[36.695073,47.330469],[36.695074,47.330469],[36.695074,47.33047],[36.695076,47.330472],[36.695181,47.330431],[36.695153,47.3304],[36.695153,47.330399],[36.695209,47.330377],[36.695161,47.33032],[36.694803,47.330458],[36.694792,47.330444],[36.694563,47.330529]]]}},{"type":"Feature","properties":{"cadnum":"2322755400:02:010:0008"},"geometry":{"type":"Polygon","coordinates":[[[36.691267,47.321938],[36.691569,47.322363],[36.691816,47.322265],[36.691525,47.321837],[36.691267,47.321938]]]}},{"type":"Feature","properties":{"cadnum":"2322755400:02:010:0012"},"geometry":{"type":"Polygon","coordinates":[[[36.692713,47.321012],[36.692933,47.321344],[36.693235,47.32112],[36.693012,47.320831],[36.692713,47.321012]]]}},{"type":"Feature","properties":{"cadnum":"2322755400:02:010:0010"},"geometry":{"type":"Polygon","coordinates":[[[36.693219,47.321134],[36.69346,47.321481],[36.693488,47.32152],[36.693609,47.321642],[36.69385,47.321455],[36.693448,47.321017],[36.693219,47.321134]]]}},{"type":"Feature","properties":{"cadnum":"2322755400:02:010:0006"},"geometry":{"type":"Polygon","coordinates":[[[36.691949,47.321246],[36.692139,47.321621],[36.692343,47.321524],[36.692466,47.321474],[36.692292,47.321141],[36.691949,47.321246]]]}},{"type":"Feature","properties":{"cadnum":"2322755400:02:010:0014"},"geometry":{"type":"Polygon","coordinates":[[[36.692417,47.321906],[36.692708,47.322301],[36.692757,47.322369],[36.692948,47.322212],[36.692635,47.321824],[36.692417,47.321906]]]}}]}