{"type":"FeatureCollection","features":[{"type":"Feature","properties":{"cadnum":"2322185703:07:001:0329"},"geometry":{"type":"Polygon","coordinates":[[[34.974778,47.757785],[34.975061,47.757866],[34.975061,47.757865],[34.975062,47.757865],[34.975063,47.757866],[34.975192,47.757649],[34.974907,47.757569],[34.974783,47.757778],[34.974782,47.757778],[34.974778,47.757785]]]}},{"type":"Feature","properties":{"cadnum":"2322185703:07:001:0197"},"geometry":{"type":"Polygon","coordinates":[[[34.977569,47.758055],[34.977935,47.758154],[34.978104,47.757874],[34.978204,47.757711],[34.978326,47.757462],[34.977966,47.757365],[34.977801,47.757629],[34.97772,47.757778],[34.977719,47.757778],[34.977696,47.757821],[34.977656,47.757894],[34.977657,47.757894],[34.977569,47.758055]]]}},{"type":"Feature","properties":{"cadnum":"2322185703:07:001:0331"},"geometry":{"type":"Polygon","coordinates":[[[34.977339,47.758477],[34.977697,47.758549],[34.977935,47.758154],[34.977569,47.758055],[34.977339,47.758477]]]}},{"type":"Feature","properties":{"cadnum":"2322185703:07:001:0245"},"geometry":{"type":"Polygon","coordinates":[[[34.966415,47.757851],[34.966572,47.757894],[34.966749,47.757941],[34.966816,47.757807],[34.966995,47.75745],[34.966643,47.757394],[34.966452,47.757778],[34.966415,47.757851]]]}},{"type":"Feature","properties":{"cadnum":"2322185703:07:001:0236"},"geometry":{"type":"Polygon","coordinates":[[[34.966749,47.757941],[34.966961,47.757998],[34.96726,47.758034],[34.967339,47.757953],[34.967431,47.757812],[34.967409,47.757805],[34.967535,47.757527],[34.967492,47.75752],[34.967093,47.757465],[34.966995,47.75745],[34.96683,47.757778],[34.966816,47.757807],[34.966772,47.757894],[34.966773,47.757894],[34.966749,47.757941]]]}},{"type":"Feature","properties":{"cadnum":"2322185703:07:001:0317"},"geometry":{"type":"Polygon","coordinates":[[[34.966053,47.753952],[34.966057,47.753954],[34.966097,47.753972],[34.966567,47.754201],[34.966568,47.754201],[34.966718,47.754274],[34.966854,47.754133],[34.967,47.753981],[34.966283,47.753633],[34.966283,47.753634],[34.966282,47.753634],[34.966266,47.753628],[34.966053,47.753952]]]}},{"type":"Feature","properties":{"cadnum":"2322185703:07:001:0318"},"geometry":{"type":"Polygon","coordinates":[[[34.966283,47.753633],[34.967,47.753981],[34.967254,47.75372],[34.9668,47.753534],[34.966439,47.753385],[34.966283,47.753633]]]}},{"type":"Feature","properties":{"cadnum":"2322185703:07:001:0332"},"geometry":{"type":"Polygon","coordinates":[[[34.966718,47.754274],[34.96705,47.754447],[34.96729,47.754196],[34.967546,47.75391],[34.967254,47.75372],[34.967,47.753981],[34.9669,47.754085],[34.966899,47.754085],[34.966854,47.754133],[34.966788,47.754201],[34.966718,47.754274]]]}},{"type":"Feature","properties":{"cadnum":"2322185703:07:001:0097"},"geometry":{"type":"Polygon","coordinates":[[[34.972831,47.757171],[34.973204,47.757269],[34.973378,47.756958],[34.973012,47.756861],[34.972831,47.757171]]]}},{"type":"Feature","properties":{"cadnum":"2322185703:07:001:0163"},"geometry":{"type":"Polygon","coordinates":[[[34.969554,47.754352],[34.969968,47.754427],[34.97005,47.754201],[34.970213,47.753752],[34.969826,47.753647],[34.969656,47.754085],[34.969655,47.754085],[34.969623,47.754169],[34.969611,47.754201],[34.969554,47.754352]]]}},{"type":"Feature","properties":{"cadnum":"2322185703:07:001:0242"},"geometry":{"type":"Polygon","coordinates":[[[34.974168,47.757739],[34.974478,47.757823],[34.974666,47.757485],[34.974365,47.757399],[34.974168,47.757739]]]}},{"type":"Feature","properties":{"cadnum":"2322185703:07:001:0207"},"geometry":{"type":"Polygon","coordinates":[[[34.974365,47.757399],[34.974666,47.757485],[34.97489,47.757078],[34.97489,47.757079],[34.974907,47.757046],[34.975061,47.756768],[34.975161,47.756589],[34.974973,47.756535],[34.974879,47.75651],[34.974667,47.75688],[34.974365,47.757399]]]}},{"type":"Feature","properties":{"cadnum":"2322185703:07:001:0023"},"geometry":{"type":"Polygon","coordinates":[[[34.973012,47.756861],[34.973378,47.756958],[34.973789,47.756224],[34.97344,47.756133],[34.973012,47.756861]]]}},{"type":"Feature","properties":{"cadnum":"2322185703:07:001:0240"},"geometry":{"type":"Polygon","coordinates":[[[34.969536,47.754395],[34.969759,47.754431],[34.969954,47.754464],[34.969968,47.754427],[34.969554,47.754352],[34.969553,47.754352],[34.969536,47.754395]]]}},{"type":"Feature","properties":{"cadnum":"2322185703:07:001:0205"},"geometry":{"type":"Polygon","coordinates":[[[34.974907,47.757569],[34.975061,47.757613],[34.975062,47.757613],[34.975192,47.757649],[34.975556,47.757037],[34.975747,47.756758],[34.975456,47.756676],[34.975395,47.756761],[34.975192,47.757091],[34.974907,47.757569]]]}},{"type":"Feature","properties":{"cadnum":"2322185703:07:001:0243"},"geometry":{"type":"Polygon","coordinates":[[[34.976458,47.756001],[34.976918,47.75613],[34.977154,47.755732],[34.97669,47.755638],[34.976458,47.756001]]]}},{"type":"Feature","properties":{"cadnum":"2322185703:07:001:0241"},"geometry":{"type":"Polygon","coordinates":[[[34.977112,47.756821],[34.97752,47.756935],[34.977697,47.756651],[34.977903,47.756309],[34.977493,47.756195],[34.977331,47.756465],[34.977112,47.756821]]]}},{"type":"Feature","properties":{"cadnum":"2322185703:07:001:0325"},"geometry":{"type":"Polygon","coordinates":[[[34.977898,47.756318],[34.978302,47.75643],[34.978504,47.756062],[34.978118,47.755954],[34.978084,47.75601],[34.977903,47.756309],[34.977898,47.756318]]]}},{"type":"Feature","properties":{"cadnum":"2322185703:07:001:0187"},"geometry":{"type":"Polygon","coordinates":[[[34.976113,47.756546],[34.976586,47.756678],[34.976799,47.756328],[34.976918,47.75613],[34.976458,47.756001],[34.976323,47.75621],[34.976113,47.756546]]]}},{"type":"Feature","properties":{"cadnum":"2322185703:07:001:0190"},"geometry":{"type":"Polygon","coordinates":[[[34.977493,47.756195],[34.977903,47.756309],[34.978084,47.75601],[34.977673,47.755895],[34.977493,47.756195]]]}},{"type":"Feature","properties":{"cadnum":"2322185703:07:001:0324"},"geometry":{"type":"Polygon","coordinates":[[[34.97752,47.756935],[34.977937,47.757051],[34.978119,47.756762],[34.978302,47.75643],[34.977898,47.756318],[34.977697,47.756651],[34.97752,47.756935]]]}},{"type":"Feature","properties":{"cadnum":"2322185703:07:001:0194"},"geometry":{"type":"Polygon","coordinates":[[[34.979601,47.757606],[34.980317,47.757805],[34.980467,47.757428],[34.979751,47.757229],[34.979601,47.757606]]]}},{"type":"Feature","properties":{"cadnum":"2322185703:07:001:0322"},"geometry":{"type":"Polygon","coordinates":[[[34.964744,47.738638],[34.965372,47.738722],[34.965399,47.738638],[34.965497,47.738258],[34.964881,47.738175],[34.964744,47.738638]]]}},{"type":"Feature","properties":{"cadnum":"2322185703:07:001:0323"},"geometry":{"type":"Polygon","coordinates":[[[34.964575,47.739215],[34.965188,47.739297],[34.965372,47.738722],[34.964744,47.738638],[34.964575,47.739215]]]}},{"type":"Feature","properties":{"cadnum":"2322185703:07:001:0326"},"geometry":{"type":"Polygon","coordinates":[[[34.968912,47.755237],[34.969153,47.755266],[34.969177,47.755191],[34.969025,47.755172],[34.96903,47.755159],[34.968934,47.755147],[34.968931,47.755161],[34.968912,47.755237]]]}}]}