{"type":"FeatureCollection","features":[{"type":"Feature","properties":{"cadnum":"2322788001:01:001:0049"},"geometry":{"type":"Polygon","coordinates":[[[36.9351,47.357643],[36.935475,47.357709],[36.935496,47.357646],[36.935522,47.357575],[36.935582,47.357419],[36.93561,47.357346],[36.935605,47.35735],[36.935542,47.357379],[36.935456,47.357378],[36.935167,47.35736],[36.935153,47.357419],[36.9351,47.357643]]]}},{"type":"Feature","properties":{"cadnum":"2322788001:01:001:0016"},"geometry":{"type":"Polygon","coordinates":[[[36.934411,47.357995],[36.934442,47.357998],[36.934752,47.358036],[36.93507,47.358074],[36.935076,47.358046],[36.935151,47.357761],[36.934501,47.357669],[36.934411,47.357995]]]}},{"type":"Feature","properties":{"cadnum":"2322788001:01:001:0040"},"geometry":{"type":"Polygon","coordinates":[[[36.932626,47.358224],[36.932859,47.358251],[36.933192,47.357457],[36.932815,47.357391],[36.932805,47.357419],[36.932804,47.357419],[36.932778,47.357496],[36.932762,47.357535],[36.932763,47.357535],[36.932739,47.357598],[36.932701,47.357696],[36.932684,47.357745],[36.932787,47.357766],[36.932626,47.358224]]]}},{"type":"Feature","properties":{"cadnum":"2322788001:01:002:0017"},"geometry":{"type":"Polygon","coordinates":[[[36.934222,47.360336],[36.935517,47.360223],[36.935593,47.35998],[36.934356,47.360096],[36.934308,47.360127],[36.934251,47.360263],[36.934222,47.360336]]]}},{"type":"Feature","properties":{"cadnum":"2322788001:01:001:0032"},"geometry":{"type":"Polygon","coordinates":[[[36.931154,47.357698],[36.931373,47.357758],[36.931505,47.357531],[36.931577,47.357407],[36.931363,47.357348],[36.931324,47.357413],[36.931321,47.357419],[36.93132,47.357419],[36.931275,47.357493],[36.93125,47.357535],[36.931154,47.357698]]]}},{"type":"Feature","properties":{"cadnum":"2322788001:01:002:0018"},"geometry":{"type":"Polygon","coordinates":[[[36.933319,47.361242],[36.933433,47.361256],[36.933435,47.361256],[36.935139,47.361458],[36.935201,47.361256],[36.935517,47.360223],[36.934222,47.360336],[36.934251,47.360263],[36.93362,47.36031],[36.933353,47.36114],[36.933352,47.36114],[36.933319,47.361242]]]}},{"type":"Feature","properties":{"cadnum":"2322788001:01:001:0070"},"geometry":{"type":"Polygon","coordinates":[[[36.926666,47.354685],[36.927161,47.354746],[36.927179,47.354644],[36.927189,47.354604],[36.927229,47.354413],[36.926685,47.354405],[36.926666,47.354685]]]}},{"type":"Feature","properties":{"cadnum":"2322788001:01:001:0060"},"geometry":{"type":"Polygon","coordinates":[[[36.926631,47.355533],[36.927024,47.355569],[36.927075,47.355409],[36.926638,47.355369],[36.926631,47.355533]]]}},{"type":"Feature","properties":{"cadnum":"2322788001:01:001:0036"},"geometry":{"type":"Polygon","coordinates":[[[36.927423,47.355573],[36.92768,47.355596],[36.927789,47.355612],[36.927987,47.354896],[36.927609,47.354851],[36.927423,47.355573]]]}},{"type":"Feature","properties":{"cadnum":"2322788001:01:001:0019"},"geometry":{"type":"Polygon","coordinates":[[[36.928156,47.354818],[36.928588,47.354862],[36.928636,47.354521],[36.928231,47.35448],[36.928156,47.354818]]]}},{"type":"Feature","properties":{"cadnum":"2322788001:01:001:0065"},"geometry":{"type":"Polygon","coordinates":[[[36.928017,47.355631],[36.928214,47.355651],[36.92841,47.35567],[36.928565,47.35497],[36.928159,47.35493],[36.928017,47.355631]]]}},{"type":"Feature","properties":{"cadnum":"2322788001:01:001:0059"},"geometry":{"type":"Polygon","coordinates":[[[36.926635,47.354843],[36.926662,47.354848],[36.926638,47.355369],[36.927075,47.355409],[36.927197,47.355024],[36.927242,47.354845],[36.926646,47.354789],[36.926635,47.354843]]]}},{"type":"Feature","properties":{"cadnum":"2322788001:01:001:0017"},"geometry":{"type":"Polygon","coordinates":[[[36.930191,47.355013],[36.930456,47.355046],[36.93062,47.355066],[36.930628,47.355037],[36.930628,47.355036],[36.930649,47.354957],[36.930671,47.354938],[36.930684,47.354889],[36.930667,47.354888],[36.930667,47.354887],[36.930789,47.354529],[36.930539,47.354499],[36.930333,47.354473],[36.930191,47.355013]]]}},{"type":"Feature","properties":{"cadnum":"2322788001:01:001:0055"},"geometry":{"type":"Polygon","coordinates":[[[36.930026,47.356436],[36.930416,47.356482],[36.930456,47.356487],[36.930539,47.356497],[36.930628,47.356508],[36.930808,47.356529],[36.930885,47.356228],[36.930456,47.356177],[36.930103,47.356134],[36.930026,47.356436]]]}},{"type":"Feature","properties":{"cadnum":"2322788001:01:002:0012"},"geometry":{"type":"Polygon","coordinates":[[[36.93289,47.353647],[36.932897,47.353697],[36.932896,47.353697],[36.932937,47.354005],[36.933069,47.353998],[36.933358,47.353981],[36.93333,47.353757],[36.933313,47.353622],[36.93289,47.353647]]]}},{"type":"Feature","properties":{"cadnum":"2322788001:01:001:0033"},"geometry":{"type":"Polygon","coordinates":[[[36.931076,47.354364],[36.931438,47.354392],[36.931449,47.354216],[36.93173,47.354199],[36.931729,47.353726],[36.931518,47.353756],[36.931439,47.353766],[36.931386,47.353772],[36.931213,47.353796],[36.931211,47.353814],[36.931212,47.353814],[36.93121,47.354011],[36.931076,47.354364]]]}},{"type":"Feature","properties":{"cadnum":"2322788001:01:001:0063"},"geometry":{"type":"Polygon","coordinates":[[[36.939989,47.355485],[36.940498,47.355551],[36.940555,47.355316],[36.940034,47.35526],[36.940005,47.355373],[36.939989,47.355485]]]}},{"type":"Feature","properties":{"cadnum":"2322788001:01:001:0053"},"geometry":{"type":"Polygon","coordinates":[[[36.938564,47.356926],[36.938994,47.356982],[36.939024,47.356967],[36.939079,47.356773],[36.938625,47.356714],[36.938564,47.356926]]]}},{"type":"Feature","properties":{"cadnum":"2322788001:01:001:0072"},"geometry":{"type":"Polygon","coordinates":[[[36.93856,47.35515],[36.939463,47.355276],[36.939486,47.355187],[36.939113,47.355141],[36.939125,47.355047],[36.93861,47.354978],[36.93856,47.35515]]]}},{"type":"Feature","properties":{"cadnum":"2322788001:01:001:0046"},"geometry":{"type":"Polygon","coordinates":[[[36.936365,47.356295],[36.937089,47.356418],[36.9371,47.35639],[36.937159,47.35625],[36.936594,47.356166],[36.936491,47.35615],[36.936411,47.356139],[36.936365,47.356295]]]}},{"type":"Feature","properties":{"cadnum":"2322788001:01:001:0018"},"geometry":{"type":"Polygon","coordinates":[[[36.937001,47.35672],[36.937797,47.356853],[36.937921,47.356513],[36.937124,47.356379],[36.93706,47.356556],[36.937001,47.35672]]]}},{"type":"Feature","properties":{"cadnum":"2322788001:01:001:0022"},"geometry":{"type":"Polygon","coordinates":[[[36.936647,47.35537],[36.937438,47.355495],[36.937493,47.355333],[36.936876,47.355238],[36.93677,47.355224],[36.93669,47.355212],[36.936647,47.35537]]]}},{"type":"Feature","properties":{"cadnum":"2322788001:01:001:0031"},"geometry":{"type":"Polygon","coordinates":[[[36.936994,47.354138],[36.937854,47.354241],[36.937897,47.354117],[36.937223,47.354002],[36.93712,47.353988],[36.937042,47.35398],[36.936994,47.354138]]]}},{"type":"Feature","properties":{"cadnum":"2322788001:01:001:0069"},"geometry":{"type":"Polygon","coordinates":[[[36.937541,47.354765],[36.937703,47.354784],[36.937744,47.354662],[36.938088,47.354721],[36.938232,47.354741],[36.938465,47.354775],[36.938544,47.35458],[36.938154,47.354521],[36.937806,47.354469],[36.937805,47.354469],[36.937836,47.35438],[36.937677,47.354354],[36.937607,47.354548],[36.937564,47.354695],[36.937541,47.354765]]]}},{"type":"Feature","properties":{"cadnum":"2322788001:01:001:0058"},"geometry":{"type":"Polygon","coordinates":[[[36.939281,47.354622],[36.939672,47.354662],[36.939712,47.354518],[36.939671,47.35451],[36.939565,47.354495],[36.939299,47.354465],[36.939281,47.354622]]]}},{"type":"Feature","properties":{"cadnum":"2322788001:01:001:0028"},"geometry":{"type":"Polygon","coordinates":[[[36.9283,47.358835],[36.928905,47.35889],[36.928982,47.358203],[36.928364,47.358142],[36.9283,47.358835]]]}},{"type":"Feature","properties":{"cadnum":"2322788001:01:002:0016"},"geometry":{"type":"Polygon","coordinates":[[[36.932798,47.362816],[36.933576,47.362923],[36.933598,47.362851],[36.932821,47.362741],[36.932798,47.362816]]]}},{"type":"Feature","properties":{"cadnum":"2322788001:01:002:0015"},"geometry":{"type":"Polygon","coordinates":[[[36.932821,47.362741],[36.933598,47.362851],[36.93371,47.362495],[36.93294,47.362364],[36.932821,47.362741]]]}},{"type":"Feature","properties":{"cadnum":"2322788001:01:002:0014"},"geometry":{"type":"Polygon","coordinates":[[[36.932626,47.363364],[36.934517,47.363707],[36.934756,47.363131],[36.933632,47.362925],[36.933403,47.363483],[36.933402,47.363483],[36.932635,47.363343],[36.932626,47.363364]]]}},{"type":"Feature","properties":{"cadnum":"2322788001:01:001:0064"},"geometry":{"type":"Polygon","coordinates":[[[36.933675,47.355119],[36.933954,47.355155],[36.934093,47.355171],[36.934159,47.355179],[36.934273,47.355196],[36.934294,47.355051],[36.934199,47.355037],[36.934164,47.355034],[36.933993,47.355002],[36.933904,47.354987],[36.9338,47.354971],[36.933718,47.354958],[36.933675,47.355119]]]}},{"type":"Feature","properties":{"cadnum":"2322788001:01:001:0077"},"geometry":{"type":"Polygon","coordinates":[[[36.934954,47.35611],[36.935111,47.35613],[36.935216,47.356144],[36.935332,47.356159],[36.935357,47.356161],[36.935408,47.356164],[36.935606,47.356174],[36.935749,47.356038],[36.935017,47.355925],[36.934954,47.35611]]]}},{"type":"Feature","properties":{"cadnum":"2322788001:01:001:0021"},"geometry":{"type":"Polygon","coordinates":[[[36.930948,47.355106],[36.931276,47.355146],[36.931365,47.354849],[36.931438,47.354392],[36.931076,47.354364],[36.93103,47.354812],[36.930948,47.355106]]]}},{"type":"Feature","properties":{"cadnum":"2322788001:01:001:0054"},"geometry":{"type":"Polygon","coordinates":[[[36.931276,47.355146],[36.931635,47.355184],[36.93173,47.355166],[36.931876,47.354625],[36.93141,47.354568],[36.931365,47.354849],[36.931276,47.355146]]]}},{"type":"Feature","properties":{"cadnum":"2322788001:01:001:0052"},"geometry":{"type":"Polygon","coordinates":[[[36.940543,47.358161],[36.94058,47.358169],[36.940661,47.358185],[36.940989,47.35825],[36.94109,47.35827],[36.941194,47.358291],[36.941286,47.358062],[36.940765,47.357947],[36.940638,47.357918],[36.940543,47.358161]]]}},{"type":"Feature","properties":{"cadnum":"2322788001:01:002:0010"},"geometry":{"type":"Polygon","coordinates":[[[36.93913,47.359633],[36.939261,47.359679],[36.939388,47.359515],[36.939258,47.359468],[36.93913,47.359633]]]}},{"type":"Feature","properties":{"cadnum":"2322788001:01:002:0013"},"geometry":{"type":"Polygon","coordinates":[[[36.936775,47.360408],[36.936979,47.360422],[36.936978,47.360432],[36.937151,47.360444],[36.937176,47.360446],[36.937194,47.360323],[36.937168,47.360321],[36.937021,47.360312],[36.937021,47.360309],[36.936998,47.360289],[36.936794,47.360276],[36.936775,47.360408]]]}}]}