{"type":"FeatureCollection","features":[{"type":"Feature","properties":{"cadnum":"2322188805:13:001:0286"},"geometry":{"type":"Polygon","coordinates":[[[34.919231,47.850324],[34.919642,47.850329],[34.919634,47.850018],[34.919623,47.849559],[34.919274,47.849539],[34.919241,47.850133],[34.919231,47.850324]]]}},{"type":"Feature","properties":{"cadnum":"2322188805:13:001:0283"},"geometry":{"type":"Polygon","coordinates":[[[34.916207,47.850712],[34.916667,47.850647],[34.916722,47.850165],[34.916727,47.850126],[34.916733,47.850076],[34.916735,47.850053],[34.916586,47.850076],[34.916239,47.850128],[34.916238,47.850133],[34.916239,47.850133],[34.916235,47.850197],[34.916234,47.850235],[34.916207,47.850712]]]}},{"type":"Feature","properties":{"cadnum":"2322188805:13:001:0029"},"geometry":{"type":"Polygon","coordinates":[[[34.923622,47.849857],[34.923663,47.850018],[34.923662,47.850018],[34.923691,47.850131],[34.923692,47.850133],[34.923794,47.850531],[34.924226,47.850489],[34.924136,47.850133],[34.924137,47.850133],[34.924058,47.849813],[34.923622,47.849857]]]}},{"type":"Feature","properties":{"cadnum":"2322188805:13:001:3206"},"geometry":{"type":"Polygon","coordinates":[[[34.920432,47.853466],[34.920486,47.853704],[34.920485,47.853704],[34.920523,47.853866],[34.920592,47.854157],[34.920916,47.854121],[34.92087,47.853941],[34.920834,47.853778],[34.92076,47.853463],[34.920755,47.85344],[34.920629,47.85345],[34.920432,47.853466]]]}},{"type":"Feature","properties":{"cadnum":"2322188805:13:001:0212"},"geometry":{"type":"Polygon","coordinates":[[[34.924428,47.853073],[34.924506,47.853389],[34.924588,47.853736],[34.925033,47.853683],[34.924971,47.85344],[34.924867,47.853021],[34.924428,47.853073]]]}},{"type":"Feature","properties":{"cadnum":"2322188805:13:001:0288"},"geometry":{"type":"Polygon","coordinates":[[[34.92437,47.852833],[34.924404,47.852975],[34.924428,47.853073],[34.924867,47.853021],[34.924809,47.852786],[34.92437,47.852833]]]}},{"type":"Feature","properties":{"cadnum":"2322188805:13:001:0213"},"geometry":{"type":"Polygon","coordinates":[[[34.92401,47.853039],[34.924114,47.853444],[34.924179,47.853704],[34.924197,47.853777],[34.924342,47.853762],[34.924588,47.853736],[34.924506,47.853389],[34.924409,47.852993],[34.92401,47.853039]]]}},{"type":"Feature","properties":{"cadnum":"2322188805:13:001:0259"},"geometry":{"type":"Polygon","coordinates":[[[34.924004,47.853018],[34.92401,47.853039],[34.924409,47.852993],[34.924404,47.852975],[34.924004,47.853018]]]}},{"type":"Feature","properties":{"cadnum":"2322188805:13:001:0168"},"geometry":{"type":"Polygon","coordinates":[[[34.920099,47.852684],[34.920173,47.853067],[34.920253,47.853479],[34.920629,47.85345],[34.920548,47.853082],[34.920452,47.85265],[34.920099,47.852684]]]}},{"type":"Feature","properties":{"cadnum":"2322188805:13:001:0256"},"geometry":{"type":"Polygon","coordinates":[[[34.923358,47.852102],[34.923377,47.852219],[34.9235,47.852209],[34.923479,47.852089],[34.923358,47.852102]]]}},{"type":"Feature","properties":{"cadnum":"2322188805:13:001:0118"},"geometry":{"type":"Polygon","coordinates":[[[34.925461,47.851329],[34.925601,47.851997],[34.925623,47.851995],[34.925962,47.851962],[34.925821,47.851294],[34.925461,47.851329]]]}},{"type":"Feature","properties":{"cadnum":"2322188805:13:001:0282"},"geometry":{"type":"Polygon","coordinates":[[[34.924703,47.852202],[34.924838,47.852784],[34.925234,47.852741],[34.925099,47.852161],[34.924703,47.852202]]]}},{"type":"Feature","properties":{"cadnum":"2322188805:13:001:0037"},"geometry":{"type":"Polygon","coordinates":[[[34.919184,47.85092],[34.919195,47.850921],[34.919188,47.851023],[34.919187,47.851055],[34.91962,47.851013],[34.91963,47.850754],[34.919648,47.850615],[34.919643,47.850365],[34.919642,47.850329],[34.919231,47.850324],[34.919216,47.850598],[34.919208,47.850764],[34.919198,47.850873],[34.919196,47.850902],[34.919186,47.850902],[34.919184,47.85092]]]}},{"type":"Feature","properties":{"cadnum":"2322188805:13:001:0228"},"geometry":{"type":"Polygon","coordinates":[[[34.917525,47.853757],[34.917535,47.853819],[34.917535,47.85382],[34.917576,47.85408],[34.917653,47.854463],[34.918081,47.854418],[34.917987,47.854036],[34.917953,47.853718],[34.917953,47.853717],[34.917525,47.853757]]]}},{"type":"Feature","properties":{"cadnum":"2322188805:13:001:0266"},"geometry":{"type":"Polygon","coordinates":[[[34.917946,47.853649],[34.917957,47.853711],[34.918369,47.85367],[34.918354,47.853607],[34.917946,47.853649]]]}},{"type":"Feature","properties":{"cadnum":"2322188805:13:001:0258"},"geometry":{"type":"Polygon","coordinates":[[[34.917515,47.853688],[34.917525,47.853757],[34.917953,47.853717],[34.917946,47.853648],[34.917515,47.853688]]]}},{"type":"Feature","properties":{"cadnum":"2322188805:13:001:0285"},"geometry":{"type":"Polygon","coordinates":[[[34.915983,47.8534],[34.91607,47.853738],[34.916857,47.853653],[34.91679,47.853333],[34.916786,47.853314],[34.915983,47.8534]]]}},{"type":"Feature","properties":{"cadnum":"2322188805:13:001:0267"},"geometry":{"type":"Polygon","coordinates":[[[34.917043,47.853738],[34.917063,47.853819],[34.917063,47.85382],[34.917068,47.853837],[34.917217,47.853819],[34.917515,47.853783],[34.917496,47.853689],[34.917353,47.853704],[34.917352,47.853704],[34.917049,47.853737],[34.917043,47.853738]]]}},{"type":"Feature","properties":{"cadnum":"2322188805:13:001:0208"},"geometry":{"type":"Polygon","coordinates":[[[34.917957,47.853711],[34.917977,47.853819],[34.917978,47.853819],[34.917978,47.85382],[34.918019,47.854035],[34.918027,47.85407],[34.918115,47.854413],[34.918526,47.854372],[34.91846,47.854061],[34.918403,47.85382],[34.918403,47.853819],[34.918404,47.853819],[34.918369,47.85367],[34.918021,47.853704],[34.91802,47.853704],[34.91796,47.85371],[34.917957,47.853711]]]}},{"type":"Feature","properties":{"cadnum":"2322188805:13:001:0159"},"geometry":{"type":"Polygon","coordinates":[[[34.915889,47.853037],[34.915983,47.8534],[34.916786,47.853314],[34.916741,47.853098],[34.916738,47.853098],[34.916706,47.852956],[34.916301,47.852992],[34.915889,47.853037]]]}},{"type":"Feature","properties":{"cadnum":"2322188805:13:001:0133"},"geometry":{"type":"Polygon","coordinates":[[[34.917001,47.85224],[34.917124,47.852865],[34.9175,47.852828],[34.917378,47.852204],[34.917189,47.852222],[34.917001,47.85224]]]}},{"type":"Feature","properties":{"cadnum":"2322188805:13:001:0136"},"geometry":{"type":"Polygon","coordinates":[[[34.91574,47.852296],[34.915861,47.852938],[34.915873,47.852937],[34.916325,47.852897],[34.916254,47.852545],[34.916195,47.852254],[34.91574,47.852296]]]}},{"type":"Feature","properties":{"cadnum":"2322188805:13:001:0043"},"geometry":{"type":"Polygon","coordinates":[[[34.916168,47.851395],[34.916587,47.851347],[34.916632,47.850941],[34.916667,47.850647],[34.916207,47.850712],[34.916196,47.850906],[34.916182,47.85116],[34.916175,47.851229],[34.916168,47.851395]]]}},{"type":"Feature","properties":{"cadnum":"2322188805:13:001:0284"},"geometry":{"type":"Polygon","coordinates":[[[34.917727,47.851346],[34.917745,47.851487],[34.917759,47.851486],[34.917761,47.851486],[34.917763,47.851493],[34.917834,47.85149],[34.917835,47.851498],[34.917848,47.851497],[34.917849,47.851497],[34.917858,47.851563],[34.917845,47.851564],[34.917957,47.852054],[34.918169,47.852032],[34.918351,47.852013],[34.918274,47.851661],[34.918188,47.851297],[34.917727,47.851346]]]}},{"type":"Feature","properties":{"cadnum":"2322188805:13:001:0047"},"geometry":{"type":"Polygon","coordinates":[[[34.914395,47.850845],[34.914398,47.851564],[34.914732,47.851564],[34.914729,47.850844],[34.914465,47.850845],[34.914395,47.850845]]]}},{"type":"Feature","properties":{"cadnum":"2322188805:13:001:7002"},"geometry":{"type":"Polygon","coordinates":[[[34.914714,47.85041],[34.914714,47.850428],[34.914741,47.850428],[34.914741,47.85041],[34.914714,47.85041]]]}},{"type":"Feature","properties":{"cadnum":"2322188805:13:001:0046"},"geometry":{"type":"Polygon","coordinates":[[[34.915085,47.850909],[34.915103,47.851538],[34.915437,47.851511],[34.915432,47.85092],[34.915085,47.850909]]]}},{"type":"Feature","properties":{"cadnum":"2322188805:13:001:0072"},"geometry":{"type":"Polygon","coordinates":[[[34.919031,47.851201],[34.919145,47.851711],[34.919718,47.851657],[34.919647,47.851341],[34.919601,47.851139],[34.919031,47.851201]]]}},{"type":"Feature","properties":{"cadnum":"2322188805:13:001:0068"},"geometry":{"type":"Polygon","coordinates":[[[34.917339,47.851386],[34.917367,47.851421],[34.917544,47.852096],[34.917716,47.852078],[34.917957,47.852054],[34.917845,47.851564],[34.917858,47.851563],[34.917849,47.851497],[34.917835,47.851498],[34.917834,47.85149],[34.917763,47.851493],[34.917761,47.851486],[34.917759,47.851486],[34.917745,47.851487],[34.917727,47.851346],[34.917381,47.851382],[34.917339,47.851386]]]}},{"type":"Feature","properties":{"cadnum":"2322188805:13:001:0274"},"geometry":{"type":"Polygon","coordinates":[[[34.919145,47.851711],[34.919203,47.851963],[34.919314,47.851952],[34.919709,47.851912],[34.919773,47.851904],[34.919718,47.851657],[34.919145,47.851711]]]}},{"type":"Feature","properties":{"cadnum":"2322188805:13:001:3200"},"geometry":{"type":"Polygon","coordinates":[[[34.950641,47.857465],[34.95069,47.857475],[34.950842,47.857505],[34.950843,47.857505],[34.952611,47.857858],[34.952729,47.85762],[34.952849,47.85739],[34.952917,47.857259],[34.952917,47.85726],[34.953067,47.856971],[34.953089,47.85693],[34.953207,47.856705],[34.953015,47.856669],[34.95154,47.85638],[34.951042,47.85629],[34.95092,47.856273],[34.950899,47.856369],[34.950863,47.856533],[34.95086,47.856544],[34.950785,47.856897],[34.950751,47.857033],[34.95066,47.85739],[34.950641,47.857465]]]}},{"type":"Feature","properties":{"cadnum":"2322188805:13:001:0179"},"geometry":{"type":"Polygon","coordinates":[[[34.927715,47.851932],[34.927828,47.852466],[34.92816,47.852436],[34.928044,47.851899],[34.927715,47.851932]]]}},{"type":"Feature","properties":{"cadnum":"2322188805:13:001:0089"},"geometry":{"type":"Polygon","coordinates":[[[34.927227,47.850318],[34.927303,47.850635],[34.927396,47.851027],[34.927814,47.850971],[34.9277,47.850512],[34.927631,47.850271],[34.927227,47.850318]]]}},{"type":"Feature","properties":{"cadnum":"2322188805:13:001:0006"},"geometry":{"type":"Polygon","coordinates":[[[34.926725,47.851986],[34.926847,47.852423],[34.927495,47.852365],[34.927419,47.851923],[34.926725,47.851986]]]}},{"type":"Feature","properties":{"cadnum":"2322188805:13:001:0270"},"geometry":{"type":"Polygon","coordinates":[[[34.926532,47.851101],[34.926559,47.851222],[34.926981,47.851179],[34.926953,47.851058],[34.926532,47.851101]]]}},{"type":"Feature","properties":{"cadnum":"2322188805:13:001:0114"},"geometry":{"type":"Polygon","coordinates":[[[34.926988,47.85121],[34.927117,47.851855],[34.927462,47.851823],[34.927346,47.851293],[34.927458,47.851281],[34.927425,47.851152],[34.926988,47.85121]]]}},{"type":"Feature","properties":{"cadnum":"2322188805:13:001:0261"},"geometry":{"type":"Polygon","coordinates":[[[34.927346,47.851293],[34.927361,47.851363],[34.927986,47.8513],[34.927932,47.851085],[34.927425,47.851152],[34.927458,47.85128],[34.927457,47.85128],[34.927346,47.851293]]]}},{"type":"Feature","properties":{"cadnum":"2322188805:13:001:0117"},"geometry":{"type":"Polygon","coordinates":[[[34.925821,47.851294],[34.925964,47.851962],[34.926324,47.851928],[34.926182,47.85126],[34.925821,47.851294]]]}},{"type":"Feature","properties":{"cadnum":"2322188805:13:001:0176"},"geometry":{"type":"Polygon","coordinates":[[[34.925842,47.852081],[34.925996,47.852586],[34.92642,47.85254],[34.926267,47.852035],[34.925842,47.852081]]]}},{"type":"Feature","properties":{"cadnum":"2322188805:13:001:0255"},"geometry":{"type":"Polygon","coordinates":[[[34.926949,47.851038],[34.926988,47.85121],[34.927425,47.851152],[34.927388,47.85099],[34.926949,47.851038]]]}},{"type":"Feature","properties":{"cadnum":"2322188805:13:001:0306"},"geometry":{"type":"Polygon","coordinates":[[[34.92606,47.852634],[34.926116,47.852847],[34.92653,47.852798],[34.926499,47.852691],[34.926476,47.852613],[34.926462,47.852596],[34.92606,47.852634]]]}},{"type":"Feature","properties":{"cadnum":"2322188805:13:001:0305"},"geometry":{"type":"Polygon","coordinates":[[[34.926116,47.852847],[34.926299,47.85354],[34.92672,47.853491],[34.926652,47.853233],[34.926631,47.853139],[34.926532,47.85281],[34.92653,47.852798],[34.926116,47.852847]]]}},{"type":"Feature","properties":{"cadnum":"2322188805:13:001:0080"},"geometry":{"type":"Polygon","coordinates":[[[34.926193,47.849572],[34.926281,47.849965],[34.926293,47.850018],[34.926292,47.850018],[34.926351,47.850272],[34.926763,47.850227],[34.92676,47.850222],[34.926719,47.850021],[34.926684,47.849842],[34.926619,47.849525],[34.926193,47.849572]]]}},{"type":"Feature","properties":{"cadnum":"2322188805:13:001:0020"},"geometry":{"type":"Polygon","coordinates":[[[34.927608,47.849441],[34.927723,47.849897],[34.927753,47.850018],[34.927778,47.850119],[34.928214,47.850076],[34.928131,47.84977],[34.928044,47.849398],[34.927608,47.849441]]]}},{"type":"Feature","properties":{"cadnum":"2322188805:13:001:0022"},"geometry":{"type":"Polygon","coordinates":[[[34.926625,47.849539],[34.926684,47.849843],[34.926719,47.850018],[34.926741,47.850125],[34.926743,47.850133],[34.926762,47.850222],[34.927205,47.850175],[34.927167,47.850018],[34.927136,47.849892],[34.927049,47.8495],[34.926625,47.849539]]]}},{"type":"Feature","properties":{"cadnum":"2322188805:13:001:0007"},"geometry":{"type":"Polygon","coordinates":[[[34.926847,47.852423],[34.926884,47.852555],[34.92731,47.852513],[34.927517,47.852492],[34.927495,47.852365],[34.926847,47.852423]]]}},{"type":"Feature","properties":{"cadnum":"2322188805:13:001:0251"},"geometry":{"type":"Polygon","coordinates":[[[34.927396,47.851027],[34.927425,47.851152],[34.927845,47.851096],[34.927814,47.850971],[34.927396,47.851027]]]}},{"type":"Feature","properties":{"cadnum":"2322188805:13:001:0088"},"geometry":{"type":"Polygon","coordinates":[[[34.926796,47.850363],[34.926858,47.850637],[34.926949,47.851038],[34.927388,47.85099],[34.927303,47.850635],[34.927227,47.850317],[34.926796,47.850363]]]}},{"type":"Feature","properties":{"cadnum":"2322188805:13:001:0087"},"geometry":{"type":"Polygon","coordinates":[[[34.926362,47.85041],[34.926436,47.850669],[34.926532,47.851101],[34.926953,47.851058],[34.926858,47.850637],[34.926796,47.850363],[34.926362,47.85041]]]}},{"type":"Feature","properties":{"cadnum":"2322188805:13:001:0112"},"geometry":{"type":"Polygon","coordinates":[[[34.928155,47.851169],[34.928304,47.8517],[34.928632,47.851658],[34.928482,47.851128],[34.928308,47.85115],[34.928155,47.851169]]]}},{"type":"Feature","properties":{"cadnum":"2322188805:13:001:0110"},"geometry":{"type":"Polygon","coordinates":[[[34.928811,47.851085],[34.928961,47.851616],[34.92929,47.851575],[34.929139,47.851045],[34.928811,47.851085]]]}},{"type":"Feature","properties":{"cadnum":"2322188805:13:001:0096"},"geometry":{"type":"Polygon","coordinates":[[[34.929936,47.85002],[34.929936,47.850021],[34.929961,47.850133],[34.929962,47.850133],[34.929995,47.850282],[34.930126,47.850824],[34.930424,47.850795],[34.930336,47.850421],[34.930458,47.850405],[34.930385,47.850106],[34.930379,47.850076],[34.930357,47.849974],[34.930092,47.850005],[34.930045,47.85001],[34.929956,47.850018],[34.929955,47.850018],[34.929937,47.85002],[34.929936,47.85002]]]}},{"type":"Feature","properties":{"cadnum":"2322188805:13:001:0095"},"geometry":{"type":"Polygon","coordinates":[[[34.929512,47.850067],[34.929526,47.850133],[34.929527,47.850133],[34.929578,47.850367],[34.92967,47.850751],[34.9301,47.850711],[34.929995,47.850282],[34.929936,47.850021],[34.929936,47.85002],[34.929512,47.850067]]]}},{"type":"Feature","properties":{"cadnum":"2322188805:13:001:0097"},"geometry":{"type":"Polygon","coordinates":[[[34.930429,47.850821],[34.930446,47.850887],[34.930479,47.850883],[34.930483,47.850902],[34.930859,47.850863],[34.930868,47.850862],[34.930848,47.850774],[34.930429,47.850821]]]}},{"type":"Feature","properties":{"cadnum":"2322188805:13:001:0106"},"geometry":{"type":"Polygon","coordinates":[[[34.930149,47.85092],[34.930274,47.851453],[34.930604,47.851416],[34.930479,47.850883],[34.930149,47.85092]]]}},{"type":"Feature","properties":{"cadnum":"2322188805:13:001:0184"},"geometry":{"type":"Polygon","coordinates":[[[34.929151,47.851725],[34.929212,47.852],[34.929263,47.852279],[34.929416,47.852266],[34.929585,47.852252],[34.929539,47.85202],[34.929473,47.851697],[34.929151,47.851725]]]}},{"type":"Feature","properties":{"cadnum":"2322188805:13:001:0187"},"geometry":{"type":"Polygon","coordinates":[[[34.93042,47.851593],[34.930436,47.851666],[34.93047,47.851818],[34.930568,47.852257],[34.930906,47.852225],[34.930834,47.851935],[34.93075,47.851562],[34.930474,47.851588],[34.93042,47.851593]]]}},{"type":"Feature","properties":{"cadnum":"2322188805:13:001:0275"},"geometry":{"type":"Polygon","coordinates":[[[34.930774,47.850459],[34.930825,47.850673],[34.930944,47.850661],[34.930944,47.850662],[34.931101,47.850645],[34.931116,47.850644],[34.931366,47.85062],[34.931323,47.850412],[34.930944,47.850445],[34.930774,47.850459]]]}},{"type":"Feature","properties":{"cadnum":"2322188805:13:001:0098"},"geometry":{"type":"Polygon","coordinates":[[[34.930637,47.849942],[34.930637,47.849943],[34.930657,47.850018],[34.930667,47.850053],[34.930688,47.850133],[34.930755,47.850382],[34.930762,47.850403],[34.930774,47.850459],[34.931116,47.85043],[34.931323,47.850412],[34.931281,47.850199],[34.931235,47.850018],[34.931201,47.849879],[34.931083,47.849892],[34.930637,47.849942]]]}},{"type":"Feature","properties":{"cadnum":"2322188805:13:001:0278"},"geometry":{"type":"Polygon","coordinates":[[[34.930126,47.850824],[34.930149,47.85092],[34.930446,47.850887],[34.930424,47.850795],[34.930126,47.850824]]]}},{"type":"Feature","properties":{"cadnum":"2322188805:13:001:0104"},"geometry":{"type":"Polygon","coordinates":[[[34.930826,47.850674],[34.930868,47.850864],[34.930944,47.851274],[34.930963,47.851375],[34.931116,47.851358],[34.931262,47.851341],[34.931203,47.851088],[34.931109,47.850648],[34.930826,47.850674]]]}},{"type":"Feature","properties":{"cadnum":"2322188805:13:001:0186"},"geometry":{"type":"Polygon","coordinates":[[[34.929784,47.851661],[34.929854,47.851984],[34.929925,47.852314],[34.930034,47.852304],[34.930243,47.852286],[34.930102,47.851627],[34.929784,47.851661]]]}},{"type":"Feature","properties":{"cadnum":"2322188805:13:001:0201"},"geometry":{"type":"Polygon","coordinates":[[[34.92895,47.852404],[34.929052,47.852879],[34.9293,47.852845],[34.929402,47.85321],[34.929689,47.853181],[34.929619,47.852915],[34.929531,47.852922],[34.929512,47.852857],[34.929495,47.852859],[34.929369,47.852374],[34.92895,47.852404]]]}},{"type":"Feature","properties":{"cadnum":"2322188805:13:001:0277"},"geometry":{"type":"Polygon","coordinates":[[[34.92967,47.850751],[34.929708,47.850908],[34.929806,47.850896],[34.929806,47.850897],[34.929814,47.850931],[34.930144,47.850893],[34.9301,47.850711],[34.92967,47.850751]]]}},{"type":"Feature","properties":{"cadnum":"2322188805:13:001:0107"},"geometry":{"type":"Polygon","coordinates":[[[34.929821,47.850957],[34.929945,47.85149],[34.930275,47.851453],[34.930149,47.85092],[34.929821,47.850957]]]}},{"type":"Feature","properties":{"cadnum":"2322188805:13:001:0265"},"geometry":{"type":"Polygon","coordinates":[[[34.930336,47.850421],[34.930429,47.850821],[34.930848,47.850774],[34.930833,47.850703],[34.930762,47.850403],[34.930755,47.850382],[34.930667,47.850053],[34.930637,47.849943],[34.930637,47.849942],[34.930357,47.849974],[34.930366,47.850018],[34.930379,47.850076],[34.930385,47.850106],[34.930391,47.850133],[34.930392,47.850133],[34.930458,47.850405],[34.930336,47.850421]]]}},{"type":"Feature","properties":{"cadnum":"2322188805:13:001:0100"},"geometry":{"type":"Polygon","coordinates":[[[34.931488,47.849802],[34.931544,47.850018],[34.931562,47.850086],[34.931575,47.850133],[34.931581,47.850157],[34.932134,47.850099],[34.932154,47.850097],[34.932062,47.849744],[34.931488,47.849802]]]}},{"type":"Feature","properties":{"cadnum":"2322188805:13:001:0287"},"geometry":{"type":"Polygon","coordinates":[[[34.923568,47.849649],[34.923622,47.849857],[34.924058,47.849813],[34.924006,47.8496],[34.923568,47.849649]]]}},{"type":"Feature","properties":{"cadnum":"2322188805:13:001:0191"},"geometry":{"type":"Polygon","coordinates":[[[34.931666,47.851422],[34.931752,47.851772],[34.932091,47.851741],[34.932556,47.851696],[34.932456,47.851317],[34.932389,47.851325],[34.932347,47.851331],[34.932145,47.851356],[34.931666,47.851422]]]}},{"type":"Feature","properties":{"cadnum":"2322188805:13:001:0262"},"geometry":{"type":"Polygon","coordinates":[[[34.931348,47.852285],[34.931367,47.852355],[34.9318,47.852316],[34.931785,47.852237],[34.931348,47.852285]]]}},{"type":"Feature","properties":{"cadnum":"2322188805:13:001:0272"},"geometry":{"type":"Polygon","coordinates":[[[34.931431,47.851454],[34.931441,47.851489],[34.931512,47.851763],[34.93152,47.851794],[34.931752,47.851772],[34.931666,47.851422],[34.931431,47.851454]]]}},{"type":"Feature","properties":{"cadnum":"2322188805:13:001:0008"},"geometry":{"type":"Polygon","coordinates":[[[34.93162,47.851778],[34.931694,47.852101],[34.931744,47.852096],[34.932155,47.852052],[34.93221,47.852047],[34.932626,47.852002],[34.932556,47.851697],[34.932091,47.851737],[34.93162,47.851778]]]}},{"type":"Feature","properties":{"cadnum":"2322188805:13:001:0190"},"geometry":{"type":"Polygon","coordinates":[[[34.931083,47.851526],[34.931172,47.851904],[34.931244,47.852184],[34.931321,47.852177],[34.931348,47.852285],[34.931785,47.852237],[34.931758,47.852091],[34.931598,47.852106],[34.931522,47.851803],[34.931512,47.851763],[34.931441,47.851489],[34.931083,47.851526]]]}},{"type":"Feature","properties":{"cadnum":"2322188805:13:001:3201"},"geometry":{"type":"Polygon","coordinates":[[[34.931631,47.850247],[34.93176,47.85081],[34.9323,47.850747],[34.932165,47.850215],[34.931631,47.850247]]]}},{"type":"Feature","properties":{"cadnum":"2322188805:13:001:3202"},"geometry":{"type":"Polygon","coordinates":[[[34.93162,47.850199],[34.931631,47.850247],[34.932165,47.850215],[34.932153,47.850168],[34.93162,47.850199]]]}},{"type":"Feature","properties":{"cadnum":"2322188805:13:001:0148"},"geometry":{"type":"Polygon","coordinates":[[[34.913642,47.853237],[34.913737,47.853819],[34.913737,47.85382],[34.91375,47.853897],[34.913765,47.85398],[34.91412,47.854005],[34.914076,47.85377],[34.913979,47.853246],[34.913831,47.853259],[34.913642,47.853237]]]}},{"type":"Feature","properties":{"cadnum":"2322188805:13:001:0153"},"geometry":{"type":"Polygon","coordinates":[[[34.913979,47.853246],[34.914064,47.853704],[34.914076,47.85377],[34.914085,47.853819],[34.914086,47.853819],[34.914086,47.85382],[34.91412,47.854005],[34.914452,47.853976],[34.914412,47.853765],[34.914311,47.853217],[34.913979,47.853246]]]}},{"type":"Feature","properties":{"cadnum":"2322188805:13:001:0147"},"geometry":{"type":"Polygon","coordinates":[[[34.911987,47.853775],[34.912315,47.853814],[34.912499,47.853105],[34.912169,47.853067],[34.912005,47.853704],[34.912004,47.853704],[34.911987,47.853775]]]}},{"type":"Feature","properties":{"cadnum":"2322188805:13:001:0264"},"geometry":{"type":"Polygon","coordinates":[[[34.926594,47.849384],[34.926625,47.849539],[34.927049,47.8495],[34.927012,47.849339],[34.926594,47.849384]]]}},{"type":"Feature","properties":{"cadnum":"2322188805:13:001:0019"},"geometry":{"type":"Polygon","coordinates":[[[34.92801,47.849259],[34.928014,47.849273],[34.928131,47.84977],[34.928214,47.850076],[34.928501,47.85004],[34.928447,47.849765],[34.928357,47.849265],[34.92801,47.849259]]]}},{"type":"Feature","properties":{"cadnum":"2322188805:13:001:0289"},"geometry":{"type":"Polygon","coordinates":[[[34.926149,47.849374],[34.926193,47.849572],[34.926619,47.849525],[34.926586,47.849359],[34.926149,47.849374]]]}},{"type":"Feature","properties":{"cadnum":"2322188805:13:001:0269"},"geometry":{"type":"Polygon","coordinates":[[[34.927577,47.849317],[34.927608,47.849441],[34.928044,47.849398],[34.928014,47.849273],[34.927577,47.849317]]]}},{"type":"Feature","properties":{"cadnum":"2322188805:13:001:0229"},"geometry":{"type":"Polygon","coordinates":[[[34.917068,47.853837],[34.91714,47.854134],[34.917238,47.854511],[34.917653,47.854462],[34.917576,47.85408],[34.917515,47.853783],[34.917068,47.853837]]]}},{"type":"Feature","properties":{"cadnum":"2322188805:13:001:0304"},"geometry":{"type":"Polygon","coordinates":[[[34.916161,47.854023],[34.916302,47.854619],[34.91636,47.854612],[34.916561,47.854592],[34.916565,47.854592],[34.916609,47.854586],[34.916621,47.854584],[34.9168,47.854565],[34.91665,47.853973],[34.916218,47.854017],[34.916161,47.854023]]]}},{"type":"Feature","properties":{"cadnum":"2322188805:13:001:0230"},"geometry":{"type":"Polygon","coordinates":[[[34.916116,47.853832],[34.916161,47.854023],[34.916218,47.854017],[34.91665,47.853973],[34.916601,47.853783],[34.916172,47.853827],[34.916116,47.853832]]]}},{"type":"Feature","properties":{"cadnum":"2322188805:13:001:0056"},"geometry":{"type":"Polygon","coordinates":[[[34.912389,47.852216],[34.912717,47.852254],[34.912901,47.851545],[34.912571,47.851508],[34.912389,47.852216]]]}},{"type":"Feature","properties":{"cadnum":"2322188805:13:001:0146"},"geometry":{"type":"Polygon","coordinates":[[[34.911877,47.852887],[34.912207,47.852925],[34.912389,47.852216],[34.91206,47.852178],[34.911877,47.852887]]]}},{"type":"Feature","properties":{"cadnum":"2322188805:13:001:0144"},"geometry":{"type":"Polygon","coordinates":[[[34.912535,47.852963],[34.912865,47.853001],[34.913047,47.852292],[34.912717,47.852254],[34.912535,47.852963]]]}},{"type":"Feature","properties":{"cadnum":"2322188805:13:001:0145"},"geometry":{"type":"Polygon","coordinates":[[[34.912207,47.852925],[34.912535,47.852963],[34.912717,47.852254],[34.912389,47.852216],[34.912207,47.852925]]]}},{"type":"Feature","properties":{"cadnum":"2322188805:13:001:0050"},"geometry":{"type":"Polygon","coordinates":[[[34.913191,47.851517],[34.913521,47.851555],[34.913699,47.850846],[34.913371,47.850808],[34.913191,47.851517]]]}},{"type":"Feature","properties":{"cadnum":"2322188805:13:001:0048"},"geometry":{"type":"Polygon","coordinates":[[[34.914065,47.851628],[34.914398,47.851608],[34.914395,47.850797],[34.914067,47.850803],[34.914065,47.851628]]]}},{"type":"Feature","properties":{"cadnum":"2322188805:13:001:7001"},"geometry":{"type":"Polygon","coordinates":[[[34.913857,47.850537],[34.913857,47.850555],[34.913884,47.850555],[34.913884,47.850537],[34.913857,47.850537]]]}},{"type":"Feature","properties":{"cadnum":"2322188805:13:001:0051"},"geometry":{"type":"Polygon","coordinates":[[[34.912862,47.851481],[34.913191,47.851517],[34.913371,47.850808],[34.913041,47.850771],[34.912862,47.851481]]]}}]}