{"type":"FeatureCollection","features":[{"type":"Feature","properties":{"cadnum":"2322183505:19:001:0222"},"geometry":{"type":"Polygon","coordinates":[[[34.930876,47.829422],[34.930943,47.829802],[34.930944,47.829802],[34.930983,47.8298],[34.931116,47.829792],[34.93172,47.829756],[34.931653,47.829372],[34.931116,47.829407],[34.930876,47.829422]]]}},{"type":"Feature","properties":{"cadnum":"2322183505:19:001:0084"},"geometry":{"type":"Polygon","coordinates":[[[34.934332,47.827861],[34.93435,47.828011],[34.934358,47.828072],[34.934785,47.828038],[34.934824,47.828214],[34.935394,47.828164],[34.935897,47.828127],[34.935884,47.828011],[34.935852,47.827728],[34.935326,47.827767],[34.934391,47.827858],[34.934332,47.827861]]]}},{"type":"Feature","properties":{"cadnum":"2322183505:19:001:0090"},"geometry":{"type":"Polygon","coordinates":[[[34.934552,47.829151],[34.934614,47.829434],[34.935648,47.829357],[34.935595,47.829072],[34.934552,47.829151]]]}},{"type":"Feature","properties":{"cadnum":"2322183505:19:001:0138"},"geometry":{"type":"Polygon","coordinates":[[[34.932218,47.827866],[34.932221,47.827895],[34.93222,47.827895],[34.932231,47.828011],[34.932232,47.828025],[34.932999,47.827965],[34.934053,47.827882],[34.934025,47.827714],[34.932218,47.827866]]]}},{"type":"Feature","properties":{"cadnum":"2322183505:19:001:0219"},"geometry":{"type":"Polygon","coordinates":[[[34.930667,47.828312],[34.93071,47.828546],[34.930944,47.828527],[34.931013,47.828522],[34.931116,47.828514],[34.931325,47.828497],[34.931509,47.828482],[34.931466,47.828247],[34.931274,47.828264],[34.930968,47.828289],[34.930667,47.828312]]]}},{"type":"Feature","properties":{"cadnum":"2322183505:19:001:0376"},"geometry":{"type":"Polygon","coordinates":[[[34.932582,47.829503],[34.932614,47.8297],[34.932912,47.829679],[34.93288,47.829477],[34.932582,47.829503]]]}},{"type":"Feature","properties":{"cadnum":"2322183505:19:001:0560"},"geometry":{"type":"Polygon","coordinates":[[[34.93573,47.828141],[34.935772,47.82836],[34.936042,47.828338],[34.936,47.828119],[34.93573,47.828141]]]}},{"type":"Feature","properties":{"cadnum":"2322183505:19:001:0522"},"geometry":{"type":"Polygon","coordinates":[[[34.935595,47.829072],[34.935648,47.829357],[34.936314,47.829307],[34.936253,47.829023],[34.935595,47.829072]]]}},{"type":"Feature","properties":{"cadnum":"2322183505:19:001:0133"},"geometry":{"type":"Polygon","coordinates":[[[34.933057,47.828528],[34.933078,47.828684],[34.93349,47.828638],[34.933582,47.828627],[34.933619,47.828686],[34.93391,47.828668],[34.933911,47.828683],[34.934178,47.828669],[34.934189,47.828668],[34.934144,47.828437],[34.933603,47.828482],[34.933057,47.828528]]]}},{"type":"Feature","properties":{"cadnum":"2322183505:19:001:0227"},"geometry":{"type":"Polygon","coordinates":[[[34.931079,47.830577],[34.931113,47.830788],[34.93211,47.830721],[34.932487,47.830701],[34.932451,47.83048],[34.932062,47.830506],[34.931989,47.830508],[34.931568,47.830539],[34.931079,47.830577]]]}},{"type":"Feature","properties":{"cadnum":"2322183505:19:001:0247"},"geometry":{"type":"Polygon","coordinates":[[[34.932487,47.830098],[34.932523,47.830287],[34.932725,47.830271],[34.932692,47.830085],[34.932487,47.830098]]]}},{"type":"Feature","properties":{"cadnum":"2322183505:19:001:0232"},"geometry":{"type":"Polygon","coordinates":[[[34.931242,47.831714],[34.931278,47.83191],[34.932784,47.831783],[34.932748,47.831587],[34.931423,47.831698],[34.931423,47.831699],[34.931242,47.831714]]]}},{"type":"Feature","properties":{"cadnum":"2322183505:19:001:0555"},"geometry":{"type":"Polygon","coordinates":[[[34.931119,47.831123],[34.931147,47.831263],[34.931151,47.831287],[34.931156,47.831311],[34.931163,47.831343],[34.932518,47.831268],[34.932473,47.831049],[34.931119,47.831123]]]}},{"type":"Feature","properties":{"cadnum":"2322183505:19:001:0225"},"geometry":{"type":"Polygon","coordinates":[[[34.931016,47.830189],[34.93105,47.830398],[34.931116,47.830395],[34.931116,47.830394],[34.931438,47.830372],[34.931775,47.830348],[34.931874,47.830338],[34.932523,47.830287],[34.932487,47.830098],[34.93186,47.830136],[34.931016,47.830189]]]}},{"type":"Feature","properties":{"cadnum":"2322183505:19:001:0242"},"geometry":{"type":"Polygon","coordinates":[[[34.932748,47.831587],[34.932768,47.831698],[34.932769,47.831698],[34.932769,47.831699],[34.932784,47.831783],[34.932975,47.831767],[34.932955,47.831662],[34.932939,47.831571],[34.932791,47.831583],[34.93279,47.831583],[34.932751,47.831587],[34.932748,47.831587]]]}},{"type":"Feature","properties":{"cadnum":"2322183505:19:001:0124"},"geometry":{"type":"Polygon","coordinates":[[[34.933026,47.830443],[34.933057,47.830632],[34.934087,47.830587],[34.934521,47.83057],[34.934488,47.830352],[34.934063,47.830378],[34.933026,47.830443]]]}},{"type":"Feature","properties":{"cadnum":"2322183505:19:001:0540"},"geometry":{"type":"Polygon","coordinates":[[[34.931163,47.831343],[34.931182,47.831441],[34.931623,47.831418],[34.932838,47.831333],[34.93283,47.831252],[34.931163,47.831343]]]}},{"type":"Feature","properties":{"cadnum":"2322183505:19:001:0119"},"geometry":{"type":"Polygon","coordinates":[[[34.933321,47.831563],[34.933324,47.831583],[34.933357,47.831791],[34.934223,47.831759],[34.934226,47.831759],[34.934626,47.831728],[34.93462,47.831703],[34.934621,47.831703],[34.934709,47.831697],[34.934718,47.831697],[34.93469,47.831518],[34.934199,47.831537],[34.933321,47.831563]]]}},{"type":"Feature","properties":{"cadnum":"2322183505:19:001:0098"},"geometry":{"type":"Polygon","coordinates":[[[34.934838,47.830723],[34.934871,47.830915],[34.936437,47.830802],[34.936438,47.830802],[34.936438,47.830803],[34.936553,47.830794],[34.936521,47.830592],[34.934838,47.830723]]]}},{"type":"Feature","properties":{"cadnum":"2322183505:19:001:0101"},"geometry":{"type":"Polygon","coordinates":[[[34.934944,47.831327],[34.934974,47.831486],[34.93521,47.831472],[34.935276,47.831467],[34.935477,47.831456],[34.936609,47.831384],[34.936639,47.831382],[34.936621,47.83125],[34.936592,47.831252],[34.935368,47.831331],[34.935367,47.831331],[34.935363,47.831287],[34.934944,47.831327]]]}},{"type":"Feature","properties":{"cadnum":"2322183505:19:001:0547"},"geometry":{"type":"Polygon","coordinates":[[[34.934392,47.828254],[34.934435,47.828476],[34.935772,47.82836],[34.93573,47.828141],[34.934392,47.828254]]]}},{"type":"Feature","properties":{"cadnum":"2322183505:19:001:0518"},"geometry":{"type":"Polygon","coordinates":[[[34.936139,47.830394],[34.936177,47.830611],[34.936517,47.830584],[34.936463,47.830391],[34.936458,47.83037],[34.936139,47.830394]]]}},{"type":"Feature","properties":{"cadnum":"2322183505:19:001:0100"},"geometry":{"type":"Polygon","coordinates":[[[34.934909,47.831112],[34.934933,47.831269],[34.934944,47.831327],[34.935363,47.831287],[34.935366,47.831317],[34.935367,47.831331],[34.936195,47.831277],[34.93616,47.831025],[34.935382,47.831076],[34.934909,47.831112]]]}},{"type":"Feature","properties":{"cadnum":"2322183505:19:001:0102"},"geometry":{"type":"Polygon","coordinates":[[[34.934974,47.831486],[34.934995,47.831583],[34.935013,47.831667],[34.935402,47.831641],[34.936018,47.831599],[34.936026,47.831599],[34.936438,47.831571],[34.936438,47.831572],[34.936458,47.83157],[34.936609,47.83156],[34.936687,47.831554],[34.936662,47.831381],[34.936639,47.831382],[34.936438,47.831395],[34.935477,47.831456],[34.935276,47.831467],[34.93521,47.831472],[34.934974,47.831486]]]}},{"type":"Feature","properties":{"cadnum":"2322183505:19:001:0103"},"geometry":{"type":"Polygon","coordinates":[[[34.935013,47.831667],[34.935017,47.831698],[34.935018,47.831698],[34.935018,47.831699],[34.935044,47.831873],[34.936489,47.831775],[34.936471,47.831662],[34.936458,47.83157],[34.936257,47.831583],[34.935013,47.831667]]]}},{"type":"Feature","properties":{"cadnum":"2322183505:19:001:0097"},"geometry":{"type":"Polygon","coordinates":[[[34.934797,47.830494],[34.934838,47.830719],[34.935688,47.83065],[34.936177,47.830611],[34.936139,47.830394],[34.934797,47.830494]]]}},{"type":"Feature","properties":{"cadnum":"2322183505:19:001:0377"},"geometry":{"type":"Polygon","coordinates":[[[34.93616,47.831025],[34.936195,47.831277],[34.936609,47.831251],[34.936621,47.83125],[34.936597,47.831083],[34.936586,47.830998],[34.93616,47.831025]]]}},{"type":"Feature","properties":{"cadnum":"2322183505:19:001:0049"},"geometry":{"type":"Polygon","coordinates":[[[34.936306,47.829366],[34.936314,47.829441],[34.936326,47.829562],[34.936438,47.829556],[34.936459,47.829554],[34.936609,47.829546],[34.936609,47.829545],[34.936986,47.829522],[34.936991,47.829475],[34.936992,47.829475],[34.937173,47.829457],[34.93726,47.829451],[34.937264,47.829485],[34.937457,47.829467],[34.937423,47.829298],[34.936955,47.829325],[34.93651,47.829354],[34.936333,47.829365],[34.936306,47.829366]]]}},{"type":"Feature","properties":{"cadnum":"2322183505:19:001:0126"},"geometry":{"type":"Polygon","coordinates":[[[34.932799,47.830064],[34.932831,47.830253],[34.934219,47.830184],[34.934272,47.830209],[34.93445,47.830199],[34.934465,47.830198],[34.934435,47.829973],[34.934422,47.829974],[34.932799,47.830064]]]}},{"type":"Feature","properties":{"cadnum":"2322183505:19:001:0556"},"geometry":{"type":"Polygon","coordinates":[[[34.932473,47.831049],[34.932518,47.831268],[34.93283,47.831252],[34.93281,47.831031],[34.932473,47.831049]]]}},{"type":"Feature","properties":{"cadnum":"2322183505:19:001:0535"},"geometry":{"type":"Polygon","coordinates":[[[34.931653,47.829372],[34.93172,47.829756],[34.931777,47.829754],[34.932614,47.8297],[34.932582,47.829503],[34.932546,47.829314],[34.931653,47.829372]]]}},{"type":"Feature","properties":{"cadnum":"2322183505:19:001:0128"},"geometry":{"type":"Polygon","coordinates":[[[34.933122,47.829749],[34.933176,47.829926],[34.934414,47.829756],[34.93436,47.829579],[34.933122,47.829749]]]}},{"type":"Feature","properties":{"cadnum":"2322183505:19:001:0129"},"geometry":{"type":"Polygon","coordinates":[[[34.93288,47.829477],[34.932912,47.829679],[34.933248,47.829657],[34.933321,47.829651],[34.934311,47.829584],[34.934274,47.82936],[34.933263,47.829445],[34.933175,47.829453],[34.93288,47.829477]]]}},{"type":"Feature","properties":{"cadnum":"2322183505:19:001:0272"},"geometry":{"type":"Polygon","coordinates":[[[34.929398,47.82766],[34.929434,47.827863],[34.930315,47.827791],[34.930279,47.827589],[34.929398,47.82766]]]}},{"type":"Feature","properties":{"cadnum":"2322183505:19:001:0274"},"geometry":{"type":"Polygon","coordinates":[[[34.928521,47.8273],[34.928556,47.827525],[34.92904,47.827498],[34.929661,47.827464],[34.930286,47.827426],[34.930275,47.827362],[34.929937,47.82738],[34.929652,47.827399],[34.929625,47.827225],[34.929172,47.827256],[34.928521,47.8273]]]}},{"type":"Feature","properties":{"cadnum":"2322183505:19:001:0217"},"geometry":{"type":"Polygon","coordinates":[[[34.930549,47.827587],[34.930578,47.82779],[34.930944,47.82776],[34.931077,47.827749],[34.931116,47.827746],[34.931349,47.827726],[34.931308,47.827527],[34.931308,47.827526],[34.931116,47.827542],[34.930549,47.827587]]]}},{"type":"Feature","properties":{"cadnum":"2322183505:19:001:0277"},"geometry":{"type":"Polygon","coordinates":[[[34.929008,47.826515],[34.929031,47.826702],[34.929193,47.826693],[34.930117,47.826647],[34.930094,47.82646],[34.929008,47.826515]]]}},{"type":"Feature","properties":{"cadnum":"2322183505:19:001:0208"},"geometry":{"type":"Polygon","coordinates":[[[34.930436,47.826828],[34.930472,47.827027],[34.931116,47.826973],[34.93148,47.826942],[34.931429,47.826756],[34.931059,47.826783],[34.930436,47.826828]]]}},{"type":"Feature","properties":{"cadnum":"2322183505:19:001:0198"},"geometry":{"type":"Polygon","coordinates":[[[34.930184,47.825601],[34.930214,47.825769],[34.930619,47.825752],[34.930944,47.825737],[34.930944,47.825738],[34.931108,47.82573],[34.931116,47.82573],[34.931172,47.825727],[34.931134,47.825531],[34.930958,47.825544],[34.930686,47.825564],[34.930184,47.825601]]]}},{"type":"Feature","properties":{"cadnum":"2322183505:19:001:0288"},"geometry":{"type":"Polygon","coordinates":[[[34.928588,47.824297],[34.928602,47.824407],[34.928618,47.824502],[34.929255,47.824464],[34.929389,47.824462],[34.929547,47.824451],[34.92963,47.824446],[34.929724,47.824439],[34.929716,47.824403],[34.929695,47.82427],[34.928588,47.824297]]]}},{"type":"Feature","properties":{"cadnum":"2322183505:19:001:0189"},"geometry":{"type":"Polygon","coordinates":[[[34.930018,47.82461],[34.930046,47.824767],[34.930598,47.824775],[34.930903,47.824756],[34.930865,47.824545],[34.930429,47.824579],[34.930176,47.824598],[34.930018,47.82461]]]}},{"type":"Feature","properties":{"cadnum":"2322183505:19:001:0185"},"geometry":{"type":"Polygon","coordinates":[[[34.9299,47.824026],[34.929936,47.824181],[34.92994,47.824207],[34.929941,47.824213],[34.929949,47.824265],[34.929953,47.82429],[34.930155,47.82429],[34.930893,47.824287],[34.930893,47.824286],[34.930871,47.823947],[34.930433,47.823986],[34.930306,47.823996],[34.9299,47.824026]]]}},{"type":"Feature","properties":{"cadnum":"2322183505:19:001:0206"},"geometry":{"type":"Polygon","coordinates":[[[34.93033,47.826334],[34.930366,47.826538],[34.931116,47.826474],[34.931116,47.826473],[34.931305,47.826457],[34.931268,47.826268],[34.931097,47.826281],[34.93033,47.826334]]]}},{"type":"Feature","properties":{"cadnum":"2322183505:19:001:0285"},"geometry":{"type":"Polygon","coordinates":[[[34.928682,47.824927],[34.928689,47.824991],[34.928715,47.82499],[34.928716,47.82499],[34.92874,47.825104],[34.929149,47.825075],[34.929819,47.825022],[34.929794,47.824858],[34.929127,47.824903],[34.928682,47.824927]]]}},{"type":"Feature","properties":{"cadnum":"2322183505:19:001:0161"},"geometry":{"type":"Polygon","coordinates":[[[34.930041,47.82478],[34.930079,47.825001],[34.930497,47.824967],[34.930488,47.82491],[34.930489,47.82491],[34.930625,47.824899],[34.930737,47.824883],[34.930715,47.824769],[34.930597,47.824775],[34.930157,47.824782],[34.930041,47.82478]]]}},{"type":"Feature","properties":{"cadnum":"2322183505:19:001:0299"},"geometry":{"type":"Polygon","coordinates":[[[34.928019,47.825144],[34.928058,47.82534],[34.92878,47.825274],[34.928741,47.825077],[34.928019,47.825144]]]}},{"type":"Feature","properties":{"cadnum":"2322183505:19:001:0294"},"geometry":{"type":"Polygon","coordinates":[[[34.927868,47.824249],[34.927883,47.824323],[34.927911,47.824457],[34.928391,47.824423],[34.928602,47.824407],[34.928588,47.824297],[34.928575,47.82419],[34.928342,47.824207],[34.928341,47.824207],[34.928192,47.824219],[34.928183,47.824219],[34.927868,47.824249]]]}},{"type":"Feature","properties":{"cadnum":"2322183505:19:001:0557"},"geometry":{"type":"Polygon","coordinates":[[[34.92694,47.824094],[34.926962,47.824207],[34.926961,47.824207],[34.926976,47.82428],[34.926984,47.824323],[34.926992,47.824361],[34.927624,47.824306],[34.927633,47.824306],[34.927653,47.824304],[34.927602,47.824036],[34.927581,47.824038],[34.92694,47.824094]]]}},{"type":"Feature","properties":{"cadnum":"2322183505:19:001:0188"},"geometry":{"type":"Polygon","coordinates":[[[34.930896,47.824399],[34.930922,47.824541],[34.930944,47.824642],[34.931116,47.82463],[34.931666,47.824589],[34.931669,47.824579],[34.931632,47.824344],[34.931482,47.824357],[34.931152,47.82438],[34.931116,47.824383],[34.930896,47.824399]]]}},{"type":"Feature","properties":{"cadnum":"2322183505:19:001:0289"},"geometry":{"type":"Polygon","coordinates":[[[34.928561,47.824089],[34.928577,47.824207],[34.928576,47.824207],[34.928588,47.824297],[34.929695,47.82427],[34.929661,47.82406],[34.928561,47.824089]]]}},{"type":"Feature","properties":{"cadnum":"2322183505:19:001:0505"},"geometry":{"type":"Polygon","coordinates":[[[34.9285,47.827175],[34.928521,47.8273],[34.929172,47.827256],[34.929161,47.827117],[34.9285,47.827175]]]}},{"type":"Feature","properties":{"cadnum":"2322183505:19:001:0207"},"geometry":{"type":"Polygon","coordinates":[[[34.930399,47.826593],[34.930435,47.826828],[34.931116,47.826779],[34.931116,47.826778],[34.931564,47.826746],[34.931526,47.826512],[34.930944,47.826554],[34.930399,47.826593]]]}},{"type":"Feature","properties":{"cadnum":"2322183505:19:001:0275"},"geometry":{"type":"Polygon","coordinates":[[[34.929115,47.826892],[34.929158,47.827112],[34.929161,47.827125],[34.929802,47.827087],[34.92981,47.827142],[34.930211,47.827116],[34.930151,47.826837],[34.929897,47.826853],[34.929888,47.826822],[34.929115,47.826892]]]}},{"type":"Feature","properties":{"cadnum":"2322183505:19:001:0276"},"geometry":{"type":"Polygon","coordinates":[[[34.929193,47.826693],[34.929233,47.826882],[34.929888,47.826822],[34.929897,47.826853],[34.930151,47.826837],[34.930157,47.826836],[34.930117,47.826647],[34.929193,47.826693]]]}},{"type":"Feature","properties":{"cadnum":"2322183505:19:001:0194"},"geometry":{"type":"Polygon","coordinates":[[[34.930518,47.827407],[34.930549,47.827587],[34.930944,47.827555],[34.930944,47.827556],[34.931308,47.827526],[34.93128,47.827359],[34.931021,47.827375],[34.930518,47.827407]]]}},{"type":"Feature","properties":{"cadnum":"2322183505:19:001:0280"},"geometry":{"type":"Polygon","coordinates":[[[34.929036,47.825849],[34.929064,47.826039],[34.93001,47.825976],[34.929982,47.825786],[34.929036,47.825849]]]}},{"type":"Feature","properties":{"cadnum":"2322183505:19:001:0523"},"geometry":{"type":"Polygon","coordinates":[[[34.928945,47.826068],[34.928981,47.826258],[34.930023,47.826177],[34.929984,47.825985],[34.928945,47.826068]]]}},{"type":"Feature","properties":{"cadnum":"2322183505:19:001:0118"},"geometry":{"type":"Polygon","coordinates":[[[34.932839,47.833756],[34.932851,47.833904],[34.934873,47.833829],[34.934859,47.833682],[34.932839,47.833756]]]}},{"type":"Feature","properties":{"cadnum":"2322183505:19:001:0239"},"geometry":{"type":"Polygon","coordinates":[[[34.931603,47.833551],[34.931635,47.833784],[34.932897,47.833702],[34.93287,47.833464],[34.932286,47.833504],[34.931603,47.833551]]]}},{"type":"Feature","properties":{"cadnum":"2322183505:19:001:0507"},"geometry":{"type":"Polygon","coordinates":[[[34.935294,47.833389],[34.935322,47.833543],[34.935705,47.833519],[34.935676,47.833373],[34.935567,47.833371],[34.935404,47.833377],[34.935404,47.833384],[34.935294,47.833389]]]}},{"type":"Feature","properties":{"cadnum":"2322183505:19:001:0238"},"geometry":{"type":"Polygon","coordinates":[[[34.931571,47.833346],[34.931603,47.833552],[34.932286,47.833504],[34.93287,47.833464],[34.933054,47.833451],[34.933024,47.833251],[34.932272,47.833296],[34.931571,47.833346]]]}},{"type":"Feature","properties":{"cadnum":"2322183505:19:001:0237"},"geometry":{"type":"Polygon","coordinates":[[[34.931494,47.832863],[34.931526,47.833088],[34.932924,47.832996],[34.932896,47.832797],[34.931494,47.832863]]]}},{"type":"Feature","properties":{"cadnum":"2322183505:19:001:0342"},"geometry":{"type":"Polygon","coordinates":[[[34.93287,47.833464],[34.932897,47.833702],[34.933295,47.833669],[34.933267,47.833437],[34.93287,47.833464]]]}},{"type":"Feature","properties":{"cadnum":"2322183505:19:001:0245"},"geometry":{"type":"Polygon","coordinates":[[[34.929937,47.833224],[34.929956,47.833409],[34.930643,47.833363],[34.930692,47.833355],[34.930898,47.833341],[34.930904,47.833336],[34.930944,47.833333],[34.931068,47.833322],[34.931116,47.833319],[34.931282,47.833308],[34.931246,47.833084],[34.931098,47.833103],[34.930755,47.833148],[34.930751,47.833184],[34.930612,47.83319],[34.929937,47.833224]]]}},{"type":"Feature","properties":{"cadnum":"2322183505:19:001:0480"},"geometry":{"type":"Polygon","coordinates":[[[34.933196,47.831797],[34.933228,47.831978],[34.93424,47.83191],[34.934752,47.831882],[34.934725,47.831732],[34.934718,47.831697],[34.93462,47.831703],[34.934626,47.831728],[34.934226,47.831759],[34.933196,47.831797]]]}},{"type":"Feature","properties":{"cadnum":"2322183505:19:001:0233"},"geometry":{"type":"Polygon","coordinates":[[[34.931311,47.831907],[34.931344,47.832099],[34.9314,47.832095],[34.931741,47.83207],[34.931989,47.832052],[34.932158,47.832041],[34.932817,47.831996],[34.93278,47.831784],[34.931311,47.831907]]]}},{"type":"Feature","properties":{"cadnum":"2322183505:19:001:0114"},"geometry":{"type":"Polygon","coordinates":[[[34.933271,47.832764],[34.933311,47.832966],[34.933462,47.83295],[34.933613,47.832925],[34.93424,47.832881],[34.934757,47.832835],[34.934919,47.832826],[34.934885,47.832653],[34.933743,47.832726],[34.933624,47.832738],[34.933271,47.832764]]]}},{"type":"Feature","properties":{"cadnum":"2322183505:19:001:0107"},"geometry":{"type":"Polygon","coordinates":[[[34.935133,47.832458],[34.935164,47.832631],[34.935814,47.832591],[34.936438,47.832552],[34.936868,47.832525],[34.936851,47.832432],[34.93684,47.832367],[34.936802,47.832369],[34.936609,47.832379],[34.935858,47.832416],[34.935133,47.832458]]]}},{"type":"Feature","properties":{"cadnum":"2322183505:19:001:0104"},"geometry":{"type":"Polygon","coordinates":[[[34.935071,47.832052],[34.935099,47.832255],[34.936438,47.832177],[34.93657,47.832169],[34.936542,47.831967],[34.935071,47.832052]]]}},{"type":"Feature","properties":{"cadnum":"2322183505:19:001:0465"},"geometry":{"type":"Polygon","coordinates":[[[34.935044,47.831873],[34.935071,47.832052],[34.935778,47.832011],[34.936438,47.831973],[34.936542,47.831967],[34.936609,47.831963],[34.936666,47.83196],[34.936637,47.831765],[34.936489,47.831775],[34.935044,47.831873]]]}},{"type":"Feature","properties":{"cadnum":"2322183505:19:001:0110"},"geometry":{"type":"Polygon","coordinates":[[[34.935257,47.833129],[34.935294,47.833389],[34.935404,47.833384],[34.935404,47.833377],[34.935567,47.833371],[34.935676,47.833373],[34.935707,47.833523],[34.935913,47.833506],[34.936179,47.833487],[34.936116,47.833075],[34.935913,47.833088],[34.935257,47.833129]]]}},{"type":"Feature","properties":{"cadnum":"2322183505:19:001:0355"},"geometry":{"type":"Polygon","coordinates":[[[34.936116,47.833075],[34.936179,47.833487],[34.936437,47.833469],[34.936438,47.833469],[34.937021,47.833427],[34.936959,47.833022],[34.936523,47.83305],[34.936116,47.833075]]]}},{"type":"Feature","properties":{"cadnum":"2322183505:19:001:0417"},"geometry":{"type":"Polygon","coordinates":[[[34.928592,47.820561],[34.928607,47.820634],[34.928646,47.820828],[34.929307,47.820767],[34.92928,47.820635],[34.92928,47.820634],[34.929253,47.8205],[34.92917,47.820507],[34.929043,47.820519],[34.929012,47.820522],[34.928592,47.820561]]]}},{"type":"Feature","properties":{"cadnum":"2322183505:19:001:0413"},"geometry":{"type":"Polygon","coordinates":[[[34.927502,47.819999],[34.927562,47.820301],[34.927755,47.820284],[34.92839,47.820226],[34.928364,47.8201],[34.927502,47.819999]]]}},{"type":"Feature","properties":{"cadnum":"2322183505:19:001:0416"},"geometry":{"type":"Polygon","coordinates":[[[34.92853,47.820255],[34.928592,47.820561],[34.92917,47.820507],[34.929108,47.820202],[34.92853,47.820255]]]}},{"type":"Feature","properties":{"cadnum":"2322183505:19:001:0553"},"geometry":{"type":"Polygon","coordinates":[[[34.926983,47.819937],[34.927069,47.820347],[34.927562,47.820301],[34.927502,47.819999],[34.926983,47.819937]]]}},{"type":"Feature","properties":{"cadnum":"2322183505:19:001:0486"},"geometry":{"type":"Polygon","coordinates":[[[34.927731,47.82057],[34.92779,47.82057],[34.927804,47.820634],[34.927849,47.820837],[34.9285,47.820773],[34.928456,47.820555],[34.928446,47.820505],[34.92829,47.820519],[34.928289,47.820519],[34.927818,47.820563],[34.927812,47.820563],[34.927731,47.82057]]]}},{"type":"Feature","properties":{"cadnum":"2322183505:19:001:0410"},"geometry":{"type":"Polygon","coordinates":[[[34.927069,47.820347],[34.927105,47.820519],[34.927104,47.820519],[34.927117,47.820577],[34.927731,47.82057],[34.927812,47.820563],[34.927755,47.820284],[34.927562,47.820301],[34.927069,47.820347]]]}},{"type":"Feature","properties":{"cadnum":"2322183505:19:001:0419"},"geometry":{"type":"Polygon","coordinates":[[[34.929253,47.8205],[34.929257,47.820519],[34.929256,47.820519],[34.929307,47.820767],[34.929969,47.820706],[34.929931,47.820519],[34.92993,47.820519],[34.929914,47.820439],[34.929253,47.8205]]]}},{"type":"Feature","properties":{"cadnum":"2322183505:19:001:0436"},"geometry":{"type":"Polygon","coordinates":[[[34.930492,47.820355],[34.930527,47.820519],[34.930526,47.820519],[34.930551,47.820631],[34.930551,47.820634],[34.930552,47.820634],[34.930556,47.820652],[34.93076,47.820634],[34.930761,47.820634],[34.930762,47.820633],[34.930944,47.820617],[34.931425,47.820572],[34.931402,47.820463],[34.930944,47.820409],[34.930492,47.820355]]]}},{"type":"Feature","properties":{"cadnum":"2322183505:19:001:0343"},"geometry":{"type":"Polygon","coordinates":[[[34.927117,47.820577],[34.927129,47.820634],[34.92713,47.820634],[34.927176,47.820844],[34.927849,47.820837],[34.92779,47.82057],[34.927117,47.820577]]]}},{"type":"Feature","properties":{"cadnum":"2322183505:19:001:0418"},"geometry":{"type":"Polygon","coordinates":[[[34.929108,47.820202],[34.92917,47.820507],[34.929253,47.8205],[34.929914,47.820439],[34.929882,47.820281],[34.92917,47.820197],[34.929108,47.820202]]]}},{"type":"Feature","properties":{"cadnum":"2322183505:19:001:0475"},"geometry":{"type":"Polygon","coordinates":[[[34.937655,47.829178],[34.937683,47.829348],[34.938067,47.829319],[34.938055,47.829251],[34.938907,47.829187],[34.938889,47.829087],[34.938225,47.829136],[34.937655,47.829178]]]}},{"type":"Feature","properties":{"cadnum":"2322183505:19:001:0504"},"geometry":{"type":"Polygon","coordinates":[[[34.936662,47.831375],[34.936687,47.83156],[34.93669,47.831571],[34.937096,47.831543],[34.937198,47.831538],[34.937819,47.831498],[34.937785,47.831316],[34.937623,47.831322],[34.937391,47.831337],[34.937073,47.831362],[34.936662,47.831375]]]}},{"type":"Feature","properties":{"cadnum":"2322183505:19:001:0516"},"geometry":{"type":"Polygon","coordinates":[[[34.936561,47.830744],[34.936586,47.830998],[34.936595,47.831059],[34.93679,47.831047],[34.936741,47.83073],[34.936561,47.830744]]]}},{"type":"Feature","properties":{"cadnum":"2322183505:19:001:0015"},"geometry":{"type":"Polygon","coordinates":[[[34.937643,47.828971],[34.937662,47.829133],[34.937663,47.829153],[34.937669,47.829174],[34.937683,47.829173],[34.938255,47.829133],[34.938625,47.829106],[34.938603,47.828914],[34.938211,47.828934],[34.93767,47.828969],[34.937643,47.828971]]]}},{"type":"Feature","properties":{"cadnum":"2322183505:19:001:0012"},"geometry":{"type":"Polygon","coordinates":[[[34.937485,47.828265],[34.937485,47.828266],[34.937548,47.828596],[34.938445,47.828529],[34.938382,47.8282],[34.937485,47.828265]]]}},{"type":"Feature","properties":{"cadnum":"2322183505:19:001:0520"},"geometry":{"type":"Polygon","coordinates":[[[34.938382,47.8282],[34.938445,47.828529],[34.938732,47.828509],[34.938669,47.828178],[34.938382,47.8282]]]}},{"type":"Feature","properties":{"cadnum":"2322183505:19:001:0025"},"geometry":{"type":"Polygon","coordinates":[[[34.938063,47.831561],[34.938067,47.831583],[34.938066,47.831583],[34.938076,47.831641],[34.938084,47.831698],[34.938085,47.831698],[34.938085,47.831699],[34.938094,47.831749],[34.939364,47.83167],[34.939379,47.831669],[34.939348,47.831481],[34.938063,47.831561]]]}},{"type":"Feature","properties":{"cadnum":"2322183505:19:001:0024"},"geometry":{"type":"Polygon","coordinates":[[[34.938019,47.831292],[34.938047,47.831454],[34.938298,47.831435],[34.938353,47.831432],[34.938394,47.83143],[34.938696,47.831416],[34.939682,47.831349],[34.939652,47.831177],[34.938677,47.831242],[34.93802,47.831286],[34.938019,47.831292]]]}},{"type":"Feature","properties":{"cadnum":"2322183505:19:001:0041"},"geometry":{"type":"Polygon","coordinates":[[[34.936741,47.83073],[34.93679,47.831047],[34.937309,47.831013],[34.937602,47.830994],[34.937712,47.830987],[34.937662,47.830659],[34.936741,47.83073]]]}},{"type":"Feature","properties":{"cadnum":"2322183505:19:001:0081"},"geometry":{"type":"Polygon","coordinates":[[[34.934218,47.827139],[34.934249,47.827315],[34.935933,47.827181],[34.935903,47.827005],[34.934218,47.827139]]]}},{"type":"Feature","properties":{"cadnum":"2322183505:19:001:0082"},"geometry":{"type":"Polygon","coordinates":[[[34.934249,47.827316],[34.93428,47.827488],[34.935964,47.827353],[34.935933,47.827181],[34.934249,47.827316]]]}},{"type":"Feature","properties":{"cadnum":"2322183505:19:001:0559"},"geometry":{"type":"Polygon","coordinates":[[[34.932992,47.826401],[34.933018,47.826576],[34.93302,47.826587],[34.933038,47.826586],[34.933813,47.826531],[34.933771,47.826345],[34.932992,47.826401]]]}},{"type":"Feature","properties":{"cadnum":"2322183505:19:001:0517"},"geometry":{"type":"Polygon","coordinates":[[[34.932615,47.826102],[34.933061,47.826071],[34.933676,47.826029],[34.933711,47.826026],[34.933698,47.82587],[34.933657,47.825872],[34.933038,47.825906],[34.932621,47.82593],[34.932615,47.82596],[34.932615,47.826102]]]}},{"type":"Feature","properties":{"cadnum":"2322183505:19:001:0076"},"geometry":{"type":"Polygon","coordinates":[[[34.933982,47.826219],[34.933986,47.826257],[34.934301,47.826234],[34.934354,47.826231],[34.934706,47.826208],[34.934926,47.826188],[34.935315,47.826109],[34.935267,47.825897],[34.93487,47.825933],[34.934442,47.825972],[34.93428,47.826009],[34.934193,47.826047],[34.934091,47.826083],[34.934034,47.826127],[34.934014,47.826163],[34.934009,47.826173],[34.933993,47.826202],[34.933982,47.826219]]]}},{"type":"Feature","properties":{"cadnum":"2322183505:19:001:0350"},"geometry":{"type":"Polygon","coordinates":[[[34.934442,47.825972],[34.935699,47.825857],[34.93561,47.825621],[34.934517,47.825739],[34.934468,47.825919],[34.934442,47.825972]]]}},{"type":"Feature","properties":{"cadnum":"2322183505:19:001:0060"},"geometry":{"type":"Polygon","coordinates":[[[34.935983,47.826023],[34.936039,47.826336],[34.93632,47.826328],[34.936438,47.826318],[34.936609,47.826304],[34.936609,47.826303],[34.936911,47.826277],[34.936849,47.825932],[34.936463,47.825964],[34.936039,47.826011],[34.935983,47.826023]]]}},{"type":"Feature","properties":{"cadnum":"2322183505:19:001:0073"},"geometry":{"type":"Polygon","coordinates":[[[34.933877,47.825322],[34.933896,47.825472],[34.934445,47.825435],[34.934458,47.82526],[34.933877,47.825322]]]}},{"type":"Feature","properties":{"cadnum":"2322183505:19:001:0146"},"geometry":{"type":"Polygon","coordinates":[[[34.932161,47.826628],[34.932185,47.826806],[34.932709,47.826767],[34.932688,47.826588],[34.932161,47.826628]]]}},{"type":"Feature","properties":{"cadnum":"2322183505:19:001:0199"},"geometry":{"type":"Polygon","coordinates":[[[34.931071,47.825752],[34.931101,47.825926],[34.931556,47.825891],[34.931882,47.825867],[34.931851,47.825681],[34.931439,47.825724],[34.931071,47.825752]]]}},{"type":"Feature","properties":{"cadnum":"2322183505:19:001:0162"},"geometry":{"type":"Polygon","coordinates":[[[34.931913,47.825216],[34.931938,47.825416],[34.932412,47.825389],[34.932386,47.825186],[34.932143,47.825201],[34.931913,47.825216]]]}},{"type":"Feature","properties":{"cadnum":"2322183505:19:001:0567"},"geometry":{"type":"Polygon","coordinates":[[[34.932009,47.825857],[34.932032,47.826039],[34.932602,47.825994],[34.932589,47.825815],[34.932009,47.825857]]]}},{"type":"Feature","properties":{"cadnum":"2322183505:19:001:0163"},"geometry":{"type":"Polygon","coordinates":[[[34.932606,47.825005],[34.93264,47.825191],[34.933147,47.825164],[34.933558,47.825129],[34.933525,47.824935],[34.933455,47.824939],[34.933346,47.824946],[34.933346,47.824953],[34.933086,47.824966],[34.932606,47.825005]]]}},{"type":"Feature","properties":{"cadnum":"2322183505:19:001:0168"},"geometry":{"type":"Polygon","coordinates":[[[34.932271,47.824427],[34.932291,47.824568],[34.933458,47.824492],[34.933439,47.824352],[34.932271,47.824427]]]}},{"type":"Feature","properties":{"cadnum":"2322183505:19:001:0071"},"geometry":{"type":"Polygon","coordinates":[[[34.933734,47.824912],[34.933769,47.82511],[34.934529,47.825044],[34.934599,47.825038],[34.934591,47.824985],[34.934572,47.824856],[34.933734,47.824912]]]}},{"type":"Feature","properties":{"cadnum":"2322183505:19:001:0075"},"geometry":{"type":"Polygon","coordinates":[[[34.933954,47.825798],[34.934001,47.826057],[34.934317,47.825947],[34.934358,47.825902],[34.934402,47.825751],[34.933954,47.825798]]]}},{"type":"Feature","properties":{"cadnum":"2322183505:19:001:0169"},"geometry":{"type":"Polygon","coordinates":[[[34.931693,47.824336],[34.931754,47.82472],[34.931958,47.824703],[34.932011,47.824698],[34.932291,47.824675],[34.93226,47.824288],[34.931985,47.824306],[34.931941,47.82431],[34.931889,47.824315],[34.931693,47.824336]]]}},{"type":"Feature","properties":{"cadnum":"2322183505:19:001:0157"},"geometry":{"type":"Polygon","coordinates":[[[34.932551,47.825574],[34.932562,47.825637],[34.932587,47.825806],[34.932996,47.825777],[34.933066,47.825773],[34.933341,47.825753],[34.933668,47.825742],[34.933629,47.825502],[34.933289,47.82552],[34.933039,47.825539],[34.932551,47.825574]]]}},{"type":"Feature","properties":{"cadnum":"2322183505:19:001:0074"},"geometry":{"type":"Polygon","coordinates":[[[34.933898,47.825475],[34.933928,47.825672],[34.933954,47.825798],[34.934307,47.825761],[34.934292,47.825452],[34.933898,47.825475]]]}},{"type":"Feature","properties":{"cadnum":"2322183505:19:001:0165"},"geometry":{"type":"Polygon","coordinates":[[[34.931878,47.824803],[34.931949,47.825179],[34.932477,47.82514],[34.932429,47.824799],[34.931878,47.824803]]]}},{"type":"Feature","properties":{"cadnum":"2322183505:19:001:0058"},"geometry":{"type":"Polygon","coordinates":[[[34.93605,47.826627],[34.93611,47.826971],[34.936438,47.826954],[34.936446,47.826953],[34.936609,47.826945],[34.936609,47.826944],[34.936718,47.826938],[34.93704,47.826914],[34.937144,47.826907],[34.937126,47.826781],[34.937119,47.826747],[34.937095,47.826577],[34.937028,47.826581],[34.937026,47.826576],[34.936924,47.826577],[34.936682,47.82659],[34.936438,47.826604],[34.93605,47.826627]]]}},{"type":"Feature","properties":{"cadnum":"2322183505:19:001:0406"},"geometry":{"type":"Polygon","coordinates":[[[34.927353,47.821764],[34.927407,47.822031],[34.927498,47.822023],[34.928069,47.82197],[34.928014,47.821703],[34.927443,47.821755],[34.927353,47.821764]]]}},{"type":"Feature","properties":{"cadnum":"2322183505:19:001:0248"},"geometry":{"type":"Polygon","coordinates":[[[34.92796,47.821436],[34.928015,47.821702],[34.928677,47.821642],[34.928623,47.821375],[34.92796,47.821436]]]}},{"type":"Feature","properties":{"cadnum":"2322183505:19:001:0249"},"geometry":{"type":"Polygon","coordinates":[[[34.928014,47.821703],[34.928069,47.82197],[34.92873,47.821909],[34.928675,47.821642],[34.928014,47.821703]]]}},{"type":"Feature","properties":{"cadnum":"2322183505:19:001:0403"},"geometry":{"type":"Polygon","coordinates":[[[34.927515,47.822566],[34.92757,47.822833],[34.928231,47.822772],[34.928178,47.822505],[34.927515,47.822566]]]}},{"type":"Feature","properties":{"cadnum":"2322183505:19:001:0401"},"geometry":{"type":"Polygon","coordinates":[[[34.927624,47.8231],[34.927678,47.823367],[34.928339,47.823307],[34.928285,47.82304],[34.927624,47.8231]]]}},{"type":"Feature","properties":{"cadnum":"2322183505:19:001:0253"},"geometry":{"type":"Polygon","coordinates":[[[34.928231,47.822772],[34.928285,47.82304],[34.928948,47.822978],[34.928893,47.822712],[34.928231,47.822772]]]}},{"type":"Feature","properties":{"cadnum":"2322183505:19:001:0432"},"geometry":{"type":"Polygon","coordinates":[[[34.930554,47.821469],[34.930652,47.821946],[34.931022,47.821912],[34.930979,47.821702],[34.930926,47.821435],[34.930554,47.821469]]]}},{"type":"Feature","properties":{"cadnum":"2322183505:19:001:0440"},"geometry":{"type":"Polygon","coordinates":[[[34.930926,47.821435],[34.930944,47.821529],[34.930979,47.821702],[34.931116,47.821691],[34.931116,47.82169],[34.93164,47.821642],[34.931587,47.821375],[34.931116,47.821418],[34.930926,47.821435]]]}},{"type":"Feature","properties":{"cadnum":"2322183505:19:001:0402"},"geometry":{"type":"Polygon","coordinates":[[[34.927569,47.822833],[34.927624,47.8231],[34.927716,47.823092],[34.928285,47.82304],[34.928231,47.822772],[34.927661,47.822824],[34.927569,47.822833]]]}},{"type":"Feature","properties":{"cadnum":"2322183505:19:001:0434"},"geometry":{"type":"Polygon","coordinates":[[[34.930749,47.822425],[34.930845,47.822902],[34.931116,47.822877],[34.931215,47.822868],[34.931197,47.822772],[34.931142,47.822505],[34.931119,47.82239],[34.930944,47.822407],[34.930749,47.822425]]]}},{"type":"Feature","properties":{"cadnum":"2322183505:19:001:0532"},"geometry":{"type":"Polygon","coordinates":[[[34.926886,47.823827],[34.92694,47.824094],[34.927602,47.824036],[34.927549,47.823769],[34.926886,47.823827]]]}},{"type":"Feature","properties":{"cadnum":"2322183505:19:001:0252"},"geometry":{"type":"Polygon","coordinates":[[[34.928178,47.822505],[34.928231,47.822772],[34.928893,47.822712],[34.928839,47.822444],[34.928178,47.822505]]]}},{"type":"Feature","properties":{"cadnum":"2322183505:19:001:0364"},"geometry":{"type":"Polygon","coordinates":[[[34.926614,47.822354],[34.926685,47.822637],[34.927309,47.822578],[34.927236,47.822295],[34.926614,47.822354]]]}},{"type":"Feature","properties":{"cadnum":"2322183505:19:001:0291"},"geometry":{"type":"Polygon","coordinates":[[[34.928583,47.823676],[34.928618,47.82387],[34.929615,47.823838],[34.929586,47.823603],[34.928583,47.823676]]]}},{"type":"Feature","properties":{"cadnum":"2322183505:19:001:0292"},"geometry":{"type":"Polygon","coordinates":[[[34.927766,47.823735],[34.927826,47.824032],[34.928117,47.824005],[34.928117,47.824003],[34.928309,47.823982],[34.928538,47.82396],[34.928539,47.82396],[34.928529,47.823875],[34.928616,47.823869],[34.928579,47.82367],[34.927766,47.823735]]]}},{"type":"Feature","properties":{"cadnum":"2322183505:19:001:0433"},"geometry":{"type":"Polygon","coordinates":[[[34.930652,47.821946],[34.930749,47.822425],[34.931116,47.822391],[34.931119,47.82239],[34.931088,47.822237],[34.931033,47.82197],[34.931022,47.821913],[34.930652,47.821946]]]}},{"type":"Feature","properties":{"cadnum":"2322183505:19:001:0408"},"geometry":{"type":"Polygon","coordinates":[[[34.927244,47.821229],[34.927299,47.821496],[34.927389,47.821488],[34.92796,47.821436],[34.927906,47.821168],[34.927905,47.821168],[34.927336,47.821221],[34.927244,47.821229]]]}},{"type":"Feature","properties":{"cadnum":"2322183505:19:001:0530"},"geometry":{"type":"Polygon","coordinates":[[[34.928123,47.822237],[34.928178,47.822505],[34.928839,47.822444],[34.928785,47.822177],[34.928123,47.822237]]]}},{"type":"Feature","properties":{"cadnum":"2322183505:19:001:0441"},"geometry":{"type":"Polygon","coordinates":[[[34.930979,47.821702],[34.931033,47.82197],[34.931116,47.821963],[34.931116,47.821962],[34.931695,47.821909],[34.93164,47.821642],[34.930979,47.821702]]]}},{"type":"Feature","properties":{"cadnum":"2322183505:19:001:0405"},"geometry":{"type":"Polygon","coordinates":[[[34.927408,47.822031],[34.927462,47.822298],[34.928123,47.822237],[34.928069,47.82197],[34.927408,47.822031]]]}},{"type":"Feature","properties":{"cadnum":"2322183505:19:001:0254"},"geometry":{"type":"Polygon","coordinates":[[[34.928285,47.82304],[34.928339,47.823307],[34.929001,47.823246],[34.928948,47.822978],[34.928285,47.82304]]]}},{"type":"Feature","properties":{"cadnum":"2322183505:19:001:0400"},"geometry":{"type":"Polygon","coordinates":[[[34.927678,47.823367],[34.927731,47.823635],[34.928394,47.823574],[34.928339,47.823307],[34.927678,47.823367]]]}},{"type":"Feature","properties":{"cadnum":"2322183505:19:001:0435"},"geometry":{"type":"Polygon","coordinates":[[[34.930845,47.822902],[34.930934,47.82334],[34.930944,47.823339],[34.930984,47.823336],[34.931116,47.823324],[34.931304,47.823307],[34.93125,47.82304],[34.931215,47.822868],[34.930944,47.822893],[34.930845,47.822902]]]}},{"type":"Feature","properties":{"cadnum":"2322183505:19:001:0565"},"geometry":{"type":"Polygon","coordinates":[[[34.930845,47.823713],[34.930885,47.823947],[34.930944,47.823942],[34.930944,47.823943],[34.9311,47.823929],[34.931116,47.823927],[34.931246,47.823916],[34.93156,47.823889],[34.931531,47.82366],[34.931097,47.823696],[34.930845,47.823713]]]}},{"type":"Feature","properties":{"cadnum":"2322183505:19:001:0255"},"geometry":{"type":"Polygon","coordinates":[[[34.928339,47.823307],[34.928394,47.823574],[34.929055,47.823513],[34.929001,47.823246],[34.928339,47.823307]]]}},{"type":"Feature","properties":{"cadnum":"2322183505:19:001:0404"},"geometry":{"type":"Polygon","coordinates":[[[34.927462,47.822298],[34.927515,47.822566],[34.927606,47.822557],[34.928176,47.822505],[34.928123,47.822237],[34.927551,47.822289],[34.927462,47.822298]]]}},{"type":"Feature","properties":{"cadnum":"2322183505:19:001:0552"},"geometry":{"type":"Polygon","coordinates":[[[34.926727,47.823212],[34.926784,47.823496],[34.927408,47.823438],[34.927445,47.823436],[34.927446,47.823436],[34.927439,47.823404],[34.927425,47.823335],[34.927417,47.8233],[34.927399,47.823206],[34.927392,47.823167],[34.927388,47.82315],[34.927377,47.823151],[34.92729,47.823159],[34.926948,47.823191],[34.926727,47.823212]]]}},{"type":"Feature","properties":{"cadnum":"2322183505:19:001:0427"},"geometry":{"type":"Polygon","coordinates":[[[34.930156,47.820961],[34.93021,47.821229],[34.930871,47.821168],[34.930817,47.820901],[34.930156,47.820961]]]}},{"type":"Feature","properties":{"cadnum":"2322183505:19:001:0485"},"geometry":{"type":"Polygon","coordinates":[[[34.927849,47.820837],[34.927907,47.821168],[34.928568,47.821107],[34.9285,47.820773],[34.927849,47.820837]]]}},{"type":"Feature","properties":{"cadnum":"2322183505:19:001:0438"},"geometry":{"type":"Polygon","coordinates":[[[34.930817,47.820901],[34.930871,47.821168],[34.930944,47.821162],[34.931533,47.821107],[34.931478,47.82084],[34.930944,47.820889],[34.930817,47.820901]]]}},{"type":"Feature","properties":{"cadnum":"2322183505:19:001:0421"},"geometry":{"type":"Polygon","coordinates":[[[34.929362,47.821034],[34.929416,47.821302],[34.930077,47.821241],[34.930023,47.820974],[34.929362,47.821034]]]}},{"type":"Feature","properties":{"cadnum":"2322183505:19:001:0439"},"geometry":{"type":"Polygon","coordinates":[[[34.930871,47.821168],[34.930926,47.821435],[34.930944,47.821433],[34.930944,47.821434],[34.931587,47.821375],[34.931533,47.821107],[34.931116,47.821146],[34.930871,47.821168]]]}},{"type":"Feature","properties":{"cadnum":"2322183505:19:001:0409"},"geometry":{"type":"Polygon","coordinates":[[[34.927176,47.820844],[34.927244,47.821229],[34.927905,47.821168],[34.927849,47.820837],[34.927176,47.820844]]]}},{"type":"Feature","properties":{"cadnum":"2322183505:19:001:0534"},"geometry":{"type":"Polygon","coordinates":[[[34.928699,47.821095],[34.928754,47.821363],[34.929416,47.821302],[34.929362,47.821034],[34.928699,47.821095]]]}},{"type":"Feature","properties":{"cadnum":"2322183505:19:001:0327"},"geometry":{"type":"Polygon","coordinates":[[[34.926228,47.82065],[34.926265,47.82086],[34.926943,47.820811],[34.926901,47.8206],[34.926228,47.82065]]]}},{"type":"Feature","properties":{"cadnum":"2322183505:19:001:0428"},"geometry":{"type":"Polygon","coordinates":[[[34.930208,47.82123],[34.930263,47.821496],[34.930554,47.821469],[34.930926,47.821435],[34.930871,47.821168],[34.930208,47.82123]]]}},{"type":"Feature","properties":{"cadnum":"2322183505:19:001:0467"},"geometry":{"type":"Polygon","coordinates":[[[34.928646,47.820828],[34.928699,47.821095],[34.929362,47.821034],[34.929307,47.820767],[34.928646,47.820828]]]}},{"type":"Feature","properties":{"cadnum":"2322183505:19:001:0492"},"geometry":{"type":"Polygon","coordinates":[[[34.927906,47.821168],[34.92796,47.821436],[34.928622,47.821375],[34.928568,47.821107],[34.927906,47.821168]]]}},{"type":"Feature","properties":{"cadnum":"2322183505:19:001:0426"},"geometry":{"type":"Polygon","coordinates":[[[34.930098,47.820695],[34.930156,47.820961],[34.930817,47.820901],[34.930761,47.820634],[34.930556,47.820652],[34.930098,47.820695]]]}},{"type":"Feature","properties":{"cadnum":"2322183505:19:001:0420"},"geometry":{"type":"Polygon","coordinates":[[[34.929307,47.820767],[34.929362,47.821034],[34.930023,47.820974],[34.929969,47.820706],[34.929307,47.820767]]]}},{"type":"Feature","properties":{"cadnum":"2322183505:19:001:0036"},"geometry":{"type":"Polygon","coordinates":[[[34.936996,47.832059],[34.93705,47.83241],[34.937456,47.832366],[34.937574,47.832351],[34.937932,47.832319],[34.937879,47.831991],[34.937496,47.832026],[34.937335,47.832033],[34.936996,47.832059]]]}},{"type":"Feature","properties":{"cadnum":"2322183505:19:001:0541"},"geometry":{"type":"Polygon","coordinates":[[[34.936794,47.832076],[34.936851,47.832432],[34.93705,47.83241],[34.936996,47.832059],[34.936794,47.832076]]]}},{"type":"Feature","properties":{"cadnum":"2322183505:19:001:0105"},"geometry":{"type":"Polygon","coordinates":[[[34.936542,47.831967],[34.93657,47.832169],[34.936757,47.832158],[34.936727,47.831956],[34.936542,47.831967]]]}},{"type":"Feature","properties":{"cadnum":"2322183505:19:001:0218"},"geometry":{"type":"Polygon","coordinates":[[[34.925462,47.830457],[34.925489,47.830636],[34.925623,47.830627],[34.927062,47.83053],[34.927035,47.830349],[34.925462,47.830457]]]}},{"type":"Feature","properties":{"cadnum":"2322183505:19:001:0562"},"geometry":{"type":"Polygon","coordinates":[[[34.93154,47.82048],[34.931548,47.820519],[34.931547,47.820519],[34.931588,47.820718],[34.932151,47.820667],[34.932634,47.820622],[34.932713,47.820615],[34.932687,47.820612],[34.93154,47.82048]]]}},{"type":"Feature","properties":{"cadnum":"2322183505:19:001:0088"},"geometry":{"type":"Polygon","coordinates":[[[34.937348,47.827427],[34.937371,47.827593],[34.937952,47.827555],[34.938531,47.827512],[34.938508,47.827348],[34.937924,47.827384],[34.937602,47.827405],[34.937348,47.827427]]]}},{"type":"Feature","properties":{"cadnum":"2322183505:19:001:0008"},"geometry":{"type":"Polygon","coordinates":[[[34.937384,47.827249],[34.937407,47.82741],[34.938514,47.827323],[34.938494,47.827163],[34.937384,47.827249]]]}},{"type":"Feature","properties":{"cadnum":"2322183505:19:001:0010"},"geometry":{"type":"Polygon","coordinates":[[[34.937394,47.827605],[34.937438,47.827894],[34.938331,47.827822],[34.938291,47.827553],[34.937394,47.827605]]]}},{"type":"Feature","properties":{"cadnum":"2322183505:19:001:0004"},"geometry":{"type":"Polygon","coordinates":[[[34.93714,47.826126],[34.937166,47.82626],[34.937607,47.826229],[34.938082,47.826197],[34.938031,47.825838],[34.93747,47.825874],[34.937257,47.825889],[34.93727,47.825963],[34.937285,47.826038],[34.937299,47.826113],[34.937298,47.826113],[34.93714,47.826126]]]}},{"type":"Feature","properties":{"cadnum":"2322183505:19:001:0346"},"geometry":{"type":"Polygon","coordinates":[[[34.938031,47.825838],[34.938082,47.826197],[34.938138,47.826194],[34.938087,47.825834],[34.938031,47.825838]]]}},{"type":"Feature","properties":{"cadnum":"2322183505:19:001:0005"},"geometry":{"type":"Polygon","coordinates":[[[34.937166,47.82626],[34.937218,47.826593],[34.937697,47.826558],[34.938113,47.82653],[34.93806,47.826199],[34.937607,47.826229],[34.937166,47.82626]]]}},{"type":"Feature","properties":{"cadnum":"2322183505:19:001:0442"},"geometry":{"type":"Polygon","coordinates":[[[34.931033,47.82197],[34.931088,47.822237],[34.931749,47.822177],[34.931695,47.821909],[34.931033,47.82197]]]}},{"type":"Feature","properties":{"cadnum":"2322183505:19:001:0443"},"geometry":{"type":"Polygon","coordinates":[[[34.931088,47.822237],[34.931142,47.822505],[34.931804,47.822443],[34.931749,47.822177],[34.931088,47.822237]]]}},{"type":"Feature","properties":{"cadnum":"2322183505:19:001:0444"},"geometry":{"type":"Polygon","coordinates":[[[34.931142,47.822505],[34.931197,47.822772],[34.931858,47.822711],[34.931803,47.822443],[34.931142,47.822505]]]}},{"type":"Feature","properties":{"cadnum":"2322183505:19:001:0457"},"geometry":{"type":"Polygon","coordinates":[[[34.932279,47.821295],[34.932342,47.82161],[34.932905,47.821558],[34.932841,47.821244],[34.932279,47.821295]]]}},{"type":"Feature","properties":{"cadnum":"2322183505:19:001:0451"},"geometry":{"type":"Polygon","coordinates":[[[34.931843,47.821976],[34.931907,47.82229],[34.932469,47.822239],[34.932406,47.821924],[34.931843,47.821976]]]}},{"type":"Feature","properties":{"cadnum":"2322183505:19:001:0353"},"geometry":{"type":"Polygon","coordinates":[[[34.932469,47.822239],[34.932534,47.822553],[34.933096,47.822501],[34.933033,47.822187],[34.932469,47.822239]]]}},{"type":"Feature","properties":{"cadnum":"2322183505:19:001:0351"},"geometry":{"type":"Polygon","coordinates":[[[34.932597,47.822868],[34.932661,47.823182],[34.933223,47.82313],[34.93316,47.822816],[34.932597,47.822868]]]}},{"type":"Feature","properties":{"cadnum":"2322183505:19:001:0543"},"geometry":{"type":"Polygon","coordinates":[[[34.933534,47.823021],[34.933556,47.823151],[34.934213,47.823058],[34.934274,47.823049],[34.934253,47.822918],[34.933534,47.823021]]]}},{"type":"Feature","properties":{"cadnum":"2322183505:19:001:0179"},"geometry":{"type":"Polygon","coordinates":[[[34.931619,47.823396],[34.931658,47.823664],[34.932206,47.823619],[34.932176,47.823352],[34.931619,47.823396]]]}},{"type":"Feature","properties":{"cadnum":"2322183505:19:001:0458"},"geometry":{"type":"Polygon","coordinates":[[[34.932342,47.82161],[34.932406,47.821924],[34.932968,47.821873],[34.932905,47.821558],[34.932342,47.82161]]]}},{"type":"Feature","properties":{"cadnum":"2322183505:19:001:0459"},"geometry":{"type":"Polygon","coordinates":[[[34.932406,47.821924],[34.932469,47.822239],[34.933033,47.822187],[34.932968,47.821873],[34.932406,47.821924]]]}},{"type":"Feature","properties":{"cadnum":"2322183505:19:001:0320"},"geometry":{"type":"Polygon","coordinates":[[[34.933566,47.823565],[34.933611,47.823833],[34.934274,47.823783],[34.93423,47.823515],[34.933566,47.823565]]]}},{"type":"Feature","properties":{"cadnum":"2322183505:19:001:0178"},"geometry":{"type":"Polygon","coordinates":[[[34.932229,47.823334],[34.932257,47.823554],[34.933337,47.823496],[34.933299,47.823278],[34.932229,47.823334]]]}},{"type":"Feature","properties":{"cadnum":"2322183505:19:001:0500"},"geometry":{"type":"Polygon","coordinates":[[[34.9336,47.82342],[34.933655,47.823686],[34.933983,47.823639],[34.933928,47.823373],[34.9336,47.82342]]]}},{"type":"Feature","properties":{"cadnum":"2322183505:19:001:0453"},"geometry":{"type":"Polygon","coordinates":[[[34.93197,47.822605],[34.932035,47.822919],[34.932597,47.822868],[34.932534,47.822553],[34.93197,47.822605]]]}},{"type":"Feature","properties":{"cadnum":"2322183505:19:001:0452"},"geometry":{"type":"Polygon","coordinates":[[[34.931907,47.82229],[34.93197,47.822605],[34.932534,47.822553],[34.932469,47.822239],[34.931907,47.82229]]]}},{"type":"Feature","properties":{"cadnum":"2322183505:19:001:0135"},"geometry":{"type":"Polygon","coordinates":[[[34.93125,47.82304],[34.931304,47.823307],[34.931966,47.823246],[34.931911,47.822978],[34.93125,47.82304]]]}},{"type":"Feature","properties":{"cadnum":"2322183505:19:001:0454"},"geometry":{"type":"Polygon","coordinates":[[[34.932035,47.822919],[34.932098,47.823234],[34.932661,47.823182],[34.932597,47.822868],[34.932035,47.822919]]]}},{"type":"Feature","properties":{"cadnum":"2322183505:19:001:0501"},"geometry":{"type":"Polygon","coordinates":[[[34.933928,47.823373],[34.933983,47.823639],[34.934312,47.823592],[34.934257,47.823326],[34.933928,47.823373]]]}},{"type":"Feature","properties":{"cadnum":"2322183505:19:001:0445"},"geometry":{"type":"Polygon","coordinates":[[[34.931197,47.822772],[34.931215,47.822868],[34.93125,47.82304],[34.931911,47.822978],[34.931858,47.822711],[34.931197,47.822772]]]}},{"type":"Feature","properties":{"cadnum":"2322183505:19:001:0352"},"geometry":{"type":"Polygon","coordinates":[[[34.932534,47.822553],[34.932597,47.822868],[34.93316,47.822816],[34.933096,47.822501],[34.932534,47.822553]]]}},{"type":"Feature","properties":{"cadnum":"2322183505:19:001:0542"},"geometry":{"type":"Polygon","coordinates":[[[34.933475,47.822661],[34.933534,47.823021],[34.934253,47.822918],[34.934194,47.822559],[34.933475,47.822661]]]}},{"type":"Feature","properties":{"cadnum":"2322183505:19:001:0321"},"geometry":{"type":"Polygon","coordinates":[[[34.933556,47.823151],[34.9336,47.82342],[34.934257,47.823326],[34.934213,47.823058],[34.933556,47.823151]]]}},{"type":"Feature","properties":{"cadnum":"2322183505:19:001:0173"},"geometry":{"type":"Polygon","coordinates":[[[34.931695,47.823891],[34.931726,47.824113],[34.932138,47.824077],[34.932261,47.824063],[34.932224,47.823837],[34.932106,47.823851],[34.931695,47.823891]]]}},{"type":"Feature","properties":{"cadnum":"2322183505:19:001:0456"},"geometry":{"type":"Polygon","coordinates":[[[34.932214,47.820981],[34.932279,47.821295],[34.932841,47.821244],[34.932776,47.820929],[34.932214,47.820981]]]}},{"type":"Feature","properties":{"cadnum":"2322183505:19:001:0448"},"geometry":{"type":"Polygon","coordinates":[[[34.931653,47.821032],[34.931716,47.821347],[34.932279,47.821295],[34.932214,47.820981],[34.931653,47.821032]]]}},{"type":"Feature","properties":{"cadnum":"2322183505:19:001:0455"},"geometry":{"type":"Polygon","coordinates":[[[34.932151,47.820667],[34.932214,47.820981],[34.932776,47.820929],[34.932713,47.820615],[34.932151,47.820667]]]}},{"type":"Feature","properties":{"cadnum":"2322183505:19:001:0447"},"geometry":{"type":"Polygon","coordinates":[[[34.931588,47.820718],[34.931653,47.821032],[34.932214,47.820981],[34.932151,47.820667],[34.931588,47.820718]]]}},{"type":"Feature","properties":{"cadnum":"2322183505:19:001:0537"},"geometry":{"type":"Polygon","coordinates":[[[34.926008,47.829476],[34.926855,47.829479],[34.926859,47.82888],[34.926123,47.828877],[34.926008,47.829476]]]}},{"type":"Feature","properties":{"cadnum":"2322183505:19:001:0270"},"geometry":{"type":"Polygon","coordinates":[[[34.929395,47.828067],[34.929426,47.828262],[34.930377,47.828195],[34.930333,47.82799],[34.930053,47.828012],[34.929395,47.828067]]]}},{"type":"Feature","properties":{"cadnum":"2322183505:19:001:0538"},"geometry":{"type":"Polygon","coordinates":[[[34.926123,47.828877],[34.926859,47.82888],[34.926866,47.828172],[34.926264,47.828169],[34.926189,47.828535],[34.926123,47.828877]]]}},{"type":"Feature","properties":{"cadnum":"2322183505:19:001:0266"},"geometry":{"type":"Polygon","coordinates":[[[34.929121,47.82904],[34.929161,47.829256],[34.929923,47.829223],[34.930558,47.829168],[34.930521,47.828963],[34.929988,47.829001],[34.929947,47.829006],[34.929121,47.82904]]]}},{"type":"Feature","properties":{"cadnum":"2322183505:19:001:0267"},"geometry":{"type":"Polygon","coordinates":[[[34.92871,47.828907],[34.928736,47.829055],[34.929947,47.829006],[34.929988,47.829001],[34.930521,47.828963],[34.930484,47.828794],[34.93037,47.828805],[34.929923,47.828845],[34.92871,47.828907]]]}},{"type":"Feature","properties":{"cadnum":"2322183505:19:001:0491"},"geometry":{"type":"Polygon","coordinates":[[[34.929249,47.831468],[34.929269,47.831583],[34.929268,47.831583],[34.92928,47.831646],[34.929377,47.831641],[34.930389,47.831584],[34.930391,47.831584],[34.930959,47.831543],[34.930927,47.831363],[34.930423,47.831405],[34.929544,47.831452],[34.929249,47.831468]]]}},{"type":"Feature","properties":{"cadnum":"2322183505:19:001:0490"},"geometry":{"type":"Polygon","coordinates":[[[34.929503,47.83124],[34.929544,47.831452],[34.930423,47.831405],[34.930927,47.831363],[34.930887,47.831149],[34.93048,47.831183],[34.929503,47.83124]]]}},{"type":"Feature","properties":{"cadnum":"2322183505:19:001:0470"},"geometry":{"type":"Polygon","coordinates":[[[34.929166,47.83126],[34.929206,47.83147],[34.929544,47.831452],[34.929503,47.83124],[34.929166,47.83126]]]}},{"type":"Feature","properties":{"cadnum":"2322183505:19:001:0510"},"geometry":{"type":"Polygon","coordinates":[[[34.928028,47.829655],[34.928058,47.829991],[34.928592,47.829969],[34.92856,47.829632],[34.928028,47.829655]]]}},{"type":"Feature","properties":{"cadnum":"2322183505:19:001:0262"},"geometry":{"type":"Polygon","coordinates":[[[34.929051,47.829964],[34.929076,47.830135],[34.930212,47.830055],[34.930325,47.830044],[34.930694,47.829999],[34.930668,47.829831],[34.930163,47.829876],[34.929051,47.829964]]]}},{"type":"Feature","properties":{"cadnum":"2322183505:19:001:0468"},"geometry":{"type":"Polygon","coordinates":[[[34.928054,47.830933],[34.9286,47.830946],[34.928607,47.830612],[34.928074,47.830599],[34.928054,47.830933]]]}},{"type":"Feature","properties":{"cadnum":"2322183505:19:001:0326"},"geometry":{"type":"Polygon","coordinates":[[[34.927918,47.829241],[34.927946,47.82953],[34.928099,47.829523],[34.928099,47.829535],[34.928631,47.829527],[34.928627,47.829488],[34.928603,47.829317],[34.928575,47.829319],[34.928559,47.8292],[34.927918,47.829241]]]}},{"type":"Feature","properties":{"cadnum":"2322183505:19:001:0197"},"geometry":{"type":"Polygon","coordinates":[[[34.929794,47.830841],[34.92983,47.831037],[34.930836,47.830964],[34.930796,47.830747],[34.929794,47.830841]]]}},{"type":"Feature","properties":{"cadnum":"2322183505:19:001:0265"},"geometry":{"type":"Polygon","coordinates":[[[34.928824,47.829271],[34.92889,47.829443],[34.929947,47.829395],[34.930588,47.829342],[34.930558,47.829168],[34.929923,47.829223],[34.928824,47.829271]]]}},{"type":"Feature","properties":{"cadnum":"2322183505:19:001:0390"},"geometry":{"type":"Polygon","coordinates":[[[34.929143,47.831862],[34.929178,47.832145],[34.929189,47.832145],[34.929542,47.832136],[34.929787,47.832128],[34.92975,47.831822],[34.929143,47.831862]]]}},{"type":"Feature","properties":{"cadnum":"2322183505:19:001:0325"},"geometry":{"type":"Polygon","coordinates":[[[34.929252,47.833162],[34.929279,47.833448],[34.929947,47.833422],[34.929918,47.833133],[34.929252,47.833162]]]}},{"type":"Feature","properties":{"cadnum":"2322183505:19:001:0308"},"geometry":{"type":"Polygon","coordinates":[[[34.928288,47.833269],[34.928323,47.833563],[34.928733,47.833549],[34.928846,47.833546],[34.928895,47.833536],[34.928913,47.833531],[34.928933,47.833504],[34.928969,47.833457],[34.928935,47.833239],[34.928288,47.833269]]]}},{"type":"Feature","properties":{"cadnum":"2322183505:19:001:0332"},"geometry":{"type":"Polygon","coordinates":[[[34.928101,47.832199],[34.928146,47.832467],[34.928809,47.832419],[34.928765,47.83215],[34.928101,47.832199]]]}},{"type":"Feature","properties":{"cadnum":"2322183505:19:001:0341"},"geometry":{"type":"Polygon","coordinates":[[[34.928209,47.83298],[34.928243,47.833249],[34.928909,47.833211],[34.928875,47.832942],[34.928209,47.83298]]]}}]}