{"type":"FeatureCollection","features":[{"type":"Feature","properties":{"cadnum":"2322785402:02:001:0001"},"geometry":{"type":"Polygon","coordinates":[[[36.585167,47.479739],[36.585248,47.480003],[36.586677,47.479804],[36.586754,47.480075],[36.58678,47.480164],[36.586787,47.480191],[36.586788,47.480191],[36.586854,47.480421],[36.586854,47.480422],[36.586213,47.480511],[36.586347,47.480952],[36.585568,47.481061],[36.586116,47.482866],[36.587117,47.483002],[36.589782,47.482631],[36.589041,47.480192],[36.589041,47.480191],[36.589042,47.480191],[36.588753,47.47924],[36.585167,47.479739]]]}},{"type":"Feature","properties":{"cadnum":"2322785402:02:002:0001"},"geometry":{"type":"Polygon","coordinates":[[[36.584113,47.476259],[36.584144,47.476363],[36.584152,47.476389],[36.584179,47.476479],[36.584387,47.477162],[36.584434,47.477316],[36.584558,47.477299],[36.584559,47.477299],[36.585018,47.477235],[36.585019,47.477235],[36.585391,47.478468],[36.584807,47.47855],[36.585047,47.479342],[36.588491,47.478863],[36.587723,47.476363],[36.587601,47.475963],[36.58449,47.476228],[36.584113,47.476259]]]}},{"type":"Feature","properties":{"cadnum":"2322785402:02:001:0003"},"geometry":{"type":"Polygon","coordinates":[[[36.581683,47.474849],[36.582112,47.476363],[36.582111,47.476363],[36.583035,47.479622],[36.584226,47.479456],[36.584387,47.479434],[36.584387,47.479435],[36.584457,47.479425],[36.584558,47.479411],[36.584559,47.479411],[36.584792,47.479378],[36.58452,47.478387],[36.584072,47.47675],[36.583577,47.476793],[36.583446,47.476441],[36.583384,47.476271],[36.582456,47.476314],[36.582356,47.476297],[36.582288,47.476137],[36.583142,47.475978],[36.582786,47.474692],[36.581683,47.474849]]]}},{"type":"Feature","properties":{"cadnum":"2322785402:02:002:0002"},"geometry":{"type":"Polygon","coordinates":[[[36.583326,47.47366],[36.583436,47.474027],[36.584387,47.473896],[36.584426,47.473891],[36.584558,47.473873],[36.584559,47.473873],[36.58506,47.473804],[36.585326,47.474688],[36.585325,47.474688],[36.584485,47.474804],[36.5837,47.474911],[36.5841,47.476215],[36.584558,47.476176],[36.584559,47.476176],[36.588786,47.475813],[36.588862,47.475752],[36.588713,47.475212],[36.58699,47.475361],[36.586356,47.473244],[36.584387,47.473515],[36.583326,47.47366]]]}},{"type":"Feature","properties":{"cadnum":"2322785402:02:001:0002"},"geometry":{"type":"Polygon","coordinates":[[[36.583035,47.479622],[36.583163,47.480075],[36.583162,47.480075],[36.584147,47.483541],[36.584387,47.483504],[36.584519,47.483483],[36.584558,47.483477],[36.584559,47.483477],[36.585299,47.483359],[36.584396,47.480075],[36.584395,47.480075],[36.584226,47.479456],[36.583035,47.479622]]]}}]}