{"type":"FeatureCollection","features":[{"type":"Feature","properties":{"cadnum":"2322784402:02:003:0007"},"geometry":{"type":"Polygon","coordinates":[[[36.896697,47.429545],[36.897497,47.430085],[36.897623,47.43017],[36.897669,47.430139],[36.897669,47.430138],[36.898059,47.42987],[36.898558,47.430226],[36.898986,47.429953],[36.897987,47.429269],[36.897664,47.429281],[36.897458,47.429288],[36.897028,47.429333],[36.896697,47.429545]]]}},{"type":"Feature","properties":{"cadnum":"2322784402:02:003:0006"},"geometry":{"type":"Polygon","coordinates":[[[36.897623,47.43017],[36.897818,47.430301],[36.898161,47.430509],[36.898558,47.430226],[36.898059,47.42987],[36.897623,47.43017]]]}},{"type":"Feature","properties":{"cadnum":"2322784402:02:001:0019"},"geometry":{"type":"Polygon","coordinates":[[[36.911509,47.418692],[36.912338,47.41927],[36.913261,47.41994],[36.913977,47.419498],[36.914038,47.41946],[36.914148,47.419392],[36.914148,47.419391],[36.914268,47.419317],[36.914148,47.419248],[36.913058,47.418616],[36.912306,47.418209],[36.911509,47.418692]]]}},{"type":"Feature","properties":{"cadnum":"2322784402:02:003:0005"},"geometry":{"type":"Polygon","coordinates":[[[36.895421,47.432793],[36.897442,47.434185],[36.897497,47.434149],[36.897568,47.434102],[36.897669,47.434035],[36.897669,47.434034],[36.898031,47.433792],[36.897497,47.433425],[36.896009,47.4324],[36.895421,47.432793]]]}},{"type":"Feature","properties":{"cadnum":"2322784402:02:003:0001"},"geometry":{"type":"Polygon","coordinates":[[[36.896511,47.432744],[36.897669,47.433541],[36.897669,47.43354],[36.898031,47.43379],[36.898468,47.433498],[36.897669,47.432946],[36.89695,47.43245],[36.896666,47.432639],[36.896511,47.432744]]]}},{"type":"Feature","properties":{"cadnum":"2322784402:02:001:0020"},"geometry":{"type":"Polygon","coordinates":[[[36.900875,47.426613],[36.901482,47.427229],[36.901895,47.427618],[36.902263,47.427373],[36.90171,47.426981],[36.901062,47.426494],[36.900875,47.426613]]]}},{"type":"Feature","properties":{"cadnum":"2322784402:02:003:0004"},"geometry":{"type":"Polygon","coordinates":[[[36.906926,47.422656],[36.907758,47.423191],[36.908115,47.422957],[36.908483,47.423191],[36.908484,47.423191],[36.908509,47.423207],[36.908655,47.4233],[36.909492,47.423829],[36.909998,47.423479],[36.909448,47.423126],[36.908504,47.422561],[36.908396,47.422607],[36.90757,47.422092],[36.906926,47.422656]]]}},{"type":"Feature","properties":{"cadnum":"2322784402:02:002:0001"},"geometry":{"type":"Polygon","coordinates":[[[36.913895,47.420982],[36.913977,47.421045],[36.914055,47.421105],[36.914148,47.421176],[36.914148,47.421175],[36.914622,47.421535],[36.914932,47.421363],[36.914191,47.420802],[36.914148,47.420828],[36.913895,47.420982]]]}},{"type":"Feature","properties":{"cadnum":"2322784402:02:002:0006"},"geometry":{"type":"Polygon","coordinates":[[[36.914622,47.421535],[36.915908,47.422512],[36.916206,47.422332],[36.914932,47.421363],[36.914622,47.421535]]]}},{"type":"Feature","properties":{"cadnum":"2322784402:02:001:0031"},"geometry":{"type":"Polygon","coordinates":[[[36.904063,47.425612],[36.9045,47.425944],[36.904968,47.425702],[36.904648,47.425321],[36.904063,47.425612]]]}},{"type":"Feature","properties":{"cadnum":"2322784402:02:002:0004"},"geometry":{"type":"Polygon","coordinates":[[[36.906216,47.426254],[36.90702,47.426856],[36.907298,47.426694],[36.906487,47.426088],[36.906216,47.426254]]]}},{"type":"Feature","properties":{"cadnum":"2322784402:02:002:0005"},"geometry":{"type":"Polygon","coordinates":[[[36.90702,47.426856],[36.908162,47.427709],[36.908433,47.427542],[36.907298,47.426694],[36.90702,47.426856]]]}},{"type":"Feature","properties":{"cadnum":"2322784402:02:001:0030"},"geometry":{"type":"Polygon","coordinates":[[[36.9045,47.425944],[36.905108,47.426406],[36.905404,47.426223],[36.904968,47.425702],[36.9045,47.425944]]]}},{"type":"Feature","properties":{"cadnum":"2322784402:02:002:0007"},"geometry":{"type":"Polygon","coordinates":[[[36.910062,47.422793],[36.912275,47.42406],[36.91242,47.423929],[36.910231,47.422631],[36.910062,47.422793]]]}},{"type":"Feature","properties":{"cadnum":"2322784402:02:003:0002"},"geometry":{"type":"Polygon","coordinates":[[[36.89601,47.432398],[36.896511,47.432744],[36.896666,47.432639],[36.89695,47.43245],[36.896448,47.432105],[36.896165,47.432295],[36.89601,47.432398]]]}}]}