{"type":"FeatureCollection","features":[{"type":"Feature","properties":{"cadnum":"2322187204:13:001:0117"},"geometry":{"type":"Polygon","coordinates":[[[34.867081,48.044041],[34.87052,48.044364],[34.870567,48.044369],[34.870691,48.04438],[34.872749,48.044573],[34.870691,48.043502],[34.870691,48.043501],[34.86764,48.04191],[34.867081,48.044041]]]}},{"type":"Feature","properties":{"cadnum":"2322187204:13:001:0142"},"geometry":{"type":"Polygon","coordinates":[[[35.018083,48.060036],[35.018701,48.060045],[35.018835,48.060052],[35.018835,48.060053],[35.018887,48.060055],[35.019007,48.060061],[35.019134,48.060068],[35.01918,48.059784],[35.019007,48.059778],[35.019007,48.059777],[35.018089,48.05975],[35.018087,48.059828],[35.018088,48.059828],[35.018083,48.060036]]]}},{"type":"Feature","properties":{"cadnum":"2322187204:13:001:0143"},"geometry":{"type":"Polygon","coordinates":[[[35.018089,48.05975],[35.019007,48.059778],[35.019179,48.059784],[35.01918,48.059784],[35.01922,48.059534],[35.018853,48.059523],[35.018095,48.059499],[35.01809,48.059713],[35.018089,48.059713],[35.018089,48.05975]]]}},{"type":"Feature","properties":{"cadnum":"2322187204:13:001:0162"},"geometry":{"type":"Polygon","coordinates":[[[35.023178,48.060257],[35.023667,48.060272],[35.023683,48.059828],[35.02369,48.059656],[35.0232,48.059642],[35.023192,48.059828],[35.023193,48.059828],[35.023178,48.060257]]]}},{"type":"Feature","properties":{"cadnum":"2322187204:13:001:0159"},"geometry":{"type":"Polygon","coordinates":[[[35.020454,48.060174],[35.021271,48.060199],[35.021289,48.059716],[35.020824,48.059828],[35.020477,48.059911],[35.020454,48.060174]]]}},{"type":"Feature","properties":{"cadnum":"2322187204:13:001:0161"},"geometry":{"type":"Polygon","coordinates":[[[35.022707,48.060243],[35.023178,48.060257],[35.023198,48.059713],[35.023197,48.059713],[35.0232,48.059642],[35.022732,48.059577],[35.022722,48.059828],[35.022723,48.059828],[35.022707,48.060243]]]}},{"type":"Feature","properties":{"cadnum":"2322187204:13:001:0157"},"geometry":{"type":"Polygon","coordinates":[[[35.021271,48.060199],[35.021812,48.060216],[35.021827,48.059828],[35.021836,48.059586],[35.021304,48.059713],[35.02129,48.059716],[35.021289,48.059716],[35.021284,48.059828],[35.021285,48.059828],[35.021271,48.060199]]]}},{"type":"Feature","properties":{"cadnum":"2322187204:13:001:0158"},"geometry":{"type":"Polygon","coordinates":[[[35.021812,48.060216],[35.022266,48.060229],[35.022286,48.059713],[35.022285,48.059713],[35.022292,48.059551],[35.021838,48.059565],[35.021836,48.059586],[35.021832,48.059713],[35.021831,48.059713],[35.021812,48.060216]]]}},{"type":"Feature","properties":{"cadnum":"2322187204:13:001:0160"},"geometry":{"type":"Polygon","coordinates":[[[35.022266,48.060229],[35.022707,48.060243],[35.022727,48.059713],[35.022726,48.059713],[35.022732,48.059577],[35.022734,48.059552],[35.022292,48.059551],[35.02228,48.059828],[35.022281,48.059828],[35.022266,48.060229]]]}},{"type":"Feature","properties":{"cadnum":"2322187204:13:001:0146"},"geometry":{"type":"Polygon","coordinates":[[[35.035367,48.060611],[35.035423,48.060615],[35.035486,48.060616],[35.035925,48.060625],[35.035972,48.060234],[35.035986,48.060086],[35.035435,48.060073],[35.035423,48.060156],[35.03538,48.060473],[35.035387,48.060475],[35.035379,48.060528],[35.035367,48.060611]]]}},{"type":"Feature","properties":{"cadnum":"2322187204:13:001:0124"},"geometry":{"type":"Polygon","coordinates":[[[35.036039,48.061257],[35.03668,48.061293],[35.036732,48.060815],[35.036079,48.060805],[35.036051,48.061149],[35.036039,48.061257]]]}},{"type":"Feature","properties":{"cadnum":"2322187204:13:001:0147"},"geometry":{"type":"Polygon","coordinates":[[[35.035968,48.061892],[35.036614,48.061916],[35.03668,48.061293],[35.036039,48.061257],[35.035968,48.061892]]]}},{"type":"Feature","properties":{"cadnum":"2322187204:13:001:0100"},"geometry":{"type":"Polygon","coordinates":[[[35.038953,48.060756],[35.039451,48.060773],[35.039452,48.060749],[35.039442,48.060685],[35.039429,48.060647],[35.039409,48.060619],[35.039428,48.060286],[35.039501,48.060087],[35.039127,48.059971],[35.038953,48.060756]]]}},{"type":"Feature","properties":{"cadnum":"2322187204:13:001:0136"},"geometry":{"type":"Polygon","coordinates":[[[35.037248,48.061317],[35.0379,48.061331],[35.037938,48.060868],[35.03729,48.060854],[35.037248,48.061317]]]}},{"type":"Feature","properties":{"cadnum":"2322187204:13:001:0132"},"geometry":{"type":"Polygon","coordinates":[[[35.035435,48.060073],[35.035986,48.060086],[35.036021,48.059732],[35.035485,48.05972],[35.035469,48.059828],[35.03547,48.059828],[35.035435,48.060073]]]}},{"type":"Feature","properties":{"cadnum":"2322187204:13:001:0126"},"geometry":{"type":"Polygon","coordinates":[[[34.883557,48.116744],[34.887171,48.117108],[34.887171,48.117107],[34.892492,48.117643],[34.892492,48.117644],[34.894822,48.117877],[34.894965,48.117302],[34.892664,48.117072],[34.892664,48.117071],[34.886999,48.116501],[34.886999,48.116502],[34.885638,48.116364],[34.885584,48.116635],[34.883669,48.116318],[34.883557,48.116744]]]}},{"type":"Feature","properties":{"cadnum":"2322187204:13:001:0043"},"geometry":{"type":"Polygon","coordinates":[[[35.018865,48.061337],[35.019007,48.06134],[35.019594,48.06135],[35.01959,48.060756],[35.018899,48.060743],[35.018865,48.061337]]]}},{"type":"Feature","properties":{"cadnum":"2322187204:13:001:0140"},"geometry":{"type":"Polygon","coordinates":[[[35.017993,48.061064],[35.018881,48.061057],[35.018902,48.060681],[35.018059,48.060686],[35.017993,48.061064]]]}},{"type":"Feature","properties":{"cadnum":"2322187204:13:001:0028"},"geometry":{"type":"Polygon","coordinates":[[[35.018899,48.060743],[35.019007,48.060745],[35.01959,48.060756],[35.019587,48.060311],[35.018925,48.060298],[35.018899,48.060743]]]}},{"type":"Feature","properties":{"cadnum":"2322187204:13:001:0139"},"geometry":{"type":"Polygon","coordinates":[[[35.018059,48.060686],[35.018835,48.060681],[35.018835,48.060682],[35.018902,48.060681],[35.018925,48.060298],[35.018288,48.060303],[35.018202,48.060351],[35.01812,48.06044],[35.018059,48.060686]]]}},{"type":"Feature","properties":{"cadnum":"2322187204:13:001:0149"},"geometry":{"type":"Polygon","coordinates":[[[35.033599,48.060527],[35.034081,48.060558],[35.034201,48.05994],[35.03372,48.059907],[35.033599,48.060527]]]}},{"type":"Feature","properties":{"cadnum":"2322187204:13:001:0144"},"geometry":{"type":"Polygon","coordinates":[[[35.029061,48.061618],[35.029746,48.061646],[35.029787,48.061133],[35.029163,48.061107],[35.029061,48.061618]]]}},{"type":"Feature","properties":{"cadnum":"2322187204:13:001:0115"},"geometry":{"type":"Polygon","coordinates":[[[35.029163,48.061107],[35.029787,48.061133],[35.029827,48.060625],[35.029262,48.060602],[35.029163,48.061107]],[[35.029255,48.061056],[35.029256,48.061056],[35.029256,48.061055],[35.029282,48.061055],[35.029282,48.061056],[35.029282,48.061073],[35.029256,48.061073],[35.029255,48.061073],[35.029255,48.061056]]]}},{"type":"Feature","properties":{"cadnum":"2322187204:13:001:0106"},"geometry":{"type":"Polygon","coordinates":[[[35.028327,48.061289],[35.028818,48.061246],[35.02882,48.060653],[35.028714,48.060615],[35.028361,48.060647],[35.028327,48.061289]]]}},{"type":"Feature","properties":{"cadnum":"2322187204:13:001:0141"},"geometry":{"type":"Polygon","coordinates":[[[35.028306,48.061725],[35.028817,48.06168],[35.028818,48.061246],[35.028327,48.061289],[35.028306,48.061725]]]}},{"type":"Feature","properties":{"cadnum":"2322187204:13:001:0137"},"geometry":{"type":"Polygon","coordinates":[[[35.01959,48.060751],[35.019594,48.061381],[35.020257,48.061383],[35.020269,48.060753],[35.01959,48.060751]]]}},{"type":"Feature","properties":{"cadnum":"2322187204:13:001:0102"},"geometry":{"type":"Polygon","coordinates":[[[35.019587,48.060311],[35.01959,48.060751],[35.020269,48.060753],[35.020278,48.060312],[35.019587,48.060311]]]}}]}