{"type":"FeatureCollection","features":[{"type":"Feature","properties":{"cadnum":"2322184902:05:001:0387"},"geometry":{"type":"Polygon","coordinates":[[[35.056074,47.628333],[35.056356,47.628312],[35.056382,47.628241],[35.056111,47.628206],[35.056074,47.628333]]]}},{"type":"Feature","properties":{"cadnum":"2322184902:05:001:0420"},"geometry":{"type":"Polygon","coordinates":[[[35.062177,47.62817],[35.062389,47.628342],[35.06278,47.628094],[35.062924,47.628003],[35.06265,47.627865],[35.062178,47.628156],[35.062178,47.628157],[35.062177,47.62817]]]}},{"type":"Feature","properties":{"cadnum":"2322184902:05:001:0275"},"geometry":{"type":"Polygon","coordinates":[[[35.062389,47.628342],[35.06242,47.628367],[35.062442,47.628386],[35.062562,47.628483],[35.062563,47.628483],[35.062568,47.628487],[35.062741,47.628632],[35.06278,47.628607],[35.06278,47.628608],[35.06281,47.628589],[35.062952,47.628499],[35.062952,47.628498],[35.063075,47.62842],[35.063374,47.628231],[35.062924,47.628003],[35.062389,47.628342]]]}},{"type":"Feature","properties":{"cadnum":"2322184902:05:001:0063"},"geometry":{"type":"Polygon","coordinates":[[[35.060094,47.633457],[35.060325,47.633579],[35.060783,47.633224],[35.060775,47.633208],[35.060632,47.633116],[35.060094,47.633457]]]}},{"type":"Feature","properties":{"cadnum":"2322184902:05:001:0069"},"geometry":{"type":"Polygon","coordinates":[[[35.058954,47.63225],[35.059055,47.632621],[35.05939,47.632549],[35.059218,47.632193],[35.058954,47.63225]]]}},{"type":"Feature","properties":{"cadnum":"2322184902:05:001:0071"},"geometry":{"type":"Polygon","coordinates":[[[35.059519,47.632131],[35.059542,47.632185],[35.059543,47.632185],[35.059713,47.632562],[35.059748,47.632538],[35.060098,47.632261],[35.059787,47.632078],[35.059786,47.632077],[35.059541,47.632127],[35.059519,47.632131]]]}},{"type":"Feature","properties":{"cadnum":"2322184902:05:001:0067"},"geometry":{"type":"Polygon","coordinates":[[[35.059157,47.632972],[35.059159,47.632977],[35.059358,47.633157],[35.059477,47.63308],[35.059762,47.632854],[35.059792,47.632825],[35.059959,47.632683],[35.059748,47.632538],[35.059713,47.632562],[35.05969,47.632576],[35.059543,47.632634],[35.059645,47.632786],[35.059645,47.632787],[35.059531,47.632828],[35.05941,47.632876],[35.059252,47.632937],[35.059157,47.632972]]]}},{"type":"Feature","properties":{"cadnum":"2322184902:05:001:0125"},"geometry":{"type":"Polygon","coordinates":[[[35.062044,47.631811],[35.062205,47.632011],[35.062225,47.632035],[35.062254,47.632069],[35.062253,47.632069],[35.062257,47.632073],[35.062305,47.632127],[35.062345,47.632171],[35.062355,47.632185],[35.062356,47.632185],[35.062385,47.632218],[35.06243,47.632199],[35.062454,47.632187],[35.062648,47.63211],[35.062367,47.631732],[35.062353,47.631716],[35.062044,47.631811]]]}},{"type":"Feature","properties":{"cadnum":"2322184902:05:001:0099"},"geometry":{"type":"Polygon","coordinates":[[[35.061253,47.632796],[35.061773,47.633089],[35.061847,47.633059],[35.06194,47.63302],[35.061588,47.632665],[35.061253,47.632796]]]}},{"type":"Feature","properties":{"cadnum":"2322184902:05:001:0076"},"geometry":{"type":"Polygon","coordinates":[[[35.060632,47.633116],[35.060775,47.633208],[35.060783,47.633224],[35.060868,47.633264],[35.061286,47.632934],[35.061045,47.632797],[35.060632,47.633116]]]}},{"type":"Feature","properties":{"cadnum":"2322184902:05:001:0077"},"geometry":{"type":"Polygon","coordinates":[[[35.060868,47.633264],[35.060885,47.633276],[35.061096,47.633397],[35.061285,47.633252],[35.061375,47.633182],[35.061524,47.633066],[35.061336,47.632955],[35.061296,47.63293],[35.061293,47.632928],[35.060868,47.633264]]]}},{"type":"Feature","properties":{"cadnum":"2322184902:05:001:0056"},"geometry":{"type":"Polygon","coordinates":[[[35.061793,47.634273],[35.062053,47.634395],[35.062054,47.634395],[35.062379,47.634071],[35.062342,47.634048],[35.062135,47.63395],[35.061793,47.634273]]]}},{"type":"Feature","properties":{"cadnum":"2322184902:05:001:0278"},"geometry":{"type":"Polygon","coordinates":[[[35.060266,47.626701],[35.060509,47.626913],[35.060728,47.62711],[35.061191,47.626886],[35.06081,47.626522],[35.060751,47.626468],[35.060266,47.626701]]]}},{"type":"Feature","properties":{"cadnum":"2322184902:05:001:0519"},"geometry":{"type":"Polygon","coordinates":[[[35.060032,47.626502],[35.060258,47.626695],[35.060266,47.626701],[35.060751,47.626468],[35.060531,47.626262],[35.060501,47.626266],[35.060271,47.62638],[35.060114,47.626456],[35.060038,47.626499],[35.060032,47.626502]]]}},{"type":"Feature","properties":{"cadnum":"2322184902:05:001:0637"},"geometry":{"type":"Polygon","coordinates":[[[35.060373,47.62767],[35.060604,47.627788],[35.060631,47.627744],[35.060403,47.627628],[35.060373,47.62767]]]}},{"type":"Feature","properties":{"cadnum":"2322184902:05:001:0180"},"geometry":{"type":"Polygon","coordinates":[[[35.060762,47.627687],[35.06117,47.627973],[35.061494,47.627752],[35.061104,47.627454],[35.060762,47.627687]]]}},{"type":"Feature","properties":{"cadnum":"2322184902:05:001:0179"},"geometry":{"type":"Polygon","coordinates":[[[35.060255,47.627552],[35.060631,47.627744],[35.061017,47.627482],[35.06104,47.627466],[35.060728,47.627231],[35.060703,47.627248],[35.060255,47.627552]]]}},{"type":"Feature","properties":{"cadnum":"2322184902:05:001:0170"},"geometry":{"type":"Polygon","coordinates":[[[35.060053,47.628671],[35.060336,47.628746],[35.060509,47.628492],[35.060593,47.628367],[35.060879,47.627949],[35.060596,47.627799],[35.06031,47.62825],[35.060238,47.628367],[35.060215,47.628405],[35.060167,47.628483],[35.060053,47.628671]]]}},{"type":"Feature","properties":{"cadnum":"2322184902:05:001:0169"},"geometry":{"type":"Polygon","coordinates":[[[35.060669,47.628739],[35.060802,47.628842],[35.061025,47.628743],[35.061076,47.62872],[35.061683,47.628376],[35.061282,47.628125],[35.061077,47.628289],[35.061,47.628367],[35.060999,47.628367],[35.060984,47.628383],[35.060983,47.628383],[35.060899,47.628483],[35.0609,47.628483],[35.060816,47.628583],[35.060669,47.628739]]]}},{"type":"Feature","properties":{"cadnum":"2322184902:05:001:0181"},"geometry":{"type":"Polygon","coordinates":[[[35.061105,47.628013],[35.061292,47.62813],[35.061506,47.628266],[35.061691,47.628384],[35.061993,47.628202],[35.061941,47.628162],[35.061946,47.628157],[35.061591,47.627893],[35.061461,47.627796],[35.061105,47.628013]]]}},{"type":"Feature","properties":{"cadnum":"2322184902:05:001:0611"},"geometry":{"type":"Polygon","coordinates":[[[35.059756,47.62859],[35.060053,47.628671],[35.060215,47.628405],[35.06031,47.62825],[35.060596,47.627799],[35.060604,47.627788],[35.060373,47.62767],[35.059924,47.628318],[35.059894,47.628367],[35.059893,47.628367],[35.059839,47.628455],[35.059822,47.628483],[35.059756,47.62859]]]}},{"type":"Feature","properties":{"cadnum":"2322184902:05:001:0019"},"geometry":{"type":"Polygon","coordinates":[[[35.059627,47.628239],[35.059924,47.628318],[35.060403,47.627628],[35.06026,47.627555],[35.060144,47.627491],[35.059627,47.628239]]]}},{"type":"Feature","properties":{"cadnum":"2322184902:05:001:0569"},"geometry":{"type":"Polygon","coordinates":[[[35.068958,47.63727],[35.069082,47.637656],[35.069498,47.637616],[35.0694,47.637195],[35.068958,47.63727]]]}},{"type":"Feature","properties":{"cadnum":"2322184902:05:001:0560"},"geometry":{"type":"Polygon","coordinates":[[[35.069082,47.637656],[35.069223,47.638091],[35.069607,47.638054],[35.069498,47.637616],[35.069082,47.637656]]]}},{"type":"Feature","properties":{"cadnum":"2322184902:05:001:0562"},"geometry":{"type":"Polygon","coordinates":[[[35.069498,47.637616],[35.069607,47.638054],[35.06989,47.638027],[35.070004,47.638016],[35.069902,47.637577],[35.069773,47.63759],[35.069498,47.637616]]]}},{"type":"Feature","properties":{"cadnum":"2322184902:05:001:0557"},"geometry":{"type":"Polygon","coordinates":[[[35.069286,47.638193],[35.069619,47.638616],[35.069738,47.638605],[35.06964,47.63816],[35.069286,47.638193]]]}},{"type":"Feature","properties":{"cadnum":"2322184902:05:001:0571"},"geometry":{"type":"Polygon","coordinates":[[[35.0694,47.637195],[35.069498,47.637616],[35.069773,47.63759],[35.069902,47.637577],[35.069797,47.637128],[35.069659,47.637151],[35.0694,47.637195]]]}},{"type":"Feature","properties":{"cadnum":"2322184902:05:001:0576"},"geometry":{"type":"Polygon","coordinates":[[[35.069216,47.636822],[35.069346,47.637093],[35.069631,47.637045],[35.069758,47.637023],[35.069678,47.636728],[35.069556,47.636753],[35.069216,47.636822]]]}},{"type":"Feature","properties":{"cadnum":"2322184902:05:001:0578"},"geometry":{"type":"Polygon","coordinates":[[[35.070155,47.636523],[35.070242,47.636967],[35.070582,47.636935],[35.070639,47.63693],[35.070549,47.636485],[35.070486,47.636492],[35.070155,47.636523]]]}},{"type":"Feature","properties":{"cadnum":"2322184902:05:001:0592"},"geometry":{"type":"Polygon","coordinates":[[[35.073427,47.636218],[35.073517,47.636661],[35.073767,47.636638],[35.073916,47.636624],[35.073824,47.636181],[35.073427,47.636218]]]}},{"type":"Feature","properties":{"cadnum":"2322184902:05:001:0594"},"geometry":{"type":"Polygon","coordinates":[[[35.072632,47.636292],[35.072722,47.636736],[35.07312,47.636698],[35.073029,47.636255],[35.072632,47.636292]]]}},{"type":"Feature","properties":{"cadnum":"2322184902:05:001:0596"},"geometry":{"type":"Polygon","coordinates":[[[35.073336,47.635775],[35.073336,47.635776],[35.073359,47.635886],[35.073427,47.636218],[35.073824,47.636181],[35.073764,47.635886],[35.073735,47.635739],[35.073386,47.635771],[35.073349,47.635774],[35.073336,47.635775]]]}},{"type":"Feature","properties":{"cadnum":"2322184902:05:001:0561"},"geometry":{"type":"Polygon","coordinates":[[[35.07098,47.638031],[35.071016,47.638215],[35.071066,47.638478],[35.07146,47.63844],[35.071374,47.637993],[35.071089,47.638021],[35.07098,47.638031]]]}},{"type":"Feature","properties":{"cadnum":"2322184902:05:001:0587"},"geometry":{"type":"Polygon","coordinates":[[[35.070956,47.635993],[35.071046,47.636438],[35.071443,47.636401],[35.071351,47.635957],[35.070956,47.635993]]]}},{"type":"Feature","properties":{"cadnum":"2322184902:05:001:0581"},"geometry":{"type":"Polygon","coordinates":[[[35.071955,47.636916],[35.072046,47.637364],[35.07244,47.637326],[35.072349,47.636879],[35.071955,47.636916]]]}},{"type":"Feature","properties":{"cadnum":"2322184902:05:001:0568"},"geometry":{"type":"Polygon","coordinates":[[[35.071259,47.637438],[35.07135,47.637886],[35.071743,47.637848],[35.071652,47.6374],[35.071259,47.637438]]]}},{"type":"Feature","properties":{"cadnum":"2322184902:05:001:0554"},"geometry":{"type":"Polygon","coordinates":[[[35.07146,47.63844],[35.071546,47.638886],[35.071941,47.638849],[35.071854,47.638402],[35.07146,47.63844]]]}},{"type":"Feature","properties":{"cadnum":"2322184902:05:001:0566"},"geometry":{"type":"Polygon","coordinates":[[[35.070867,47.637475],[35.070957,47.637924],[35.071066,47.637914],[35.07135,47.637886],[35.071259,47.637438],[35.070964,47.637466],[35.070867,47.637475]]]}},{"type":"Feature","properties":{"cadnum":"2322184902:05:001:0565"},"geometry":{"type":"Polygon","coordinates":[[[35.071768,47.637955],[35.071854,47.638402],[35.072249,47.638364],[35.072163,47.637917],[35.071768,47.637955]]]}},{"type":"Feature","properties":{"cadnum":"2322184902:05:001:0556"},"geometry":{"type":"Polygon","coordinates":[[[35.071854,47.638402],[35.071941,47.638849],[35.072336,47.638811],[35.072249,47.638364],[35.071854,47.638402]]]}},{"type":"Feature","properties":{"cadnum":"2322184902:05:001:0552"},"geometry":{"type":"Polygon","coordinates":[[[35.071066,47.638478],[35.071152,47.638925],[35.071546,47.638886],[35.07146,47.63844],[35.071066,47.638478]]]}},{"type":"Feature","properties":{"cadnum":"2322184902:05:001:0574"},"geometry":{"type":"Polygon","coordinates":[[[35.068725,47.636921],[35.068919,47.637165],[35.069346,47.637093],[35.069216,47.636822],[35.068725,47.636921]]]}},{"type":"Feature","properties":{"cadnum":"2322184902:05:001:0563"},"geometry":{"type":"Polygon","coordinates":[[[35.071374,47.637993],[35.07146,47.63844],[35.071854,47.638402],[35.071768,47.637955],[35.071374,47.637993]]]}},{"type":"Feature","properties":{"cadnum":"2322184902:05:001:0598"},"geometry":{"type":"Polygon","coordinates":[[[35.072939,47.635811],[35.072954,47.635886],[35.073029,47.636255],[35.073427,47.636218],[35.073336,47.635776],[35.073336,47.635775],[35.072939,47.635811]]]}},{"type":"Feature","properties":{"cadnum":"2322184902:05:001:0583"},"geometry":{"type":"Polygon","coordinates":[[[35.070068,47.636075],[35.070155,47.636523],[35.070486,47.636492],[35.070549,47.636485],[35.070461,47.636039],[35.070392,47.636045],[35.070068,47.636075]]]}},{"type":"Feature","properties":{"cadnum":"2322184902:05:001:0630"},"geometry":{"type":"Polygon","coordinates":[[[35.070705,47.635414],[35.070782,47.635771],[35.070781,47.635771],[35.070803,47.63587],[35.070807,47.635886],[35.07081,47.635898],[35.071149,47.635867],[35.071173,47.635865],[35.071068,47.63538],[35.070705,47.635414]]]}},{"type":"Feature","properties":{"cadnum":"2322184902:05:001:0602"},"geometry":{"type":"Polygon","coordinates":[[[35.072147,47.635885],[35.072237,47.636331],[35.072632,47.636292],[35.072542,47.635847],[35.072147,47.635885]]]}},{"type":"Feature","properties":{"cadnum":"2322184902:05:001:0631"},"geometry":{"type":"Polygon","coordinates":[[[35.071068,47.63538],[35.071153,47.635771],[35.071152,47.635771],[35.071173,47.635865],[35.071536,47.635831],[35.071432,47.635347],[35.071068,47.63538]]]}},{"type":"Feature","properties":{"cadnum":"2322184902:05:001:0133"},"geometry":{"type":"Polygon","coordinates":[[[35.068322,47.637285],[35.068445,47.63749],[35.068798,47.638075],[35.069187,47.637994],[35.06874,47.637198],[35.068322,47.637285]]]}},{"type":"Feature","properties":{"cadnum":"2322184902:05:001:0550"},"geometry":{"type":"Polygon","coordinates":[[[35.069619,47.638616],[35.069951,47.63904],[35.070127,47.639023],[35.070229,47.639013],[35.070132,47.63857],[35.07003,47.638579],[35.069738,47.638605],[35.069619,47.638616]]]}},{"type":"Feature","properties":{"cadnum":"2322184902:05:001:0573"},"geometry":{"type":"Polygon","coordinates":[[[35.070269,47.637074],[35.070363,47.637521],[35.0707,47.637489],[35.070756,47.637485],[35.070663,47.637037],[35.070602,47.637042],[35.070269,47.637074]]]}},{"type":"Feature","properties":{"cadnum":"2322184902:05:001:0221"},"geometry":{"type":"Polygon","coordinates":[[[35.068909,47.636197],[35.069023,47.636431],[35.069464,47.63642],[35.069341,47.636105],[35.068909,47.636197]]]}},{"type":"Feature","properties":{"cadnum":"2322184902:05:001:0585"},"geometry":{"type":"Polygon","coordinates":[[[35.07056,47.63603],[35.07065,47.636475],[35.070749,47.636466],[35.071046,47.636438],[35.070956,47.635993],[35.070657,47.636021],[35.07056,47.63603]]]}},{"type":"Feature","properties":{"cadnum":"2322184902:05:001:0523"},"geometry":{"type":"Polygon","coordinates":[[[35.073631,47.639245],[35.073677,47.639472],[35.073676,47.639472],[35.07372,47.639688],[35.073938,47.639667],[35.074118,47.639649],[35.074082,47.639472],[35.07403,47.639207],[35.073816,47.639228],[35.073631,47.639245]]]}},{"type":"Feature","properties":{"cadnum":"2322184902:05:001:0584"},"geometry":{"type":"Polygon","coordinates":[[[35.071443,47.636401],[35.071532,47.636847],[35.071929,47.63681],[35.071838,47.636365],[35.071443,47.636401]]]}},{"type":"Feature","properties":{"cadnum":"2322184902:05:001:0570"},"geometry":{"type":"Polygon","coordinates":[[[35.071652,47.6374],[35.071743,47.637848],[35.072136,47.63781],[35.072046,47.637364],[35.071652,47.6374]]]}},{"type":"Feature","properties":{"cadnum":"2322184902:05:001:0527"},"geometry":{"type":"Polygon","coordinates":[[[35.072835,47.639322],[35.072864,47.639472],[35.072865,47.639477],[35.072887,47.639588],[35.072888,47.639588],[35.072923,47.639764],[35.073321,47.639726],[35.073271,47.639472],[35.07327,47.639472],[35.073233,47.639283],[35.072835,47.639322]]]}},{"type":"Feature","properties":{"cadnum":"2322184902:05:001:0593"},"geometry":{"type":"Polygon","coordinates":[[[35.073029,47.636255],[35.07312,47.636698],[35.073517,47.636661],[35.073427,47.636218],[35.073029,47.636255]]]}},{"type":"Feature","properties":{"cadnum":"2322184902:05:001:0567"},"geometry":{"type":"Polygon","coordinates":[[[35.072163,47.637917],[35.072249,47.638364],[35.072643,47.638326],[35.072557,47.637879],[35.072163,47.637917]]]}},{"type":"Feature","properties":{"cadnum":"2322184902:05:001:0590"},"geometry":{"type":"Polygon","coordinates":[[[35.071748,47.635921],[35.071838,47.636365],[35.072235,47.636328],[35.072145,47.635885],[35.071748,47.635921]]]}},{"type":"Feature","properties":{"cadnum":"2322184902:05:001:0551"},"geometry":{"type":"Polygon","coordinates":[[[35.07155,47.638995],[35.071638,47.639437],[35.072038,47.639399],[35.071948,47.638957],[35.07155,47.638995]]]}},{"type":"Feature","properties":{"cadnum":"2322184902:05:001:0579"},"geometry":{"type":"Polygon","coordinates":[[[35.071562,47.636953],[35.071652,47.6374],[35.072046,47.637364],[35.071955,47.636916],[35.071562,47.636953]]]}},{"type":"Feature","properties":{"cadnum":"2322184902:05:001:0572"},"geometry":{"type":"Polygon","coordinates":[[[35.072046,47.637364],[35.072136,47.63781],[35.07253,47.637772],[35.07244,47.637326],[35.072046,47.637364]]]}},{"type":"Feature","properties":{"cadnum":"2322184902:05:001:0553"},"geometry":{"type":"Polygon","coordinates":[[[35.071948,47.638957],[35.072038,47.639399],[35.072436,47.63936],[35.072346,47.638918],[35.071948,47.638957]]]}},{"type":"Feature","properties":{"cadnum":"2322184902:05:001:0546"},"geometry":{"type":"Polygon","coordinates":[[[35.072038,47.639399],[35.072053,47.639472],[35.072052,47.639472],[35.072051,47.639472],[35.072127,47.639841],[35.072525,47.639802],[35.072481,47.639588],[35.072482,47.639588],[35.072436,47.63936],[35.072038,47.639399]]]}},{"type":"Feature","properties":{"cadnum":"2322184902:05:001:0589"},"geometry":{"type":"Polygon","coordinates":[[[35.071351,47.635957],[35.071443,47.636401],[35.071838,47.636365],[35.071748,47.635921],[35.071351,47.635957]]]}},{"type":"Feature","properties":{"cadnum":"2322184902:05:001:0549"},"geometry":{"type":"Polygon","coordinates":[[[35.071152,47.639033],[35.07124,47.639475],[35.071638,47.639437],[35.07155,47.638995],[35.071152,47.639033]]]}},{"type":"Feature","properties":{"cadnum":"2322184902:05:001:0564"},"geometry":{"type":"Polygon","coordinates":[[[35.070363,47.637521],[35.070383,47.637615],[35.070458,47.637972],[35.070474,47.637971],[35.070802,47.63794],[35.070847,47.637936],[35.070756,47.637485],[35.0707,47.637489],[35.070363,47.637521]]]}},{"type":"Feature","properties":{"cadnum":"2322184902:05:001:0577"},"geometry":{"type":"Polygon","coordinates":[[[35.071169,47.63699],[35.071259,47.637438],[35.071652,47.6374],[35.071562,47.636953],[35.071169,47.63699]]]}},{"type":"Feature","properties":{"cadnum":"2322184902:05:001:0588"},"geometry":{"type":"Polygon","coordinates":[[[35.06995,47.635523],[35.069998,47.635771],[35.070003,47.635793],[35.070021,47.635886],[35.070022,47.635886],[35.070038,47.635969],[35.070371,47.635938],[35.070434,47.635932],[35.070402,47.635771],[35.070346,47.635487],[35.07028,47.635492],[35.06995,47.635523]]]}},{"type":"Feature","properties":{"cadnum":"2322184902:05:001:0633"},"geometry":{"type":"Polygon","coordinates":[[[35.071432,47.635347],[35.071523,47.635771],[35.071536,47.635831],[35.071566,47.635829],[35.0719,47.635798],[35.071795,47.635313],[35.071432,47.635347]]]}},{"type":"Feature","properties":{"cadnum":"2322184902:05:001:0559"},"geometry":{"type":"Polygon","coordinates":[[[35.06964,47.63816],[35.069738,47.638605],[35.07003,47.638579],[35.070132,47.63857],[35.070034,47.638122],[35.069918,47.638133],[35.06964,47.63816]]]}},{"type":"Feature","properties":{"cadnum":"2322184902:05:001:0558"},"geometry":{"type":"Polygon","coordinates":[[[35.072249,47.638364],[35.072336,47.638811],[35.07273,47.638773],[35.072643,47.638326],[35.072249,47.638364]]]}},{"type":"Feature","properties":{"cadnum":"2322184902:05:001:0544"},"geometry":{"type":"Polygon","coordinates":[[[35.071638,47.639437],[35.071645,47.639472],[35.071649,47.639493],[35.071668,47.639588],[35.071669,47.639588],[35.071728,47.639879],[35.072127,47.639841],[35.072075,47.639588],[35.072076,47.639588],[35.072038,47.639399],[35.071638,47.639437]]]}},{"type":"Feature","properties":{"cadnum":"2322184902:05:001:0586"},"geometry":{"type":"Polygon","coordinates":[[[35.071838,47.636365],[35.071929,47.63681],[35.072325,47.636773],[35.072235,47.636328],[35.071838,47.636365]]]}},{"type":"Feature","properties":{"cadnum":"2322184902:05:001:0548"},"geometry":{"type":"Polygon","coordinates":[[[35.072436,47.63936],[35.072459,47.639472],[35.072458,47.639472],[35.072525,47.639802],[35.072923,47.639764],[35.072865,47.639477],[35.072835,47.639322],[35.072436,47.63936]]]}},{"type":"Feature","properties":{"cadnum":"2322184902:05:001:0555"},"geometry":{"type":"Polygon","coordinates":[[[35.072346,47.638918],[35.072436,47.63936],[35.072835,47.639322],[35.072745,47.63888],[35.072346,47.638918]]]}},{"type":"Feature","properties":{"cadnum":"2322184902:05:001:0542"},"geometry":{"type":"Polygon","coordinates":[[[35.07124,47.639475],[35.071263,47.639588],[35.07133,47.639918],[35.071728,47.639879],[35.071649,47.639493],[35.071638,47.639437],[35.071268,47.639472],[35.071244,47.639474],[35.07124,47.639475]]]}},{"type":"Feature","properties":{"cadnum":"2322184902:05:001:0582"},"geometry":{"type":"Polygon","coordinates":[[[35.071046,47.636438],[35.071137,47.636884],[35.071532,47.636847],[35.071443,47.636401],[35.071046,47.636438]]]}},{"type":"Feature","properties":{"cadnum":"2322184902:05:001:0595"},"geometry":{"type":"Polygon","coordinates":[[[35.072235,47.636331],[35.072324,47.636773],[35.072722,47.636736],[35.072632,47.636292],[35.072235,47.636331]]]}},{"type":"Feature","properties":{"cadnum":"2322184902:05:001:0241"},"geometry":{"type":"Polygon","coordinates":[[[35.067721,47.632143],[35.067741,47.632185],[35.067742,47.632185],[35.067805,47.632309],[35.067806,47.632309],[35.06784,47.632301],[35.067844,47.632311],[35.067927,47.6323],[35.067928,47.6323],[35.067945,47.632345],[35.068445,47.632278],[35.068445,47.632277],[35.068472,47.632273],[35.068657,47.632246],[35.06861,47.632137],[35.068565,47.63203],[35.068274,47.632069],[35.068271,47.632069],[35.067748,47.632139],[35.067721,47.632143]]]}},{"type":"Feature","properties":{"cadnum":"2322184902:05:001:0390"},"geometry":{"type":"Polygon","coordinates":[[[35.065295,47.62989],[35.066156,47.630362],[35.066863,47.629508],[35.066373,47.629239],[35.065295,47.62989]]]}},{"type":"Feature","properties":{"cadnum":"2322184902:05:001:0264"},"geometry":{"type":"Polygon","coordinates":[[[35.066899,47.630852],[35.06724,47.631533],[35.067632,47.631444],[35.067292,47.630762],[35.066899,47.630852]]]}},{"type":"Feature","properties":{"cadnum":"2322184902:05:001:0497"},"geometry":{"type":"Polygon","coordinates":[[[35.065619,47.63167],[35.065658,47.63172],[35.065677,47.631744],[35.065819,47.631934],[35.065831,47.631952],[35.065864,47.631993],[35.065939,47.631968],[35.065943,47.63193],[35.065945,47.631911],[35.065961,47.631745],[35.065964,47.631725],[35.065968,47.63168],[35.065968,47.631679],[35.066049,47.63165],[35.065964,47.631559],[35.065787,47.631616],[35.065762,47.631624],[35.06562,47.63167],[35.065619,47.63167]]]}},{"type":"Feature","properties":{"cadnum":"2322184902:05:001:0301"},"geometry":{"type":"Polygon","coordinates":[[[35.067222,47.630754],[35.067681,47.631594],[35.06776,47.631618],[35.068273,47.631543],[35.068274,47.631543],[35.068274,47.631544],[35.068367,47.631529],[35.068445,47.631526],[35.068445,47.631525],[35.069208,47.631486],[35.068274,47.630495],[35.068273,47.630495],[35.068166,47.630381],[35.067222,47.630754]]]}},{"type":"Feature","properties":{"cadnum":"2322184902:05:001:0386"},"geometry":{"type":"Polygon","coordinates":[[[35.06405,47.629659],[35.064714,47.63021],[35.065041,47.630033],[35.064376,47.629479],[35.06405,47.629659]]]}},{"type":"Feature","properties":{"cadnum":"2322184902:05:001:0640"},"geometry":{"type":"Polygon","coordinates":[[[35.062188,47.630145],[35.062361,47.63032],[35.062642,47.630184],[35.06278,47.630113],[35.062816,47.630095],[35.062952,47.630026],[35.062952,47.630025],[35.063203,47.629897],[35.063148,47.62985],[35.063019,47.629736],[35.06278,47.629854],[35.062456,47.630013],[35.062188,47.630145]]]}},{"type":"Feature","properties":{"cadnum":"2322184902:05:001:0300"},"geometry":{"type":"Polygon","coordinates":[[[35.068166,47.630381],[35.068445,47.630677],[35.069208,47.631486],[35.069424,47.631475],[35.069438,47.631233],[35.068858,47.630731],[35.068451,47.630378],[35.068416,47.630346],[35.068366,47.630305],[35.068166,47.630381]]]}},{"type":"Feature","properties":{"cadnum":"2322184902:05:001:0391"},"geometry":{"type":"Polygon","coordinates":[[[35.064674,47.630265],[35.065377,47.630846],[35.066156,47.630362],[35.065295,47.62989],[35.064674,47.630265]]]}},{"type":"Feature","properties":{"cadnum":"2322184902:05:001:0383"},"geometry":{"type":"Polygon","coordinates":[[[35.066349,47.63056],[35.066596,47.630924],[35.067274,47.630709],[35.067034,47.63035],[35.066349,47.63056]]]}},{"type":"Feature","properties":{"cadnum":"2322184902:05:001:0156"},"geometry":{"type":"Polygon","coordinates":[[[35.063668,47.631581],[35.06393,47.631839],[35.064505,47.631644],[35.064289,47.631369],[35.064017,47.631457],[35.064018,47.631471],[35.063898,47.631512],[35.063897,47.631512],[35.063889,47.631503],[35.063668,47.631581]]]}},{"type":"Feature","properties":{"cadnum":"2322184902:05:001:0187"},"geometry":{"type":"Polygon","coordinates":[[[35.063321,47.629994],[35.063396,47.630063],[35.063486,47.63014],[35.064025,47.629836],[35.063856,47.629695],[35.063321,47.629994]]]}},{"type":"Feature","properties":{"cadnum":"2322184902:05:001:0490"},"geometry":{"type":"Polygon","coordinates":[[[35.063486,47.63014],[35.063593,47.63024],[35.063619,47.630261],[35.064191,47.629969],[35.064025,47.629836],[35.063486,47.63014]]]}},{"type":"Feature","properties":{"cadnum":"2322184902:05:001:0480"},"geometry":{"type":"Polygon","coordinates":[[[35.062865,47.62959],[35.062952,47.629674],[35.062952,47.629673],[35.063012,47.629731],[35.063526,47.629453],[35.063543,47.629444],[35.063377,47.629309],[35.063361,47.629318],[35.062865,47.62959]]]}},{"type":"Feature","properties":{"cadnum":"2322184902:05:001:0011"},"geometry":{"type":"Polygon","coordinates":[[[35.062791,47.631829],[35.062925,47.631999],[35.062928,47.632002],[35.062952,47.631993],[35.063541,47.631759],[35.063369,47.631585],[35.063286,47.631621],[35.063199,47.63166],[35.062791,47.631829]]]}},{"type":"Feature","properties":{"cadnum":"2322184902:05:001:0262"},"geometry":{"type":"Polygon","coordinates":[[[35.063751,47.630882],[35.063939,47.631039],[35.064183,47.630909],[35.064209,47.630894],[35.064284,47.630958],[35.064472,47.631106],[35.064776,47.631067],[35.065275,47.630887],[35.064572,47.630314],[35.06418,47.63053],[35.063934,47.630668],[35.064009,47.630744],[35.063751,47.630882]]]}},{"type":"Feature","properties":{"cadnum":"2322184902:05:001:0157"},"geometry":{"type":"Polygon","coordinates":[[[35.063409,47.63132],[35.06342,47.63133],[35.063545,47.631458],[35.063668,47.631581],[35.063889,47.631503],[35.06389,47.631503],[35.063898,47.631512],[35.064018,47.631471],[35.064017,47.631457],[35.064289,47.631369],[35.064371,47.631339],[35.064305,47.631237],[35.063805,47.631206],[35.063409,47.63132]]]}},{"type":"Feature","properties":{"cadnum":"2322184902:05:001:0457"},"geometry":{"type":"Polygon","coordinates":[[[35.062978,47.630885],[35.063243,47.631144],[35.063462,47.631041],[35.063196,47.630783],[35.062978,47.630885]]]}},{"type":"Feature","properties":{"cadnum":"2322184902:05:001:0126"},"geometry":{"type":"Polygon","coordinates":[[[35.062367,47.631732],[35.062648,47.63211],[35.06278,47.632059],[35.062928,47.632002],[35.062925,47.631999],[35.062791,47.631829],[35.062633,47.631648],[35.062367,47.631732]]]}},{"type":"Feature","properties":{"cadnum":"2322184902:05:001:0205"},"geometry":{"type":"Polygon","coordinates":[[[35.066023,47.632202],[35.066108,47.632343],[35.066148,47.632337],[35.066153,47.632387],[35.066155,47.632477],[35.06659,47.632401],[35.066902,47.632354],[35.066836,47.6322],[35.066787,47.632098],[35.066758,47.632037],[35.066623,47.632069],[35.066345,47.632134],[35.066349,47.632146],[35.066346,47.632146],[35.066122,47.632185],[35.066023,47.632202]]]}},{"type":"Feature","properties":{"cadnum":"2322184902:05:001:0028"},"geometry":{"type":"Polygon","coordinates":[[[35.079721,47.638377],[35.079787,47.638711],[35.080239,47.638653],[35.080107,47.638328],[35.079721,47.638377]]]}},{"type":"Feature","properties":{"cadnum":"2322184902:05:001:0333"},"geometry":{"type":"Polygon","coordinates":[[[35.079255,47.638525],[35.07926,47.638546],[35.07926,47.638547],[35.079336,47.638844],[35.079432,47.638833],[35.079926,47.638774],[35.079845,47.638455],[35.079432,47.638505],[35.079432,47.638504],[35.079255,47.638525]]]}},{"type":"Feature","properties":{"cadnum":"2322184902:05:001:0452"},"geometry":{"type":"Polygon","coordinates":[[[35.079833,47.638367],[35.079898,47.638647],[35.080152,47.638626],[35.080321,47.638613],[35.080189,47.638329],[35.079833,47.638367]]]}},{"type":"Feature","properties":{"cadnum":"2322184902:05:001:0641"},"geometry":{"type":"Polygon","coordinates":[[[35.078892,47.637518],[35.078957,47.637723],[35.07926,47.637685],[35.07926,47.637686],[35.079968,47.637597],[35.079879,47.637402],[35.07926,47.637475],[35.078892,47.637518]]]}},{"type":"Feature","properties":{"cadnum":"2322184902:05:001:0347"},"geometry":{"type":"Polygon","coordinates":[[[35.078957,47.637723],[35.079027,47.637916],[35.07926,47.637891],[35.07926,47.637892],[35.079342,47.637883],[35.079432,47.637873],[35.080063,47.637807],[35.079968,47.637597],[35.079432,47.637664],[35.078957,47.637723]]]}},{"type":"Feature","properties":{"cadnum":"2322184902:05:001:0331"},"geometry":{"type":"Polygon","coordinates":[[[35.079395,47.639153],[35.079461,47.639465],[35.080082,47.639396],[35.08,47.639084],[35.079395,47.639153]]]}},{"type":"Feature","properties":{"cadnum":"2322184902:05:001:0397"},"geometry":{"type":"Polygon","coordinates":[[[35.080086,47.639067],[35.080126,47.63923],[35.080695,47.639181],[35.080617,47.63902],[35.080086,47.639067]]]}},{"type":"Feature","properties":{"cadnum":"2322184902:05:001:0330"},"geometry":{"type":"Polygon","coordinates":[[[35.079477,47.63947],[35.079477,47.639472],[35.079485,47.639511],[35.0795,47.639588],[35.079501,47.639588],[35.079572,47.639941],[35.080176,47.639902],[35.080117,47.639545],[35.080095,47.639409],[35.079477,47.63947]]]}},{"type":"Feature","properties":{"cadnum":"2322184902:05:001:0345"},"geometry":{"type":"Polygon","coordinates":[[[35.078835,47.637314],[35.078891,47.637518],[35.079432,47.637455],[35.079879,47.637402],[35.079779,47.637202],[35.079432,47.637244],[35.078835,47.637314]]]}},{"type":"Feature","properties":{"cadnum":"2322184902:05:001:0352"},"geometry":{"type":"Polygon","coordinates":[[[35.080126,47.63923],[35.080166,47.639397],[35.080766,47.639332],[35.080695,47.639181],[35.080126,47.63923]]]}},{"type":"Feature","properties":{"cadnum":"2322184902:05:001:0395"},"geometry":{"type":"Polygon","coordinates":[[[35.078717,47.636902],[35.078773,47.637102],[35.079432,47.637031],[35.079696,47.637002],[35.079603,47.636803],[35.07926,47.636842],[35.078717,47.636902]]]}},{"type":"Feature","properties":{"cadnum":"2322184902:05:001:0026"},"geometry":{"type":"Polygon","coordinates":[[[35.079641,47.637974],[35.079681,47.638174],[35.079721,47.638377],[35.080107,47.638328],[35.079949,47.637935],[35.079641,47.637974]]]}},{"type":"Feature","properties":{"cadnum":"2322184902:05:001:0334"},"geometry":{"type":"Polygon","coordinates":[[[35.079039,47.637915],[35.07926,47.638509],[35.07926,47.63851],[35.079265,47.638523],[35.079432,47.638504],[35.079739,47.638468],[35.079721,47.638377],[35.079651,47.638023],[35.079483,47.638041],[35.079482,47.638041],[35.07941,47.637876],[35.079039,47.637915]]]}},{"type":"Feature","properties":{"cadnum":"2322184902:05:001:0501"},"geometry":{"type":"Polygon","coordinates":[[[35.078926,47.637085],[35.078994,47.637295],[35.07926,47.637264],[35.079787,47.637201],[35.079696,47.637002],[35.079432,47.637031],[35.078926,47.637085]]]}},{"type":"Feature","properties":{"cadnum":"2322184902:05:001:0261"},"geometry":{"type":"Polygon","coordinates":[[[35.068367,47.631529],[35.068559,47.63183],[35.068818,47.631806],[35.068823,47.631835],[35.069408,47.631783],[35.069424,47.631475],[35.068367,47.631529]]]}},{"type":"Feature","properties":{"cadnum":"2322184902:05:001:0302"},"geometry":{"type":"Polygon","coordinates":[[[35.06942,47.631548],[35.070564,47.631453],[35.07048,47.631223],[35.069438,47.631233],[35.069424,47.631475],[35.06942,47.631548]]]}},{"type":"Feature","properties":{"cadnum":"2322184902:05:001:0413"},"geometry":{"type":"Polygon","coordinates":[[[35.070343,47.631869],[35.070423,47.632069],[35.070462,47.632163],[35.07047,47.632185],[35.070559,47.632402],[35.071076,47.632329],[35.070943,47.632128],[35.070768,47.631862],[35.070343,47.631869]]]}},{"type":"Feature","properties":{"cadnum":"2322184902:05:001:0466"},"geometry":{"type":"Polygon","coordinates":[[[35.069408,47.631783],[35.069825,47.631736],[35.069868,47.631889],[35.070759,47.631764],[35.070557,47.631222],[35.07048,47.631223],[35.070564,47.631453],[35.06942,47.631548],[35.069408,47.631783]]]}},{"type":"Feature","properties":{"cadnum":"2322184902:05:001:0411"},"geometry":{"type":"Polygon","coordinates":[[[35.070768,47.631862],[35.070904,47.632069],[35.070903,47.632069],[35.070943,47.632128],[35.07098,47.632185],[35.071076,47.632329],[35.07129,47.6323],[35.071709,47.632237],[35.072128,47.632197],[35.072177,47.632192],[35.071652,47.632069],[35.071651,47.632069],[35.070768,47.631862]]]}},{"type":"Feature","properties":{"cadnum":"2322184902:05:001:0412"},"geometry":{"type":"Polygon","coordinates":[[[35.070084,47.6319],[35.070152,47.632069],[35.070151,47.632069],[35.0703,47.632439],[35.070559,47.632402],[35.070443,47.632118],[35.07034,47.631864],[35.070084,47.6319]]]}},{"type":"Feature","properties":{"cadnum":"2322184902:05:001:0465"},"geometry":{"type":"Polygon","coordinates":[[[35.069824,47.631937],[35.069877,47.632069],[35.069876,47.632069],[35.07004,47.632476],[35.0703,47.632439],[35.070198,47.632185],[35.070084,47.6319],[35.069824,47.631937]]]}},{"type":"Feature","properties":{"cadnum":"2322184902:05:001:0524"},"geometry":{"type":"Polygon","coordinates":[[[35.073344,47.639833],[35.073426,47.64027],[35.07383,47.640234],[35.073747,47.639794],[35.073344,47.639833]]]}},{"type":"Feature","properties":{"cadnum":"2322184902:05:001:0379"},"geometry":{"type":"Polygon","coordinates":[[[35.072439,47.64063],[35.072542,47.641422],[35.072879,47.641395],[35.072792,47.640601],[35.072439,47.64063]]]}},{"type":"Feature","properties":{"cadnum":"2322184902:05:001:0522"},"geometry":{"type":"Polygon","coordinates":[[[35.073747,47.639794],[35.073767,47.6399],[35.07383,47.640234],[35.073938,47.640225],[35.073938,47.640224],[35.074229,47.640199],[35.074145,47.639756],[35.073833,47.639786],[35.073747,47.639794]]]}},{"type":"Feature","properties":{"cadnum":"2322184902:05:001:0547"},"geometry":{"type":"Polygon","coordinates":[[[35.07253,47.639911],[35.072612,47.640341],[35.073021,47.640305],[35.072939,47.639871],[35.07253,47.639911]]]}},{"type":"Feature","properties":{"cadnum":"2322184902:05:001:0545"},"geometry":{"type":"Polygon","coordinates":[[[35.072118,47.639951],[35.072199,47.640377],[35.072612,47.640341],[35.07253,47.639911],[35.072118,47.639951]]]}},{"type":"Feature","properties":{"cadnum":"2322184902:05:001:0543"},"geometry":{"type":"Polygon","coordinates":[[[35.071704,47.639991],[35.071783,47.640414],[35.072199,47.640377],[35.072118,47.639951],[35.071704,47.639991]]]}},{"type":"Feature","properties":{"cadnum":"2322184902:05:001:0512"},"geometry":{"type":"Polygon","coordinates":[[[35.077708,47.636479],[35.077774,47.636927],[35.078572,47.636837],[35.078387,47.636663],[35.078325,47.636426],[35.077708,47.636479]]]}},{"type":"Feature","properties":{"cadnum":"2322184902:05:004:0295"},"geometry":{"type":"Polygon","coordinates":[[[35.075341,47.638393],[35.075383,47.638674],[35.076436,47.638602],[35.076393,47.638321],[35.075341,47.638393]]]}},{"type":"Feature","properties":{"cadnum":"2322184902:05:001:0305"},"geometry":{"type":"Polygon","coordinates":[[[35.076418,47.637151],[35.076461,47.637437],[35.077512,47.637365],[35.077476,47.637079],[35.076418,47.637151]]]}},{"type":"Feature","properties":{"cadnum":"2322184902:05:001:0344"},"geometry":{"type":"Polygon","coordinates":[[[35.078773,47.637102],[35.078835,47.637314],[35.078994,47.637295],[35.078926,47.637085],[35.078773,47.637102]]]}},{"type":"Feature","properties":{"cadnum":"2322184902:05:001:0287"},"geometry":{"type":"Polygon","coordinates":[[[35.075003,47.636139],[35.075045,47.636421],[35.076096,47.636349],[35.076055,47.636068],[35.075003,47.636139]]]}},{"type":"Feature","properties":{"cadnum":"2322184902:05:001:0340"},"geometry":{"type":"Polygon","coordinates":[[[35.078313,47.635833],[35.078321,47.635886],[35.078322,47.635886],[35.078355,47.636075],[35.078369,47.636072],[35.079238,47.636015],[35.079128,47.635773],[35.079118,47.63575],[35.078921,47.635771],[35.078864,47.635777],[35.078862,47.635777],[35.078458,47.635819],[35.078361,47.635829],[35.078313,47.635833]]]}},{"type":"Feature","properties":{"cadnum":"2322184902:05:004:0291"},"geometry":{"type":"Polygon","coordinates":[[[35.075172,47.637266],[35.075214,47.637548],[35.076265,47.637476],[35.076224,47.637194],[35.075172,47.637266]]]}},{"type":"Feature","properties":{"cadnum":"2322184902:05:001:0342"},"geometry":{"type":"Polygon","coordinates":[[[35.078399,47.636378],[35.078471,47.636654],[35.078642,47.636636],[35.078571,47.636364],[35.078414,47.636377],[35.078399,47.636378]]]}},{"type":"Feature","properties":{"cadnum":"2322184902:05:001:0294"},"geometry":{"type":"Polygon","coordinates":[[[35.075298,47.638111],[35.075341,47.638393],[35.076393,47.638321],[35.076351,47.638039],[35.075298,47.638111]]]}},{"type":"Feature","properties":{"cadnum":"2322184902:05:001:0292"},"geometry":{"type":"Polygon","coordinates":[[[35.075214,47.637548],[35.075257,47.637829],[35.076308,47.637757],[35.076265,47.637476],[35.075214,47.637548]]]}},{"type":"Feature","properties":{"cadnum":"2322184902:05:001:0296"},"geometry":{"type":"Polygon","coordinates":[[[35.075383,47.638674],[35.075426,47.638956],[35.076477,47.638884],[35.076436,47.638602],[35.075383,47.638674]]]}},{"type":"Feature","properties":{"cadnum":"2322184902:05:001:0293"},"geometry":{"type":"Polygon","coordinates":[[[35.075257,47.637829],[35.075298,47.638111],[35.076351,47.638039],[35.076308,47.637757],[35.075257,47.637829]]]}},{"type":"Feature","properties":{"cadnum":"2322184902:05:001:0288"},"geometry":{"type":"Polygon","coordinates":[[[35.075045,47.636421],[35.075088,47.636703],[35.076139,47.636631],[35.076096,47.636349],[35.075045,47.636421]]]}},{"type":"Feature","properties":{"cadnum":"2322184902:05:001:0450"},"geometry":{"type":"Polygon","coordinates":[[[35.076587,47.638282],[35.07663,47.638564],[35.077681,47.638492],[35.07764,47.63821],[35.076587,47.638282]]]}},{"type":"Feature","properties":{"cadnum":"2322184902:05:004:0290"},"geometry":{"type":"Polygon","coordinates":[[[35.075129,47.636984],[35.075172,47.637266],[35.076224,47.637194],[35.076181,47.636913],[35.075129,47.636984]]]}},{"type":"Feature","properties":{"cadnum":"2322184902:05:001:0624"},"geometry":{"type":"Polygon","coordinates":[[[35.074043,47.636454],[35.074095,47.636712],[35.074777,47.636649],[35.074727,47.636391],[35.074043,47.636454]]]}},{"type":"Feature","properties":{"cadnum":"2322184902:05:001:0451"},"geometry":{"type":"Polygon","coordinates":[[[35.076545,47.638001],[35.076587,47.638282],[35.07764,47.63821],[35.077597,47.637929],[35.076545,47.638001]]]}},{"type":"Feature","properties":{"cadnum":"2322184902:05:001:0299"},"geometry":{"type":"Polygon","coordinates":[[[35.07663,47.638564],[35.076672,47.638846],[35.077724,47.638774],[35.077681,47.638492],[35.07663,47.638564]]]}},{"type":"Feature","properties":{"cadnum":"2322184902:05:001:0625"},"geometry":{"type":"Polygon","coordinates":[[[35.074095,47.636712],[35.074148,47.636971],[35.074826,47.636908],[35.074777,47.636649],[35.074095,47.636712]]]}},{"type":"Feature","properties":{"cadnum":"2322184902:05:001:0622"},"geometry":{"type":"Polygon","coordinates":[[[35.07394,47.635941],[35.073991,47.636197],[35.074679,47.636134],[35.074629,47.635877],[35.07394,47.635941]]]}},{"type":"Feature","properties":{"cadnum":"2322184902:05:001:0188"},"geometry":{"type":"Polygon","coordinates":[[[35.078152,47.639042],[35.07818,47.639265],[35.079238,47.639206],[35.079175,47.638986],[35.078152,47.639042]]]}},{"type":"Feature","properties":{"cadnum":"2322184902:05:001:0289"},"geometry":{"type":"Polygon","coordinates":[[[35.075088,47.636703],[35.075131,47.636985],[35.076182,47.636912],[35.076139,47.636631],[35.075088,47.636703]]]}},{"type":"Feature","properties":{"cadnum":"2322184902:05:001:0325"},"geometry":{"type":"Polygon","coordinates":[[[35.078127,47.638853],[35.078151,47.639036],[35.078152,47.639042],[35.079175,47.638986],[35.079122,47.6388],[35.078127,47.638853]]]}},{"type":"Feature","properties":{"cadnum":"2322184902:05:001:0514"},"geometry":{"type":"Polygon","coordinates":[[[35.077811,47.63717],[35.077846,47.637401],[35.078725,47.637301],[35.078659,47.637073],[35.077811,47.63717]]]}},{"type":"Feature","properties":{"cadnum":"2322184902:05:001:0513"},"geometry":{"type":"Polygon","coordinates":[[[35.077774,47.636927],[35.077811,47.63717],[35.078659,47.637073],[35.078612,47.636916],[35.078572,47.636837],[35.077774,47.636927]]]}},{"type":"Feature","properties":{"cadnum":"2322184902:05:001:0535"},"geometry":{"type":"Polygon","coordinates":[[[35.074518,47.63881],[35.074571,47.639076],[35.075231,47.639016],[35.07518,47.638748],[35.074518,47.63881]]]}},{"type":"Feature","properties":{"cadnum":"2322184902:05:001:0285"},"geometry":{"type":"Polygon","coordinates":[[[35.074919,47.635576],[35.074947,47.635771],[35.07496,47.635858],[35.075394,47.635829],[35.076012,47.635786],[35.07597,47.635504],[35.074919,47.635576]]]}},{"type":"Feature","properties":{"cadnum":"2322184902:05:001:0324"},"geometry":{"type":"Polygon","coordinates":[[[35.078077,47.638664],[35.078105,47.638787],[35.078127,47.638853],[35.079122,47.6388],[35.079068,47.63861],[35.078077,47.638664]]]}},{"type":"Feature","properties":{"cadnum":"2322184902:05:001:0286"},"geometry":{"type":"Polygon","coordinates":[[[35.07496,47.635858],[35.074964,47.635886],[35.074965,47.635886],[35.075003,47.636139],[35.076055,47.636068],[35.076012,47.635786],[35.075394,47.635829],[35.07496,47.635858]]]}},{"type":"Feature","properties":{"cadnum":"2322184902:05:001:0327"},"geometry":{"type":"Polygon","coordinates":[[[35.077811,47.639286],[35.07784,47.639472],[35.077856,47.639576],[35.078794,47.63953],[35.078886,47.639525],[35.078813,47.639233],[35.077811,47.639286]]]}},{"type":"Feature","properties":{"cadnum":"2322184902:05:001:0308"},"geometry":{"type":"Polygon","coordinates":[[[35.076292,47.636311],[35.076334,47.636592],[35.077385,47.63652],[35.077343,47.636239],[35.076292,47.636311]]]}},{"type":"Feature","properties":{"cadnum":"2322184902:05:001:0304"},"geometry":{"type":"Polygon","coordinates":[[[35.076461,47.637437],[35.076503,47.637719],[35.077554,47.637647],[35.077512,47.637365],[35.076461,47.637437]]]}},{"type":"Feature","properties":{"cadnum":"2322184902:05:001:0518"},"geometry":{"type":"Polygon","coordinates":[[[35.077952,47.63805],[35.07799,47.638252],[35.078988,47.638139],[35.078921,47.637939],[35.077952,47.63805]]]}},{"type":"Feature","properties":{"cadnum":"2322184902:05:001:0027"},"geometry":{"type":"Polygon","coordinates":[[[35.077581,47.635747],[35.077582,47.635771],[35.077587,47.635841],[35.07759,47.635886],[35.0776,47.636016],[35.078324,47.635999],[35.078307,47.635785],[35.078304,47.63573],[35.077581,47.635747]]]}},{"type":"Feature","properties":{"cadnum":"2322184902:05:001:0298"},"geometry":{"type":"Polygon","coordinates":[[[35.076672,47.638846],[35.076714,47.639127],[35.077766,47.639055],[35.077724,47.638774],[35.076672,47.638846]]]}},{"type":"Feature","properties":{"cadnum":"2322184902:05:001:0307"},"geometry":{"type":"Polygon","coordinates":[[[35.076334,47.636592],[35.076375,47.636872],[35.077435,47.636799],[35.077393,47.63652],[35.076334,47.636592]]]}},{"type":"Feature","properties":{"cadnum":"2322184902:05:001:0306"},"geometry":{"type":"Polygon","coordinates":[[[35.076375,47.636872],[35.076418,47.637151],[35.077476,47.637079],[35.077435,47.636799],[35.076375,47.636872]]]}},{"type":"Feature","properties":{"cadnum":"2322184902:05:001:0536"},"geometry":{"type":"Polygon","coordinates":[[[35.074571,47.639076],[35.074626,47.639344],[35.075283,47.639283],[35.075231,47.639016],[35.074571,47.639076]]]}},{"type":"Feature","properties":{"cadnum":"2322184902:05:001:0303"},"geometry":{"type":"Polygon","coordinates":[[[35.076503,47.637719],[35.076545,47.638001],[35.077597,47.637929],[35.077554,47.637647],[35.076503,47.637719]]]}},{"type":"Feature","properties":{"cadnum":"2322184902:05:001:0297"},"geometry":{"type":"Polygon","coordinates":[[[35.075583,47.639212],[35.07564,47.639497],[35.07668,47.639445],[35.076623,47.63916],[35.075583,47.639212]]]}},{"type":"Feature","properties":{"cadnum":"2322184902:05:001:0620"},"geometry":{"type":"Polygon","coordinates":[[[35.073887,47.635686],[35.073928,47.635886],[35.073929,47.635886],[35.07394,47.635941],[35.074624,47.635878],[35.074629,47.635877],[35.074579,47.635622],[35.073887,47.635686]]]}},{"type":"Feature","properties":{"cadnum":"2322184902:05:001:0310"},"geometry":{"type":"Polygon","coordinates":[[[35.076327,47.635759],[35.076329,47.635771],[35.076328,47.635771],[35.076336,47.635822],[35.076346,47.635886],[35.07637,47.636039],[35.077432,47.63599],[35.077415,47.635886],[35.077416,47.635886],[35.077389,47.63571],[35.076327,47.635759]]]}},{"type":"Feature","properties":{"cadnum":"2322184902:05:001:0623"},"geometry":{"type":"Polygon","coordinates":[[[35.073991,47.636197],[35.074043,47.636454],[35.074727,47.636391],[35.074679,47.636134],[35.073991,47.636197]]]}},{"type":"Feature","properties":{"cadnum":"2322184902:05:001:0359"},"geometry":{"type":"Polygon","coordinates":[[[35.079556,47.640045],[35.079619,47.640799],[35.079934,47.640773],[35.079873,47.64002],[35.079556,47.640045]]]}},{"type":"Feature","properties":{"cadnum":"2322184902:05:001:0540"},"geometry":{"type":"Polygon","coordinates":[[[35.078424,47.639872],[35.078454,47.63999],[35.079432,47.63989],[35.079432,47.639889],[35.079452,47.639887],[35.079421,47.63977],[35.078424,47.639872]]]}},{"type":"Feature","properties":{"cadnum":"2322184902:05:001:0354"},"geometry":{"type":"Polygon","coordinates":[[[35.080258,47.63976],[35.080282,47.639854],[35.080971,47.639785],[35.080928,47.639696],[35.080258,47.63976]]]}},{"type":"Feature","properties":{"cadnum":"2322184902:05:001:0646"},"geometry":{"type":"Polygon","coordinates":[[[35.080541,47.639976],[35.080581,47.640706],[35.080904,47.640678],[35.080871,47.639947],[35.080541,47.639976]]]}},{"type":"Feature","properties":{"cadnum":"2322184902:05:001:0031"},"geometry":{"type":"Polygon","coordinates":[[[35.066342,47.635841],[35.066409,47.635886],[35.066428,47.635899],[35.06667,47.636048],[35.066754,47.636008],[35.067014,47.635894],[35.066918,47.635771],[35.066917,47.635771],[35.066814,47.635639],[35.066507,47.635771],[35.066506,47.635771],[35.066342,47.635841]]]}},{"type":"Feature","properties":{"cadnum":"2322184902:05:001:0103"},"geometry":{"type":"Polygon","coordinates":[[[35.067242,47.635739],[35.067265,47.635771],[35.06735,47.635886],[35.067351,47.635886],[35.067466,47.636042],[35.067954,47.635923],[35.067891,47.635803],[35.067823,47.635672],[35.067764,47.635568],[35.067242,47.635739]]]}},{"type":"Feature","properties":{"cadnum":"2322184902:05:001:0040"},"geometry":{"type":"Polygon","coordinates":[[[35.065168,47.635859],[35.065221,47.635886],[35.065222,47.635886],[35.06539,47.635969],[35.065481,47.635876],[35.065481,47.635875],[35.065526,47.635829],[35.065558,47.635794],[35.065856,47.635509],[35.065767,47.635452],[35.065653,47.635537],[35.065527,47.635481],[35.065299,47.635715],[35.065247,47.635771],[35.065225,47.635794],[35.065195,47.635829],[35.065168,47.635859]]]}},{"type":"Feature","properties":{"cadnum":"2322184902:05:001:0033"},"geometry":{"type":"Polygon","coordinates":[[[35.06681,47.636663],[35.067016,47.636764],[35.067547,47.636539],[35.067356,47.636322],[35.067128,47.636457],[35.06681,47.636663]]]}},{"type":"Feature","properties":{"cadnum":"2322184902:05:001:0460"},"geometry":{"type":"Polygon","coordinates":[[[35.067594,47.649126],[35.067718,47.649217],[35.067804,47.649265],[35.067852,47.649286],[35.068229,47.649312],[35.068445,47.649321],[35.068445,47.64932],[35.068603,47.649326],[35.068823,47.649341],[35.068865,47.649348],[35.068948,47.649367],[35.069019,47.649389],[35.069185,47.649322],[35.068666,47.6489],[35.068274,47.648983],[35.068273,47.648983],[35.067594,47.649126]]]}},{"type":"Feature","properties":{"cadnum":"2322184902:05:001:0459"},"geometry":{"type":"Polygon","coordinates":[[[35.06741,47.648883],[35.067466,47.648973],[35.06752,47.649029],[35.067594,47.649126],[35.068445,47.648947],[35.068445,47.648946],[35.068666,47.6489],[35.068445,47.648721],[35.068432,47.64871],[35.068386,47.648659],[35.06741,47.648883]]]}},{"type":"Feature","properties":{"cadnum":"2322184902:05:001:0242"},"geometry":{"type":"Polygon","coordinates":[[[35.067945,47.632345],[35.068064,47.632609],[35.068273,47.632579],[35.068274,47.632579],[35.068274,47.63258],[35.068349,47.632568],[35.068445,47.632554],[35.068465,47.632551],[35.068532,47.632541],[35.068768,47.632504],[35.068657,47.632246],[35.068472,47.632273],[35.068274,47.6323],[35.068274,47.632301],[35.068273,47.632301],[35.067945,47.632345]]]}},{"type":"Feature","properties":{"cadnum":"2322184902:05:001:0618"},"geometry":{"type":"Polygon","coordinates":[[[35.073836,47.635432],[35.073887,47.635686],[35.073938,47.635681],[35.074579,47.635622],[35.074531,47.635368],[35.073836,47.635432]]]}},{"type":"Feature","properties":{"cadnum":"2322184902:05:001:0610"},"geometry":{"type":"Polygon","coordinates":[[[35.072054,47.634796],[35.072159,47.635281],[35.072522,47.635247],[35.072419,47.634764],[35.072054,47.634796]]]}},{"type":"Feature","properties":{"cadnum":"2322184902:05:001:0606"},"geometry":{"type":"Polygon","coordinates":[[[35.072784,47.634731],[35.072887,47.635214],[35.07325,47.635181],[35.073148,47.634698],[35.072784,47.634731]]]}},{"type":"Feature","properties":{"cadnum":"2322184902:05:001:0636"},"geometry":{"type":"Polygon","coordinates":[[[35.071326,47.634862],[35.071432,47.635347],[35.071795,47.635313],[35.071689,47.63483],[35.071326,47.634862]]]}},{"type":"Feature","properties":{"cadnum":"2322184902:05:001:0607"},"geometry":{"type":"Polygon","coordinates":[[[35.072764,47.634363],[35.072811,47.63462],[35.073497,47.634558],[35.073446,47.6343],[35.072764,47.634363]]]}},{"type":"Feature","properties":{"cadnum":"2322184902:05:001:0613"},"geometry":{"type":"Polygon","coordinates":[[[35.072715,47.634102],[35.072764,47.634363],[35.073446,47.6343],[35.073394,47.634042],[35.072715,47.634102]]]}},{"type":"Feature","properties":{"cadnum":"2322184902:05:001:0629"},"geometry":{"type":"Polygon","coordinates":[[[35.073599,47.634256],[35.073653,47.63452],[35.073767,47.634509],[35.073767,47.63451],[35.074318,47.634458],[35.07427,47.634195],[35.073767,47.634241],[35.073599,47.634256]]]}},{"type":"Feature","properties":{"cadnum":"2322184902:05:001:0407"},"geometry":{"type":"Polygon","coordinates":[[[35.070921,47.63246],[35.071126,47.632982],[35.071539,47.632925],[35.071544,47.632924],[35.071338,47.632402],[35.070921,47.63246]]]}},{"type":"Feature","properties":{"cadnum":"2322184902:05:001:0609"},"geometry":{"type":"Polygon","coordinates":[[[35.072073,47.634426],[35.07212,47.634682],[35.07281,47.63462],[35.072811,47.63462],[35.072764,47.634364],[35.072073,47.634426]]]}},{"type":"Feature","properties":{"cadnum":"2322184902:05:001:0626"},"geometry":{"type":"Polygon","coordinates":[[[35.073441,47.633473],[35.073494,47.633735],[35.073767,47.633711],[35.074177,47.633672],[35.074131,47.63342],[35.073921,47.633437],[35.073441,47.633473]]]}},{"type":"Feature","properties":{"cadnum":"2322184902:05:001:0404"},"geometry":{"type":"Polygon","coordinates":[[[35.072789,47.632778],[35.072986,47.633324],[35.07357,47.633253],[35.072919,47.632762],[35.072789,47.632778]]]}},{"type":"Feature","properties":{"cadnum":"2322184902:05:001:0233"},"geometry":{"type":"Polygon","coordinates":[[[35.06946,47.633533],[35.069584,47.633859],[35.069668,47.633846],[35.069883,47.633822],[35.069947,47.633814],[35.07002,47.633801],[35.070307,47.633763],[35.070364,47.633738],[35.070391,47.633709],[35.070378,47.633653],[35.070291,47.633411],[35.069941,47.633463],[35.06946,47.633533]],[[35.070316,47.633673],[35.070272,47.63367],[35.070261,47.633666],[35.070256,47.633659],[35.070261,47.633651],[35.070272,47.633648],[35.070317,47.633652],[35.070328,47.633655],[35.070332,47.633663],[35.070328,47.63367],[35.070316,47.633673]]]}},{"type":"Feature","properties":{"cadnum":"2322184902:05:001:0628"},"geometry":{"type":"Polygon","coordinates":[[[35.073547,47.633995],[35.073599,47.634256],[35.073938,47.634225],[35.07427,47.634195],[35.074223,47.633932],[35.073767,47.633975],[35.073547,47.633995]]]}},{"type":"Feature","properties":{"cadnum":"2322184902:05:001:0402"},"geometry":{"type":"Polygon","coordinates":[[[35.071956,47.632867],[35.072152,47.63343],[35.072568,47.633376],[35.072369,47.63283],[35.071956,47.632867]]]}},{"type":"Feature","properties":{"cadnum":"2322184902:05:001:0410"},"geometry":{"type":"Polygon","coordinates":[[[35.072176,47.6323],[35.072383,47.632828],[35.072789,47.632778],[35.072919,47.632762],[35.072306,47.632284],[35.072176,47.6323]]]}},{"type":"Feature","properties":{"cadnum":"2322184902:05:001:0403"},"geometry":{"type":"Polygon","coordinates":[[[35.072369,47.63283],[35.072568,47.633376],[35.072986,47.633324],[35.072789,47.632778],[35.072369,47.63283]]]}},{"type":"Feature","properties":{"cadnum":"2322184902:05:001:0406"},"geometry":{"type":"Polygon","coordinates":[[[35.070504,47.632519],[35.070709,47.63304],[35.071122,47.632983],[35.071126,47.632982],[35.070921,47.63246],[35.070504,47.632519]]]}},{"type":"Feature","properties":{"cadnum":"2322184902:05:001:0401"},"geometry":{"type":"Polygon","coordinates":[[[35.07155,47.632926],[35.071742,47.633482],[35.072152,47.63343],[35.071956,47.632867],[35.07155,47.632926]]]}},{"type":"Feature","properties":{"cadnum":"2322184902:05:001:0409"},"geometry":{"type":"Polygon","coordinates":[[[35.071752,47.632337],[35.071962,47.632867],[35.072369,47.63283],[35.072383,47.632828],[35.072173,47.632297],[35.071752,47.632337]]]}},{"type":"Feature","properties":{"cadnum":"2322184902:05:001:0597"},"geometry":{"type":"Polygon","coordinates":[[[35.07325,47.635181],[35.073354,47.635665],[35.073713,47.635631],[35.073615,47.635143],[35.07325,47.635181]]]}},{"type":"Feature","properties":{"cadnum":"2322184902:05:001:0635"},"geometry":{"type":"Polygon","coordinates":[[[35.070962,47.634895],[35.071068,47.63538],[35.071432,47.635347],[35.071326,47.634862],[35.070962,47.634895]]]}},{"type":"Feature","properties":{"cadnum":"2322184902:05:001:0605"},"geometry":{"type":"Polygon","coordinates":[[[35.071795,47.635313],[35.0719,47.635798],[35.072263,47.635764],[35.072159,47.635281],[35.071795,47.635313]]]}},{"type":"Feature","properties":{"cadnum":"2322184902:05:001:0601"},"geometry":{"type":"Polygon","coordinates":[[[35.072522,47.635247],[35.072627,47.635731],[35.07299,47.635698],[35.072887,47.635214],[35.072522,47.635247]]]}},{"type":"Feature","properties":{"cadnum":"2322184902:05:001:0604"},"geometry":{"type":"Polygon","coordinates":[[[35.073148,47.634698],[35.07325,47.635181],[35.073615,47.635143],[35.073519,47.634665],[35.073148,47.634698]]]}},{"type":"Feature","properties":{"cadnum":"2322184902:05:001:0245"},"geometry":{"type":"Polygon","coordinates":[[[35.068294,47.633132],[35.068418,47.633403],[35.068445,47.633399],[35.068715,47.633359],[35.069098,47.633301],[35.069046,47.633174],[35.06903,47.633132],[35.068986,47.633035],[35.068294,47.633132]]]}},{"type":"Feature","properties":{"cadnum":"2322184902:05:001:0339"},"geometry":{"type":"Polygon","coordinates":[[[35.07071,47.633047],[35.07076,47.633169],[35.070812,47.633314],[35.070909,47.633586],[35.071329,47.633534],[35.071134,47.632985],[35.07071,47.633047]]]}},{"type":"Feature","properties":{"cadnum":"2322184902:05:001:0400"},"geometry":{"type":"Polygon","coordinates":[[[35.071134,47.632985],[35.071329,47.633534],[35.071742,47.633482],[35.07155,47.632926],[35.071134,47.632985]]]}},{"type":"Feature","properties":{"cadnum":"2322184902:05:001:0632"},"geometry":{"type":"Polygon","coordinates":[[[35.06986,47.635078],[35.06995,47.635523],[35.070346,47.635487],[35.070256,47.63504],[35.06986,47.635078]]]}},{"type":"Feature","properties":{"cadnum":"2322184902:05:001:0621"},"geometry":{"type":"Polygon","coordinates":[[[35.071935,47.633668],[35.071979,47.633914],[35.07267,47.633852],[35.072668,47.633841],[35.072621,47.633587],[35.071935,47.633668]]]}},{"type":"Feature","properties":{"cadnum":"2322184902:05:001:0408"},"geometry":{"type":"Polygon","coordinates":[[[35.071337,47.6324],[35.071544,47.632924],[35.071545,47.632924],[35.071956,47.632867],[35.071962,47.632867],[35.071752,47.632337],[35.071337,47.6324]]]}},{"type":"Feature","properties":{"cadnum":"2322184902:05:001:0603"},"geometry":{"type":"Polygon","coordinates":[[[35.072159,47.635281],[35.072263,47.635764],[35.072627,47.635731],[35.072522,47.635247],[35.072159,47.635281]]]}},{"type":"Feature","properties":{"cadnum":"2322184902:05:001:0617"},"geometry":{"type":"Polygon","coordinates":[[[35.071979,47.633914],[35.072026,47.63417],[35.072717,47.634108],[35.07267,47.633852],[35.071979,47.633914]]]}},{"type":"Feature","properties":{"cadnum":"2322184902:05:001:0615"},"geometry":{"type":"Polygon","coordinates":[[[35.072668,47.633841],[35.072715,47.634102],[35.073394,47.634042],[35.073342,47.633781],[35.072668,47.633841]]]}},{"type":"Feature","properties":{"cadnum":"2322184902:05:001:0608"},"geometry":{"type":"Polygon","coordinates":[[[35.072419,47.634764],[35.072522,47.635247],[35.072887,47.635214],[35.072784,47.634731],[35.072419,47.634764]]]}},{"type":"Feature","properties":{"cadnum":"2322184902:05:001:0634"},"geometry":{"type":"Polygon","coordinates":[[[35.070599,47.634927],[35.070705,47.635414],[35.071068,47.63538],[35.070962,47.634895],[35.070599,47.634927]]]}},{"type":"Feature","properties":{"cadnum":"2322184902:05:001:0396"},"geometry":{"type":"Polygon","coordinates":[[[35.075906,47.640351],[35.075908,47.640388],[35.075931,47.641027],[35.07628,47.641003],[35.076263,47.640322],[35.075906,47.640351]]]}},{"type":"Feature","properties":{"cadnum":"2322184902:05:001:0329"},"geometry":{"type":"Polygon","coordinates":[[[35.076592,47.640296],[35.076619,47.641018],[35.076949,47.640992],[35.076922,47.640269],[35.076592,47.640296]]]}},{"type":"Feature","properties":{"cadnum":"2322184902:05:001:0368"},"geometry":{"type":"Polygon","coordinates":[[[35.076263,47.640322],[35.07628,47.641039],[35.076618,47.641008],[35.076592,47.640296],[35.076263,47.640322]]]}},{"type":"Feature","properties":{"cadnum":"2322184902:05:001:0372"},"geometry":{"type":"Polygon","coordinates":[[[35.074868,47.640436],[35.074887,47.640699],[35.074931,47.641088],[35.075293,47.641058],[35.075229,47.640406],[35.074868,47.640436]]]}},{"type":"Feature","properties":{"cadnum":"2322184902:05:001:0375"},"geometry":{"type":"Polygon","coordinates":[[[35.073867,47.640531],[35.07393,47.641296],[35.074248,47.641269],[35.074184,47.640504],[35.073867,47.640531]]]}},{"type":"Feature","properties":{"cadnum":"2322184902:05:001:0374"},"geometry":{"type":"Polygon","coordinates":[[[35.074203,47.64049],[35.074394,47.641194],[35.074726,47.641164],[35.074531,47.640456],[35.074203,47.64049]]]}},{"type":"Feature","properties":{"cadnum":"2322184902:05:001:0520"},"geometry":{"type":"Polygon","coordinates":[[[35.074145,47.639756],[35.074229,47.640199],[35.074629,47.640164],[35.074538,47.639718],[35.074145,47.639756]]]}},{"type":"Feature","properties":{"cadnum":"2322184902:05:001:0311"},"geometry":{"type":"Polygon","coordinates":[[[35.222611,47.644922],[35.222653,47.645202],[35.223716,47.645151],[35.223673,47.644871],[35.222611,47.644922]]]}},{"type":"Feature","properties":{"cadnum":"2322184902:05:001:0283"},"geometry":{"type":"Polygon","coordinates":[[[35.074834,47.635013],[35.074876,47.635294],[35.075927,47.635223],[35.075886,47.634941],[35.074834,47.635013]]]}},{"type":"Feature","properties":{"cadnum":"2322184902:05:001:0280"},"geometry":{"type":"Polygon","coordinates":[[[35.074712,47.634161],[35.074755,47.634448],[35.075804,47.634373],[35.075764,47.634089],[35.074712,47.634161]]]}},{"type":"Feature","properties":{"cadnum":"2322184902:05:001:0279"},"geometry":{"type":"Polygon","coordinates":[[[35.075171,47.633637],[35.075242,47.634124],[35.075764,47.634089],[35.075726,47.633805],[35.075171,47.633637]]]}},{"type":"Feature","properties":{"cadnum":"2322184902:05:001:0313"},"geometry":{"type":"Polygon","coordinates":[[[35.07608,47.634905],[35.076122,47.635184],[35.077181,47.635112],[35.07714,47.634832],[35.07608,47.634905]]]}},{"type":"Feature","properties":{"cadnum":"2322184902:05:001:0281"},"geometry":{"type":"Polygon","coordinates":[[[35.074755,47.634448],[35.074791,47.634731],[35.075843,47.634659],[35.075804,47.634373],[35.074755,47.634448]]]}},{"type":"Feature","properties":{"cadnum":"2322184902:05:001:0388"},"geometry":{"type":"Polygon","coordinates":[[[35.078226,47.635304],[35.078282,47.635576],[35.078981,47.635516],[35.078882,47.635242],[35.078226,47.635304]]]}},{"type":"Feature","properties":{"cadnum":"2322184902:05:001:0642"},"geometry":{"type":"Polygon","coordinates":[[[35.077339,47.634748],[35.077384,47.635035],[35.077685,47.635014],[35.077683,47.635004],[35.077967,47.634981],[35.077974,47.635021],[35.07799,47.63502],[35.077983,47.635013],[35.077983,47.635012],[35.078101,47.635003],[35.078045,47.634693],[35.077339,47.634748]]]}},{"type":"Feature","properties":{"cadnum":"2322184902:05:001:0336"},"geometry":{"type":"Polygon","coordinates":[[[35.078112,47.63458],[35.078163,47.634884],[35.078166,47.634898],[35.078182,47.635001],[35.078198,47.634999],[35.078306,47.634988],[35.078304,47.634976],[35.078304,47.634975],[35.078749,47.634953],[35.078615,47.634669],[35.078176,47.63453],[35.078112,47.63458]]]}},{"type":"Feature","properties":{"cadnum":"2322184902:05:001:0284"},"geometry":{"type":"Polygon","coordinates":[[[35.074876,47.635294],[35.074919,47.635576],[35.07597,47.635504],[35.075927,47.635223],[35.074876,47.635294]]]}},{"type":"Feature","properties":{"cadnum":"2322184902:05:001:0315"},"geometry":{"type":"Polygon","coordinates":[[[35.07601,47.634339],[35.076039,47.634622],[35.077093,47.634573],[35.077064,47.634291],[35.07601,47.634339]]]}},{"type":"Feature","properties":{"cadnum":"2322184902:05:001:0282"},"geometry":{"type":"Polygon","coordinates":[[[35.074791,47.634731],[35.074834,47.635013],[35.075886,47.634941],[35.075843,47.634659],[35.074791,47.634731]]]}},{"type":"Feature","properties":{"cadnum":"2322184902:05:001:0312"},"geometry":{"type":"Polygon","coordinates":[[[35.076122,47.635184],[35.076165,47.635466],[35.077216,47.635394],[35.077174,47.635112],[35.076122,47.635184]]]}},{"type":"Feature","properties":{"cadnum":"2322184902:05:001:0638"},"geometry":{"type":"Polygon","coordinates":[[[35.077431,47.635335],[35.077467,47.635565],[35.077471,47.635594],[35.077474,47.63561],[35.077506,47.635608],[35.078152,47.635564],[35.078184,47.635562],[35.07818,47.635528],[35.078171,47.635464],[35.07814,47.635467],[35.078127,47.635468],[35.078094,47.635275],[35.077463,47.635332],[35.077431,47.635335]]]}},{"type":"Feature","properties":{"cadnum":"2322184902:05:001:0006"},"geometry":{"type":"Polygon","coordinates":[[[35.061536,47.631055],[35.061603,47.631248],[35.062024,47.631137],[35.062311,47.631061],[35.062665,47.630955],[35.062666,47.630951],[35.062484,47.630774],[35.062208,47.630863],[35.062108,47.630885],[35.061935,47.630939],[35.061536,47.631055]]]}},{"type":"Feature","properties":{"cadnum":"2322184902:05:001:0007"},"geometry":{"type":"Polygon","coordinates":[[[35.061561,47.631261],[35.06163,47.631407],[35.062371,47.631214],[35.062806,47.63109],[35.062665,47.630955],[35.062311,47.631061],[35.062024,47.631137],[35.061603,47.631248],[35.061561,47.631261]]]}},{"type":"Feature","properties":{"cadnum":"2322184902:05:001:0128"},"geometry":{"type":"Polygon","coordinates":[[[35.061384,47.631732],[35.061387,47.631736],[35.061408,47.631769],[35.061545,47.631984],[35.061775,47.631908],[35.062024,47.631825],[35.061919,47.631637],[35.061899,47.631603],[35.061898,47.631598],[35.061872,47.6316],[35.061396,47.631726],[35.061384,47.631732]]]}},{"type":"Feature","properties":{"cadnum":"2322184902:05:001:0257"},"geometry":{"type":"Polygon","coordinates":[[[35.059593,47.628549],[35.059716,47.628583],[35.059766,47.628499],[35.059642,47.628466],[35.059593,47.628549]]]}},{"type":"Feature","properties":{"cadnum":"2322184902:05:001:0254"},"geometry":{"type":"Polygon","coordinates":[[[35.066155,47.632477],[35.066167,47.632547],[35.066517,47.632496],[35.066856,47.632469],[35.066942,47.632451],[35.066927,47.632416],[35.066899,47.632357],[35.066513,47.632414],[35.066155,47.632477]]]}},{"type":"Feature","properties":{"cadnum":"2322184902:05:001:0210"},"geometry":{"type":"Polygon","coordinates":[[[35.066907,47.633925],[35.066931,47.633966],[35.066966,47.634024],[35.067068,47.634189],[35.067438,47.634119],[35.067572,47.634093],[35.067564,47.634074],[35.067564,47.634073],[35.067697,47.634049],[35.067678,47.633999],[35.067583,47.633786],[35.066907,47.633925]]]}},{"type":"Feature","properties":{"cadnum":"2322184902:05:001:0212"},"geometry":{"type":"Polygon","coordinates":[[[35.067079,47.634321],[35.067143,47.634458],[35.067203,47.634444],[35.067347,47.634725],[35.0674,47.634831],[35.067666,47.634784],[35.067472,47.634266],[35.067136,47.634313],[35.067079,47.634321]]]}},{"type":"Feature","properties":{"cadnum":"2322184902:05:001:0213"},"geometry":{"type":"Polygon","coordinates":[[[35.067472,47.634266],[35.067666,47.634784],[35.068019,47.634719],[35.067785,47.634221],[35.067472,47.634266]]]}},{"type":"Feature","properties":{"cadnum":"2322184902:05:001:0649"},"geometry":{"type":"Polygon","coordinates":[[[35.066431,47.632846],[35.066577,47.633144],[35.067213,47.633013],[35.067087,47.632747],[35.066438,47.632846],[35.066431,47.632846]]]}},{"type":"Feature","properties":{"cadnum":"2322184902:05:001:0252"},"geometry":{"type":"Polygon","coordinates":[[[35.067351,47.632717],[35.06739,47.632801],[35.067411,47.632849],[35.067484,47.632983],[35.067508,47.632982],[35.067521,47.632982],[35.067826,47.632934],[35.06815,47.632882],[35.068028,47.632616],[35.06738,47.632712],[35.067351,47.632717]]]}},{"type":"Feature","properties":{"cadnum":"2322184902:05:001:0111"},"geometry":{"type":"Polygon","coordinates":[[[35.063621,47.633165],[35.063789,47.63337],[35.064262,47.633188],[35.064099,47.63298],[35.063621,47.633165]]]}},{"type":"Feature","properties":{"cadnum":"2322184902:05:001:0145"},"geometry":{"type":"Polygon","coordinates":[[[35.065497,47.633481],[35.065681,47.633707],[35.066353,47.633503],[35.066215,47.633302],[35.065497,47.633481]]]}},{"type":"Feature","properties":{"cadnum":"2322184902:05:001:0108"},"geometry":{"type":"Polygon","coordinates":[[[35.063134,47.632551],[35.063306,47.63277],[35.063825,47.632578],[35.063715,47.63244],[35.063655,47.632364],[35.063134,47.632551]]]}},{"type":"Feature","properties":{"cadnum":"2322184902:05:001:0114"},"geometry":{"type":"Polygon","coordinates":[[[35.064108,47.633754],[35.064277,47.633953],[35.06476,47.633782],[35.064596,47.63358],[35.064108,47.633754]]]}},{"type":"Feature","properties":{"cadnum":"2322184902:05:001:0115"},"geometry":{"type":"Polygon","coordinates":[[[35.064277,47.633953],[35.064281,47.633958],[35.06432,47.634008],[35.064441,47.634156],[35.064921,47.633977],[35.06476,47.633782],[35.064277,47.633953]]]}},{"type":"Feature","properties":{"cadnum":"2322184902:05:001:0023"},"geometry":{"type":"Polygon","coordinates":[[[35.065239,47.63438],[35.065402,47.634578],[35.065884,47.634402],[35.065759,47.634249],[35.065764,47.634246],[35.065717,47.634199],[35.065239,47.63438]]]}},{"type":"Feature","properties":{"cadnum":"2322184902:05:001:0043"},"geometry":{"type":"Polygon","coordinates":[[[35.064826,47.635416],[35.065346,47.635667],[35.065526,47.635483],[35.06502,47.635239],[35.064826,47.635416]]]}},{"type":"Feature","properties":{"cadnum":"2322184902:05:001:0139"},"geometry":{"type":"Polygon","coordinates":[[[35.066816,47.635194],[35.067026,47.635465],[35.06762,47.635275],[35.067539,47.635106],[35.067474,47.634986],[35.066816,47.635194]]]}},{"type":"Feature","properties":{"cadnum":"2322184902:05:001:0045"},"geometry":{"type":"Polygon","coordinates":[[[35.065192,47.635083],[35.06578,47.635383],[35.065801,47.635322],[35.065822,47.63529],[35.065837,47.635274],[35.065894,47.635243],[35.065614,47.634984],[35.06561,47.634986],[35.065421,47.634875],[35.065192,47.635083]]]}},{"type":"Feature","properties":{"cadnum":"2322184902:05:001:0044"},"geometry":{"type":"Polygon","coordinates":[[[35.06502,47.635239],[35.065526,47.635483],[35.065653,47.635538],[35.065766,47.635452],[35.06578,47.635383],[35.065192,47.635083],[35.06502,47.635239]]]}},{"type":"Feature","properties":{"cadnum":"2322184902:05:001:0141"},"geometry":{"type":"Polygon","coordinates":[[[35.066999,47.634347],[35.06721,47.634764],[35.067347,47.634725],[35.067203,47.634444],[35.067143,47.634458],[35.06708,47.634326],[35.066999,47.634347]]]}},{"type":"Feature","properties":{"cadnum":"2322184902:05:001:0470"},"geometry":{"type":"Polygon","coordinates":[[[35.066375,47.634593],[35.066379,47.634639],[35.066613,47.634934],[35.066722,47.6349],[35.06721,47.634764],[35.066999,47.634347],[35.066628,47.634449],[35.066485,47.634507],[35.066396,47.63457],[35.066375,47.634593]]]}},{"type":"Feature","properties":{"cadnum":"2322184902:05:001:0117"},"geometry":{"type":"Polygon","coordinates":[[[35.064594,47.63435],[35.064608,47.634367],[35.064635,47.634401],[35.064754,47.634551],[35.064848,47.634515],[35.065232,47.634368],[35.065082,47.634173],[35.064594,47.63435]]]}}]}