{"type":"FeatureCollection","features":[{"type":"Feature","properties":{"cadnum":"2322786602:02:001:0010"},"geometry":{"type":"Polygon","coordinates":[[[36.696753,47.592003],[36.697237,47.592062],[36.697777,47.592126],[36.697917,47.591725],[36.696908,47.591607],[36.696753,47.592003]]]}},{"type":"Feature","properties":{"cadnum":"2322786602:02:005:0001"},"geometry":{"type":"Polygon","coordinates":[[[36.696329,47.583805],[36.696364,47.583924],[36.696602,47.584719],[36.698198,47.584625],[36.698023,47.58404],[36.698023,47.584039],[36.697917,47.583686],[36.696329,47.583805]]]}},{"type":"Feature","properties":{"cadnum":"2322786602:02:004:0018"},"geometry":{"type":"Polygon","coordinates":[[[36.69154,47.593165],[36.692377,47.593218],[36.692418,47.592518],[36.692238,47.592512],[36.691577,47.59249],[36.69154,47.593165]]]}},{"type":"Feature","properties":{"cadnum":"2322786602:02:004:0020"},"geometry":{"type":"Polygon","coordinates":[[[36.691469,47.592257],[36.692252,47.592258],[36.692737,47.59226],[36.692788,47.591343],[36.692084,47.591341],[36.69178,47.591341],[36.69152,47.59134],[36.691513,47.591449],[36.691514,47.591449],[36.691469,47.592257]]]}},{"type":"Feature","properties":{"cadnum":"2322786602:02:001:0002"},"geometry":{"type":"Polygon","coordinates":[[[36.698174,47.590461],[36.698788,47.590505],[36.698941,47.590125],[36.698327,47.590082],[36.698174,47.590461]]]}},{"type":"Feature","properties":{"cadnum":"2322786602:02:001:0001"},"geometry":{"type":"Polygon","coordinates":[[[36.69756,47.590027],[36.698327,47.590082],[36.698941,47.590125],[36.699038,47.589885],[36.698524,47.589848],[36.697658,47.589787],[36.69756,47.590027]]]}},{"type":"Feature","properties":{"cadnum":"2322786602:02:001:0008"},"geometry":{"type":"Polygon","coordinates":[[[36.698524,47.589848],[36.699038,47.589885],[36.699172,47.58955],[36.69866,47.589514],[36.698524,47.589848]]]}},{"type":"Feature","properties":{"cadnum":"2322786602:02:004:0014"},"geometry":{"type":"Polygon","coordinates":[[[36.689482,47.587259],[36.690148,47.5873],[36.69031,47.58731],[36.690865,47.587345],[36.690935,47.586933],[36.690217,47.586889],[36.689602,47.58685],[36.689482,47.587259]]]}},{"type":"Feature","properties":{"cadnum":"2322786602:02:004:0012"},"geometry":{"type":"Polygon","coordinates":[[[36.690943,47.587924],[36.691395,47.58794],[36.691462,47.587629],[36.691536,47.587291],[36.691084,47.587276],[36.690971,47.587744],[36.690972,47.587744],[36.690972,47.587745],[36.690955,47.587816],[36.690943,47.587924]]]}},{"type":"Feature","properties":{"cadnum":"2322786602:02:005:0002"},"geometry":{"type":"Polygon","coordinates":[[[36.693828,47.581857],[36.693985,47.582515],[36.694422,47.582508],[36.696081,47.582478],[36.696075,47.581837],[36.69425,47.581853],[36.693828,47.581857]]]}},{"type":"Feature","properties":{"cadnum":"2322786602:02:004:0006"},"geometry":{"type":"Polygon","coordinates":[[[36.690812,47.589421],[36.691355,47.589439],[36.693028,47.589496],[36.693066,47.589394],[36.690814,47.589319],[36.690812,47.589421]]]}},{"type":"Feature","properties":{"cadnum":"2322786602:02:004:0009"},"geometry":{"type":"Polygon","coordinates":[[[36.690844,47.588872],[36.691969,47.588909],[36.691997,47.588645],[36.690872,47.588607],[36.690844,47.588872]]]}},{"type":"Feature","properties":{"cadnum":"2322786602:02:004:0022"},"geometry":{"type":"Polygon","coordinates":[[[36.691196,47.59083],[36.692087,47.590832],[36.692088,47.590523],[36.69198,47.590523],[36.691198,47.590521],[36.691196,47.59083]]]}},{"type":"Feature","properties":{"cadnum":"2322786602:02:004:0005"},"geometry":{"type":"Polygon","coordinates":[[[36.691336,47.589992],[36.692658,47.590055],[36.693028,47.589496],[36.691355,47.589439],[36.691355,47.58944],[36.691336,47.589992]]]}},{"type":"Feature","properties":{"cadnum":"2322786602:02:004:0010"},"geometry":{"type":"Polygon","coordinates":[[[36.691969,47.588909],[36.693228,47.588952],[36.693309,47.588689],[36.691997,47.588645],[36.691969,47.588909]]]}},{"type":"Feature","properties":{"cadnum":"2322786602:02:004:0021"},"geometry":{"type":"Polygon","coordinates":[[[36.691194,47.591339],[36.69152,47.59134],[36.692084,47.591341],[36.692087,47.590832],[36.691196,47.59083],[36.691194,47.591339]]]}},{"type":"Feature","properties":{"cadnum":"2322786602:02:004:0004"},"geometry":{"type":"Polygon","coordinates":[[[36.690793,47.589966],[36.691336,47.589992],[36.691355,47.58944],[36.691355,47.589439],[36.690812,47.589421],[36.690793,47.589966]]]}}]}