{"type":"FeatureCollection","features":[{"type":"Feature","properties":{"cadnum":"2322485701:01:010:0007"},"geometry":{"type":"Polygon","coordinates":[[[34.743188,47.488578],[34.74325,47.488606],[34.743497,47.488758],[34.743746,47.488697],[34.743831,47.488712],[34.743913,47.488644],[34.743553,47.488374],[34.743188,47.488578]]]}},{"type":"Feature","properties":{"cadnum":"2322485701:01:005:0008"},"geometry":{"type":"Polygon","coordinates":[[[34.775839,47.471259],[34.775864,47.471799],[34.776168,47.471823],[34.776121,47.471284],[34.775839,47.471259]]]}},{"type":"Feature","properties":{"cadnum":"2322485701:01:002:0002"},"geometry":{"type":"Polygon","coordinates":[[[34.75957,47.480541],[34.759932,47.480765],[34.760156,47.480904],[34.76042,47.480697],[34.759993,47.480449],[34.759797,47.480335],[34.75957,47.480541]]]}}]}