{"type":"FeatureCollection","features":[{"type":"Feature","properties":{"cadnum":"2322755102:06:001:0008"},"geometry":{"type":"Polygon","coordinates":[[[36.645368,47.301662],[36.645403,47.301688],[36.645404,47.301688],[36.645994,47.302103],[36.646292,47.301793],[36.646127,47.301688],[36.645709,47.301419],[36.645496,47.301571],[36.645368,47.301662]]]}},{"type":"Feature","properties":{"cadnum":"2322755102:06:001:0014"},"geometry":{"type":"Polygon","coordinates":[[[36.629035,47.309182],[36.629253,47.309797],[36.629915,47.309683],[36.62965,47.309077],[36.629296,47.309137],[36.629296,47.309138],[36.629035,47.309182]]]}},{"type":"Feature","properties":{"cadnum":"2322755102:06:001:0015"},"geometry":{"type":"Polygon","coordinates":[[[36.628854,47.308672],[36.628977,47.309021],[36.629007,47.309105],[36.629019,47.309137],[36.629035,47.309182],[36.62965,47.309077],[36.62949,47.308707],[36.629091,47.308634],[36.628854,47.308672]]]}},{"type":"Feature","properties":{"cadnum":"2322755102:06:001:0003"},"geometry":{"type":"Polygon","coordinates":[[[36.644219,47.305475],[36.64475,47.305468],[36.644739,47.305296],[36.64473,47.305138],[36.64469,47.304761],[36.644333,47.304771],[36.644327,47.305137],[36.644276,47.305296],[36.644275,47.305296],[36.644219,47.305475]]]}},{"type":"Feature","properties":{"cadnum":"2322755102:06:001:0007"},"geometry":{"type":"Polygon","coordinates":[[[36.645132,47.301831],[36.645741,47.302366],[36.645994,47.302103],[36.645368,47.301662],[36.645132,47.301831]]]}},{"type":"Feature","properties":{"cadnum":"2322755102:06:001:0005"},"geometry":{"type":"Polygon","coordinates":[[[36.649924,47.301989],[36.650305,47.302261],[36.65034,47.302286],[36.650476,47.302199],[36.650476,47.302198],[36.650477,47.302198],[36.650849,47.301959],[36.650421,47.30164],[36.649924,47.301989]]]}},{"type":"Feature","properties":{"cadnum":"2322755102:06:001:0013"},"geometry":{"type":"Polygon","coordinates":[[[36.648146,47.304126],[36.648375,47.304292],[36.650476,47.303627],[36.650477,47.303627],[36.651606,47.303269],[36.652546,47.30369],[36.653475,47.304106],[36.653859,47.303988],[36.651889,47.30266],[36.651002,47.30303],[36.650477,47.303232],[36.650476,47.303232],[36.648146,47.304126]]]}},{"type":"Feature","properties":{"cadnum":"2322755102:06:001:0021"},"geometry":{"type":"Polygon","coordinates":[[[36.63312,47.310074],[36.633324,47.311061],[36.633871,47.311007],[36.633684,47.310052],[36.63312,47.310074]]]}},{"type":"Feature","properties":{"cadnum":"2322755102:06:001:0020"},"geometry":{"type":"Polygon","coordinates":[[[36.63308,47.309527],[36.633073,47.309845],[36.63312,47.310074],[36.633684,47.310052],[36.633584,47.309519],[36.63308,47.309527]]]}},{"type":"Feature","properties":{"cadnum":"2322755102:06:001:0002"},"geometry":{"type":"Polygon","coordinates":[[[36.641366,47.303184],[36.642025,47.303948],[36.642636,47.303708],[36.641938,47.302913],[36.641366,47.303184]]]}},{"type":"Feature","properties":{"cadnum":"2322755102:06:001:0018"},"geometry":{"type":"Polygon","coordinates":[[[36.642591,47.302981],[36.643094,47.303557],[36.643619,47.30332],[36.643044,47.302777],[36.642591,47.302981]]]}}]}