{"type":"FeatureCollection","features":[{"type":"Feature","properties":{"cadnum":"2322755104:08:001:0011"},"geometry":{"type":"Polygon","coordinates":[[[36.735859,47.335169],[36.735898,47.335203],[36.735899,47.335203],[36.73609,47.33537],[36.736395,47.335203],[36.736396,47.335203],[36.736742,47.335014],[36.736524,47.334821],[36.736016,47.335087],[36.736015,47.335087],[36.735859,47.335169]]]}},{"type":"Feature","properties":{"cadnum":"2322755104:08:001:0026"},"geometry":{"type":"Polygon","coordinates":[[[36.761358,47.346619],[36.762166,47.346532],[36.762206,47.34637],[36.762207,47.34637],[36.762288,47.346044],[36.761533,47.345874],[36.761415,47.34637],[36.761416,47.34637],[36.761358,47.346619]]]}},{"type":"Feature","properties":{"cadnum":"2322755104:08:001:0019"},"geometry":{"type":"Polygon","coordinates":[[[36.736156,47.339011],[36.736313,47.339104],[36.736517,47.338926],[36.736518,47.338926],[36.737372,47.338184],[36.737184,47.338091],[36.736381,47.338809],[36.736349,47.338838],[36.736251,47.338926],[36.736156,47.339011]]]}},{"type":"Feature","properties":{"cadnum":"2322755104:08:001:0024"},"geometry":{"type":"Polygon","coordinates":[[[36.73742,47.337376],[36.737656,47.33753],[36.738367,47.336995],[36.738756,47.336703],[36.738454,47.336541],[36.738319,47.33665],[36.73742,47.337376]]]}},{"type":"Feature","properties":{"cadnum":"2322755104:08:001:0023"},"geometry":{"type":"Polygon","coordinates":[[[36.738454,47.336541],[36.738756,47.336703],[36.739208,47.336363],[36.738874,47.336201],[36.738454,47.336541]]]}},{"type":"Feature","properties":{"cadnum":"2322755104:08:001:0010"},"geometry":{"type":"Polygon","coordinates":[[[36.731699,47.33792],[36.731993,47.338095],[36.732702,47.337551],[36.7328,47.337475],[36.732524,47.337289],[36.732443,47.337362],[36.731699,47.33792]]]}},{"type":"Feature","properties":{"cadnum":"2322755104:08:001:0009"},"geometry":{"type":"Polygon","coordinates":[[[36.732524,47.337289],[36.732702,47.337409],[36.732702,47.33741],[36.7328,47.337475],[36.732874,47.337419],[36.732874,47.337418],[36.733107,47.337239],[36.733515,47.336926],[36.733228,47.33674],[36.732804,47.33704],[36.732524,47.337289]]]}},{"type":"Feature","properties":{"cadnum":"2322755104:08:001:0012"},"geometry":{"type":"Polygon","coordinates":[[[36.734714,47.335764],[36.734963,47.335986],[36.73609,47.33537],[36.735859,47.335169],[36.734714,47.335764]]]}},{"type":"Feature","properties":{"cadnum":"2322755104:08:001:0018"},"geometry":{"type":"Polygon","coordinates":[[[36.728711,47.332472],[36.728785,47.332618],[36.731271,47.332094],[36.731203,47.331954],[36.729765,47.332253],[36.728711,47.332472]]]}},{"type":"Feature","properties":{"cadnum":"2322755104:08:001:0017"},"geometry":{"type":"Polygon","coordinates":[[[36.729649,47.332013],[36.729765,47.332253],[36.731203,47.331954],[36.731108,47.331758],[36.729649,47.332013]]]}},{"type":"Feature","properties":{"cadnum":"2322755104:08:001:0022"},"geometry":{"type":"Polygon","coordinates":[[[36.728785,47.332618],[36.728848,47.332746],[36.729417,47.33263],[36.731333,47.332222],[36.731271,47.332094],[36.728785,47.332618]]]}},{"type":"Feature","properties":{"cadnum":"2322755104:08:001:0016"},"geometry":{"type":"Polygon","coordinates":[[[36.728581,47.332198],[36.728711,47.332472],[36.729765,47.332253],[36.729649,47.332013],[36.728581,47.332198]]]}}]}