{"type":"FeatureCollection","features":[{"type":"Feature","properties":{"cadnum":"2322187207:12:001:0280"},"geometry":{"type":"Polygon","coordinates":[[[35.033595,48.08107],[35.033845,48.081327],[35.034859,48.081059],[35.034645,48.08078],[35.033595,48.08107]]]}},{"type":"Feature","properties":{"cadnum":"2322187207:12:001:0293"},"geometry":{"type":"Polygon","coordinates":[[[35.032907,48.080461],[35.033131,48.08083],[35.034393,48.080501],[35.034136,48.080139],[35.033957,48.080186],[35.032942,48.080452],[35.032907,48.080461]]]}},{"type":"Feature","properties":{"cadnum":"2322187207:12:001:0164"},"geometry":{"type":"Polygon","coordinates":[[[35.034801,48.080821],[35.03505,48.081171],[35.035486,48.081062],[35.035486,48.081061],[35.035768,48.08099],[35.035544,48.080633],[35.035315,48.080691],[35.035314,48.080691],[35.034801,48.080821]]]}},{"type":"Feature","properties":{"cadnum":"2322187207:12:001:0232"},"geometry":{"type":"Polygon","coordinates":[[[35.034911,48.081301],[35.035315,48.081624],[35.035457,48.081737],[35.035486,48.081721],[35.035659,48.081626],[35.035396,48.081423],[35.035101,48.081195],[35.034911,48.081301]]]}},{"type":"Feature","properties":{"cadnum":"2322187207:12:001:0292"},"geometry":{"type":"Polygon","coordinates":[[[35.032871,48.081592],[35.032957,48.08171],[35.033363,48.081585],[35.033381,48.081602],[35.033401,48.081597],[35.033471,48.081606],[35.034083,48.08144],[35.033986,48.08129],[35.033289,48.08147],[35.032871,48.081592]]]}},{"type":"Feature","properties":{"cadnum":"2322187207:12:001:0226"},"geometry":{"type":"Polygon","coordinates":[[[35.031963,48.080323],[35.032148,48.080659],[35.032942,48.080452],[35.032725,48.080119],[35.031963,48.080323]]]}},{"type":"Feature","properties":{"cadnum":"2322187207:12:001:0279"},"geometry":{"type":"Polygon","coordinates":[[[35.032667,48.081331],[35.032713,48.081389],[35.032871,48.081592],[35.033194,48.081498],[35.033289,48.08147],[35.033845,48.081327],[35.033595,48.08107],[35.033363,48.081133],[35.033154,48.081189],[35.03311,48.081211],[35.032678,48.081328],[35.032667,48.081331]]]}},{"type":"Feature","properties":{"cadnum":"2322187207:12:001:0323"},"geometry":{"type":"Polygon","coordinates":[[[35.03124,48.080341],[35.0315,48.080846],[35.032021,48.080702],[35.031759,48.080193],[35.03124,48.080341]]]}},{"type":"Feature","properties":{"cadnum":"2322187207:12:001:0235"},"geometry":{"type":"Polygon","coordinates":[[[35.032725,48.080119],[35.032942,48.080452],[35.033957,48.080186],[35.033732,48.079848],[35.032725,48.080119]]]}},{"type":"Feature","properties":{"cadnum":"2322187207:12:001:0324"},"geometry":{"type":"Polygon","coordinates":[[[35.030774,48.080472],[35.031006,48.080982],[35.0315,48.080846],[35.03124,48.080341],[35.030774,48.080472]]]}},{"type":"Feature","properties":{"cadnum":"2322187207:12:001:0306"},"geometry":{"type":"Polygon","coordinates":[[[35.032148,48.080659],[35.032351,48.080993],[35.032661,48.080917],[35.032646,48.080889],[35.032715,48.080872],[35.032716,48.080872],[35.032722,48.080886],[35.032844,48.080856],[35.032867,48.080899],[35.033131,48.08083],[35.032907,48.080461],[35.032148,48.080659]]]}},{"type":"Feature","properties":{"cadnum":"2322187207:12:001:0165"},"geometry":{"type":"Polygon","coordinates":[[[35.03456,48.080483],[35.034801,48.080821],[35.035486,48.080648],[35.035486,48.080647],[35.035544,48.080633],[35.035768,48.08099],[35.036511,48.080802],[35.036291,48.080452],[35.036071,48.0801],[35.035315,48.080292],[35.035314,48.080292],[35.03456,48.080483]]]}},{"type":"Feature","properties":{"cadnum":"2322187207:12:001:0227"},"geometry":{"type":"Polygon","coordinates":[[[35.035457,48.081737],[35.035458,48.081738],[35.035598,48.081851],[35.036192,48.082329],[35.036476,48.082561],[35.036729,48.082442],[35.036402,48.082199],[35.035908,48.081819],[35.035659,48.081626],[35.035458,48.081736],[35.035457,48.081737]]]}},{"type":"Feature","properties":{"cadnum":"2322187207:12:001:0141"},"geometry":{"type":"Polygon","coordinates":[[[35.037352,48.082507],[35.03753,48.082622],[35.037651,48.0827],[35.037876,48.082845],[35.038301,48.082649],[35.037975,48.082225],[35.037352,48.082507]]]}},{"type":"Feature","properties":{"cadnum":"2322187207:12:001:0191"},"geometry":{"type":"Polygon","coordinates":[[[35.036609,48.08091],[35.037361,48.081529],[35.03777,48.081851],[35.037771,48.081851],[35.037876,48.081934],[35.038201,48.081796],[35.038199,48.081794],[35.03819,48.081782],[35.038072,48.081691],[35.037644,48.081357],[35.036956,48.080832],[35.036609,48.08091]]]}},{"type":"Feature","properties":{"cadnum":"2322187207:12:001:0132"},"geometry":{"type":"Polygon","coordinates":[[[35.036791,48.081409],[35.037066,48.081631],[35.037201,48.081736],[35.0372,48.081736],[35.037285,48.081802],[35.037345,48.081851],[35.037346,48.081851],[35.0376,48.082056],[35.037896,48.081929],[35.03768,48.081754],[35.037556,48.081652],[35.037311,48.081468],[35.037058,48.081249],[35.036791,48.081409]]]}},{"type":"Feature","properties":{"cadnum":"2322187207:12:001:0178"},"geometry":{"type":"Polygon","coordinates":[[[35.035598,48.081237],[35.036395,48.081851],[35.036396,48.081851],[35.036838,48.082191],[35.03696,48.082296],[35.036968,48.082292],[35.037003,48.082322],[35.037282,48.082204],[35.037074,48.08204],[35.03682,48.081844],[35.035878,48.081117],[35.035598,48.081237]]]}},{"type":"Feature","properties":{"cadnum":"2322187207:12:001:0271"},"geometry":{"type":"Polygon","coordinates":[[[35.035011,48.082171],[35.035146,48.08229],[35.035314,48.082201],[35.035315,48.082201],[35.035416,48.082148],[35.035486,48.082111],[35.035506,48.0821],[35.035854,48.082323],[35.036244,48.082685],[35.036496,48.082582],[35.036476,48.082561],[35.036192,48.082329],[35.035679,48.081917],[35.03539,48.082027],[35.035011,48.082171]]]}},{"type":"Feature","properties":{"cadnum":"2322187207:12:001:0055"},"geometry":{"type":"Polygon","coordinates":[[[35.040198,48.081195],[35.040784,48.081532],[35.040808,48.08152],[35.040808,48.081521],[35.040957,48.081443],[35.040979,48.081432],[35.041289,48.081271],[35.040927,48.08099],[35.040198,48.081195]]]}},{"type":"Feature","properties":{"cadnum":"2322187207:12:001:0311"},"geometry":{"type":"Polygon","coordinates":[[[35.018559,48.086298],[35.018835,48.086375],[35.018988,48.086418],[35.019007,48.086394],[35.019433,48.08586],[35.019101,48.085693],[35.018869,48.085952],[35.018559,48.086298]]]}},{"type":"Feature","properties":{"cadnum":"2322187207:12:001:0247"},"geometry":{"type":"Polygon","coordinates":[[[35.023918,48.083345],[35.024269,48.083687],[35.0245,48.083463],[35.024717,48.083251],[35.024348,48.082892],[35.023918,48.083345]]]}},{"type":"Feature","properties":{"cadnum":"2322187207:12:001:0331"},"geometry":{"type":"Polygon","coordinates":[[[35.023761,48.083107],[35.024004,48.083254],[35.024328,48.082914],[35.024394,48.082845],[35.0245,48.082734],[35.024537,48.082694],[35.02465,48.082554],[35.024735,48.082464],[35.024547,48.082287],[35.024417,48.082422],[35.024134,48.082717],[35.023761,48.083107]]]}},{"type":"Feature","properties":{"cadnum":"2322187207:12:001:0010"},"geometry":{"type":"Polygon","coordinates":[[[35.023514,48.082969],[35.023659,48.083213],[35.023847,48.083018],[35.023581,48.082897],[35.023514,48.082969]]]}},{"type":"Feature","properties":{"cadnum":"2322187207:12:001:0310"},"geometry":{"type":"Polygon","coordinates":[[[35.022633,48.08162],[35.022703,48.081736],[35.022751,48.081816],[35.022773,48.081851],[35.022975,48.082183],[35.023474,48.0819],[35.023302,48.081736],[35.022994,48.081442],[35.022633,48.08162]]]}},{"type":"Feature","properties":{"cadnum":"2322187207:12:001:0162"},"geometry":{"type":"Polygon","coordinates":[[[35.022193,48.082946],[35.022791,48.083363],[35.023068,48.083065],[35.022716,48.08282],[35.022735,48.082805],[35.0225,48.082621],[35.022193,48.082946]]]}},{"type":"Feature","properties":{"cadnum":"2322187207:12:001:0173"},"geometry":{"type":"Polygon","coordinates":[[[35.024348,48.082892],[35.0245,48.08304],[35.024717,48.083251],[35.024909,48.083066],[35.025106,48.082835],[35.02511,48.08283],[35.024735,48.082464],[35.02465,48.082554],[35.024537,48.082694],[35.024394,48.082845],[35.024348,48.082892]]]}},{"type":"Feature","properties":{"cadnum":"2322187207:12:001:0163"},"geometry":{"type":"Polygon","coordinates":[[[35.021838,48.083325],[35.022201,48.083541],[35.022182,48.08365],[35.022429,48.083751],[35.022791,48.083363],[35.022193,48.082946],[35.021838,48.083325]]]}},{"type":"Feature","properties":{"cadnum":"2322187207:12:001:0211"},"geometry":{"type":"Polygon","coordinates":[[[35.02305,48.085687],[35.023466,48.085909],[35.023785,48.085569],[35.023902,48.085457],[35.023955,48.085405],[35.023553,48.085205],[35.023333,48.085406],[35.02332,48.085419],[35.023341,48.085429],[35.023341,48.08543],[35.023238,48.085521],[35.02305,48.085687]]]}},{"type":"Feature","properties":{"cadnum":"2322187207:12:001:0269"},"geometry":{"type":"Polygon","coordinates":[[[35.02031,48.084205],[35.020572,48.084322],[35.020697,48.084183],[35.021268,48.08355],[35.021313,48.083501],[35.021055,48.08338],[35.02031,48.084205]]]}},{"type":"Feature","properties":{"cadnum":"2322187207:12:001:0100"},"geometry":{"type":"Polygon","coordinates":[[[35.022994,48.081442],[35.023422,48.081851],[35.023474,48.0819],[35.023668,48.08179],[35.023896,48.081661],[35.023436,48.081222],[35.022994,48.081442]]]}},{"type":"Feature","properties":{"cadnum":"2322187207:12:001:0268"},"geometry":{"type":"Polygon","coordinates":[[[35.018072,48.085177],[35.018473,48.085322],[35.018512,48.085277],[35.018835,48.084903],[35.018948,48.084772],[35.018976,48.08474],[35.0186,48.084593],[35.018072,48.085177]]]}},{"type":"Feature","properties":{"cadnum":"2322187207:12:001:0220"},"geometry":{"type":"Polygon","coordinates":[[[35.023317,48.084931],[35.023666,48.085102],[35.024258,48.084534],[35.023888,48.084367],[35.023317,48.084931]]]}},{"type":"Feature","properties":{"cadnum":"2322187207:12:001:0210"},"geometry":{"type":"Polygon","coordinates":[[[35.022727,48.085519],[35.02273,48.085521],[35.02305,48.085687],[35.023341,48.085429],[35.02332,48.085419],[35.023666,48.085102],[35.023317,48.084931],[35.022834,48.085406],[35.022833,48.085406],[35.022802,48.085437],[35.022802,48.085438],[35.022778,48.085463],[35.022727,48.085519]]]}},{"type":"Feature","properties":{"cadnum":"2322187207:12:001:0251"},"geometry":{"type":"Polygon","coordinates":[[[35.018512,48.085277],[35.018835,48.085389],[35.018878,48.085403],[35.019007,48.085259],[35.019007,48.085258],[35.019318,48.084908],[35.018948,48.084772],[35.018512,48.085277]]]}},{"type":"Feature","properties":{"cadnum":"2322187207:12:001:0250"},"geometry":{"type":"Polygon","coordinates":[[[35.0186,48.084593],[35.018835,48.084684],[35.018835,48.084685],[35.018976,48.08474],[35.018985,48.084729],[35.019007,48.084705],[35.019007,48.084704],[35.019223,48.084455],[35.019494,48.084142],[35.019152,48.083973],[35.018839,48.084325],[35.018802,48.08437],[35.0186,48.084593]]]}},{"type":"Feature","properties":{"cadnum":"2322187207:12:001:0257"},"geometry":{"type":"Polygon","coordinates":[[[35.02073,48.085883],[35.020989,48.085994],[35.021401,48.085521],[35.021402,48.085521],[35.021701,48.085179],[35.021435,48.085049],[35.021133,48.085406],[35.021132,48.085406],[35.02073,48.085883]]]}},{"type":"Feature","properties":{"cadnum":"2322187207:12:001:0317"},"geometry":{"type":"Polygon","coordinates":[[[35.023553,48.085205],[35.023955,48.085405],[35.024328,48.085047],[35.024849,48.084545],[35.024438,48.08435],[35.024258,48.084534],[35.023666,48.085102],[35.023553,48.085205]]]}},{"type":"Feature","properties":{"cadnum":"2322187207:12:001:0204"},"geometry":{"type":"Polygon","coordinates":[[[35.019832,48.085144],[35.02014,48.085287],[35.020447,48.08496],[35.020391,48.084932],[35.020772,48.084505],[35.020505,48.084396],[35.019832,48.085144]]]}},{"type":"Feature","properties":{"cadnum":"2322187207:12:001:0203"},"geometry":{"type":"Polygon","coordinates":[[[35.019569,48.085026],[35.019832,48.085144],[35.020572,48.084322],[35.02031,48.084205],[35.019569,48.085026]]]}},{"type":"Feature","properties":{"cadnum":"2322187207:12:001:0267"},"geometry":{"type":"Polygon","coordinates":[[[35.018948,48.084772],[35.019318,48.084908],[35.01952,48.08468],[35.019594,48.084593],[35.01984,48.084312],[35.019494,48.084142],[35.019223,48.084455],[35.018985,48.084729],[35.018948,48.084772]]]}},{"type":"Feature","properties":{"cadnum":"2322187207:12:001:0270"},"geometry":{"type":"Polygon","coordinates":[[[35.020505,48.084396],[35.020772,48.084505],[35.020874,48.08439],[35.02117,48.084057],[35.021516,48.083673],[35.021268,48.08355],[35.020697,48.084183],[35.020505,48.084396]]]}},{"type":"Feature","properties":{"cadnum":"2322187207:12:001:0318"},"geometry":{"type":"Polygon","coordinates":[[[35.024296,48.086333],[35.024328,48.086348],[35.024328,48.086349],[35.024372,48.086369],[35.0245,48.086428],[35.024505,48.08643],[35.024929,48.085953],[35.02544,48.085406],[35.02546,48.085385],[35.025307,48.085259],[35.025191,48.085382],[35.025167,48.085406],[35.025166,48.085406],[35.024604,48.085992],[35.024424,48.086193],[35.024296,48.086333]]]}},{"type":"Feature","properties":{"cadnum":"2322187207:12:001:0129"},"geometry":{"type":"Polygon","coordinates":[[[35.026363,48.085641],[35.026585,48.085801],[35.026729,48.085555],[35.02674,48.085537],[35.026454,48.085463],[35.026424,48.085521],[35.026363,48.085641]]]}},{"type":"Feature","properties":{"cadnum":"2322187207:12:001:0234"},"geometry":{"type":"Polygon","coordinates":[[[35.026426,48.086926],[35.027182,48.087277],[35.027481,48.086933],[35.026718,48.086588],[35.026426,48.086926]]]}},{"type":"Feature","properties":{"cadnum":"2322187207:12:001:0236"},"geometry":{"type":"Polygon","coordinates":[[[35.025547,48.087996],[35.025947,48.088119],[35.026132,48.087827],[35.026387,48.087417],[35.026093,48.087292],[35.025858,48.087536],[35.025858,48.087537],[35.025995,48.087583],[35.025813,48.087881],[35.025547,48.087996]]]}},{"type":"Feature","properties":{"cadnum":"2322187207:12:001:0136"},"geometry":{"type":"Polygon","coordinates":[[[35.025224,48.087904],[35.025547,48.087996],[35.025629,48.087961],[35.025266,48.087854],[35.025224,48.087904]]]}},{"type":"Feature","properties":{"cadnum":"2322187207:12:001:0081"},"geometry":{"type":"Polygon","coordinates":[[[35.025574,48.086952],[35.026179,48.087211],[35.026482,48.086839],[35.025888,48.086583],[35.025574,48.086952]]]}},{"type":"Feature","properties":{"cadnum":"2322187207:12:001:0233"},"geometry":{"type":"Polygon","coordinates":[[[35.026179,48.087211],[35.026935,48.087561],[35.027182,48.087277],[35.026426,48.086926],[35.026179,48.087211]]]}},{"type":"Feature","properties":{"cadnum":"2322187207:12:001:0135"},"geometry":{"type":"Polygon","coordinates":[[[35.025266,48.087854],[35.025629,48.087961],[35.025813,48.087881],[35.025995,48.087583],[35.025859,48.087537],[35.025859,48.087536],[35.026093,48.087292],[35.025826,48.087177],[35.025266,48.087854]]]}},{"type":"Feature","properties":{"cadnum":"2322187207:12:001:0128"},"geometry":{"type":"Polygon","coordinates":[[[35.026454,48.085463],[35.026677,48.085521],[35.02674,48.085537],[35.026815,48.085406],[35.026814,48.085406],[35.02704,48.085017],[35.027259,48.084635],[35.027187,48.084615],[35.027052,48.084624],[35.026934,48.084622],[35.026918,48.084643],[35.026706,48.084974],[35.026484,48.085406],[35.026483,48.085406],[35.026465,48.085445],[35.026454,48.085463]]]}},{"type":"Feature","properties":{"cadnum":"2322187207:12:001:0307"},"geometry":{"type":"Polygon","coordinates":[[[35.0279,48.085955],[35.02805,48.086018],[35.028377,48.08583],[35.028048,48.08572],[35.0279,48.085955]]]}},{"type":"Feature","properties":{"cadnum":"2322187207:12:001:0308"},"geometry":{"type":"Polygon","coordinates":[[[35.028048,48.08572],[35.028377,48.08583],[35.029028,48.085456],[35.029237,48.085336],[35.028738,48.085168],[35.02857,48.085358],[35.028525,48.085406],[35.028476,48.085459],[35.028419,48.085521],[35.028346,48.085601],[35.028162,48.085541],[35.028048,48.08572]]]}},{"type":"Feature","properties":{"cadnum":"2322187207:12:001:0161"},"geometry":{"type":"Polygon","coordinates":[[[35.024094,48.086238],[35.024296,48.086333],[35.024328,48.086298],[35.024424,48.086193],[35.0245,48.086109],[35.0245,48.086108],[35.024604,48.085992],[35.024605,48.085992],[35.025056,48.085521],[35.025191,48.085382],[35.02496,48.085274],[35.024832,48.085406],[35.024831,48.085406],[35.024456,48.085798],[35.024431,48.085827],[35.024304,48.086003],[35.024145,48.086197],[35.024144,48.086197],[35.024112,48.086221],[35.024094,48.086238]]]}},{"type":"Feature","properties":{"cadnum":"2322187207:12:001:0157"},"geometry":{"type":"Polygon","coordinates":[[[35.024332,48.087337],[35.0245,48.087418],[35.024678,48.087504],[35.024979,48.087159],[35.025211,48.086896],[35.024861,48.086727],[35.024332,48.087337]]]}},{"type":"Feature","properties":{"cadnum":"2322187207:12:001:0078"},"geometry":{"type":"Polygon","coordinates":[[[35.024515,48.087691],[35.024967,48.087821],[35.025566,48.087063],[35.025211,48.086896],[35.024979,48.087159],[35.024515,48.087691]]]}},{"type":"Feature","properties":{"cadnum":"2322187207:12:001:0181"},"geometry":{"type":"Polygon","coordinates":[[[35.025888,48.086583],[35.026482,48.086839],[35.026752,48.086513],[35.026249,48.086159],[35.025888,48.086583]]]}},{"type":"Feature","properties":{"cadnum":"2322187207:12:001:0140"},"geometry":{"type":"Polygon","coordinates":[[[35.031134,48.08464],[35.031462,48.084844],[35.032176,48.084373],[35.031916,48.084157],[35.031475,48.084421],[35.031134,48.08464]]]}},{"type":"Feature","properties":{"cadnum":"2322187207:12:001:0160"},"geometry":{"type":"Polygon","coordinates":[[[35.032033,48.08406],[35.032333,48.084265],[35.032661,48.084076],[35.032926,48.083839],[35.032589,48.083647],[35.032343,48.083862],[35.032033,48.08406]]]}},{"type":"Feature","properties":{"cadnum":"2322187207:12:001:0126"},"geometry":{"type":"Polygon","coordinates":[[[35.030244,48.083776],[35.030442,48.083901],[35.030639,48.083757],[35.031513,48.083074],[35.031297,48.082961],[35.031193,48.08304],[35.031061,48.083142],[35.030244,48.083776]]]}},{"type":"Feature","properties":{"cadnum":"2322187207:12:001:0050"},"geometry":{"type":"Polygon","coordinates":[[[35.033289,48.08289],[35.033402,48.082987],[35.033571,48.083078],[35.033607,48.083082],[35.033843,48.083088],[35.033859,48.083086],[35.033925,48.083065],[35.034149,48.082949],[35.033786,48.082633],[35.033289,48.08289]]]}},{"type":"Feature","properties":{"cadnum":"2322187207:12:001:0156"},"geometry":{"type":"Polygon","coordinates":[[[35.031631,48.083668],[35.032183,48.083963],[35.032341,48.083862],[35.032591,48.083647],[35.032019,48.083342],[35.031939,48.083422],[35.03183,48.083509],[35.031631,48.083668]]]}},{"type":"Feature","properties":{"cadnum":"2322187207:12:001:0011"},"geometry":{"type":"Polygon","coordinates":[[[35.032125,48.082033],[35.032253,48.082363],[35.03321,48.082226],[35.032929,48.08194],[35.032852,48.081921],[35.032442,48.081995],[35.032125,48.082033]]]}},{"type":"Feature","properties":{"cadnum":"2322187207:12:001:0193"},"geometry":{"type":"Polygon","coordinates":[[[35.029951,48.084732],[35.030306,48.084912],[35.030547,48.084696],[35.030194,48.084517],[35.029951,48.084732]]]}},{"type":"Feature","properties":{"cadnum":"2322187207:12:001:0300"},"geometry":{"type":"Polygon","coordinates":[[[35.031189,48.08402],[35.031636,48.084317],[35.032032,48.08406],[35.032183,48.083963],[35.031631,48.083668],[35.031189,48.08402]]]}},{"type":"Feature","properties":{"cadnum":"2322187207:12:001:0127"},"geometry":{"type":"Polygon","coordinates":[[[35.029821,48.084103],[35.029993,48.084224],[35.029996,48.084225],[35.030442,48.083901],[35.030244,48.083776],[35.029821,48.084103]]]}},{"type":"Feature","properties":{"cadnum":"2322187207:12:001:0059"},"geometry":{"type":"Polygon","coordinates":[[[35.029502,48.084595],[35.029821,48.084783],[35.029866,48.084809],[35.029951,48.084732],[35.029993,48.084694],[35.029993,48.084693],[35.030196,48.084504],[35.030129,48.084461],[35.029846,48.084294],[35.029762,48.084366],[35.029565,48.084536],[35.029502,48.084595]]]}},{"type":"Feature","properties":{"cadnum":"2322187207:12:001:0282"},"geometry":{"type":"Polygon","coordinates":[[[35.023887,48.080302],[35.023919,48.08032],[35.024226,48.080496],[35.024328,48.080394],[35.024493,48.080228],[35.0245,48.080221],[35.024751,48.079969],[35.024393,48.079845],[35.023887,48.080302]]]}},{"type":"Feature","properties":{"cadnum":"2322187207:12:001:0289"},"geometry":{"type":"Polygon","coordinates":[[[35.021698,48.08658],[35.022022,48.086728],[35.022313,48.086417],[35.021983,48.086266],[35.021698,48.08658]]]}},{"type":"Feature","properties":{"cadnum":"2322187207:12:001:0076"},"geometry":{"type":"Polygon","coordinates":[[[35.023253,48.086822],[35.023608,48.086991],[35.024221,48.086386],[35.023904,48.086235],[35.023253,48.086822]]]}},{"type":"Feature","properties":{"cadnum":"2322187207:12:001:0260"},"geometry":{"type":"Polygon","coordinates":[[[35.021983,48.086266],[35.022313,48.086417],[35.022685,48.086016],[35.022705,48.086],[35.022907,48.085791],[35.022901,48.085782],[35.022577,48.085633],[35.022423,48.085791],[35.022351,48.085862],[35.02226,48.085962],[35.021983,48.086266]]]}},{"type":"Feature","properties":{"cadnum":"2322187207:12:001:0125"},"geometry":{"type":"Polygon","coordinates":[[[35.022779,48.087248],[35.02316,48.08743],[35.023188,48.087406],[35.023608,48.086991],[35.023253,48.086822],[35.022779,48.087248]]]}},{"type":"Feature","properties":{"cadnum":"2322187207:12:001:0154"},"geometry":{"type":"Polygon","coordinates":[[[35.023255,48.087386],[35.02364,48.087597],[35.023819,48.087652],[35.0239,48.087657],[35.024072,48.08749],[35.023462,48.087184],[35.023255,48.087386]]]}},{"type":"Feature","properties":{"cadnum":"2322187207:12:001:0166"},"geometry":{"type":"Polygon","coordinates":[[[35.036071,48.0801],[35.036291,48.080452],[35.037034,48.080263],[35.037034,48.080264],[35.037254,48.080615],[35.037982,48.08043],[35.037572,48.079721],[35.036071,48.0801]]]}},{"type":"Feature","properties":{"cadnum":"2322187207:12:001:0167"},"geometry":{"type":"Polygon","coordinates":[[[35.036291,48.080452],[35.036511,48.080802],[35.037254,48.080615],[35.037034,48.080263],[35.036291,48.080452]]]}},{"type":"Feature","properties":{"cadnum":"2322187207:12:001:0042"},"geometry":{"type":"Polygon","coordinates":[[[35.03966,48.081363],[35.039857,48.081601],[35.039909,48.081583],[35.040039,48.081719],[35.040517,48.081506],[35.040198,48.081195],[35.03966,48.081363]]]}},{"type":"Feature","properties":{"cadnum":"2322187207:12:001:0245"},"geometry":{"type":"Polygon","coordinates":[[[35.027854,48.083209],[35.028019,48.083321],[35.028358,48.083503],[35.028573,48.083424],[35.028633,48.083402],[35.028927,48.083293],[35.028976,48.083275],[35.02895,48.083259],[35.028521,48.083011],[35.028463,48.08298],[35.027854,48.083209]]]}},{"type":"Feature","properties":{"cadnum":"2322187207:12:001:0058"},"geometry":{"type":"Polygon","coordinates":[[[35.028962,48.085125],[35.029069,48.085162],[35.029127,48.085188],[35.029436,48.085283],[35.029437,48.085283],[35.029609,48.085145],[35.02961,48.085145],[35.029568,48.085072],[35.029866,48.084809],[35.029502,48.084595],[35.029086,48.084985],[35.028962,48.085125]]]}},{"type":"Feature","properties":{"cadnum":"2322187207:12:001:0040"},"geometry":{"type":"Polygon","coordinates":[[[35.026337,48.084275],[35.026487,48.084411],[35.026711,48.084501],[35.026874,48.08456],[35.02691,48.084568],[35.026977,48.08458],[35.027009,48.084585],[35.02708,48.084589],[35.027118,48.084585],[35.027157,48.084578],[35.027182,48.084561],[35.027374,48.084399],[35.026906,48.084074],[35.026546,48.084196],[35.026337,48.084275]]]}},{"type":"Feature","properties":{"cadnum":"2322187207:12:001:0246"},"geometry":{"type":"Polygon","coordinates":[[[35.027381,48.082886],[35.027854,48.083209],[35.028463,48.08298],[35.02793,48.082688],[35.027381,48.082886]]]}},{"type":"Feature","properties":{"cadnum":"2322187207:12:001:0177"},"geometry":{"type":"Polygon","coordinates":[[[35.028042,48.084319],[35.028569,48.084653],[35.028668,48.084576],[35.028822,48.084456],[35.029119,48.084238],[35.028657,48.083945],[35.028373,48.084124],[35.028156,48.084251],[35.028042,48.084319]]]}},{"type":"Feature","properties":{"cadnum":"2322187207:12:001:0138"},"geometry":{"type":"Polygon","coordinates":[[[35.025704,48.082302],[35.026444,48.082651],[35.02695,48.082434],[35.025954,48.081994],[35.025704,48.082302]]]}},{"type":"Feature","properties":{"cadnum":"2322187207:12:001:0041"},"geometry":{"type":"Polygon","coordinates":[[[35.025728,48.085051],[35.025842,48.085149],[35.026293,48.084622],[35.026487,48.084411],[35.026337,48.084275],[35.026312,48.084284],[35.026337,48.084334],[35.026339,48.084351],[35.026147,48.08456],[35.025728,48.085051]]]}},{"type":"Feature","properties":{"cadnum":"2322187207:12:001:0116"},"geometry":{"type":"Polygon","coordinates":[[[35.026444,48.082651],[35.026662,48.082754],[35.02709,48.082957],[35.027621,48.082728],[35.027004,48.082458],[35.02695,48.082434],[35.026444,48.082651]]]}},{"type":"Feature","properties":{"cadnum":"2322187207:12:001:0147"},"geometry":{"type":"Polygon","coordinates":[[[35.023333,48.080612],[35.023457,48.080826],[35.023627,48.081123],[35.023758,48.080985],[35.024065,48.080664],[35.024173,48.080552],[35.024226,48.080496],[35.02415,48.080453],[35.023333,48.080612]]]}}]}