{"type":"FeatureCollection","features":[{"type":"Feature","properties":{"cadnum":"2322484601:01:018:0001"},"geometry":{"type":"Polygon","coordinates":[[[34.600665,47.426572],[34.600927,47.42724],[34.601226,47.427186],[34.600951,47.426521],[34.600665,47.426572]]]}},{"type":"Feature","properties":{"cadnum":"2322484601:01:023:0022"},"geometry":{"type":"Polygon","coordinates":[[[34.593626,47.440338],[34.593716,47.440619],[34.593989,47.441387],[34.594369,47.441323],[34.594091,47.440549],[34.593996,47.440283],[34.593626,47.440338]]]}},{"type":"Feature","properties":{"cadnum":"2322484601:01:023:0021"},"geometry":{"type":"Polygon","coordinates":[[[34.593989,47.441387],[34.594256,47.44213],[34.594634,47.442064],[34.594369,47.441323],[34.593989,47.441387]]]}},{"type":"Feature","properties":{"cadnum":"2322484601:01:008:0010"},"geometry":{"type":"Polygon","coordinates":[[[34.621313,47.425361],[34.621361,47.425604],[34.621385,47.425831],[34.621388,47.425863],[34.62169,47.425844],[34.621647,47.425336],[34.621313,47.425361]]]}},{"type":"Feature","properties":{"cadnum":"2322484601:01:008:0006"},"geometry":{"type":"Polygon","coordinates":[[[34.627406,47.430092],[34.62784,47.430114],[34.62787,47.429444],[34.62742,47.429415],[34.627406,47.430092]]]}},{"type":"Feature","properties":{"cadnum":"2322484601:01:005:0004"},"geometry":{"type":"Polygon","coordinates":[[[34.637552,47.435103],[34.637554,47.435123],[34.637563,47.435207],[34.637567,47.435315],[34.637579,47.435622],[34.63758,47.435622],[34.637582,47.435658],[34.637635,47.435657],[34.637636,47.435657],[34.637654,47.435657],[34.637723,47.435655],[34.637888,47.435649],[34.637884,47.435593],[34.638002,47.435589],[34.638002,47.43559],[34.638003,47.435622],[34.638004,47.435622],[34.638006,47.435646],[34.638274,47.435639],[34.638269,47.435516],[34.638254,47.435099],[34.63798,47.435099],[34.637957,47.435108],[34.637885,47.43511],[34.637885,47.435109],[34.637882,47.435092],[34.637552,47.435103]]]}}]}