{"type":"FeatureCollection","features":[{"type":"Feature","properties":{"cadnum":"2322187903:04:001:2117"},"geometry":{"type":"Polygon","coordinates":[[[35.440317,47.704517],[35.440433,47.704526],[35.440945,47.704567],[35.440968,47.704373],[35.440363,47.704327],[35.440317,47.704517]]]}},{"type":"Feature","properties":{"cadnum":"2322187903:04:001:0245"},"geometry":{"type":"Polygon","coordinates":[[[35.439063,47.704412],[35.439278,47.704421],[35.439391,47.703752],[35.439177,47.703745],[35.439063,47.704412]]]}},{"type":"Feature","properties":{"cadnum":"2322187903:04:001:0265"},"geometry":{"type":"Polygon","coordinates":[[[35.435982,47.704724],[35.436152,47.704736],[35.436315,47.704737],[35.436316,47.704737],[35.436428,47.704738],[35.436487,47.704738],[35.436554,47.704738],[35.436658,47.704239],[35.436487,47.704225],[35.436092,47.70419],[35.435982,47.704724]]]}},{"type":"Feature","properties":{"cadnum":"2322187903:04:001:0263"},"geometry":{"type":"Polygon","coordinates":[[[35.440688,47.702516],[35.441443,47.702503],[35.441449,47.702401],[35.441461,47.702234],[35.440705,47.702246],[35.440698,47.702356],[35.440697,47.702356],[35.440688,47.702516]]]}},{"type":"Feature","properties":{"cadnum":"2322187903:04:001:0079"},"geometry":{"type":"Polygon","coordinates":[[[35.441443,47.702503],[35.441726,47.702498],[35.442047,47.702498],[35.442357,47.702505],[35.442455,47.70251],[35.442487,47.70239],[35.442501,47.702343],[35.442529,47.702236],[35.441877,47.702171],[35.44185,47.702232],[35.441748,47.702229],[35.441461,47.702234],[35.441452,47.702356],[35.441449,47.702401],[35.441444,47.702471],[35.441445,47.702471],[35.441443,47.702503]]]}},{"type":"Feature","properties":{"cadnum":"2322187903:04:001:0295"},"geometry":{"type":"Polygon","coordinates":[[[35.440706,47.702522],[35.440751,47.702777],[35.44155,47.702776],[35.441559,47.702508],[35.441503,47.70251],[35.441408,47.702528],[35.441237,47.702533],[35.440706,47.702522]]]}},{"type":"Feature","properties":{"cadnum":"2322187903:04:001:0294"},"geometry":{"type":"Polygon","coordinates":[[[35.436761,47.704571],[35.436906,47.70458],[35.436993,47.70417],[35.436849,47.704161],[35.436761,47.704571]]]}},{"type":"Feature","properties":{"cadnum":"2322187903:04:001:0240"},"geometry":{"type":"Polygon","coordinates":[[[35.438325,47.704291],[35.438772,47.704333],[35.438897,47.703722],[35.438421,47.703677],[35.438325,47.704291]]]}},{"type":"Feature","properties":{"cadnum":"2322187903:04:001:0140"},"geometry":{"type":"Polygon","coordinates":[[[35.439951,47.706063],[35.440383,47.70609],[35.44045,47.705759],[35.440519,47.705396],[35.4401,47.70537],[35.440076,47.705482],[35.439951,47.706063]]]}},{"type":"Feature","properties":{"cadnum":"2322187903:04:001:0080"},"geometry":{"type":"Polygon","coordinates":[[[35.44155,47.702776],[35.44198,47.702776],[35.442577,47.702774],[35.442588,47.702459],[35.442595,47.702432],[35.442602,47.702413],[35.442625,47.702358],[35.442499,47.702345],[35.442496,47.702356],[35.442495,47.702356],[35.442478,47.702423],[35.442465,47.702471],[35.442455,47.70251],[35.442357,47.702505],[35.442047,47.702498],[35.441726,47.702498],[35.441727,47.702501],[35.441559,47.702508],[35.44155,47.702776]]]}},{"type":"Feature","properties":{"cadnum":"2322187903:04:001:2116"},"geometry":{"type":"Polygon","coordinates":[[[35.440363,47.704327],[35.440968,47.704373],[35.441027,47.703855],[35.440485,47.703812],[35.440363,47.704327]]]}},{"type":"Feature","properties":{"cadnum":"2322187903:04:001:0284"},"geometry":{"type":"Polygon","coordinates":[[[35.436906,47.70458],[35.437705,47.70463],[35.437718,47.704544],[35.43773,47.704493],[35.437738,47.704435],[35.437724,47.704434],[35.437733,47.704283],[35.437362,47.704254],[35.437362,47.704253],[35.437368,47.704193],[35.436993,47.70417],[35.436906,47.70458]]]}},{"type":"Feature","properties":{"cadnum":"2322187903:04:001:0278"},"geometry":{"type":"Polygon","coordinates":[[[35.438219,47.705342],[35.438502,47.705368],[35.438539,47.705147],[35.438571,47.704816],[35.438298,47.704801],[35.438252,47.705149],[35.438219,47.705342]]]}},{"type":"Feature","properties":{"cadnum":"2322187903:04:001:0141"},"geometry":{"type":"Polygon","coordinates":[[[35.4401,47.70537],[35.440519,47.705396],[35.440556,47.705198],[35.440142,47.705171],[35.4401,47.70537]]]}},{"type":"Feature","properties":{"cadnum":"2322187903:04:001:0282"},"geometry":{"type":"Polygon","coordinates":[[[35.439647,47.705456],[35.440076,47.705482],[35.440143,47.705169],[35.440197,47.704916],[35.439755,47.704889],[35.439703,47.70518],[35.439647,47.705456]]]}},{"type":"Feature","properties":{"cadnum":"2322187903:04:001:0281"},"geometry":{"type":"Polygon","coordinates":[[[35.439301,47.705152],[35.439703,47.70518],[35.439755,47.704889],[35.439342,47.704861],[35.439301,47.705152]]]}},{"type":"Feature","properties":{"cadnum":"2322187903:04:001:0177"},"geometry":{"type":"Polygon","coordinates":[[[35.439532,47.706029],[35.439951,47.706063],[35.440076,47.705482],[35.439647,47.705456],[35.439532,47.706029]]]}},{"type":"Feature","properties":{"cadnum":"2322187903:04:001:0254"},"geometry":{"type":"Polygon","coordinates":[[[35.446039,47.707521],[35.446436,47.707552],[35.446617,47.706843],[35.446218,47.706812],[35.446039,47.707521]]]}},{"type":"Feature","properties":{"cadnum":"2322187903:04:001:0257"},"geometry":{"type":"Polygon","coordinates":[[[35.447231,47.707614],[35.447302,47.70762],[35.447302,47.707621],[35.447412,47.707629],[35.447474,47.707634],[35.447629,47.707646],[35.447809,47.706937],[35.447412,47.706906],[35.447231,47.707614]]]}},{"type":"Feature","properties":{"cadnum":"2322187903:04:001:0252"},"geometry":{"type":"Polygon","coordinates":[[[35.445243,47.707458],[35.44564,47.70749],[35.445821,47.706781],[35.445423,47.706749],[35.445243,47.707458]]]}},{"type":"Feature","properties":{"cadnum":"2322187903:04:001:0256"},"geometry":{"type":"Polygon","coordinates":[[[35.446834,47.707584],[35.447231,47.707614],[35.447302,47.707337],[35.447302,47.707336],[35.447412,47.706906],[35.447014,47.706874],[35.446834,47.707584]]]}},{"type":"Feature","properties":{"cadnum":"2322187903:04:001:0253"},"geometry":{"type":"Polygon","coordinates":[[[35.44564,47.70749],[35.446039,47.707521],[35.446218,47.706812],[35.445821,47.706781],[35.44564,47.70749]]]}},{"type":"Feature","properties":{"cadnum":"2322187903:04:001:0388"},"geometry":{"type":"Polygon","coordinates":[[[35.431907,47.700439],[35.431957,47.70083],[35.432354,47.700799],[35.43242,47.700793],[35.432291,47.700543],[35.432076,47.700425],[35.431907,47.700439]],[[35.432193,47.700569],[35.432193,47.700568],[35.43218,47.700553],[35.432204,47.700544],[35.432216,47.70056],[35.432193,47.700569]]]}},{"type":"Feature","properties":{"cadnum":"2322187903:04:001:0115"},"geometry":{"type":"Polygon","coordinates":[[[35.431729,47.700848],[35.431791,47.701253],[35.432542,47.701183],[35.432492,47.700858],[35.432354,47.700799],[35.431729,47.700848]],[[35.432459,47.70097],[35.432485,47.70097],[35.432485,47.700988],[35.432459,47.700988],[35.432459,47.70097]]]}},{"type":"Feature","properties":{"cadnum":"2322187903:04:001:0020"},"geometry":{"type":"Polygon","coordinates":[[[35.429909,47.702237],[35.42994,47.702355],[35.42994,47.702356],[35.429939,47.702356],[35.429969,47.702471],[35.429971,47.702471],[35.430994,47.702474],[35.430994,47.702473],[35.431345,47.702474],[35.431319,47.702374],[35.431293,47.702271],[35.430822,47.70226],[35.429909,47.702237]]]}},{"type":"Feature","properties":{"cadnum":"2322187903:04:001:0015"},"geometry":{"type":"Polygon","coordinates":[[[35.431144,47.700505],[35.431194,47.700892],[35.431729,47.700848],[35.431957,47.70083],[35.431907,47.700439],[35.431144,47.700505]]]}},{"type":"Feature","properties":{"cadnum":"2322187903:04:001:0019"},"geometry":{"type":"Polygon","coordinates":[[[35.43011,47.699751],[35.43045,47.700547],[35.430994,47.700435],[35.431058,47.700421],[35.43083,47.699938],[35.430687,47.699634],[35.43011,47.699751]]]}},{"type":"Feature","properties":{"cadnum":"2322187903:04:001:0026"},"geometry":{"type":"Polygon","coordinates":[[[35.429418,47.701459],[35.429429,47.701587],[35.43069,47.701529],[35.430822,47.701523],[35.430987,47.701516],[35.430994,47.701515],[35.431127,47.701509],[35.431105,47.701255],[35.43086,47.701285],[35.429418,47.701459]]]}},{"type":"Feature","properties":{"cadnum":"2322187903:04:001:0390"},"geometry":{"type":"Polygon","coordinates":[[[35.429637,47.692352],[35.429925,47.692335],[35.42996,47.691634],[35.429666,47.691649],[35.429637,47.692352]]]}},{"type":"Feature","properties":{"cadnum":"2322187903:04:001:0157"},"geometry":{"type":"Polygon","coordinates":[[[35.429594,47.693412],[35.429872,47.693395],[35.429925,47.692335],[35.429637,47.692352],[35.429594,47.693412]]]}},{"type":"Feature","properties":{"cadnum":"2322187903:04:001:0414"},"geometry":{"type":"Polygon","coordinates":[[[35.430562,47.693359],[35.430822,47.693371],[35.430908,47.693375],[35.430918,47.69327],[35.430931,47.693263],[35.430977,47.692542],[35.430616,47.69253],[35.430562,47.693359]]]}},{"type":"Feature","properties":{"cadnum":"2322187903:04:001:0155"},"geometry":{"type":"Polygon","coordinates":[[[35.430227,47.693343],[35.430562,47.693359],[35.430619,47.692484],[35.430273,47.692467],[35.430227,47.693343]]]}},{"type":"Feature","properties":{"cadnum":"2322187903:04:001:0406"},"geometry":{"type":"Polygon","coordinates":[[[35.428596,47.693551],[35.428775,47.693526],[35.428907,47.693494],[35.428948,47.692632],[35.428599,47.69263],[35.428585,47.693319],[35.428596,47.693551]]]}},{"type":"Feature","properties":{"cadnum":"2322187903:04:001:0165"},"geometry":{"type":"Polygon","coordinates":[[[35.430273,47.692467],[35.430619,47.692484],[35.430665,47.691733],[35.430311,47.691716],[35.430273,47.692467]]]}},{"type":"Feature","properties":{"cadnum":"2322187903:04:001:0391"},"geometry":{"type":"Polygon","coordinates":[[[35.428304,47.694525],[35.428685,47.694528],[35.428701,47.693783],[35.428651,47.693752],[35.428319,47.693796],[35.428304,47.694525]]]}},{"type":"Feature","properties":{"cadnum":"2322187903:04:001:0408"},"geometry":{"type":"Polygon","coordinates":[[[35.427896,47.69452],[35.428304,47.694525],[35.428319,47.693796],[35.428265,47.693803],[35.427911,47.693832],[35.427896,47.69452]]]}},{"type":"Feature","properties":{"cadnum":"2322187903:04:001:0269"},"geometry":{"type":"Polygon","coordinates":[[[35.427466,47.694516],[35.427896,47.69452],[35.427911,47.693832],[35.427479,47.693868],[35.427466,47.694516]]]}},{"type":"Feature","properties":{"cadnum":"2322187903:04:001:0415"},"geometry":{"type":"Polygon","coordinates":[[[35.443891,47.702409],[35.443931,47.702413],[35.444118,47.702435],[35.444423,47.702467],[35.444569,47.701875],[35.444072,47.701876],[35.443975,47.702158],[35.443909,47.702356],[35.443891,47.702409]]]}},{"type":"Feature","properties":{"cadnum":"2322187903:04:001:0012"},"geometry":{"type":"Polygon","coordinates":[[[35.442815,47.701848],[35.443606,47.70194],[35.443626,47.701829],[35.443574,47.701824],[35.442864,47.701593],[35.442815,47.701848]]]}},{"type":"Feature","properties":{"cadnum":"2322187903:04:001:0011"},"geometry":{"type":"Polygon","coordinates":[[[35.442743,47.702218],[35.443537,47.70231],[35.443606,47.70194],[35.442815,47.701848],[35.442743,47.702218]]]}},{"type":"Feature","properties":{"cadnum":"2322187903:04:001:0160"},"geometry":{"type":"Polygon","coordinates":[[[35.432322,47.693542],[35.432752,47.693525],[35.432695,47.693201],[35.432642,47.693203],[35.432322,47.693211],[35.432322,47.693542]]]}},{"type":"Feature","properties":{"cadnum":"2322187903:04:001:0136"},"geometry":{"type":"Polygon","coordinates":[[[35.431402,47.693561],[35.431843,47.693562],[35.432322,47.693542],[35.432322,47.693211],[35.43226,47.693212],[35.431451,47.693233],[35.431402,47.693561]]]}},{"type":"Feature","properties":{"cadnum":"2322187903:04:001:0137"},"geometry":{"type":"Polygon","coordinates":[[[35.431451,47.693233],[35.43226,47.693212],[35.432292,47.692846],[35.431485,47.692856],[35.431451,47.693233]]]}},{"type":"Feature","properties":{"cadnum":"2322187903:04:001:0138"},"geometry":{"type":"Polygon","coordinates":[[[35.43226,47.693212],[35.432322,47.693211],[35.432642,47.693203],[35.432504,47.692844],[35.432292,47.692846],[35.43226,47.693212]]]}},{"type":"Feature","properties":{"cadnum":"2322187903:04:001:0271"},"geometry":{"type":"Polygon","coordinates":[[[35.432229,47.695054],[35.433148,47.695074],[35.43326,47.695077],[35.433261,47.695077],[35.43394,47.695093],[35.43395,47.69502],[35.43397,47.694885],[35.432268,47.694774],[35.432242,47.694961],[35.432241,47.694961],[35.432229,47.695054]]]}},{"type":"Feature","properties":{"cadnum":"2322187903:04:001:0130"},"geometry":{"type":"Polygon","coordinates":[[[35.431238,47.695031],[35.431887,47.695046],[35.432229,47.695054],[35.432268,47.694774],[35.431282,47.69471],[35.431248,47.694961],[35.431238,47.695031]]]}},{"type":"Feature","properties":{"cadnum":"2322187903:04:001:0004"},"geometry":{"type":"Polygon","coordinates":[[[35.43036,47.705482],[35.430822,47.705497],[35.430978,47.705502],[35.430994,47.705503],[35.431167,47.705508],[35.431258,47.705143],[35.430994,47.705133],[35.430452,47.705112],[35.43036,47.705482]]]}},{"type":"Feature","properties":{"cadnum":"2322187903:04:001:0230"},"geometry":{"type":"Polygon","coordinates":[[[35.429535,47.705764],[35.429988,47.705801],[35.430049,47.705472],[35.43036,47.705482],[35.430452,47.705112],[35.430124,47.705099],[35.430071,47.705355],[35.429661,47.705332],[35.429535,47.705764]]]}},{"type":"Feature","properties":{"cadnum":"2322187903:04:001:0021"},"geometry":{"type":"Polygon","coordinates":[[[35.429724,47.702233],[35.429788,47.702355],[35.429788,47.702356],[35.429787,47.702356],[35.429847,47.70247],[35.429969,47.702471],[35.429909,47.702237],[35.429724,47.702233]]]}},{"type":"Feature","properties":{"cadnum":"2322187903:04:001:0110"},"geometry":{"type":"Polygon","coordinates":[[[35.449576,47.703305],[35.449991,47.703365],[35.450082,47.703086],[35.449673,47.703028],[35.449576,47.703305]]]}},{"type":"Feature","properties":{"cadnum":"2322187903:04:001:0040"},"geometry":{"type":"Polygon","coordinates":[[[35.450079,47.703091],[35.450452,47.703197],[35.450683,47.702489],[35.450314,47.702384],[35.450311,47.702384],[35.450282,47.702471],[35.450283,47.702471],[35.450079,47.703091]]]}},{"type":"Feature","properties":{"cadnum":"2322187903:04:001:0094"},"geometry":{"type":"Polygon","coordinates":[[[35.449673,47.703028],[35.450082,47.703086],[35.450311,47.702384],[35.449925,47.702305],[35.449907,47.702356],[35.449906,47.702356],[35.449872,47.702454],[35.449866,47.702471],[35.449673,47.703028]]]}},{"type":"Feature","properties":{"cadnum":"2322187903:04:001:0272"},"geometry":{"type":"Polygon","coordinates":[[[35.430569,47.695921],[35.430994,47.695912],[35.431536,47.6959],[35.431548,47.696258],[35.431622,47.69625],[35.432202,47.696234],[35.433853,47.696155],[35.433847,47.695856],[35.431694,47.695887],[35.431697,47.695851],[35.43107,47.695764],[35.430994,47.695769],[35.430994,47.695768],[35.43064,47.695789],[35.430569,47.695921]]]}},{"type":"Feature","properties":{"cadnum":"2322187903:04:001:0314"},"geometry":{"type":"Polygon","coordinates":[[[35.429391,47.696957],[35.429876,47.696935],[35.429796,47.696262],[35.429402,47.696266],[35.429391,47.696957]]]}},{"type":"Feature","properties":{"cadnum":"2322187903:04:001:0296"},"geometry":{"type":"Polygon","coordinates":[[[35.429363,47.696148],[35.429591,47.696153],[35.429774,47.695672],[35.429509,47.695632],[35.429363,47.696148]]]}},{"type":"Feature","properties":{"cadnum":"2322187903:04:001:0114"},"geometry":{"type":"Polygon","coordinates":[[[35.430783,47.698375],[35.430822,47.698546],[35.430822,47.698547],[35.430826,47.698564],[35.430994,47.698549],[35.431726,47.698485],[35.431863,47.698306],[35.430994,47.698362],[35.430783,47.698375]],[[35.431647,47.698357],[35.431647,47.698375],[35.43162,47.698375],[35.43162,47.698357],[35.431647,47.698357]]]}},{"type":"Feature","properties":{"cadnum":"2322187903:04:001:0146"},"geometry":{"type":"Polygon","coordinates":[[[35.429591,47.696153],[35.430268,47.696166],[35.430419,47.695768],[35.429774,47.695672],[35.429591,47.696153]]]}},{"type":"Feature","properties":{"cadnum":"2322187903:04:001:0145"},"geometry":{"type":"Polygon","coordinates":[[[35.429796,47.696262],[35.429876,47.696935],[35.430325,47.696914],[35.430247,47.696259],[35.429796,47.696262]]]}},{"type":"Feature","properties":{"cadnum":"2322187903:04:001:0126"},"geometry":{"type":"Polygon","coordinates":[[[35.430412,47.696216],[35.430694,47.696186],[35.430822,47.696165],[35.430822,47.696166],[35.430994,47.696137],[35.43116,47.696109],[35.431237,47.696286],[35.431548,47.696258],[35.431536,47.6959],[35.430822,47.695916],[35.430569,47.695921],[35.430412,47.696216]]]}},{"type":"Feature","properties":{"cadnum":"2322187903:04:001:0129"},"geometry":{"type":"Polygon","coordinates":[[[35.430871,47.695328],[35.430994,47.695332],[35.431428,47.695344],[35.431429,47.695344],[35.431427,47.695374],[35.431842,47.695381],[35.431887,47.695046],[35.431238,47.695031],[35.430995,47.695024],[35.430871,47.695328]]]}},{"type":"Feature","properties":{"cadnum":"2322187903:04:001:0120"},"geometry":{"type":"Polygon","coordinates":[[[35.430647,47.697779],[35.430741,47.698188],[35.430994,47.69818],[35.431455,47.698164],[35.431359,47.697743],[35.430994,47.697762],[35.430994,47.697761],[35.430647,47.697779]]]}},{"type":"Feature","properties":{"cadnum":"2322187903:04:001:0106"},"geometry":{"type":"Polygon","coordinates":[[[35.437949,47.707083],[35.438007,47.707093],[35.438013,47.707076],[35.438036,47.707019],[35.438046,47.706992],[35.437987,47.706983],[35.43798,47.707004],[35.437957,47.707067],[35.437949,47.707083]]]}},{"type":"Feature","properties":{"cadnum":"2322187903:04:001:0219"},"geometry":{"type":"Polygon","coordinates":[[[35.439957,47.706986],[35.440155,47.707002],[35.440274,47.706286],[35.440076,47.706272],[35.439957,47.706986]]]}},{"type":"Feature","properties":{"cadnum":"2322187903:04:001:0049"},"geometry":{"type":"Polygon","coordinates":[[[35.437118,47.706876],[35.437514,47.706912],[35.437657,47.706199],[35.437261,47.706163],[35.437118,47.706876]]]}},{"type":"Feature","properties":{"cadnum":"2322187903:04:001:0394"},"geometry":{"type":"Polygon","coordinates":[[[35.428455,47.707502],[35.428974,47.707407],[35.42904,47.707027],[35.428663,47.707096],[35.42852,47.707232],[35.428455,47.707502]]]}},{"type":"Feature","properties":{"cadnum":"2322187903:04:001:0404"},"geometry":{"type":"Polygon","coordinates":[[[35.430188,47.706695],[35.43055,47.706628],[35.430639,47.706118],[35.430356,47.706168],[35.430279,47.706174],[35.430188,47.706695]]]}},{"type":"Feature","properties":{"cadnum":"2322187903:04:001:0402"},"geometry":{"type":"Polygon","coordinates":[[[35.429519,47.706818],[35.429843,47.706759],[35.42994,47.706203],[35.429621,47.70623],[35.429519,47.706818]]]}},{"type":"Feature","properties":{"cadnum":"2322187903:04:001:0395"},"geometry":{"type":"Polygon","coordinates":[[[35.428974,47.707407],[35.429464,47.707317],[35.42953,47.706937],[35.42904,47.707027],[35.428974,47.707407]]]}},{"type":"Feature","properties":{"cadnum":"2322187903:04:001:0368"},"geometry":{"type":"Polygon","coordinates":[[[35.433374,47.704971],[35.433821,47.704998],[35.433892,47.704595],[35.433458,47.704569],[35.433388,47.704909],[35.433374,47.704971]]]}},{"type":"Feature","properties":{"cadnum":"2322187903:04:001:0305"},"geometry":{"type":"Polygon","coordinates":[[[35.435086,47.703307],[35.435544,47.703346],[35.435593,47.703133],[35.435142,47.703094],[35.435086,47.703307]]]}},{"type":"Feature","properties":{"cadnum":"2322187903:04:001:0266"},"geometry":{"type":"Polygon","coordinates":[[[35.435447,47.704684],[35.435982,47.704724],[35.436092,47.70419],[35.435992,47.704299],[35.435717,47.704367],[35.435503,47.70436],[35.435447,47.704684]]]}},{"type":"Feature","properties":{"cadnum":"2322187903:04:001:0008"},"geometry":{"type":"Polygon","coordinates":[[[35.433962,47.703247],[35.434364,47.703273],[35.434421,47.702857],[35.434398,47.702855],[35.434155,47.702841],[35.434148,47.702884],[35.434128,47.703019],[35.43404,47.703013],[35.433993,47.703012],[35.433962,47.703247]]]}},{"type":"Feature","properties":{"cadnum":"2322187903:04:001:0107"},"geometry":{"type":"Polygon","coordinates":[[[35.433342,47.704495],[35.43349,47.704505],[35.433754,47.704523],[35.433843,47.704022],[35.433404,47.703993],[35.433342,47.704495]]]}},{"type":"Feature","properties":{"cadnum":"2322187903:04:001:0051"},"geometry":{"type":"Polygon","coordinates":[[[35.433404,47.703993],[35.433843,47.704022],[35.433955,47.703371],[35.433484,47.703339],[35.433404,47.703993]]]}},{"type":"Feature","properties":{"cadnum":"2322187903:04:001:0367"},"geometry":{"type":"Polygon","coordinates":[[[35.433255,47.705627],[35.433706,47.705654],[35.433821,47.704998],[35.433374,47.704971],[35.433315,47.705261],[35.433255,47.705627]]]}},{"type":"Feature","properties":{"cadnum":"2322187903:04:001:0201"},"geometry":{"type":"Polygon","coordinates":[[[35.43289,47.706572],[35.433289,47.706601],[35.433404,47.706064],[35.433443,47.705889],[35.433046,47.70586],[35.433003,47.706052],[35.432995,47.706087],[35.432978,47.706168],[35.43289,47.706572]]]}},{"type":"Feature","properties":{"cadnum":"2322187903:04:001:0258"},"geometry":{"type":"Polygon","coordinates":[[[35.447913,47.707638],[35.448312,47.707659],[35.448392,47.706941],[35.447993,47.70692],[35.447913,47.707638]]]}},{"type":"Feature","properties":{"cadnum":"2322187903:04:001:0087"},"geometry":{"type":"Polygon","coordinates":[[[35.44488,47.703148],[35.445399,47.703171],[35.445454,47.702622],[35.444913,47.702571],[35.44488,47.703148]]]}},{"type":"Feature","properties":{"cadnum":"2322187903:04:001:0297"},"geometry":{"type":"Polygon","coordinates":[[[35.431842,47.695381],[35.4339,47.695416],[35.43394,47.695093],[35.433148,47.695074],[35.432229,47.695054],[35.431887,47.695046],[35.431842,47.695381]]]}},{"type":"Feature","properties":{"cadnum":"2322187903:04:001:0273"},"geometry":{"type":"Polygon","coordinates":[[[35.431359,47.697743],[35.431455,47.698164],[35.431891,47.69815],[35.431767,47.697725],[35.431636,47.69773],[35.431359,47.697743]],[[35.431626,47.69791],[35.431652,47.69791],[35.431653,47.69791],[35.431653,47.697928],[35.431652,47.697928],[35.431626,47.697928],[35.431626,47.69791]]]}},{"type":"Feature","properties":{"cadnum":"2322187903:04:001:0411"},"geometry":{"type":"Polygon","coordinates":[[[35.435873,47.706301],[35.436046,47.706318],[35.436051,47.706291],[35.435878,47.706275],[35.435873,47.706301]]]}},{"type":"Feature","properties":{"cadnum":"2322187903:04:001:0399"},"geometry":{"type":"Polygon","coordinates":[[[35.430932,47.707047],[35.431422,47.706957],[35.431488,47.706578],[35.431088,47.706651],[35.430998,47.706667],[35.430932,47.707047]]]}}]}