{"type":"FeatureCollection","features":[{"type":"Feature","properties":{"cadnum":"2322180406:15:001:0270"},"geometry":{"type":"Polygon","coordinates":[[[35.05168,48.018362],[35.051794,48.018376],[35.051794,48.018377],[35.052143,48.018421],[35.052243,48.018041],[35.051924,48.018003],[35.051781,48.017986],[35.05168,48.018362]]]}},{"type":"Feature","properties":{"cadnum":"2322180406:15:001:0231"},"geometry":{"type":"Polygon","coordinates":[[[35.04978,48.018512],[35.050049,48.01855],[35.050551,48.018608],[35.050647,48.018231],[35.050269,48.018183],[35.049878,48.018138],[35.04978,48.018512]]]}},{"type":"Feature","properties":{"cadnum":"2322180406:15:001:0200"},"geometry":{"type":"Polygon","coordinates":[[[35.050898,48.018264],[35.051437,48.018331],[35.05168,48.018362],[35.051781,48.017986],[35.051024,48.017896],[35.050988,48.017927],[35.050898,48.018264]]]}},{"type":"Feature","properties":{"cadnum":"2322180406:15:001:0201"},"geometry":{"type":"Polygon","coordinates":[[[35.050807,48.01863],[35.051283,48.018686],[35.051606,48.018734],[35.051699,48.018363],[35.051279,48.01831],[35.050898,48.018265],[35.050807,48.01863]]]}},{"type":"Feature","properties":{"cadnum":"2322180406:15:001:0088"},"geometry":{"type":"Polygon","coordinates":[[[35.045488,48.019125],[35.046298,48.019209],[35.046301,48.0192],[35.046399,48.018846],[35.045587,48.018764],[35.045488,48.019125]]]}},{"type":"Feature","properties":{"cadnum":"2322180406:15:001:0005"},"geometry":{"type":"Polygon","coordinates":[[[35.04568,48.018429],[35.046473,48.01849],[35.046473,48.018489],[35.046491,48.018491],[35.046573,48.018126],[35.046301,48.018105],[35.04576,48.018064],[35.04568,48.018429]]]}},{"type":"Feature","properties":{"cadnum":"2322180406:15:001:0109"},"geometry":{"type":"Polygon","coordinates":[[[35.047321,48.019374],[35.047769,48.019423],[35.047887,48.019034],[35.047422,48.018992],[35.047338,48.019312],[35.047321,48.019374]]]}},{"type":"Feature","properties":{"cadnum":"2322180406:15:001:0079"},"geometry":{"type":"Polygon","coordinates":[[[35.046548,48.019284],[35.046773,48.019309],[35.04679,48.019311],[35.04679,48.019312],[35.046935,48.019332],[35.047233,48.019365],[35.047273,48.019369],[35.047321,48.019374],[35.047422,48.018992],[35.047193,48.018972],[35.046647,48.018907],[35.046548,48.019284]]]}},{"type":"Feature","properties":{"cadnum":"2322180406:15:001:0299"},"geometry":{"type":"Polygon","coordinates":[[[35.045793,48.018067],[35.046021,48.018084],[35.046473,48.018119],[35.046473,48.018118],[35.046573,48.018126],[35.046647,48.017745],[35.046301,48.017719],[35.046215,48.017713],[35.045865,48.017686],[35.045793,48.018067]]]}},{"type":"Feature","properties":{"cadnum":"2322180406:15:001:0235"},"geometry":{"type":"Polygon","coordinates":[[[35.049306,48.018447],[35.04978,48.018512],[35.049878,48.018138],[35.0494,48.018084],[35.049306,48.018447]]]}},{"type":"Feature","properties":{"cadnum":"2322180406:15:001:0250"},"geometry":{"type":"Polygon","coordinates":[[[35.047517,48.023311],[35.047859,48.023348],[35.048197,48.023398],[35.048243,48.023258],[35.048504,48.023288],[35.048534,48.023181],[35.048081,48.02312],[35.047583,48.023058],[35.047517,48.023311]]]}},{"type":"Feature","properties":{"cadnum":"2322180406:15:001:0295"},"geometry":{"type":"Polygon","coordinates":[[[35.045422,48.023514],[35.04598,48.023574],[35.04614,48.023059],[35.04614,48.023058],[35.046001,48.023043],[35.045569,48.022996],[35.045538,48.023101],[35.045539,48.023101],[35.045422,48.023514]]]}},{"type":"Feature","properties":{"cadnum":"2322180406:15:001:0291"},"geometry":{"type":"Polygon","coordinates":[[[35.045921,48.021651],[35.046473,48.02172],[35.046686,48.021746],[35.046794,48.021362],[35.046433,48.021321],[35.046026,48.021273],[35.045921,48.021651]]]}},{"type":"Feature","properties":{"cadnum":"2322180406:15:001:0309"},"geometry":{"type":"Polygon","coordinates":[[[35.044745,48.019964],[35.045256,48.020022],[35.045341,48.019678],[35.044858,48.019621],[35.044745,48.019964]]]}},{"type":"Feature","properties":{"cadnum":"2322180406:15:001:0286"},"geometry":{"type":"Polygon","coordinates":[[[35.045256,48.020022],[35.045424,48.020041],[35.045632,48.020065],[35.045692,48.020072],[35.045978,48.020102],[35.046065,48.020111],[35.046159,48.019733],[35.045731,48.019685],[35.045722,48.019722],[35.045721,48.019723],[35.045341,48.019678],[35.045256,48.020022]]]}},{"type":"Feature","properties":{"cadnum":"2322180406:15:001:0273"},"geometry":{"type":"Polygon","coordinates":[[[35.043603,48.019349],[35.043805,48.019369],[35.044118,48.0194],[35.044205,48.018996],[35.043794,48.018947],[35.043621,48.019312],[35.04362,48.019312],[35.043603,48.019349]]]}},{"type":"Feature","properties":{"cadnum":"2322180406:15:001:0282"},"geometry":{"type":"Polygon","coordinates":[[[35.04493,48.021534],[35.045671,48.02163],[35.045774,48.021259],[35.045083,48.021156],[35.04493,48.021534]]]}},{"type":"Feature","properties":{"cadnum":"2322180406:15:001:0308"},"geometry":{"type":"Polygon","coordinates":[[[35.046321,48.020127],[35.046473,48.020141],[35.046473,48.02014],[35.046509,48.020143],[35.04651,48.020139],[35.046581,48.020145],[35.04658,48.020149],[35.046644,48.020155],[35.046643,48.02016],[35.046821,48.020184],[35.047485,48.020272],[35.047539,48.020097],[35.046856,48.020004],[35.046371,48.019945],[35.046321,48.020127]]]}},{"type":"Feature","properties":{"cadnum":"2322180406:15:001:0271"},"geometry":{"type":"Polygon","coordinates":[[[35.046267,48.020324],[35.046301,48.020327],[35.046395,48.020336],[35.046473,48.020344],[35.046776,48.020374],[35.047434,48.02044],[35.047464,48.020344],[35.047485,48.020272],[35.046821,48.020184],[35.046643,48.02016],[35.046644,48.020155],[35.04658,48.02015],[35.04658,48.020149],[35.046581,48.020145],[35.04651,48.020139],[35.046509,48.020143],[35.046321,48.020127],[35.046267,48.020324]]]}},{"type":"Feature","properties":{"cadnum":"2322180406:15:001:0315"},"geometry":{"type":"Polygon","coordinates":[[[35.045378,48.023674],[35.045935,48.023734],[35.04598,48.023579],[35.04598,48.023574],[35.045422,48.023514],[35.045378,48.023674]]]}},{"type":"Feature","properties":{"cadnum":"2322180406:15:001:0207"},"geometry":{"type":"Polygon","coordinates":[[[35.050273,48.02062],[35.050771,48.020683],[35.051048,48.020718],[35.051149,48.020342],[35.050871,48.020307],[35.050374,48.020245],[35.050273,48.02062]]]}},{"type":"Feature","properties":{"cadnum":"2322180406:15:001:0212"},"geometry":{"type":"Polygon","coordinates":[[[35.051048,48.020718],[35.051141,48.02073],[35.051242,48.020354],[35.051149,48.020342],[35.051048,48.020718]]]}},{"type":"Feature","properties":{"cadnum":"2322180406:15:001:0248"},"geometry":{"type":"Polygon","coordinates":[[[35.047651,48.022811],[35.048353,48.022883],[35.048455,48.022519],[35.048255,48.0225],[35.04822,48.022622],[35.04822,48.022623],[35.047714,48.022563],[35.047651,48.022811]]]}},{"type":"Feature","properties":{"cadnum":"2322180406:15:001:0244"},"geometry":{"type":"Polygon","coordinates":[[[35.047938,48.021677],[35.048189,48.021708],[35.048275,48.021719],[35.048319,48.021724],[35.048429,48.021735],[35.04849,48.02156],[35.047983,48.021498],[35.047976,48.02153],[35.047938,48.021677]]]}},{"type":"Feature","properties":{"cadnum":"2322180406:15:001:0318"},"geometry":{"type":"Polygon","coordinates":[[[35.049018,48.021252],[35.049336,48.021289],[35.049821,48.021345],[35.049919,48.020978],[35.049451,48.020928],[35.049216,48.020899],[35.049116,48.020889],[35.049018,48.021252]]]}},{"type":"Feature","properties":{"cadnum":"2322180406:15:001:0260"},"geometry":{"type":"Polygon","coordinates":[[[35.047067,48.02158],[35.047289,48.02161],[35.04746,48.021627],[35.047461,48.021619],[35.047521,48.021625],[35.047519,48.021632],[35.047759,48.021656],[35.047803,48.021477],[35.047115,48.0214],[35.047067,48.02158]]]}},{"type":"Feature","properties":{"cadnum":"2322180406:15:001:0296"},"geometry":{"type":"Polygon","coordinates":[[[35.046686,48.021746],[35.047006,48.021787],[35.047115,48.0214],[35.046794,48.021362],[35.046686,48.021746]]]}},{"type":"Feature","properties":{"cadnum":"2322180406:15:001:0263"},"geometry":{"type":"Polygon","coordinates":[[[35.047246,48.021058],[35.047882,48.021125],[35.047932,48.020948],[35.047297,48.020875],[35.047246,48.021058]]]}},{"type":"Feature","properties":{"cadnum":"2322180406:15:001:0265"},"geometry":{"type":"Polygon","coordinates":[[[35.047469,48.020713],[35.04798,48.020772],[35.04803,48.020595],[35.04752,48.020531],[35.047469,48.020713]]]}},{"type":"Feature","properties":{"cadnum":"2322180406:15:001:0239"},"geometry":{"type":"Polygon","coordinates":[[[35.04816,48.020787],[35.04861,48.020833],[35.049216,48.020899],[35.049263,48.020717],[35.04866,48.020664],[35.048207,48.02061],[35.04816,48.020787]]]}},{"type":"Feature","properties":{"cadnum":"2322180406:15:001:0281"},"geometry":{"type":"Polygon","coordinates":[[[35.04794,48.019827],[35.048361,48.019875],[35.048414,48.019681],[35.047995,48.019633],[35.04794,48.019827]]]}},{"type":"Feature","properties":{"cadnum":"2322180406:15:001:0267"},"geometry":{"type":"Polygon","coordinates":[[[35.047564,48.020353],[35.048089,48.020409],[35.048131,48.020233],[35.047619,48.020171],[35.04761,48.02017],[35.047564,48.020353]]]}},{"type":"Feature","properties":{"cadnum":"2322180406:15:001:0268"},"geometry":{"type":"Polygon","coordinates":[[[35.047567,48.020165],[35.047619,48.020171],[35.048131,48.020233],[35.048199,48.019975],[35.048113,48.019967],[35.047676,48.019917],[35.047646,48.019913],[35.047576,48.020123],[35.047567,48.020165]]]}},{"type":"Feature","properties":{"cadnum":"2322180406:15:001:0280"},"geometry":{"type":"Polygon","coordinates":[[[35.046455,48.019654],[35.046977,48.019721],[35.04794,48.019827],[35.047995,48.019633],[35.047038,48.019522],[35.046583,48.019471],[35.046509,48.019461],[35.046499,48.019497],[35.046455,48.019654]]]}},{"type":"Feature","properties":{"cadnum":"2322180406:15:001:0238"},"geometry":{"type":"Polygon","coordinates":[[[35.048208,48.020609],[35.049261,48.020723],[35.049306,48.020549],[35.048254,48.020434],[35.048208,48.020609]]]}},{"type":"Feature","properties":{"cadnum":"2322180406:15:001:0240"},"geometry":{"type":"Polygon","coordinates":[[[35.048113,48.02096],[35.048638,48.021022],[35.048687,48.020846],[35.048161,48.020786],[35.048113,48.02096]]]}},{"type":"Feature","properties":{"cadnum":"2322180406:15:001:0319"},"geometry":{"type":"Polygon","coordinates":[[[35.048664,48.021212],[35.049018,48.021252],[35.049116,48.020889],[35.04876,48.020849],[35.048711,48.021034],[35.048664,48.021212]]]}},{"type":"Feature","properties":{"cadnum":"2322180406:15:001:0300"},"geometry":{"type":"Polygon","coordinates":[[[35.045078,48.018012],[35.045793,48.018067],[35.045865,48.017686],[35.045152,48.017629],[35.045078,48.018012]]]}},{"type":"Feature","properties":{"cadnum":"2322180406:15:001:0108"},"geometry":{"type":"Polygon","coordinates":[[[35.044574,48.018344],[35.04568,48.018429],[35.04576,48.018064],[35.044655,48.01798],[35.044574,48.018344]]]}},{"type":"Feature","properties":{"cadnum":"2322180406:15:001:0110"},"geometry":{"type":"Polygon","coordinates":[[[35.045,48.019075],[35.045488,48.019125],[35.045587,48.018764],[35.045099,48.018715],[35.045,48.019075]]]}},{"type":"Feature","properties":{"cadnum":"2322180406:15:001:0298"},"geometry":{"type":"Polygon","coordinates":[[[35.042983,48.018869],[35.043794,48.018947],[35.043875,48.0186],[35.043035,48.018501],[35.042983,48.018869]]]}},{"type":"Feature","properties":{"cadnum":"2322180406:15:001:0272"},"geometry":{"type":"Polygon","coordinates":[[[35.042927,48.019252],[35.043333,48.019296],[35.043333,48.019297],[35.043336,48.019323],[35.043603,48.019349],[35.043794,48.018947],[35.042983,48.018869],[35.042927,48.019252]]]}}]}