{"type":"FeatureCollection","features":[{"type":"Feature","properties":{"cadnum":"2322784001:01:001:0012"},"geometry":{"type":"Polygon","coordinates":[[[36.763528,47.230769],[36.763603,47.230863],[36.76401,47.231367],[36.764199,47.231302],[36.763887,47.230863],[36.763762,47.230686],[36.763592,47.230746],[36.763532,47.230767],[36.763528,47.230769]]]}},{"type":"Feature","properties":{"cadnum":"2322784001:01:001:0010"},"geometry":{"type":"Polygon","coordinates":[[[36.761743,47.231667],[36.762082,47.232009],[36.762707,47.231758],[36.762374,47.231422],[36.761743,47.231667]]]}},{"type":"Feature","properties":{"cadnum":"2322784001:01:001:0011"},"geometry":{"type":"Polygon","coordinates":[[[36.762374,47.231422],[36.762707,47.231758],[36.762991,47.231644],[36.762783,47.231458],[36.762783,47.231457],[36.76287,47.231416],[36.762752,47.231275],[36.762374,47.231422]]]}},{"type":"Feature","properties":{"cadnum":"2322784001:01:001:0002"},"geometry":{"type":"Polygon","coordinates":[[[36.755701,47.228157],[36.755981,47.228191],[36.756044,47.227938],[36.755767,47.227905],[36.755701,47.228157]]]}},{"type":"Feature","properties":{"cadnum":"2322784001:01:007:0001"},"geometry":{"type":"Polygon","coordinates":[[[36.725109,47.234579],[36.725122,47.234593],[36.725123,47.234593],[36.725264,47.234732],[36.72556,47.234817],[36.725627,47.234476],[36.725626,47.234476],[36.725745,47.233877],[36.725218,47.233825],[36.725124,47.234476],[36.725109,47.234579]]]}},{"type":"Feature","properties":{"cadnum":"2322784001:01:002:0008"},"geometry":{"type":"Polygon","coordinates":[[[36.768178,47.234372],[36.768563,47.234363],[36.768582,47.233295],[36.768318,47.233291],[36.768302,47.233632],[36.768354,47.233633],[36.768252,47.23426],[36.768178,47.234372]]]}},{"type":"Feature","properties":{"cadnum":"2322784001:01:002:0007"},"geometry":{"type":"Polygon","coordinates":[[[36.768056,47.235216],[36.768584,47.235186],[36.768561,47.234527],[36.768563,47.234363],[36.768178,47.234372],[36.768112,47.234476],[36.768111,47.234476],[36.768103,47.23449],[36.768083,47.234593],[36.768084,47.234593],[36.768038,47.234847],[36.768056,47.235216]]]}},{"type":"Feature","properties":{"cadnum":"2322784001:01:002:0004"},"geometry":{"type":"Polygon","coordinates":[[[36.767067,47.226348],[36.767131,47.226893],[36.769558,47.227016],[36.769557,47.227016],[36.771326,47.227106],[36.771462,47.227113],[36.771463,47.227113],[36.771462,47.226565],[36.771299,47.226558],[36.767067,47.226348]]]}},{"type":"Feature","properties":{"cadnum":"2322784001:01:003:0002"},"geometry":{"type":"Polygon","coordinates":[[[36.759948,47.239969],[36.760168,47.239988],[36.760227,47.239993],[36.76034,47.240002],[36.760422,47.240009],[36.760447,47.239852],[36.760456,47.239809],[36.760489,47.239591],[36.760519,47.239376],[36.760299,47.239366],[36.760055,47.239353],[36.760018,47.239568],[36.759948,47.239969]]]}},{"type":"Feature","properties":{"cadnum":"2322784001:01:003:0003"},"geometry":{"type":"Polygon","coordinates":[[[36.760055,47.239353],[36.760168,47.239359],[36.760168,47.23936],[36.760299,47.239366],[36.76034,47.239368],[36.760519,47.239376],[36.760549,47.239066],[36.760279,47.238973],[36.760314,47.238814],[36.76034,47.238809],[36.76034,47.238808],[36.760599,47.238747],[36.76092,47.238621],[36.760953,47.238277],[36.760262,47.238488],[36.760055,47.239353]]]}},{"type":"Feature","properties":{"cadnum":"2322784001:01:001:0014"},"geometry":{"type":"Polygon","coordinates":[[[36.759345,47.231913],[36.7594,47.232113],[36.759583,47.23209],[36.759569,47.232032],[36.759953,47.231986],[36.759917,47.231845],[36.759345,47.231913]]]}},{"type":"Feature","properties":{"cadnum":"2322784001:01:002:0003"},"geometry":{"type":"Polygon","coordinates":[[[36.782649,47.235584],[36.783908,47.235467],[36.783616,47.234476],[36.783615,47.234476],[36.78343,47.233843],[36.782764,47.233861],[36.782715,47.234593],[36.782649,47.235584]]]}},{"type":"Feature","properties":{"cadnum":"2322784001:01:002:0006"},"geometry":{"type":"Polygon","coordinates":[[[36.783981,47.233945],[36.784026,47.234132],[36.784155,47.234338],[36.784242,47.234476],[36.784266,47.234514],[36.784316,47.234593],[36.784362,47.234664],[36.78454,47.235106],[36.784586,47.235115],[36.784795,47.235153],[36.784988,47.235421],[36.785046,47.23541],[36.786415,47.235158],[36.786164,47.234759],[36.786038,47.234774],[36.786054,47.234888],[36.785457,47.235052],[36.785283,47.234575],[36.785283,47.234574],[36.784858,47.233808],[36.784713,47.233546],[36.784543,47.233521],[36.784557,47.233943],[36.784557,47.233944],[36.784466,47.233944],[36.783981,47.233945]]]}},{"type":"Feature","properties":{"cadnum":"2322784001:01:007:0007"},"geometry":{"type":"Polygon","coordinates":[[[36.712665,47.239945],[36.713292,47.240135],[36.713944,47.240247],[36.714068,47.239916],[36.714042,47.239911],[36.714304,47.239207],[36.713842,47.239127],[36.713809,47.239214],[36.714179,47.239278],[36.714027,47.239662],[36.713657,47.239598],[36.713763,47.239329],[36.713504,47.239284],[36.713523,47.239232],[36.712925,47.239128],[36.71267,47.23987],[36.712665,47.239945]]]}},{"type":"Feature","properties":{"cadnum":"2322784001:01:001:0001"},"geometry":{"type":"Polygon","coordinates":[[[36.76871,47.236097],[36.768786,47.236201],[36.769037,47.236114],[36.76896,47.236011],[36.76871,47.236097]]]}},{"type":"Feature","properties":{"cadnum":"2322784001:01:002:0005"},"geometry":{"type":"Polygon","coordinates":[[[36.783852,47.233421],[36.783981,47.233945],[36.784466,47.233944],[36.784557,47.233944],[36.784543,47.233521],[36.784454,47.233508],[36.783852,47.233421]]]}},{"type":"Feature","properties":{"cadnum":"2322784001:01:006:0003"},"geometry":{"type":"Polygon","coordinates":[[[36.729732,47.232395],[36.730135,47.232476],[36.730594,47.231789],[36.730924,47.231757],[36.730986,47.2313],[36.730394,47.231405],[36.730373,47.231462],[36.729732,47.232395]]]}}]}