{"type":"FeatureCollection","features":[{"type":"Feature","properties":{"cadnum":"2322181601:05:001:0121"},"geometry":{"type":"Polygon","coordinates":[[[35.054392,47.897299],[35.054396,47.897747],[35.054799,47.897747],[35.054795,47.897299],[35.054392,47.897299]]]}},{"type":"Feature","properties":{"cadnum":"2322181601:09:001:0300"},"geometry":{"type":"Polygon","coordinates":[[[35.062807,47.924347],[35.062823,47.925022],[35.062952,47.925021],[35.063112,47.925019],[35.063098,47.924497],[35.062807,47.924347]]]}},{"type":"Feature","properties":{"cadnum":"2322181601:09:001:0304"},"geometry":{"type":"Polygon","coordinates":[[[35.068019,47.927564],[35.068273,47.927566],[35.068274,47.927566],[35.068361,47.927566],[35.068377,47.927373],[35.068376,47.927373],[35.068401,47.927091],[35.068068,47.926979],[35.068024,47.927488],[35.068025,47.927488],[35.068019,47.927564]]]}},{"type":"Feature","properties":{"cadnum":"2322181601:09:001:0269"},"geometry":{"type":"Polygon","coordinates":[[[35.063468,47.927502],[35.063802,47.927505],[35.063808,47.927373],[35.063807,47.927373],[35.063825,47.926966],[35.063491,47.926961],[35.063468,47.927488],[35.063469,47.927488],[35.063468,47.927502]]]}},{"type":"Feature","properties":{"cadnum":"2322181601:09:001:0587"},"geometry":{"type":"Polygon","coordinates":[[[35.064481,47.928177],[35.06473,47.928182],[35.064815,47.928183],[35.064835,47.927644],[35.064501,47.927638],[35.064481,47.928177]]]}},{"type":"Feature","properties":{"cadnum":"2322181601:09:001:0268"},"geometry":{"type":"Polygon","coordinates":[[[35.063802,47.927496],[35.064136,47.927501],[35.064142,47.927373],[35.064141,47.927373],[35.064159,47.926969],[35.063825,47.926964],[35.063807,47.927373],[35.063806,47.927373],[35.063803,47.927464],[35.063802,47.927488],[35.063803,47.927488],[35.063802,47.927496]]]}},{"type":"Feature","properties":{"cadnum":"2322181601:09:001:0596"},"geometry":{"type":"Polygon","coordinates":[[[35.066476,47.927544],[35.066812,47.927546],[35.066812,47.927538],[35.066818,47.927373],[35.066835,47.927],[35.066499,47.926997],[35.066478,47.927488],[35.066476,47.927536],[35.066476,47.927544]]]}},{"type":"Feature","properties":{"cadnum":"2322181601:09:001:0263"},"geometry":{"type":"Polygon","coordinates":[[[35.065475,47.927527],[35.065809,47.927531],[35.065815,47.927373],[35.065821,47.927248],[35.065831,47.926992],[35.065497,47.926988],[35.065481,47.927373],[35.06548,47.927373],[35.065476,47.927487],[35.065476,47.927488],[35.065475,47.927527]]]}},{"type":"Feature","properties":{"cadnum":"2322181601:09:001:0240"},"geometry":{"type":"Polygon","coordinates":[[[35.066776,47.928783],[35.067101,47.928788],[35.067113,47.928218],[35.066953,47.928213],[35.066789,47.92821],[35.066789,47.928221],[35.066788,47.928246],[35.066776,47.928783]]]}},{"type":"Feature","properties":{"cadnum":"2322181601:09:001:0585"},"geometry":{"type":"Polygon","coordinates":[[[35.06725,47.929578],[35.067256,47.929805],[35.067626,47.929798],[35.067606,47.929576],[35.06725,47.929578]]]}},{"type":"Feature","properties":{"cadnum":"2322181601:09:001:0229"},"geometry":{"type":"Polygon","coordinates":[[[35.06642,47.929408],[35.06642,47.929537],[35.066428,47.929626],[35.066678,47.929632],[35.067079,47.929647],[35.067085,47.929419],[35.066655,47.92941],[35.06642,47.929408]]]}},{"type":"Feature","properties":{"cadnum":"2322181601:09:001:0204"},"geometry":{"type":"Polygon","coordinates":[[[35.066619,47.930069],[35.067041,47.930072],[35.067073,47.92994],[35.067075,47.929861],[35.06662,47.92986],[35.066619,47.930069]]]}},{"type":"Feature","properties":{"cadnum":"2322181601:09:001:0206"},"geometry":{"type":"Polygon","coordinates":[[[35.066177,47.929804],[35.066203,47.929804],[35.0662,47.929898],[35.066274,47.929902],[35.066274,47.929912],[35.066279,47.929912],[35.066278,47.929946],[35.066319,47.929946],[35.06632,47.929946],[35.066318,47.930003],[35.066322,47.930003],[35.066321,47.93007],[35.066619,47.930069],[35.06662,47.92986],[35.066419,47.929858],[35.066421,47.929805],[35.066427,47.92969],[35.066428,47.929657],[35.066428,47.929626],[35.06642,47.929537],[35.066183,47.929533],[35.066179,47.929673],[35.066177,47.929804]]]}},{"type":"Feature","properties":{"cadnum":"2322181601:09:001:0584"},"geometry":{"type":"Polygon","coordinates":[[[35.067606,47.929576],[35.067626,47.929798],[35.067964,47.929794],[35.06795,47.929575],[35.067606,47.929576]]]}},{"type":"Feature","properties":{"cadnum":"2322181601:09:001:0205"},"geometry":{"type":"Polygon","coordinates":[[[35.066419,47.929858],[35.06662,47.92986],[35.067075,47.929861],[35.067079,47.929647],[35.066678,47.929632],[35.066428,47.929626],[35.066428,47.929657],[35.066421,47.929805],[35.066419,47.929858]]]}},{"type":"Feature","properties":{"cadnum":"2322181601:09:001:0127"},"geometry":{"type":"Polygon","coordinates":[[[35.068249,47.931098],[35.068251,47.931169],[35.068252,47.931169],[35.068256,47.931289],[35.068263,47.931472],[35.068274,47.931629],[35.068274,47.93163],[35.068275,47.931649],[35.068438,47.931645],[35.068439,47.931645],[35.068445,47.931645],[35.068672,47.93164],[35.068658,47.93146],[35.068652,47.931333],[35.068628,47.931092],[35.068628,47.931091],[35.06843,47.931094],[35.068249,47.931098]]]}},{"type":"Feature","properties":{"cadnum":"2322181601:09:001:0156"},"geometry":{"type":"Polygon","coordinates":[[[35.067532,47.930574],[35.067533,47.93067],[35.067537,47.930856],[35.067538,47.931054],[35.067537,47.931054],[35.067539,47.931114],[35.067649,47.931111],[35.06787,47.931106],[35.067863,47.930568],[35.067532,47.930574]]]}},{"type":"Feature","properties":{"cadnum":"2322181601:09:001:0157"},"geometry":{"type":"Polygon","coordinates":[[[35.066723,47.930691],[35.066736,47.931054],[35.066735,47.931054],[35.066739,47.931152],[35.067028,47.931145],[35.067028,47.931144],[35.067021,47.930685],[35.066723,47.930691]]]}},{"type":"Feature","properties":{"cadnum":"2322181601:09:001:0123"},"geometry":{"type":"Polygon","coordinates":[[[35.067166,47.931118],[35.067171,47.931169],[35.067172,47.931169],[35.067183,47.931267],[35.06719,47.931317],[35.067341,47.93132],[35.067355,47.931444],[35.067573,47.931433],[35.067536,47.931109],[35.067425,47.931111],[35.067166,47.931118]]]}},{"type":"Feature","properties":{"cadnum":"2322181601:09:001:0588"},"geometry":{"type":"Polygon","coordinates":[[[35.067874,47.931106],[35.067877,47.931169],[35.067878,47.931169],[35.067907,47.931654],[35.068275,47.931649],[35.068263,47.931472],[35.068256,47.931289],[35.068249,47.931098],[35.067874,47.931106]]]}},{"type":"Feature","properties":{"cadnum":"2322181601:09:001:0230"},"geometry":{"type":"Polygon","coordinates":[[[35.066412,47.929404],[35.067077,47.929417],[35.067084,47.929201],[35.067002,47.9292],[35.066792,47.929197],[35.066417,47.929193],[35.066412,47.929292],[35.066412,47.929404]]]}},{"type":"Feature","properties":{"cadnum":"2322181601:09:001:0602"},"geometry":{"type":"Polygon","coordinates":[[[35.068359,47.927567],[35.068445,47.927569],[35.068445,47.927568],[35.06932,47.927582],[35.06907,47.927448],[35.068401,47.927092],[35.068376,47.927373],[35.068375,47.927373],[35.068359,47.927567]]]}},{"type":"Feature","properties":{"cadnum":"2322181601:09:001:0463"},"geometry":{"type":"Polygon","coordinates":[[[35.065091,47.930696],[35.065265,47.9307],[35.065256,47.930211],[35.065096,47.930213],[35.065086,47.930431],[35.065091,47.930696]]]}},{"type":"Feature","properties":{"cadnum":"2322181601:09:001:0600"},"geometry":{"type":"Polygon","coordinates":[[[35.06305,47.929443],[35.063364,47.929459],[35.063368,47.92889],[35.063322,47.92889],[35.063067,47.928877],[35.06305,47.929443]]]}},{"type":"Feature","properties":{"cadnum":"2322181601:09:001:0002"},"geometry":{"type":"Polygon","coordinates":[[[35.065401,47.931165],[35.065732,47.931161],[35.065724,47.930697],[35.065586,47.930696],[35.065409,47.9307],[35.065403,47.931054],[35.065402,47.931054],[35.065401,47.931165]]]}},{"type":"Feature","properties":{"cadnum":"2322181601:09:001:0177"},"geometry":{"type":"Polygon","coordinates":[[[35.064909,47.930693],[35.065058,47.930695],[35.065091,47.930696],[35.065086,47.930431],[35.065096,47.930213],[35.064925,47.930215],[35.064909,47.930693]]]}},{"type":"Feature","properties":{"cadnum":"2322181601:09:001:0167"},"geometry":{"type":"Polygon","coordinates":[[[35.064702,47.93117],[35.065039,47.931175],[35.065041,47.931064],[35.065038,47.931064],[35.065037,47.931064],[35.065039,47.930986],[35.065046,47.930986],[35.065058,47.930695],[35.064909,47.930693],[35.064714,47.930691],[35.064705,47.931054],[35.064702,47.931159],[35.064702,47.931169],[35.064702,47.93117]]]}},{"type":"Feature","properties":{"cadnum":"2322181601:09:001:0237"},"geometry":{"type":"Polygon","coordinates":[[[35.065433,47.928737],[35.065766,47.928743],[35.065794,47.928202],[35.06546,47.928196],[35.065433,47.928737]]]}},{"type":"Feature","properties":{"cadnum":"2322181601:09:001:0241"},"geometry":{"type":"Polygon","coordinates":[[[35.063688,47.929444],[35.063704,47.929448],[35.063955,47.929436],[35.063979,47.9289],[35.063696,47.928894],[35.063688,47.929444]]]}},{"type":"Feature","properties":{"cadnum":"2322181601:09:001:0586"},"geometry":{"type":"Polygon","coordinates":[[[35.065044,47.929499],[35.06531,47.929503],[35.065319,47.928926],[35.065048,47.928921],[35.065044,47.929499]]]}},{"type":"Feature","properties":{"cadnum":"2322181601:09:003:0331"},"geometry":{"type":"Polygon","coordinates":[[[35.870601,47.737738],[35.870595,47.738001],[35.870601,47.738244],[35.870886,47.738244],[35.870918,47.737733],[35.870601,47.737738]]]}},{"type":"Feature","properties":{"cadnum":"2322181601:09:003:0309"},"geometry":{"type":"Polygon","coordinates":[[[35.8727,47.737513],[35.872958,47.737512],[35.873002,47.736948],[35.872939,47.73695],[35.872759,47.736954],[35.87273,47.736955],[35.8727,47.737513]]]}},{"type":"Feature","properties":{"cadnum":"2322181601:08:001:1053"},"geometry":{"type":"Polygon","coordinates":[[[35.083828,47.897809],[35.083944,47.897918],[35.083943,47.897918],[35.084026,47.897994],[35.084026,47.897995],[35.084477,47.897767],[35.084753,47.897628],[35.084753,47.897629],[35.084925,47.897542],[35.084984,47.897513],[35.085008,47.897501],[35.084811,47.897317],[35.083828,47.897809]]]}},{"type":"Feature","properties":{"cadnum":"2322181601:09:002:0197"},"geometry":{"type":"Polygon","coordinates":[[[35.074665,47.921467],[35.075001,47.921466],[35.075001,47.920927],[35.074665,47.920928],[35.074665,47.921467]]]}},{"type":"Feature","properties":{"cadnum":"2322181601:09:002:0969"},"geometry":{"type":"Polygon","coordinates":[[[35.073658,47.92039],[35.073657,47.920409],[35.073659,47.920934],[35.074,47.920934],[35.074001,47.920388],[35.073845,47.92039],[35.073658,47.92039]]]}},{"type":"Feature","properties":{"cadnum":"2322181601:09:002:0245"},"geometry":{"type":"Polygon","coordinates":[[[35.073663,47.922252],[35.073667,47.922796],[35.073767,47.922797],[35.073852,47.922797],[35.073938,47.922798],[35.074001,47.922798],[35.073999,47.922261],[35.073857,47.922258],[35.073663,47.922252]]]}},{"type":"Feature","properties":{"cadnum":"2322181601:09:002:0199"},"geometry":{"type":"Polygon","coordinates":[[[35.075001,47.921466],[35.075502,47.921464],[35.075502,47.920925],[35.075334,47.920926],[35.075001,47.920927],[35.075001,47.921466]]]}},{"type":"Feature","properties":{"cadnum":"2322181601:09:002:0234"},"geometry":{"type":"Polygon","coordinates":[[[35.075503,47.921714],[35.075509,47.92226],[35.07601,47.92225],[35.076006,47.921712],[35.075503,47.921714]]]}},{"type":"Feature","properties":{"cadnum":"2322181601:09:002:0383"},"geometry":{"type":"Polygon","coordinates":[[[35.076501,47.923821],[35.077159,47.923786],[35.077246,47.923781],[35.077239,47.923376],[35.076508,47.923411],[35.076503,47.923692],[35.076502,47.923785],[35.076501,47.923807],[35.076501,47.923821]]]}},{"type":"Feature","properties":{"cadnum":"2322181601:09:002:0235"},"geometry":{"type":"Polygon","coordinates":[[[35.07564,47.922801],[35.075973,47.922804],[35.076,47.92226],[35.075666,47.92226],[35.07564,47.922801]]]}},{"type":"Feature","properties":{"cadnum":"2322181601:09:002:0393"},"geometry":{"type":"Polygon","coordinates":[[[35.076474,47.923412],[35.076474,47.923807],[35.076475,47.923807],[35.076476,47.923807],[35.076476,47.923822],[35.076501,47.923821],[35.076502,47.923785],[35.076508,47.923411],[35.076474,47.923412]]]}},{"type":"Feature","properties":{"cadnum":"2322181601:09:002:0364"},"geometry":{"type":"Polygon","coordinates":[[[35.07374,47.923474],[35.073746,47.923692],[35.073745,47.923692],[35.073748,47.923775],[35.073767,47.923775],[35.073791,47.923775],[35.073938,47.923774],[35.073938,47.923773],[35.074198,47.923771],[35.074199,47.923771],[35.0742,47.923787],[35.074237,47.923789],[35.074303,47.923511],[35.074303,47.923468],[35.074125,47.92347],[35.073938,47.923472],[35.07374,47.923474]]]}},{"type":"Feature","properties":{"cadnum":"2322181601:09:002:0243"},"geometry":{"type":"Polygon","coordinates":[[[35.073999,47.921721],[35.074004,47.922261],[35.074338,47.922259],[35.074333,47.921719],[35.073999,47.921721]]]}},{"type":"Feature","properties":{"cadnum":"2322181601:09:002:0206"},"geometry":{"type":"Polygon","coordinates":[[[35.076319,47.920922],[35.076338,47.921464],[35.076677,47.921465],[35.076668,47.920921],[35.076319,47.920922]]]}},{"type":"Feature","properties":{"cadnum":"2322181601:09:002:0016"},"geometry":{"type":"Polygon","coordinates":[[[35.075804,47.92021],[35.076202,47.920212],[35.076201,47.920011],[35.0762,47.920011],[35.076199,47.919769],[35.075809,47.919768],[35.075806,47.920011],[35.075805,47.920011],[35.075805,47.920057],[35.075804,47.920126],[35.075804,47.92021]]]}},{"type":"Feature","properties":{"cadnum":"2322181601:09:002:0390"},"geometry":{"type":"Polygon","coordinates":[[[35.076815,47.922927],[35.076842,47.923391],[35.076926,47.923388],[35.077122,47.923381],[35.077123,47.922928],[35.076815,47.922927]]]}},{"type":"Feature","properties":{"cadnum":"2322181601:09:002:0194"},"geometry":{"type":"Polygon","coordinates":[[[35.074001,47.92039],[35.074009,47.920931],[35.074334,47.92093],[35.074327,47.920389],[35.074001,47.92039]]]}},{"type":"Feature","properties":{"cadnum":"2322181601:09:002:0482"},"geometry":{"type":"Polygon","coordinates":[[[35.062414,47.919816],[35.06242,47.919918],[35.062428,47.920126],[35.062429,47.920126],[35.062444,47.920458],[35.062463,47.920478],[35.06278,47.920214],[35.062926,47.920092],[35.062927,47.920092],[35.06291,47.920083],[35.062414,47.919816]]]}},{"type":"Feature","properties":{"cadnum":"2322181601:09:002:0989"},"geometry":{"type":"Polygon","coordinates":[[[35.063328,47.922187],[35.063365,47.922259],[35.063412,47.922338],[35.063464,47.922416],[35.063494,47.922454],[35.064097,47.922225],[35.064049,47.922156],[35.064014,47.922097],[35.063985,47.92204],[35.063328,47.922187]]]}},{"type":"Feature","properties":{"cadnum":"2322181601:09:002:0075"},"geometry":{"type":"Polygon","coordinates":[[[35.067709,47.920245],[35.068098,47.920248],[35.068104,47.920126],[35.068105,47.920126],[35.068123,47.919788],[35.068088,47.919788],[35.067734,47.919784],[35.067721,47.920011],[35.067721,47.920021],[35.067714,47.920126],[35.067715,47.920126],[35.067709,47.920245]]]}},{"type":"Feature","properties":{"cadnum":"2322181601:09:002:0077"},"geometry":{"type":"Polygon","coordinates":[[[35.066888,47.919802],[35.06689,47.920011],[35.066891,47.920048],[35.066891,47.920126],[35.066892,47.920246],[35.067292,47.920245],[35.067293,47.920122],[35.067299,47.919802],[35.066888,47.919802]]]}},{"type":"Feature","properties":{"cadnum":"2322181601:09:002:0154"},"geometry":{"type":"Polygon","coordinates":[[[35.066831,47.920949],[35.066843,47.921487],[35.067186,47.921483],[35.067168,47.920946],[35.066831,47.920949]]]}},{"type":"Feature","properties":{"cadnum":"2322181601:09:002:0299"},"geometry":{"type":"Polygon","coordinates":[[[35.067278,47.923654],[35.067942,47.923655],[35.067942,47.923431],[35.067776,47.923431],[35.067384,47.92343],[35.067278,47.92343],[35.067278,47.923654]]]}},{"type":"Feature","properties":{"cadnum":"2322181601:09:002:0162"},"geometry":{"type":"Polygon","coordinates":[[[35.06817,47.920937],[35.068178,47.921481],[35.068273,47.921481],[35.068274,47.921481],[35.068351,47.921481],[35.068445,47.92148],[35.068512,47.921479],[35.068506,47.920935],[35.068349,47.920936],[35.06817,47.920937]]]}},{"type":"Feature","properties":{"cadnum":"2322181601:09:002:0155"},"geometry":{"type":"Polygon","coordinates":[[[35.066821,47.920949],[35.067159,47.920947],[35.067156,47.92041],[35.066822,47.920413],[35.066821,47.920949]]]}},{"type":"Feature","properties":{"cadnum":"2322181601:09:003:0037"},"geometry":{"type":"Polygon","coordinates":[[[35.078742,47.915499],[35.07926,47.915485],[35.07941,47.915481],[35.079413,47.915265],[35.078744,47.915283],[35.078742,47.915499]]]}},{"type":"Feature","properties":{"cadnum":"2322181601:09:003:0036"},"geometry":{"type":"Polygon","coordinates":[[[35.078741,47.915715],[35.078946,47.915709],[35.07926,47.915701],[35.079409,47.915697],[35.07941,47.915481],[35.078742,47.915499],[35.078741,47.915715]]]}},{"type":"Feature","properties":{"cadnum":"2322181601:03:001:2396"},"geometry":{"type":"Polygon","coordinates":[[[35.059389,47.946501],[35.06278,47.947019],[35.064535,47.947286],[35.06461,47.946698],[35.062952,47.946446],[35.059464,47.945914],[35.059389,47.946501]]]}},{"type":"Feature","properties":{"cadnum":"2322181601:05:001:0055"},"geometry":{"type":"Polygon","coordinates":[[[35.053598,47.898363],[35.053611,47.898813],[35.054012,47.898813],[35.054,47.898363],[35.053598,47.898363]]]}},{"type":"Feature","properties":{"cadnum":"2322181601:09:001:0325"},"geometry":{"type":"Polygon","coordinates":[[[35.073567,47.930717],[35.073684,47.931054],[35.073695,47.931087],[35.073724,47.931169],[35.073725,47.931169],[35.073726,47.931174],[35.07373,47.931188],[35.073732,47.93119],[35.073767,47.931184],[35.073767,47.931185],[35.074085,47.931128],[35.074086,47.931128],[35.074081,47.931112],[35.07408,47.931111],[35.074079,47.931108],[35.073942,47.930662],[35.073787,47.930684],[35.073567,47.930717]]]}},{"type":"Feature","properties":{"cadnum":"2322181601:09:001:0356"},"geometry":{"type":"Polygon","coordinates":[[[35.075391,47.931837],[35.07554,47.932243],[35.075591,47.932238],[35.0756,47.932259],[35.075675,47.932244],[35.075664,47.932224],[35.075665,47.932224],[35.075981,47.93217],[35.075821,47.931765],[35.075391,47.931837]]]}},{"type":"Feature","properties":{"cadnum":"2322181601:09:001:0457"},"geometry":{"type":"Polygon","coordinates":[[[35.074341,47.933606],[35.074589,47.934136],[35.074579,47.934138],[35.074629,47.934244],[35.074813,47.934186],[35.074947,47.934139],[35.074919,47.9341],[35.074803,47.933907],[35.074585,47.933508],[35.074341,47.933606]]]}},{"type":"Feature","properties":{"cadnum":"2322181601:08:001:0237"},"geometry":{"type":"Polygon","coordinates":[[[35.076678,47.901379],[35.076871,47.901596],[35.077347,47.90137],[35.077154,47.901153],[35.076678,47.901379]]]}},{"type":"Feature","properties":{"cadnum":"2322181601:08:001:0165"},"geometry":{"type":"Polygon","coordinates":[[[35.079149,47.901305],[35.07926,47.901432],[35.07926,47.901433],[35.079284,47.90146],[35.079432,47.901391],[35.079432,47.90139],[35.079831,47.901201],[35.079694,47.901045],[35.07938,47.901195],[35.079149,47.901305]]]}},{"type":"Feature","properties":{"cadnum":"2322181601:08:001:0164"},"geometry":{"type":"Polygon","coordinates":[[[35.079009,47.901151],[35.079149,47.901304],[35.07926,47.901252],[35.079306,47.90123],[35.079432,47.901171],[35.079696,47.901045],[35.079668,47.901015],[35.079555,47.900892],[35.07935,47.900989],[35.079009,47.901151]]]}},{"type":"Feature","properties":{"cadnum":"2322181601:08:001:0161"},"geometry":{"type":"Polygon","coordinates":[[[35.078604,47.900686],[35.07874,47.90084],[35.079287,47.900581],[35.079177,47.900457],[35.07915,47.900426],[35.078604,47.900686]]]}},{"type":"Feature","properties":{"cadnum":"2322181601:08:001:0206"},"geometry":{"type":"Polygon","coordinates":[[[35.077999,47.901853],[35.078239,47.902121],[35.078251,47.902115],[35.078714,47.901895],[35.078485,47.901624],[35.078485,47.901623],[35.078288,47.901716],[35.078021,47.901843],[35.077999,47.901853]]]}},{"type":"Feature","properties":{"cadnum":"2322181601:08:001:0241"},"geometry":{"type":"Polygon","coordinates":[[[35.076398,47.901821],[35.076588,47.902038],[35.077064,47.901812],[35.076946,47.901679],[35.076873,47.901596],[35.076861,47.901601],[35.076398,47.901821]]]}},{"type":"Feature","properties":{"cadnum":"2322181601:08:001:0204"},"geometry":{"type":"Polygon","coordinates":[[[35.077522,47.901311],[35.077761,47.901582],[35.078237,47.901356],[35.077998,47.901086],[35.077522,47.901311]]]}},{"type":"Feature","properties":{"cadnum":"2322181601:08:001:0205"},"geometry":{"type":"Polygon","coordinates":[[[35.077761,47.901582],[35.077777,47.901601],[35.077999,47.901853],[35.078475,47.901627],[35.078237,47.901356],[35.077761,47.901582]]]}},{"type":"Feature","properties":{"cadnum":"2322181601:08:001:0163"},"geometry":{"type":"Polygon","coordinates":[[[35.078864,47.901],[35.079009,47.901151],[35.07926,47.901032],[35.07926,47.901033],[35.079351,47.900989],[35.079432,47.900951],[35.079546,47.900896],[35.079406,47.900737],[35.078864,47.901]]]}},{"type":"Feature","properties":{"cadnum":"2322181601:08:001:0190"},"geometry":{"type":"Polygon","coordinates":[[[35.079672,47.902981],[35.079862,47.903198],[35.080338,47.902971],[35.080148,47.902754],[35.079672,47.902981]]]}},{"type":"Feature","properties":{"cadnum":"2322181601:08:001:0170"},"geometry":{"type":"Polygon","coordinates":[[[35.07983,47.902078],[35.079967,47.902234],[35.080512,47.901974],[35.080457,47.901912],[35.080376,47.901819],[35.07983,47.902078]]]}},{"type":"Feature","properties":{"cadnum":"2322181601:08:001:0214"},"geometry":{"type":"Polygon","coordinates":[[[35.079767,47.903858],[35.079965,47.904071],[35.080443,47.903846],[35.080243,47.903631],[35.079767,47.903858]]]}},{"type":"Feature","properties":{"cadnum":"2322181601:08:001:0213"},"geometry":{"type":"Polygon","coordinates":[[[35.079576,47.903642],[35.079767,47.903858],[35.080243,47.903631],[35.080052,47.903414],[35.079576,47.903642]]]}},{"type":"Feature","properties":{"cadnum":"2322181601:08:001:0227"},"geometry":{"type":"Polygon","coordinates":[[[35.079013,47.904025],[35.079027,47.904041],[35.079218,47.904258],[35.079241,47.904285],[35.07926,47.904276],[35.07972,47.904058],[35.079492,47.903798],[35.07943,47.903828],[35.079013,47.904025]]]}},{"type":"Feature","properties":{"cadnum":"2322181601:08:001:0168"},"geometry":{"type":"Polygon","coordinates":[[[35.079558,47.901769],[35.079694,47.901924],[35.08024,47.901665],[35.080158,47.901572],[35.080103,47.90151],[35.079912,47.901601],[35.079852,47.901629],[35.079669,47.901716],[35.079558,47.901769]]]}},{"type":"Feature","properties":{"cadnum":"2322181601:08:001:0198"},"geometry":{"type":"Polygon","coordinates":[[[35.078711,47.901896],[35.078925,47.902124],[35.07926,47.901966],[35.079399,47.901899],[35.079187,47.90167],[35.078721,47.901891],[35.078711,47.901896]]]}},{"type":"Feature","properties":{"cadnum":"2322181601:08:001:0167"},"geometry":{"type":"Polygon","coordinates":[[[35.079421,47.901614],[35.079432,47.901627],[35.079511,47.901716],[35.079558,47.901769],[35.079852,47.901629],[35.080103,47.90151],[35.079995,47.901386],[35.079968,47.901355],[35.079449,47.901601],[35.079421,47.901614]]]}},{"type":"Feature","properties":{"cadnum":"2322181601:08:001:0224"},"geometry":{"type":"Polygon","coordinates":[[[35.079698,47.904803],[35.079791,47.904908],[35.079926,47.905062],[35.080402,47.904837],[35.080175,47.904577],[35.079698,47.904803]]]}},{"type":"Feature","properties":{"cadnum":"2322181601:08:001:0255"},"geometry":{"type":"Polygon","coordinates":[[[35.079509,47.905355],[35.079547,47.905399],[35.079744,47.905622],[35.080223,47.905399],[35.080173,47.905341],[35.080156,47.905321],[35.079988,47.905131],[35.079663,47.905283],[35.079662,47.905283],[35.079509,47.905355]]]}},{"type":"Feature","properties":{"cadnum":"2322181601:08:001:0172"},"geometry":{"type":"Polygon","coordinates":[[[35.080102,47.902388],[35.080239,47.902543],[35.080785,47.902283],[35.080649,47.902129],[35.080102,47.902388]]]}},{"type":"Feature","properties":{"cadnum":"2322181601:08:001:0141"},"geometry":{"type":"Polygon","coordinates":[[[35.080243,47.903631],[35.080443,47.903846],[35.080915,47.903619],[35.08072,47.903404],[35.080243,47.903631]]]}},{"type":"Feature","properties":{"cadnum":"2322181601:08:001:0210"},"geometry":{"type":"Polygon","coordinates":[[[35.078836,47.90283],[35.079041,47.903061],[35.07926,47.902957],[35.07926,47.902958],[35.079327,47.902925],[35.079432,47.902876],[35.079432,47.902875],[35.079533,47.902826],[35.079328,47.902595],[35.078836,47.90283]]]}},{"type":"Feature","properties":{"cadnum":"2322181601:08:001:0228"},"geometry":{"type":"Polygon","coordinates":[[[35.078785,47.903766],[35.078799,47.903781],[35.079013,47.904025],[35.07926,47.903908],[35.07926,47.903909],[35.07943,47.903828],[35.079432,47.903827],[35.079492,47.903798],[35.079263,47.903539],[35.078785,47.903766]]]}},{"type":"Feature","properties":{"cadnum":"2322181601:08:001:0149"},"geometry":{"type":"Polygon","coordinates":[[[35.080621,47.902098],[35.080649,47.902129],[35.080785,47.902283],[35.081331,47.902023],[35.081168,47.901838],[35.080621,47.902098]]]}},{"type":"Feature","properties":{"cadnum":"2322181601:08:001:0106"},"geometry":{"type":"Polygon","coordinates":[[[35.081597,47.902062],[35.081788,47.902278],[35.08233,47.902063],[35.082086,47.901786],[35.081597,47.902062]]]}},{"type":"Feature","properties":{"cadnum":"2322181601:08:001:0146"},"geometry":{"type":"Polygon","coordinates":[[[35.08116,47.902709],[35.081296,47.902865],[35.081843,47.902605],[35.081706,47.902451],[35.08116,47.902709]]]}},{"type":"Feature","properties":{"cadnum":"2322181601:08:001:0143"},"geometry":{"type":"Polygon","coordinates":[[[35.081569,47.903173],[35.081706,47.903328],[35.082252,47.903069],[35.082115,47.902914],[35.081569,47.903173]]]}},{"type":"Feature","properties":{"cadnum":"2322181601:08:001:0144"},"geometry":{"type":"Polygon","coordinates":[[[35.081432,47.90302],[35.081569,47.903174],[35.082115,47.902914],[35.081978,47.90276],[35.081432,47.90302]]]}},{"type":"Feature","properties":{"cadnum":"2322181601:08:001:0179"},"geometry":{"type":"Polygon","coordinates":[[[35.081158,47.903588],[35.08129,47.903744],[35.08184,47.903484],[35.081706,47.903329],[35.081375,47.903485],[35.081158,47.903588]]]}},{"type":"Feature","properties":{"cadnum":"2322181601:08:001:0212"},"geometry":{"type":"Polygon","coordinates":[[[35.079386,47.903425],[35.079576,47.903642],[35.080052,47.903414],[35.079862,47.903198],[35.079393,47.903421],[35.079386,47.903425]]]}},{"type":"Feature","properties":{"cadnum":"2322181601:08:001:0123"},"geometry":{"type":"Polygon","coordinates":[[[35.083853,47.902123],[35.084412,47.902298],[35.084528,47.902197],[35.084624,47.902112],[35.084066,47.901938],[35.083853,47.902123]]]}},{"type":"Feature","properties":{"cadnum":"2322181601:08:001:0122"},"geometry":{"type":"Polygon","coordinates":[[[35.08364,47.902308],[35.084199,47.902483],[35.084348,47.902353],[35.084412,47.902298],[35.083853,47.902123],[35.08364,47.902308]]]}},{"type":"Feature","properties":{"cadnum":"2322181601:08:001:0072"},"geometry":{"type":"Polygon","coordinates":[[[35.081596,47.901304],[35.081952,47.901601],[35.081951,47.901601],[35.082023,47.901659],[35.082261,47.90152],[35.081835,47.901165],[35.081761,47.901207],[35.081596,47.901304]]]}},{"type":"Feature","properties":{"cadnum":"2322181601:08:001:0103"},"geometry":{"type":"Polygon","coordinates":[[[35.082591,47.901509],[35.082707,47.901601],[35.083042,47.901865],[35.083062,47.901851],[35.083282,47.90169],[35.083315,47.901666],[35.082894,47.901336],[35.082591,47.901509]]]}},{"type":"Feature","properties":{"cadnum":"2322181601:08:001:0104"},"geometry":{"type":"Polygon","coordinates":[[[35.082306,47.901673],[35.082359,47.901716],[35.08236,47.901716],[35.082787,47.902051],[35.082851,47.902005],[35.083042,47.901865],[35.082853,47.901716],[35.082591,47.901509],[35.082431,47.901601],[35.08243,47.901601],[35.082306,47.901673]]]}},{"type":"Feature","properties":{"cadnum":"2322181601:08:001:0105"},"geometry":{"type":"Polygon","coordinates":[[[35.082086,47.901786],[35.08233,47.902063],[35.082501,47.902258],[35.082646,47.902153],[35.082787,47.902051],[35.082306,47.901673],[35.082297,47.901667],[35.082086,47.901786]]]}},{"type":"Feature","properties":{"cadnum":"2322181601:08:001:0116"},"geometry":{"type":"Polygon","coordinates":[[[35.082605,47.903208],[35.083103,47.903776],[35.08335,47.903531],[35.083088,47.903449],[35.083088,47.903448],[35.083164,47.903384],[35.082605,47.903208]]]}},{"type":"Feature","properties":{"cadnum":"2322181601:08:001:0019"},"geometry":{"type":"Polygon","coordinates":[[[35.084192,47.902488],[35.084703,47.902709],[35.084753,47.90267],[35.084922,47.902533],[35.084344,47.902358],[35.084199,47.902483],[35.084192,47.902488]]]}},{"type":"Feature","properties":{"cadnum":"2322181601:08:001:0119"},"geometry":{"type":"Polygon","coordinates":[[[35.083002,47.902862],[35.083561,47.903038],[35.083628,47.902979],[35.083774,47.902852],[35.083215,47.902678],[35.083002,47.902862]]]}},{"type":"Feature","properties":{"cadnum":"2322181601:08:001:0174"},"geometry":{"type":"Polygon","coordinates":[[[35.080478,47.902815],[35.080614,47.902969],[35.08116,47.902709],[35.081023,47.902555],[35.080478,47.902815]]]}},{"type":"Feature","properties":{"cadnum":"2322181601:08:001:0178"},"geometry":{"type":"Polygon","coordinates":[[[35.081021,47.903433],[35.081158,47.903588],[35.081375,47.903485],[35.081706,47.903329],[35.081569,47.903174],[35.081021,47.903433]]]}},{"type":"Feature","properties":{"cadnum":"2322181601:08:001:0138"},"geometry":{"type":"Polygon","coordinates":[[[35.082249,47.903948],[35.082279,47.90398],[35.082387,47.904104],[35.082933,47.903844],[35.082796,47.903689],[35.082249,47.903948]]]}},{"type":"Feature","properties":{"cadnum":"2322181601:08:001:1059"},"geometry":{"type":"Polygon","coordinates":[[[35.081998,47.904513],[35.082196,47.904672],[35.082512,47.904485],[35.082264,47.90432],[35.081998,47.904513]]]}},{"type":"Feature","properties":{"cadnum":"2322181601:08:001:1056"},"geometry":{"type":"Polygon","coordinates":[[[35.082241,47.902778],[35.082523,47.903098],[35.082934,47.902737],[35.082782,47.902563],[35.082241,47.902778]]]}},{"type":"Feature","properties":{"cadnum":"2322181601:08:001:0074"},"geometry":{"type":"Polygon","coordinates":[[[35.081158,47.901559],[35.081193,47.901601],[35.081192,47.901601],[35.081259,47.901679],[35.08129,47.901716],[35.081291,47.901716],[35.0815,47.901961],[35.081784,47.901799],[35.081545,47.901601],[35.081356,47.901444],[35.081158,47.901559]]]}},{"type":"Feature","properties":{"cadnum":"2322181601:08:001:0114"},"geometry":{"type":"Polygon","coordinates":[[[35.083297,47.901695],[35.083334,47.901716],[35.083335,47.901716],[35.083809,47.901975],[35.084013,47.901797],[35.083824,47.901695],[35.083521,47.901531],[35.083425,47.901601],[35.083424,47.901601],[35.083297,47.901695]]]}},{"type":"Feature","properties":{"cadnum":"2322181601:08:001:0121"},"geometry":{"type":"Polygon","coordinates":[[[35.083423,47.902491],[35.083986,47.902668],[35.084199,47.902483],[35.08364,47.902308],[35.083423,47.902491]]]}},{"type":"Feature","properties":{"cadnum":"2322181601:08:001:0107"},"geometry":{"type":"Polygon","coordinates":[[[35.081788,47.902279],[35.082004,47.902525],[35.082547,47.902309],[35.082501,47.902258],[35.08233,47.902063],[35.081788,47.902279]]]}},{"type":"Feature","properties":{"cadnum":"2322181601:08:001:0120"},"geometry":{"type":"Polygon","coordinates":[[[35.083209,47.902676],[35.083769,47.902851],[35.083805,47.90282],[35.083981,47.902666],[35.083423,47.902491],[35.083209,47.902676]]]}},{"type":"Feature","properties":{"cadnum":"2322181601:08:001:0020"},"geometry":{"type":"Polygon","coordinates":[[[35.083985,47.90267],[35.08454,47.902843],[35.084703,47.902709],[35.084192,47.902488],[35.083985,47.90267]]]}},{"type":"Feature","properties":{"cadnum":"2322181601:08:001:0133"},"geometry":{"type":"Polygon","coordinates":[[[35.083448,47.903136],[35.084007,47.903311],[35.084187,47.903154],[35.083628,47.902979],[35.083561,47.903038],[35.083448,47.903136]]]}},{"type":"Feature","properties":{"cadnum":"2322181601:08:001:0139"},"geometry":{"type":"Polygon","coordinates":[[[35.082114,47.903794],[35.082249,47.903948],[35.082796,47.903689],[35.08266,47.903534],[35.082114,47.903794]]]}},{"type":"Feature","properties":{"cadnum":"2322181601:08:001:0117"},"geometry":{"type":"Polygon","coordinates":[[[35.082605,47.903208],[35.083164,47.903384],[35.083268,47.903292],[35.083349,47.903223],[35.08279,47.903047],[35.082605,47.903208]]]}},{"type":"Feature","properties":{"cadnum":"2322181601:08:001:0135"},"geometry":{"type":"Polygon","coordinates":[[[35.083168,47.903474],[35.08335,47.903531],[35.083698,47.903684],[35.083871,47.903536],[35.083864,47.903533],[35.083399,47.903314],[35.083372,47.903301],[35.083168,47.903474]]]}},{"type":"Feature","properties":{"cadnum":"2322181601:08:001:0182"},"geometry":{"type":"Polygon","coordinates":[[[35.081569,47.90405],[35.081706,47.904207],[35.082251,47.903948],[35.082114,47.903794],[35.081569,47.90405]]]}},{"type":"Feature","properties":{"cadnum":"2322181601:08:001:1068"},"geometry":{"type":"Polygon","coordinates":[[[35.080154,47.904275],[35.081044,47.905283],[35.081138,47.90539],[35.081139,47.90539],[35.081585,47.905134],[35.081205,47.904701],[35.081694,47.904478],[35.081501,47.904268],[35.081309,47.90405],[35.081107,47.903834],[35.080632,47.904051],[35.080154,47.904275]]]}},{"type":"Feature","properties":{"cadnum":"2322181601:08:001:0254"},"geometry":{"type":"Polygon","coordinates":[[[35.079273,47.905088],[35.079432,47.905268],[35.079446,47.905283],[35.079445,47.905283],[35.079509,47.905355],[35.079988,47.905131],[35.079981,47.905124],[35.079926,47.905062],[35.079791,47.904908],[35.079753,47.904864],[35.079273,47.905088]]]}},{"type":"Feature","properties":{"cadnum":"2322181601:08:001:0183"},"geometry":{"type":"Polygon","coordinates":[[[35.081705,47.904208],[35.081841,47.904363],[35.081842,47.904363],[35.082387,47.904104],[35.082279,47.90398],[35.082251,47.903949],[35.081705,47.904208]]]}},{"type":"Feature","properties":{"cadnum":"2322181601:08:001:0226"},"geometry":{"type":"Polygon","coordinates":[[[35.079241,47.904285],[35.07926,47.904306],[35.079409,47.904474],[35.079432,47.9045],[35.07947,47.904544],[35.079945,47.904318],[35.079717,47.904059],[35.079432,47.904195],[35.079241,47.904285]]]}},{"type":"Feature","properties":{"cadnum":"2322181601:08:001:0225"},"geometry":{"type":"Polygon","coordinates":[[[35.07947,47.904544],[35.079606,47.904698],[35.079698,47.904803],[35.080175,47.904578],[35.079945,47.904318],[35.07947,47.904544]]]}},{"type":"Feature","properties":{"cadnum":"2322181601:08:001:0251"},"geometry":{"type":"Polygon","coordinates":[[[35.078745,47.904489],[35.078937,47.904705],[35.07926,47.904554],[35.079415,47.904481],[35.079241,47.904285],[35.079225,47.904265],[35.078745,47.904489]]]}},{"type":"Feature","properties":{"cadnum":"2322181601:08:001:0223"},"geometry":{"type":"Polygon","coordinates":[[[35.079926,47.905062],[35.079981,47.905124],[35.080154,47.905321],[35.08063,47.905096],[35.080402,47.904837],[35.079926,47.905062]]]}},{"type":"Feature","properties":{"cadnum":"2322181601:09:001:0595"},"geometry":{"type":"Polygon","coordinates":[[[35.065404,47.931252],[35.065414,47.931528],[35.065421,47.931736],[35.065758,47.931727],[35.065748,47.931514],[35.065728,47.931248],[35.065404,47.931252]]]}},{"type":"Feature","properties":{"cadnum":"2322181601:09:001:0115"},"geometry":{"type":"Polygon","coordinates":[[[35.064752,47.931266],[35.064756,47.931414],[35.064764,47.931511],[35.064767,47.931727],[35.065088,47.931723],[35.065086,47.931509],[35.065082,47.931375],[35.065082,47.931258],[35.064752,47.931266]]]}},{"type":"Feature","properties":{"cadnum":"2322181601:09:001:0106"},"geometry":{"type":"Polygon","coordinates":[[[35.064627,47.931942],[35.06464,47.932393],[35.064647,47.932624],[35.064903,47.932625],[35.064901,47.932404],[35.064901,47.93213],[35.064893,47.931933],[35.064627,47.931942]]]}},{"type":"Feature","properties":{"cadnum":"2322181601:09:001:0608"},"geometry":{"type":"Polygon","coordinates":[[[35.062827,47.931278],[35.062865,47.931697],[35.062952,47.931753],[35.062952,47.931752],[35.062961,47.931758],[35.063211,47.93176],[35.063187,47.931498],[35.063169,47.931269],[35.062827,47.931278]]]}},{"type":"Feature","properties":{"cadnum":"2322181601:09:001:0453"},"geometry":{"type":"Polygon","coordinates":[[[35.06675,47.931238],[35.066792,47.931667],[35.067022,47.931659],[35.067009,47.931381],[35.066892,47.931253],[35.06675,47.931238]]]}},{"type":"Feature","properties":{"cadnum":"2322181601:09:001:0598"},"geometry":{"type":"Polygon","coordinates":[[[35.066149,47.932628],[35.066173,47.932641],[35.066161,47.932856],[35.066503,47.932883],[35.066506,47.932781],[35.066507,47.932611],[35.066515,47.932588],[35.066149,47.932628]]]}},{"type":"Feature","properties":{"cadnum":"2322181601:09:001:0090"},"geometry":{"type":"Polygon","coordinates":[[[35.068239,47.932449],[35.068273,47.932448],[35.068274,47.932448],[35.068323,47.932446],[35.068445,47.932445],[35.068445,47.932444],[35.068617,47.93244],[35.068589,47.931855],[35.068278,47.931865],[35.068239,47.932449]]]}},{"type":"Feature","properties":{"cadnum":"2322181601:09:002:0049"},"geometry":{"type":"Polygon","coordinates":[[[35.863113,47.731033],[35.863131,47.73161],[35.863495,47.731604],[35.863481,47.73103],[35.863113,47.731033]]]}},{"type":"Feature","properties":{"cadnum":"2322181601:02:002:0284"},"geometry":{"type":"Polygon","coordinates":[[[35.043934,47.891918],[35.044407,47.891977],[35.044458,47.891782],[35.043985,47.891723],[35.043934,47.891918]]]}},{"type":"Feature","properties":{"cadnum":"2322181601:02:002:0283"},"geometry":{"type":"Polygon","coordinates":[[[35.043882,47.892111],[35.044355,47.892169],[35.044407,47.891974],[35.043934,47.891917],[35.043896,47.892058],[35.043882,47.892111]]]}},{"type":"Feature","properties":{"cadnum":"2322181601:09:001:0384"},"geometry":{"type":"Polygon","coordinates":[[[35.073606,47.930167],[35.073767,47.930627],[35.073767,47.930628],[35.073781,47.930669],[35.073938,47.930644],[35.073938,47.930643],[35.074127,47.930613],[35.073944,47.93011],[35.073938,47.930111],[35.073855,47.930125],[35.073767,47.93014],[35.073606,47.930167]]]}},{"type":"Feature","properties":{"cadnum":"2322181601:09:001:0327"},"geometry":{"type":"Polygon","coordinates":[[[35.071068,47.929319],[35.07154,47.929319],[35.07154,47.928957],[35.071074,47.928957],[35.071068,47.929319]]]}},{"type":"Feature","properties":{"cadnum":"2322181601:09:002:0992"},"geometry":{"type":"Polygon","coordinates":[[[35.070197,47.927952],[35.070386,47.928037],[35.070594,47.927844],[35.070414,47.927759],[35.070197,47.927952]]]}},{"type":"Feature","properties":{"cadnum":"2322181601:09:001:0148"},"geometry":{"type":"Polygon","coordinates":[[[35.069873,47.930505],[35.069887,47.931041],[35.070146,47.931033],[35.070213,47.93103],[35.070205,47.93049],[35.069873,47.930505]]]}},{"type":"Feature","properties":{"cadnum":"2322181601:09:001:0373"},"geometry":{"type":"Polygon","coordinates":[[[35.068735,47.929329],[35.0692,47.929329],[35.069204,47.928967],[35.06876,47.928964],[35.068758,47.929027],[35.068736,47.929027],[35.068735,47.929329]]]}},{"type":"Feature","properties":{"cadnum":"2322181601:09:001:0460"},"geometry":{"type":"Polygon","coordinates":[[[35.068983,47.931075],[35.068998,47.931169],[35.069019,47.931298],[35.069049,47.931627],[35.06932,47.931617],[35.069301,47.931388],[35.069287,47.931321],[35.069278,47.931282],[35.069273,47.931237],[35.069258,47.931067],[35.068983,47.931075]]]}},{"type":"Feature","properties":{"cadnum":"2322181601:09:001:0149"},"geometry":{"type":"Polygon","coordinates":[[[35.069536,47.930521],[35.069581,47.931055],[35.069857,47.931044],[35.069888,47.931041],[35.069873,47.930505],[35.069536,47.930521]]]}},{"type":"Feature","properties":{"cadnum":"2322181601:09:001:0363"},"geometry":{"type":"Polygon","coordinates":[[[35.070142,47.929796],[35.07061,47.929796],[35.070615,47.929435],[35.070147,47.929435],[35.070142,47.929796]]]}},{"type":"Feature","properties":{"cadnum":"2322181601:09:002:0622"},"geometry":{"type":"Polygon","coordinates":[[[35.070764,47.928211],[35.070958,47.928297],[35.071157,47.928113],[35.070961,47.928018],[35.070764,47.928211]]]}},{"type":"Feature","properties":{"cadnum":"2322181601:08:001:0252"},"geometry":{"type":"Polygon","coordinates":[[[35.07106,47.897786],[35.071071,47.89778],[35.071579,47.897477],[35.071317,47.897184],[35.071228,47.897175],[35.07106,47.897786]]]}},{"type":"Feature","properties":{"cadnum":"2322181601:08:001:1062"},"geometry":{"type":"Polygon","coordinates":[[[35.085505,47.899609],[35.08616,47.899606],[35.086176,47.899337],[35.085516,47.899341],[35.085509,47.899535],[35.085505,47.899609]]]}},{"type":"Feature","properties":{"cadnum":"2322181601:08:001:0030"},"geometry":{"type":"Polygon","coordinates":[[[35.08495,47.898977],[35.084958,47.899261],[35.08496,47.899294],[35.085208,47.899281],[35.085531,47.899265],[35.085532,47.899116],[35.085532,47.898957],[35.08495,47.898977]]]}},{"type":"Feature","properties":{"cadnum":"2322181601:08:001:0028"},"geometry":{"type":"Polygon","coordinates":[[[35.084938,47.899543],[35.084949,47.899858],[35.085492,47.899858],[35.085505,47.899609],[35.085509,47.899535],[35.084938,47.899543]]]}},{"type":"Feature","properties":{"cadnum":"2322181601:08:001:1058"},"geometry":{"type":"Polygon","coordinates":[[[35.084565,47.898488],[35.084766,47.89869],[35.084827,47.898757],[35.084872,47.898814],[35.084907,47.898871],[35.084919,47.898903],[35.084922,47.898929],[35.084925,47.898928],[35.085424,47.89871],[35.085438,47.898704],[35.085464,47.898693],[35.085382,47.898586],[35.085263,47.898467],[35.085256,47.89847],[35.085247,47.898461],[35.085036,47.898271],[35.085013,47.898282],[35.084825,47.89837],[35.084707,47.898423],[35.084565,47.898488]]]}},{"type":"Feature","properties":{"cadnum":"2322181601:08:001:0032"},"geometry":{"type":"Polygon","coordinates":[[[35.084317,47.898258],[35.084568,47.898487],[35.084753,47.898402],[35.084753,47.898403],[35.084826,47.898369],[35.084925,47.898324],[35.084925,47.898323],[35.085036,47.898271],[35.084994,47.898234],[35.08477,47.898036],[35.084317,47.898258]]]}},{"type":"Feature","properties":{"cadnum":"2322181601:08:001:0009"},"geometry":{"type":"Polygon","coordinates":[[[35.085516,47.899341],[35.086176,47.899337],[35.086188,47.899112],[35.08554,47.899118],[35.085535,47.899266],[35.085519,47.899266],[35.085516,47.899341]]]}},{"type":"Feature","properties":{"cadnum":"2322181601:08:001:0010"},"geometry":{"type":"Polygon","coordinates":[[[35.085493,47.899837],[35.085532,47.899837],[35.085532,47.899884],[35.086153,47.899891],[35.086164,47.899614],[35.085505,47.899609],[35.085493,47.899837]]]}},{"type":"Feature","properties":{"cadnum":"2322181601:08:001:0012"},"geometry":{"type":"Polygon","coordinates":[[[35.085379,47.901165],[35.086061,47.901212],[35.086073,47.900927],[35.085467,47.900885],[35.085462,47.900984],[35.085379,47.901165]]]}},{"type":"Feature","properties":{"cadnum":"2322181601:08:001:0023"},"geometry":{"type":"Polygon","coordinates":[[[35.084705,47.901221],[35.084925,47.901233],[35.084925,47.901232],[35.085343,47.901255],[35.085379,47.901165],[35.085462,47.900984],[35.084761,47.900958],[35.084705,47.901221]]]}},{"type":"Feature","properties":{"cadnum":"2322181601:08:001:0031"},"geometry":{"type":"Polygon","coordinates":[[[35.084922,47.898929],[35.084923,47.898934],[35.084926,47.898977],[35.0855,47.898955],[35.08553,47.898953],[35.085527,47.89887],[35.085527,47.898864],[35.085501,47.898742],[35.085464,47.898693],[35.085438,47.898704],[35.084922,47.898929]]]}},{"type":"Feature","properties":{"cadnum":"2322181601:09:002:0991"},"geometry":{"type":"Polygon","coordinates":[[[35.078839,47.926562],[35.078845,47.926784],[35.07923,47.926784],[35.07923,47.926559],[35.078839,47.926562]]]}},{"type":"Feature","properties":{"cadnum":"2322181601:09:002:0987"},"geometry":{"type":"Polygon","coordinates":[[[35.077806,47.926898],[35.07782,47.927343],[35.078269,47.927342],[35.078271,47.927307],[35.07827,47.927068],[35.078266,47.926897],[35.077806,47.926898]]]}},{"type":"Feature","properties":{"cadnum":"2322181601:09:002:0995"},"geometry":{"type":"Polygon","coordinates":[[[35.077427,47.927367],[35.07782,47.927388],[35.07782,47.927343],[35.077816,47.927185],[35.077806,47.926898],[35.077449,47.926897],[35.077443,47.92697],[35.077444,47.927024],[35.077443,47.927043],[35.07744,47.927103],[35.077427,47.927367]]]}},{"type":"Feature","properties":{"cadnum":"2322181601:09:002:1000"},"geometry":{"type":"Polygon","coordinates":[[[35.073678,47.92509],[35.073938,47.92509],[35.074081,47.92509],[35.074094,47.924468],[35.073767,47.924469],[35.07368,47.924469],[35.073678,47.92509]]]}},{"type":"Feature","properties":{"cadnum":"2322181601:09:002:0373"},"geometry":{"type":"Polygon","coordinates":[[[35.075301,47.925099],[35.075702,47.925103],[35.075706,47.924473],[35.075304,47.924469],[35.075301,47.925099]]]}},{"type":"Feature","properties":{"cadnum":"2322181601:09:002:0982"},"geometry":{"type":"Polygon","coordinates":[[[35.077154,47.925072],[35.077362,47.92507],[35.077342,47.92444],[35.077162,47.924443],[35.077154,47.925072]]]}},{"type":"Feature","properties":{"cadnum":"2322181601:09:002:0988"},"geometry":{"type":"Polygon","coordinates":[[[35.074078,47.926305],[35.074746,47.92631],[35.074762,47.92586],[35.074086,47.925857],[35.074087,47.926024],[35.074078,47.926305]]]}},{"type":"Feature","properties":{"cadnum":"2322181601:09:002:0983"},"geometry":{"type":"Polygon","coordinates":[[[35.076961,47.925074],[35.077154,47.925072],[35.077162,47.924443],[35.076968,47.924445],[35.076961,47.925074]]]}},{"type":"Feature","properties":{"cadnum":"2322181601:09:002:0375"},"geometry":{"type":"Polygon","coordinates":[[[35.076092,47.924437],[35.076094,47.925092],[35.076496,47.925095],[35.076493,47.924433],[35.076092,47.924437]]]}},{"type":"Feature","properties":{"cadnum":"2322181601:09:002:0132"},"geometry":{"type":"Polygon","coordinates":[[[35.078666,47.927626],[35.078689,47.927822],[35.079222,47.927818],[35.07926,47.927819],[35.079642,47.927827],[35.079637,47.927617],[35.079432,47.927619],[35.079198,47.927621],[35.078666,47.927626]]]}},{"type":"Feature","properties":{"cadnum":"2322181601:09:002:0135"},"geometry":{"type":"Polygon","coordinates":[[[35.078701,47.928218],[35.078706,47.928421],[35.07922,47.928411],[35.07926,47.928411],[35.079295,47.928411],[35.079432,47.92841],[35.079432,47.928409],[35.079657,47.928407],[35.079653,47.928211],[35.079327,47.92821],[35.079179,47.928209],[35.07895,47.928208],[35.078701,47.928218]]]}},{"type":"Feature","properties":{"cadnum":"2322181601:09:003:0260"},"geometry":{"type":"Polygon","coordinates":[[[35.083361,47.929382],[35.083386,47.92955],[35.084221,47.929549],[35.084166,47.92933],[35.083361,47.929382]]]}},{"type":"Feature","properties":{"cadnum":"2322181601:09:003:0267"},"geometry":{"type":"Polygon","coordinates":[[[35.08136,47.929774],[35.081373,47.930131],[35.081813,47.930134],[35.081774,47.929775],[35.08136,47.929774]]]}},{"type":"Feature","properties":{"cadnum":"2322181601:09:003:0265"},"geometry":{"type":"Polygon","coordinates":[[[35.082559,47.929971],[35.082562,47.930058],[35.08257,47.930062],[35.082579,47.930142],[35.082635,47.930139],[35.08285,47.930138],[35.082834,47.929973],[35.082748,47.929974],[35.082583,47.929975],[35.082583,47.92997],[35.082559,47.929971]]]}},{"type":"Feature","properties":{"cadnum":"2322181601:09:003:0281"},"geometry":{"type":"Polygon","coordinates":[[[35.082979,47.930483],[35.08298,47.930528],[35.082983,47.930569],[35.082989,47.930569],[35.082995,47.930611],[35.083069,47.930613],[35.083069,47.930614],[35.083079,47.930719],[35.083081,47.930719],[35.083082,47.930743],[35.083083,47.930777],[35.083196,47.930774],[35.083196,47.930776],[35.083326,47.930777],[35.083487,47.930769],[35.083443,47.930482],[35.083401,47.93048],[35.083176,47.930483],[35.082979,47.930483]]]}},{"type":"Feature","properties":{"cadnum":"2322181601:09:003:0280"},"geometry":{"type":"Polygon","coordinates":[[[35.083262,47.931039],[35.083262,47.931054],[35.083265,47.93115],[35.083266,47.931169],[35.083267,47.931204],[35.083463,47.931199],[35.083457,47.931166],[35.083436,47.931041],[35.083533,47.931037],[35.083545,47.931023],[35.083405,47.931034],[35.083262,47.931039]]]}},{"type":"Feature","properties":{"cadnum":"2322181601:09:003:0447"},"geometry":{"type":"Polygon","coordinates":[[[35.08243,47.930219],[35.082436,47.930378],[35.08244,47.930475],[35.082547,47.930474],[35.082709,47.930472],[35.082748,47.930471],[35.082735,47.930226],[35.082715,47.930212],[35.082685,47.930212],[35.082513,47.930211],[35.082513,47.93022],[35.08243,47.930219]]]}},{"type":"Feature","properties":{"cadnum":"2322181601:09:001:0278"},"geometry":{"type":"Polygon","coordinates":[[[35.082816,47.931054],[35.082817,47.931068],[35.082822,47.931169],[35.082826,47.931235],[35.082888,47.931233],[35.082893,47.931224],[35.082968,47.931218],[35.082961,47.931169],[35.082945,47.931048],[35.082816,47.931052],[35.082817,47.931054],[35.082816,47.931054]]]}},{"type":"Feature","properties":{"cadnum":"2322181601:08:001:0040"},"geometry":{"type":"Polygon","coordinates":[[[35.092974,47.909169],[35.093588,47.909205],[35.093601,47.909081],[35.093602,47.909081],[35.093619,47.908928],[35.092999,47.908887],[35.092992,47.908966],[35.092991,47.908966],[35.092988,47.909005],[35.092981,47.909081],[35.092982,47.909081],[35.092974,47.909169]]]}},{"type":"Feature","properties":{"cadnum":"2322181601:08:002:0180"},"geometry":{"type":"Polygon","coordinates":[[[35.083754,47.897294],[35.083991,47.897523],[35.08406,47.897488],[35.083824,47.89726],[35.083754,47.897294]]]}},{"type":"Feature","properties":{"cadnum":"2322181601:09:001:0299"},"geometry":{"type":"Polygon","coordinates":[[[35.063098,47.924492],[35.063098,47.924497],[35.063112,47.925019],[35.064025,47.925009],[35.063098,47.924492]]]}},{"type":"Feature","properties":{"cadnum":"2322181601:09:001:0284"},"geometry":{"type":"Polygon","coordinates":[[[35.065648,47.926319],[35.066772,47.926325],[35.066719,47.926296],[35.065908,47.925898],[35.065677,47.925789],[35.065648,47.926319]]]}},{"type":"Feature","properties":{"cadnum":"2322181601:09:001:0442"},"geometry":{"type":"Polygon","coordinates":[[[35.063283,47.925686],[35.063604,47.92569],[35.063616,47.925156],[35.063617,47.92515],[35.063295,47.925147],[35.063295,47.925157],[35.063283,47.925686]]]}},{"type":"Feature","properties":{"cadnum":"2322181601:09:001:0295"},"geometry":{"type":"Polygon","coordinates":[[[35.063604,47.92569],[35.063973,47.925693],[35.063985,47.925154],[35.063617,47.92515],[35.063604,47.92569]]]}},{"type":"Feature","properties":{"cadnum":"2322181601:09:001:0604"},"geometry":{"type":"Polygon","coordinates":[[[35.064162,47.926961],[35.064496,47.926969],[35.064516,47.926429],[35.064182,47.926422],[35.064162,47.926961]]]}},{"type":"Feature","properties":{"cadnum":"2322181601:09:002:0355"},"geometry":{"type":"Polygon","coordinates":[[[35.07225,47.92297],[35.072254,47.923424],[35.072655,47.923423],[35.072652,47.92297],[35.07225,47.92297]]]}},{"type":"Feature","properties":{"cadnum":"2322181601:09:002:0188"},"geometry":{"type":"Polygon","coordinates":[[[35.07276,47.920898],[35.073107,47.920898],[35.073116,47.920395],[35.072769,47.92039],[35.07276,47.920898]]]}},{"type":"Feature","properties":{"cadnum":"2322181601:09:002:0324"},"geometry":{"type":"Polygon","coordinates":[[[35.070894,47.922964],[35.070895,47.923437],[35.071296,47.923438],[35.071296,47.922964],[35.070894,47.922964]]]}},{"type":"Feature","properties":{"cadnum":"2322181601:09:002:0310"},"geometry":{"type":"Polygon","coordinates":[[[35.069207,47.923435],[35.069211,47.923662],[35.06988,47.923663],[35.069876,47.923436],[35.069438,47.923436],[35.069207,47.923435]]]}},{"type":"Feature","properties":{"cadnum":"2322181601:09:002:0258"},"geometry":{"type":"Polygon","coordinates":[[[35.071428,47.922266],[35.071778,47.922274],[35.071785,47.921715],[35.071432,47.921716],[35.071428,47.922266]]]}},{"type":"Feature","properties":{"cadnum":"2322181601:09:002:0247"},"geometry":{"type":"Polygon","coordinates":[[[35.073119,47.921727],[35.073122,47.922266],[35.073456,47.92226],[35.073453,47.921721],[35.073119,47.921727]]]}},{"type":"Feature","properties":{"cadnum":"2322181601:09:002:0350"},"geometry":{"type":"Polygon","coordinates":[[[35.072098,47.923893],[35.072239,47.923892],[35.07246,47.92389],[35.072639,47.923888],[35.072782,47.923885],[35.072779,47.923715],[35.072779,47.923714],[35.072778,47.923665],[35.072101,47.923671],[35.072101,47.923692],[35.0721,47.923692],[35.072099,47.923763],[35.072098,47.923807],[35.072099,47.923807],[35.072098,47.923893]]]}},{"type":"Feature","properties":{"cadnum":"2322181601:09:002:0252"},"geometry":{"type":"Polygon","coordinates":[[[35.072454,47.922272],[35.072788,47.922269],[35.072789,47.921728],[35.072455,47.921733],[35.072454,47.922272]]]}},{"type":"Feature","properties":{"cadnum":"2322181601:09:002:0171"},"geometry":{"type":"Polygon","coordinates":[[[35.07006,47.921505],[35.070407,47.921507],[35.070395,47.920932],[35.070061,47.920929],[35.07006,47.921505]]]}},{"type":"Feature","properties":{"cadnum":"2322181601:09:002:0186"},"geometry":{"type":"Polygon","coordinates":[[[35.072411,47.920385],[35.072435,47.920931],[35.072758,47.920929],[35.07276,47.920898],[35.072769,47.92039],[35.072411,47.920385]]]}},{"type":"Feature","properties":{"cadnum":"2322181601:09:002:0971"},"geometry":{"type":"Polygon","coordinates":[[[35.072426,47.920931],[35.072432,47.921477],[35.072434,47.921488],[35.072434,47.921519],[35.072772,47.921518],[35.072772,47.921478],[35.072758,47.92093],[35.072426,47.920931]]]}},{"type":"Feature","properties":{"cadnum":"2322181601:09:002:0063"},"geometry":{"type":"Polygon","coordinates":[[[35.069474,47.919785],[35.069482,47.920126],[35.069483,47.920126],[35.069486,47.920235],[35.069876,47.920233],[35.069875,47.920011],[35.069875,47.919784],[35.069474,47.919785]]]}},{"type":"Feature","properties":{"cadnum":"2322181601:09:002:0986"},"geometry":{"type":"Polygon","coordinates":[[[35.070874,47.91978],[35.070874,47.919845],[35.070876,47.920011],[35.070875,47.920011],[35.070876,47.920038],[35.070877,47.920126],[35.070879,47.920229],[35.071282,47.920228],[35.071282,47.920227],[35.071278,47.920012],[35.071275,47.919778],[35.070929,47.91978],[35.070874,47.91978]]]}},{"type":"Feature","properties":{"cadnum":"2322181601:09:003:0444"},"geometry":{"type":"Polygon","coordinates":[[[35.083781,47.924546],[35.084925,47.92455],[35.08524,47.924551],[35.08524,47.924471],[35.084925,47.924471],[35.084925,47.92447],[35.084396,47.924469],[35.084396,47.924468],[35.084398,47.924389],[35.083782,47.924387],[35.083781,47.924546]]]}},{"type":"Feature","properties":{"cadnum":"2322181601:09:003:0174"},"geometry":{"type":"Polygon","coordinates":[[[35.078453,47.917628],[35.078525,47.917898],[35.079322,47.917899],[35.079323,47.917629],[35.078453,47.917628]]]}},{"type":"Feature","properties":{"cadnum":"2322181601:09:003:0357"},"geometry":{"type":"Polygon","coordinates":[[[35.078305,47.916968],[35.078412,47.917233],[35.07926,47.917194],[35.07926,47.917195],[35.079367,47.91719],[35.079343,47.91692],[35.078672,47.916951],[35.078305,47.916968]]]}},{"type":"Feature","properties":{"cadnum":"2322181601:09:002:0981"},"geometry":{"type":"Polygon","coordinates":[[[35.077211,47.918864],[35.077213,47.919313],[35.077614,47.919306],[35.077612,47.918857],[35.077211,47.918864]]]}},{"type":"Feature","properties":{"cadnum":"2322181601:09:003:0351"},"geometry":{"type":"Polygon","coordinates":[[[35.079877,47.923131],[35.079878,47.923807],[35.079879,47.923807],[35.079881,47.924212],[35.081969,47.924312],[35.081968,47.924273],[35.081312,47.923807],[35.080368,47.923136],[35.079877,47.923131]]]}},{"type":"Feature","properties":{"cadnum":"2322181601:09:003:0129"},"geometry":{"type":"Polygon","coordinates":[[[35.08112,47.921114],[35.081123,47.921383],[35.081792,47.92139],[35.081789,47.921142],[35.081789,47.92112],[35.08112,47.921114]]]}},{"type":"Feature","properties":{"cadnum":"2322181601:09:003:0191"},"geometry":{"type":"Polygon","coordinates":[[[35.079477,47.921347],[35.07955,47.921585],[35.080267,47.921541],[35.080244,47.921299],[35.079477,47.921347]]]}},{"type":"Feature","properties":{"cadnum":"2322181601:09:003:0094"},"geometry":{"type":"Polygon","coordinates":[[[35.08174,47.91639],[35.081742,47.916444],[35.081742,47.916445],[35.081752,47.916621],[35.081752,47.916631],[35.081764,47.916887],[35.081766,47.916925],[35.081772,47.917048],[35.08178,47.917199],[35.081784,47.91721],[35.081858,47.91721],[35.082428,47.917207],[35.08244,47.917207],[35.082411,47.916634],[35.082401,47.916387],[35.082381,47.916387],[35.08174,47.91639]]]}},{"type":"Feature","properties":{"cadnum":"2322181601:09:003:0068"},"geometry":{"type":"Polygon","coordinates":[[[35.081117,47.914811],[35.08112,47.915027],[35.081789,47.915022],[35.081785,47.914807],[35.081117,47.914811]]]}},{"type":"Feature","properties":{"cadnum":"2322181601:09:003:0085"},"geometry":{"type":"Polygon","coordinates":[[[35.082784,47.915077],[35.082788,47.915347],[35.083458,47.915339],[35.083454,47.915068],[35.082784,47.915077]]]}},{"type":"Feature","properties":{"cadnum":"2322181601:09:003:0079"},"geometry":{"type":"Polygon","coordinates":[[[35.081772,47.913943],[35.081776,47.91416],[35.082445,47.914154],[35.082441,47.913938],[35.081772,47.913943]]]}},{"type":"Feature","properties":{"cadnum":"2322181601:09:003:0051"},"geometry":{"type":"Polygon","coordinates":[[[35.079548,47.915368],[35.079567,47.915637],[35.080236,47.915615],[35.080216,47.915346],[35.079548,47.915368]]]}},{"type":"Feature","properties":{"cadnum":"2322181601:08:001:0256"},"geometry":{"type":"Polygon","coordinates":[[[35.079744,47.905622],[35.07998,47.905889],[35.080459,47.905666],[35.080385,47.905581],[35.080223,47.905399],[35.079744,47.905622]]]}},{"type":"Feature","properties":{"cadnum":"2322181601:09:001:0456"},"geometry":{"type":"Polygon","coordinates":[[[35.070367,47.933142],[35.07038,47.933696],[35.070572,47.933692],[35.070555,47.933133],[35.070367,47.933142]]]}},{"type":"Feature","properties":{"cadnum":"2322181601:09:001:0458"},"geometry":{"type":"Polygon","coordinates":[[[35.070555,47.933133],[35.070572,47.933692],[35.070761,47.933688],[35.07074,47.933123],[35.070555,47.933133]]]}},{"type":"Feature","properties":{"cadnum":"2322181601:09:001:0073"},"geometry":{"type":"Polygon","coordinates":[[[35.070686,47.932417],[35.070674,47.932712],[35.070701,47.933022],[35.071015,47.933004],[35.071003,47.932703],[35.070997,47.932411],[35.070702,47.932416],[35.070686,47.932417]]]}},{"type":"Feature","properties":{"cadnum":"2322181601:09:001:0086"},"geometry":{"type":"Polygon","coordinates":[[[35.068951,47.931835],[35.068979,47.932265],[35.068998,47.932446],[35.069017,47.932446],[35.069305,47.932442],[35.069294,47.932265],[35.069097,47.93227],[35.069092,47.932223],[35.069025,47.932222],[35.069021,47.932117],[35.069035,47.932102],[35.069069,47.932099],[35.069069,47.932067],[35.069121,47.932065],[35.06925,47.93206],[35.069242,47.931875],[35.069175,47.931878],[35.069171,47.931827],[35.068951,47.931835]]]}},{"type":"Feature","properties":{"cadnum":"2322181601:09:001:0603"},"geometry":{"type":"Polygon","coordinates":[[[35.070304,47.932414],[35.070336,47.933017],[35.070667,47.933009],[35.070635,47.932406],[35.070304,47.932414]]]}},{"type":"Feature","properties":{"cadnum":"2322181601:09:001:0606"},"geometry":{"type":"Polygon","coordinates":[[[35.068708,47.932442],[35.068709,47.932688],[35.068712,47.932974],[35.068712,47.93306],[35.068941,47.933065],[35.068932,47.93302],[35.068924,47.932984],[35.068907,47.932907],[35.068797,47.932898],[35.068797,47.932897],[35.068803,47.932796],[35.068877,47.932792],[35.068861,47.932692],[35.068868,47.932444],[35.068708,47.932442]]]}},{"type":"Feature","properties":{"cadnum":"2322181601:09:001:0607"},"geometry":{"type":"Polygon","coordinates":[[[35.068797,47.932898],[35.068906,47.932907],[35.068907,47.932907],[35.068924,47.932984],[35.068932,47.93302],[35.068941,47.933065],[35.069053,47.933067],[35.06905,47.933026],[35.069049,47.93299],[35.069034,47.93267],[35.069017,47.932446],[35.068996,47.932446],[35.068868,47.932444],[35.068861,47.932692],[35.068877,47.932792],[35.068803,47.932796],[35.068797,47.932898]]]}},{"type":"Feature","properties":{"cadnum":"2322181601:09:001:0019"},"geometry":{"type":"Polygon","coordinates":[[[35.06897,47.934601],[35.069034,47.934603],[35.069316,47.93463],[35.069424,47.93389],[35.069126,47.933859],[35.069092,47.934021],[35.069088,47.934125],[35.069023,47.934377],[35.068978,47.934524],[35.06897,47.934601]]]}},{"type":"Feature","properties":{"cadnum":"2322181601:09:001:0081"},"geometry":{"type":"Polygon","coordinates":[[[35.06935,47.932433],[35.069373,47.932668],[35.069376,47.932703],[35.069367,47.932705],[35.069381,47.933057],[35.069717,47.933059],[35.069684,47.932662],[35.069664,47.932429],[35.06935,47.932433]]]}},{"type":"Feature","properties":{"cadnum":"2322181601:09:001:0601"},"geometry":{"type":"Polygon","coordinates":[[[35.072815,47.932881],[35.072981,47.933476],[35.073324,47.933416],[35.073241,47.933168],[35.073128,47.932827],[35.072815,47.932881]]]}},{"type":"Feature","properties":{"cadnum":"2322181601:09:002:0103"},"geometry":{"type":"Polygon","coordinates":[[[35.076635,47.929064],[35.076807,47.929079],[35.076984,47.929083],[35.076984,47.928965],[35.076984,47.928964],[35.077054,47.92891],[35.077075,47.928836],[35.077064,47.928752],[35.077066,47.928692],[35.07705,47.928642],[35.07703,47.928479],[35.076647,47.928477],[35.076642,47.928724],[35.076638,47.928979],[35.076635,47.929064]]]}},{"type":"Feature","properties":{"cadnum":"2322181601:09:001:0326"},"geometry":{"type":"Polygon","coordinates":[[[35.074366,47.929462],[35.074412,47.930301],[35.074612,47.930303],[35.074608,47.930259],[35.074736,47.930255],[35.074904,47.930251],[35.074901,47.930158],[35.074889,47.930089],[35.074783,47.929838],[35.074767,47.929797],[35.074617,47.929564],[35.074549,47.929521],[35.074366,47.929462]]]}},{"type":"Feature","properties":{"cadnum":"2322181601:09:001:0330"},"geometry":{"type":"Polygon","coordinates":[[[35.074329,47.930592],[35.074471,47.931059],[35.074842,47.931003],[35.0747,47.930539],[35.074494,47.930569],[35.074329,47.930592]]]}},{"type":"Feature","properties":{"cadnum":"2322181601:09:001:0329"},"geometry":{"type":"Polygon","coordinates":[[[35.073961,47.930139],[35.074137,47.93062],[35.074329,47.930592],[35.074494,47.930569],[35.074319,47.930088],[35.073961,47.930139]]]}},{"type":"Feature","properties":{"cadnum":"2322181601:09:001:0139"},"geometry":{"type":"Polygon","coordinates":[[[35.074319,47.930088],[35.074494,47.930569],[35.0747,47.930539],[35.074852,47.930516],[35.074676,47.930037],[35.074319,47.930088]]]}},{"type":"Feature","properties":{"cadnum":"2322181601:09:003:0445"},"geometry":{"type":"Polygon","coordinates":[[[35.081643,47.931995],[35.081643,47.932],[35.081647,47.932289],[35.081663,47.932521],[35.081969,47.932525],[35.081972,47.932001],[35.081972,47.931998],[35.08189,47.931998],[35.081835,47.931996],[35.081799,47.931996],[35.081643,47.931995]]]}},{"type":"Feature","properties":{"cadnum":"2322181601:09:003:0315"},"geometry":{"type":"Polygon","coordinates":[[[35.080726,47.932499],[35.08086,47.9325],[35.080862,47.932239],[35.080862,47.93216],[35.08086,47.931987],[35.080732,47.931989],[35.080726,47.932499]]]}},{"type":"Feature","properties":{"cadnum":"2322181601:09:001:0004"},"geometry":{"type":"Polygon","coordinates":[[[35.082153,47.932969],[35.082563,47.932991],[35.082566,47.932911],[35.08257,47.932642],[35.082602,47.932553],[35.082192,47.932563],[35.082157,47.932899],[35.082153,47.932969]]]}},{"type":"Feature","properties":{"cadnum":"2322181601:09:003:0446"},"geometry":{"type":"Polygon","coordinates":[[[35.082975,47.932123],[35.082977,47.932164],[35.082981,47.932181],[35.083086,47.932176],[35.083089,47.93219],[35.08309,47.932216],[35.083095,47.932278],[35.083103,47.93228],[35.083117,47.9325],[35.08329,47.9325],[35.083278,47.932349],[35.083264,47.932255],[35.083272,47.932252],[35.08327,47.93219],[35.083263,47.93219],[35.083259,47.932135],[35.083254,47.932136],[35.083254,47.932135],[35.083243,47.93201],[35.083086,47.932012],[35.083086,47.932013],[35.083093,47.93208],[35.083101,47.93208],[35.083102,47.932103],[35.083054,47.932104],[35.083055,47.93212],[35.082975,47.932123]]]}},{"type":"Feature","properties":{"cadnum":"2322181601:08:001:0092"},"geometry":{"type":"Polygon","coordinates":[[[35.079678,47.89991],[35.079993,47.900261],[35.080305,47.900134],[35.079971,47.899792],[35.079678,47.89991]]]}},{"type":"Feature","properties":{"cadnum":"2322181601:08:001:0097"},"geometry":{"type":"Polygon","coordinates":[[[35.080575,47.900901],[35.080746,47.901093],[35.081367,47.90074],[35.081263,47.900624],[35.080575,47.900901]]]}},{"type":"Feature","properties":{"cadnum":"2322181601:08:001:0093"},"geometry":{"type":"Polygon","coordinates":[[[35.080018,47.900271],[35.08015,47.900419],[35.080836,47.900173],[35.080681,47.900002],[35.08064,47.900018],[35.080329,47.900145],[35.080018,47.900271]]]}},{"type":"Feature","properties":{"cadnum":"2322181601:08:001:0239"},"geometry":{"type":"Polygon","coordinates":[[[35.081105,47.901075],[35.081479,47.901372],[35.081596,47.901304],[35.081758,47.901209],[35.081384,47.900911],[35.081105,47.901075]]]}},{"type":"Feature","properties":{"cadnum":"2322181601:08:001:0081"},"geometry":{"type":"Polygon","coordinates":[[[35.081923,47.900189],[35.082499,47.900221],[35.082516,47.900091],[35.082532,47.899965],[35.081955,47.899935],[35.081923,47.900189]]]}},{"type":"Feature","properties":{"cadnum":"2322181601:08:001:1064"},"geometry":{"type":"Polygon","coordinates":[[[35.081859,47.900638],[35.081906,47.900652],[35.081931,47.900448],[35.081884,47.900446],[35.081859,47.900638]]]}},{"type":"Feature","properties":{"cadnum":"2322181601:08:001:0075"},"geometry":{"type":"Polygon","coordinates":[[[35.08086,47.901222],[35.081158,47.901559],[35.081356,47.901444],[35.081475,47.901373],[35.081099,47.901076],[35.08086,47.901222]]]}},{"type":"Feature","properties":{"cadnum":"2322181601:08:001:0042"},"geometry":{"type":"Polygon","coordinates":[[[35.083985,47.900712],[35.084596,47.900757],[35.084628,47.900471],[35.084015,47.900432],[35.084009,47.900494],[35.083985,47.900712]]]}},{"type":"Feature","properties":{"cadnum":"2322181601:08:001:0067"},"geometry":{"type":"Polygon","coordinates":[[[35.082436,47.900688],[35.083156,47.900731],[35.083183,47.900531],[35.082462,47.900489],[35.082436,47.900688]]]}},{"type":"Feature","properties":{"cadnum":"2322181601:08:001:0069"},"geometry":{"type":"Polygon","coordinates":[[[35.08232,47.900889],[35.082755,47.901238],[35.08312,47.901033],[35.082442,47.90082],[35.08232,47.900889]]]}},{"type":"Feature","properties":{"cadnum":"2322181601:08:001:0082"},"geometry":{"type":"Polygon","coordinates":[[[35.081968,47.899935],[35.082532,47.899965],[35.082543,47.899893],[35.082566,47.899713],[35.082002,47.89968],[35.081968,47.899935]]]}},{"type":"Feature","properties":{"cadnum":"2322181601:08:001:0050"},"geometry":{"type":"Polygon","coordinates":[[[35.083573,47.899469],[35.084151,47.89951],[35.084141,47.899241],[35.084137,47.899159],[35.083582,47.89922],[35.083573,47.899469]]]}},{"type":"Feature","properties":{"cadnum":"2322181601:08:001:0083"},"geometry":{"type":"Polygon","coordinates":[[[35.081988,47.89968],[35.082002,47.89968],[35.082566,47.899713],[35.082568,47.899694],[35.082595,47.899494],[35.082611,47.899374],[35.082536,47.899388],[35.082013,47.899486],[35.081988,47.89968]]]}},{"type":"Feature","properties":{"cadnum":"2322181601:08:001:0079"},"geometry":{"type":"Polygon","coordinates":[[[35.081906,47.900652],[35.08242,47.900813],[35.082436,47.900688],[35.082462,47.900489],[35.082464,47.900479],[35.081931,47.900448],[35.081906,47.900652]]]}},{"type":"Feature","properties":{"cadnum":"2322181601:08:001:0094"},"geometry":{"type":"Polygon","coordinates":[[[35.08015,47.900434],[35.080263,47.900596],[35.080981,47.900318],[35.080856,47.900166],[35.08015,47.900434]]]}},{"type":"Feature","properties":{"cadnum":"2322181601:08:001:0096"},"geometry":{"type":"Polygon","coordinates":[[[35.080437,47.900743],[35.080573,47.900899],[35.081263,47.900624],[35.081127,47.900469],[35.080437,47.900743]]]}},{"type":"Feature","properties":{"cadnum":"2322181601:08:001:0066"},"geometry":{"type":"Polygon","coordinates":[[[35.082462,47.900489],[35.083183,47.900531],[35.083209,47.900331],[35.082489,47.90029],[35.082464,47.900478],[35.082462,47.900489]]]}},{"type":"Feature","properties":{"cadnum":"2322181601:08:001:1054"},"geometry":{"type":"Polygon","coordinates":[[[35.081917,47.898825],[35.081968,47.898871],[35.082626,47.898565],[35.082767,47.898712],[35.082782,47.898705],[35.082629,47.898564],[35.082559,47.898502],[35.081917,47.898825]]]}},{"type":"Feature","properties":{"cadnum":"2322181601:08:001:1063"},"geometry":{"type":"Polygon","coordinates":[[[35.081808,47.898859],[35.081851,47.898902],[35.081929,47.898867],[35.081886,47.898824],[35.081808,47.898859]]]}},{"type":"Feature","properties":{"cadnum":"2322181601:08:001:0045"},"geometry":{"type":"Polygon","coordinates":[[[35.083376,47.901045],[35.083863,47.901199],[35.08393,47.901061],[35.083936,47.900991],[35.083967,47.900814],[35.083421,47.9008],[35.083376,47.901045]]]}},{"type":"Feature","properties":{"cadnum":"2322181601:08:001:0085"},"geometry":{"type":"Polygon","coordinates":[[[35.081549,47.899065],[35.081804,47.899296],[35.082214,47.899095],[35.082134,47.899022],[35.081964,47.898869],[35.081549,47.899065]]]}},{"type":"Feature","properties":{"cadnum":"2322181601:08:001:0091"},"geometry":{"type":"Polygon","coordinates":[[[35.079971,47.899792],[35.080305,47.900134],[35.080616,47.900009],[35.080263,47.899673],[35.079971,47.899792]]]}},{"type":"Feature","properties":{"cadnum":"2322181601:09:002:0972"},"geometry":{"type":"Polygon","coordinates":[[[35.070886,47.923891],[35.070887,47.924345],[35.071295,47.924345],[35.071294,47.923891],[35.070886,47.923891]]]}},{"type":"Feature","properties":{"cadnum":"2322181601:09:002:0054"},"geometry":{"type":"Polygon","coordinates":[[[35.072006,47.925195],[35.072023,47.925769],[35.072314,47.925765],[35.072312,47.925191],[35.072006,47.925195]]]}},{"type":"Feature","properties":{"cadnum":"2322181601:09:002:0002"},"geometry":{"type":"Polygon","coordinates":[[[35.070376,47.92522],[35.070378,47.925237],[35.070402,47.925785],[35.070666,47.925782],[35.070635,47.925218],[35.070376,47.92522]]]}},{"type":"Feature","properties":{"cadnum":"2322181601:09:002:0994"},"geometry":{"type":"Polygon","coordinates":[[[35.069188,47.9245],[35.069192,47.925255],[35.069505,47.925522],[35.069526,47.925522],[35.069523,47.925294],[35.069526,47.925239],[35.069527,47.9252],[35.069522,47.924497],[35.069188,47.9245]]]}},{"type":"Feature","properties":{"cadnum":"2322181601:09:002:0979"},"geometry":{"type":"Polygon","coordinates":[[[35.070064,47.924341],[35.070497,47.92434],[35.070497,47.924189],[35.070496,47.924076],[35.070496,47.923889],[35.070065,47.92389],[35.070065,47.923965],[35.070064,47.924341]]]}},{"type":"Feature","properties":{"cadnum":"2322181601:09:002:0059"},"geometry":{"type":"Polygon","coordinates":[[[35.070646,47.925884],[35.070647,47.925935],[35.070643,47.925953],[35.070649,47.92626],[35.070654,47.926542],[35.070692,47.926551],[35.070854,47.926573],[35.070914,47.926578],[35.070922,47.926447],[35.070918,47.926262],[35.070918,47.926159],[35.070913,47.925946],[35.070911,47.925883],[35.070646,47.925884]]]}},{"type":"Feature","properties":{"cadnum":"2322181601:09:002:0990"},"geometry":{"type":"Polygon","coordinates":[[[35.071608,47.926873],[35.071823,47.92691],[35.071853,47.926844],[35.071929,47.926684],[35.071699,47.926662],[35.071608,47.926873]]]}},{"type":"Feature","properties":{"cadnum":"2322181601:09:002:0412"},"geometry":{"type":"Polygon","coordinates":[[[35.069053,47.923896],[35.069054,47.924345],[35.069426,47.924344],[35.06943,47.924097],[35.069487,47.924097],[35.06949,47.923894],[35.069179,47.923895],[35.069053,47.923896]]]}},{"type":"Feature","properties":{"cadnum":"2322181601:09:002:1001"},"geometry":{"type":"Polygon","coordinates":[[[35.065471,47.91957],[35.065994,47.91957],[35.066143,47.919568],[35.066273,47.919568],[35.066275,47.919343],[35.065874,47.919345],[35.065472,47.919347],[35.065471,47.91957]]]}},{"type":"Feature","properties":{"cadnum":"2322181601:09:002:0058"},"geometry":{"type":"Polygon","coordinates":[[[35.068084,47.918879],[35.068084,47.918888],[35.068087,47.919338],[35.068087,47.919352],[35.068445,47.919352],[35.068445,47.919351],[35.068489,47.919351],[35.068488,47.919337],[35.068597,47.919337],[35.068598,47.919322],[35.06862,47.918887],[35.06862,47.918878],[35.068274,47.918879],[35.068084,47.918879]]]}},{"type":"Feature","properties":{"cadnum":"2322181601:09:002:0447"},"geometry":{"type":"Polygon","coordinates":[[[35.064663,47.919568],[35.064665,47.919793],[35.065066,47.919792],[35.065468,47.919792],[35.065467,47.919567],[35.064663,47.919568]]]}},{"type":"Feature","properties":{"cadnum":"2322181601:09:003:0353"},"geometry":{"type":"Polygon","coordinates":[[[35.083967,47.925881],[35.083967,47.92593],[35.083968,47.925939],[35.084175,47.925932],[35.084175,47.925927],[35.084174,47.925874],[35.083967,47.925881]]]}},{"type":"Feature","properties":{"cadnum":"2322181601:09:003:0362"},"geometry":{"type":"Polygon","coordinates":[[[35.079886,47.924215],[35.079902,47.924801],[35.080691,47.924796],[35.080692,47.924954],[35.080695,47.92526],[35.082367,47.925262],[35.082421,47.925221],[35.082442,47.924844],[35.082433,47.924823],[35.082468,47.924356],[35.082395,47.924331],[35.081969,47.924312],[35.079886,47.924215]]]}},{"type":"Feature","properties":{"cadnum":"2322181601:09:002:0398"},"geometry":{"type":"Polygon","coordinates":[[[35.07208,47.919325],[35.07208,47.919552],[35.072749,47.919552],[35.072749,47.919325],[35.07208,47.919325]]]}},{"type":"Feature","properties":{"cadnum":"2322181601:09:002:0394"},"geometry":{"type":"Polygon","coordinates":[[[35.070721,47.919555],[35.070728,47.91978],[35.070869,47.91978],[35.071282,47.919777],[35.0714,47.919778],[35.071392,47.919553],[35.071327,47.919554],[35.071243,47.919555],[35.070721,47.919555]]]}},{"type":"Feature","properties":{"cadnum":"2322181601:09:002:0397"},"geometry":{"type":"Polygon","coordinates":[[[35.068598,47.919322],[35.069017,47.91932],[35.06903,47.918882],[35.068625,47.918883],[35.068598,47.919322]]]}},{"type":"Feature","properties":{"cadnum":"2322181601:09:002:0985"},"geometry":{"type":"Polygon","coordinates":[[[35.072212,47.919326],[35.072613,47.919322],[35.072615,47.918874],[35.072212,47.918877],[35.072212,47.919326]]]}},{"type":"Feature","properties":{"cadnum":"2322181601:09:002:0056"},"geometry":{"type":"Polygon","coordinates":[[[35.069017,47.91932],[35.069418,47.919328],[35.069428,47.919081],[35.069435,47.918875],[35.069031,47.918867],[35.069017,47.91932]]]}},{"type":"Feature","properties":{"cadnum":"2322181601:09:002:0445"},"geometry":{"type":"Polygon","coordinates":[[[35.069128,47.91955],[35.069856,47.919553],[35.069859,47.91935],[35.069442,47.91934],[35.069143,47.919339],[35.069128,47.91955]]]}},{"type":"Feature","properties":{"cadnum":"2322181601:09:003:0156"},"geometry":{"type":"Polygon","coordinates":[[[35.080229,47.917199],[35.080231,47.917468],[35.080899,47.917473],[35.080899,47.917204],[35.080229,47.917199]]]}},{"type":"Feature","properties":{"cadnum":"2322181601:09:003:0097"},"geometry":{"type":"Polygon","coordinates":[[[35.081776,47.917479],[35.081777,47.917749],[35.082446,47.917753],[35.082445,47.917483],[35.081776,47.917479]]]}},{"type":"Feature","properties":{"cadnum":"2322181601:09:003:0388"},"geometry":{"type":"Polygon","coordinates":[[[35.081072,47.916405],[35.081111,47.917214],[35.081204,47.917211],[35.08178,47.917199],[35.081772,47.917048],[35.081766,47.916925],[35.081764,47.916887],[35.081752,47.916631],[35.081752,47.916621],[35.08174,47.91639],[35.081107,47.916404],[35.081072,47.916405]]]}},{"type":"Feature","properties":{"cadnum":"2322181601:09:003:0176"},"geometry":{"type":"Polygon","coordinates":[[[35.079563,47.917734],[35.079564,47.918004],[35.080232,47.918008],[35.080232,47.917739],[35.079563,47.917734]]]}},{"type":"Feature","properties":{"cadnum":"2322181601:09:003:0173"},"geometry":{"type":"Polygon","coordinates":[[[35.079562,47.917466],[35.079563,47.917715],[35.079563,47.917734],[35.080232,47.917739],[35.080231,47.91772],[35.080231,47.91747],[35.079562,47.917466]]]}},{"type":"Feature","properties":{"cadnum":"2322181601:09:003:0171"},"geometry":{"type":"Polygon","coordinates":[[[35.07956,47.917196],[35.079562,47.917466],[35.080231,47.91747],[35.080229,47.9172],[35.07956,47.917196]]]}},{"type":"Feature","properties":{"cadnum":"2322181601:09:003:0101"},"geometry":{"type":"Polygon","coordinates":[[[35.082814,47.918393],[35.082822,47.9187],[35.083412,47.918705],[35.083404,47.918401],[35.083128,47.918395],[35.082814,47.918393]]]}},{"type":"Feature","properties":{"cadnum":"2322181601:09:003:0193"},"geometry":{"type":"Polygon","coordinates":[[[35.082779,47.917258],[35.082779,47.917691],[35.083368,47.917691],[35.083368,47.917258],[35.082779,47.917258]]]}},{"type":"Feature","properties":{"cadnum":"2322181601:09:003:0164"},"geometry":{"type":"Polygon","coordinates":[[[35.079562,47.916656],[35.080231,47.916661],[35.080236,47.916391],[35.079567,47.916388],[35.079562,47.916656]]]}},{"type":"Feature","properties":{"cadnum":"2322181601:09:003:0168"},"geometry":{"type":"Polygon","coordinates":[[[35.079558,47.916926],[35.080227,47.91693],[35.080231,47.916661],[35.079562,47.916656],[35.079558,47.916926]]]}},{"type":"Feature","properties":{"cadnum":"2322181601:09:003:0149"},"geometry":{"type":"Polygon","coordinates":[[[35.081778,47.918289],[35.082448,47.918293],[35.082446,47.918023],[35.081778,47.918018],[35.081778,47.918289]]]}},{"type":"Feature","properties":{"cadnum":"2322181601:09:003:0157"},"geometry":{"type":"Polygon","coordinates":[[[35.081107,47.917471],[35.081204,47.917472],[35.081627,47.917477],[35.081766,47.917479],[35.081776,47.917479],[35.081784,47.91721],[35.08178,47.917199],[35.081204,47.917211],[35.081111,47.917214],[35.081107,47.917471]]]}},{"type":"Feature","properties":{"cadnum":"2322181601:09:003:0095"},"geometry":{"type":"Polygon","coordinates":[[[35.081776,47.917479],[35.082445,47.917483],[35.08244,47.917207],[35.081858,47.91721],[35.081784,47.91721],[35.081776,47.917479]]]}},{"type":"Feature","properties":{"cadnum":"2322181601:08:001:0229"},"geometry":{"type":"Polygon","coordinates":[[[35.078562,47.903506],[35.078785,47.903766],[35.079261,47.903533],[35.079039,47.903272],[35.078563,47.903506],[35.078562,47.903506]]]}},{"type":"Feature","properties":{"cadnum":"2322181601:08:001:0207"},"geometry":{"type":"Polygon","coordinates":[[[35.078239,47.902121],[35.078443,47.902353],[35.078919,47.902128],[35.078714,47.901895],[35.078239,47.902121]]]}},{"type":"Feature","properties":{"cadnum":"2322181601:08:001:0250"},"geometry":{"type":"Polygon","coordinates":[[[35.078554,47.904272],[35.078745,47.904489],[35.079225,47.904265],[35.079218,47.904258],[35.079035,47.904048],[35.078554,47.904272]]]}},{"type":"Feature","properties":{"cadnum":"2322181601:08:001:0244"},"geometry":{"type":"Polygon","coordinates":[[[35.077051,47.902556],[35.077283,47.902819],[35.077754,47.902595],[35.077522,47.902332],[35.077051,47.902556]]]}},{"type":"Feature","properties":{"cadnum":"2322181601:08:001:0233"},"geometry":{"type":"Polygon","coordinates":[[[35.077523,47.902332],[35.077751,47.902592],[35.078227,47.902366],[35.077998,47.902106],[35.077523,47.902332]]]}},{"type":"Feature","properties":{"cadnum":"2322181601:08:001:0208"},"geometry":{"type":"Polygon","coordinates":[[[35.078457,47.902368],[35.078648,47.902585],[35.079123,47.90236],[35.078933,47.902142],[35.078457,47.902368]]]}},{"type":"Feature","properties":{"cadnum":"2322181601:08:001:0232"},"geometry":{"type":"Polygon","coordinates":[[[35.077751,47.902592],[35.07798,47.902851],[35.078457,47.902626],[35.078227,47.902366],[35.077751,47.902592]]]}},{"type":"Feature","properties":{"cadnum":"2322181601:08:001:0246"},"geometry":{"type":"Polygon","coordinates":[[[35.077508,47.903081],[35.077736,47.903341],[35.077738,47.903341],[35.078211,47.903114],[35.078208,47.903112],[35.077983,47.902854],[35.077508,47.903081]]]}},{"type":"Feature","properties":{"cadnum":"2322181601:08:001:0243"},"geometry":{"type":"Polygon","coordinates":[[[35.076819,47.902298],[35.077047,47.902558],[35.077523,47.902332],[35.077294,47.902072],[35.076819,47.902298]]]}},{"type":"Feature","properties":{"cadnum":"2322181601:08:001:0014"},"geometry":{"type":"Polygon","coordinates":[[[35.084902,47.901896],[35.085453,47.902083],[35.085613,47.901941],[35.085061,47.901754],[35.084902,47.901896]]]}},{"type":"Feature","properties":{"cadnum":"2322181601:05:001:0393"},"geometry":{"type":"Polygon","coordinates":[[[35.050064,47.893757],[35.050354,47.893793],[35.050441,47.893474],[35.050151,47.893438],[35.050064,47.893757]]]}}]}