{"type":"FeatureCollection","features":[{"type":"Feature","properties":{"cadnum":"2322188602:01:001:0001"},"geometry":{"type":"Polygon","coordinates":[[[35.28713,47.806853],[35.287238,47.807006],[35.287328,47.806994],[35.287348,47.807025],[35.287301,47.807071],[35.28745,47.807223],[35.287631,47.807468],[35.287988,47.807365],[35.287698,47.806951],[35.287547,47.806716],[35.28713,47.806853]]]}},{"type":"Feature","properties":{"cadnum":"2322188602:06:001:0020"},"geometry":{"type":"Polygon","coordinates":[[[35.287955,47.806667],[35.288,47.806755],[35.288,47.806756],[35.288018,47.806789],[35.288172,47.80675],[35.288172,47.806749],[35.288339,47.806706],[35.288288,47.806609],[35.28811,47.80664],[35.287955,47.806667]]]}},{"type":"Feature","properties":{"cadnum":"2322188602:06:001:0007"},"geometry":{"type":"Polygon","coordinates":[[[35.288018,47.806789],[35.28816,47.807061],[35.288172,47.807081],[35.288299,47.807286],[35.2886,47.807208],[35.288339,47.806706],[35.288018,47.806789]]]}},{"type":"Feature","properties":{"cadnum":"2322188602:06:001:0004"},"geometry":{"type":"Polygon","coordinates":[[[35.288353,47.806733],[35.2886,47.807208],[35.288934,47.807127],[35.288677,47.806654],[35.288353,47.806733]]]}},{"type":"Feature","properties":{"cadnum":"2322188602:06:001:0019"},"geometry":{"type":"Polygon","coordinates":[[[35.289403,47.806151],[35.289486,47.806431],[35.28964,47.806392],[35.289819,47.806348],[35.28978,47.806249],[35.289683,47.806068],[35.289549,47.806047],[35.289403,47.806151]]]}}]}