{"type":"FeatureCollection","features":[{"type":"Feature","properties":{"cadnum":"2322784401:01:003:0007"},"geometry":{"type":"Polygon","coordinates":[[[36.88309,47.419092],[36.884401,47.419216],[36.884582,47.418676],[36.883139,47.418591],[36.88309,47.419092]]]}},{"type":"Feature","properties":{"cadnum":"2322784401:01:003:0019"},"geometry":{"type":"Polygon","coordinates":[[[36.890859,47.421543],[36.891748,47.42132],[36.892004,47.421224],[36.892004,47.421225],[36.892078,47.421196],[36.892176,47.42116],[36.892302,47.421112],[36.892538,47.420916],[36.892176,47.420776],[36.892176,47.420775],[36.891831,47.420641],[36.89183,47.420641],[36.891206,47.420398],[36.891132,47.420641],[36.891131,47.420641],[36.890859,47.421543]]]}},{"type":"Feature","properties":{"cadnum":"2322784401:01:003:0021"},"geometry":{"type":"Polygon","coordinates":[[[36.88948,47.420942],[36.890324,47.42103],[36.890441,47.420757],[36.890442,47.420757],[36.890609,47.420373],[36.890652,47.420279],[36.889591,47.420165],[36.889559,47.420373],[36.889522,47.420641],[36.889512,47.420712],[36.889506,47.420757],[36.88948,47.420942]]]}},{"type":"Feature","properties":{"cadnum":"2322784401:01:001:0017"},"geometry":{"type":"Polygon","coordinates":[[[36.893578,47.411898],[36.894289,47.412222],[36.894592,47.411937],[36.893871,47.411629],[36.893578,47.411898]]]}},{"type":"Feature","properties":{"cadnum":"2322784401:01:002:0010"},"geometry":{"type":"Polygon","coordinates":[[[36.896624,47.40973],[36.897087,47.409907],[36.897449,47.410066],[36.897497,47.410008],[36.897511,47.409991],[36.897669,47.409801],[36.897669,47.4098],[36.897829,47.409606],[36.89783,47.409606],[36.898221,47.409133],[36.897554,47.408873],[36.897398,47.408812],[36.896729,47.409606],[36.896624,47.40973]]]}},{"type":"Feature","properties":{"cadnum":"2322784401:01:002:0009"},"geometry":{"type":"Polygon","coordinates":[[[36.89684,47.410214],[36.897193,47.410377],[36.897449,47.410066],[36.897087,47.409907],[36.89684,47.410214]]]}},{"type":"Feature","properties":{"cadnum":"2322784401:01:001:0018"},"geometry":{"type":"Polygon","coordinates":[[[36.899698,47.415057],[36.900084,47.415217],[36.900305,47.414986],[36.900192,47.414938],[36.900389,47.414734],[36.900091,47.414599],[36.899886,47.414838],[36.899698,47.415057]]]}},{"type":"Feature","properties":{"cadnum":"2322784401:01:001:0019"},"geometry":{"type":"Polygon","coordinates":[[[36.899314,47.414888],[36.899698,47.415057],[36.899886,47.414838],[36.900091,47.414599],[36.900389,47.414734],[36.900602,47.414514],[36.900181,47.414302],[36.899776,47.414779],[36.899479,47.414664],[36.899314,47.414888]]]}},{"type":"Feature","properties":{"cadnum":"2322784401:01:002:0002"},"geometry":{"type":"Polygon","coordinates":[[[36.935429,47.42816],[36.935505,47.42819],[36.935506,47.42819],[36.935949,47.428363],[36.935949,47.428364],[36.937189,47.428845],[36.937347,47.428659],[36.936204,47.42819],[36.936121,47.428156],[36.935606,47.427944],[36.9355,47.428074],[36.935499,47.428074],[36.935429,47.42816]]]}},{"type":"Feature","properties":{"cadnum":"2322784401:01:005:0005"},"geometry":{"type":"Polygon","coordinates":[[[36.874697,47.434304],[36.875696,47.434437],[36.876113,47.434492],[36.876234,47.434167],[36.875525,47.434075],[36.875525,47.434076],[36.875524,47.434076],[36.874763,47.433977],[36.874697,47.434304]]]}},{"type":"Feature","properties":{"cadnum":"2322784401:01:004:0007"},"geometry":{"type":"Polygon","coordinates":[[[36.883741,47.424897],[36.884433,47.425104],[36.884758,47.424372],[36.884766,47.424355],[36.884065,47.42414],[36.883971,47.424358],[36.883942,47.424426],[36.883921,47.424474],[36.883741,47.424897]]]}},{"type":"Feature","properties":{"cadnum":"2322784401:01:003:0014"},"geometry":{"type":"Polygon","coordinates":[[[36.934288,47.437311],[36.934564,47.437201],[36.93453,47.436047],[36.934308,47.436],[36.934288,47.437311]]]}},{"type":"Feature","properties":{"cadnum":"2322784401:01:001:0012"},"geometry":{"type":"Polygon","coordinates":[[[36.88872,47.418523],[36.888976,47.418546],[36.889158,47.418126],[36.889448,47.417595],[36.889487,47.417537],[36.88931,47.41749],[36.889039,47.417961],[36.88872,47.418523]]]}},{"type":"Feature","properties":{"cadnum":"2322784401:01:003:0020"},"geometry":{"type":"Polygon","coordinates":[[[36.889591,47.420165],[36.890652,47.420279],[36.890682,47.420215],[36.890196,47.420032],[36.890285,47.419829],[36.889646,47.419795],[36.889591,47.420165]]]}},{"type":"Feature","properties":{"cadnum":"2322784401:01:001:0013"},"geometry":{"type":"Polygon","coordinates":[[[36.887861,47.417485],[36.888057,47.417511],[36.888219,47.417239],[36.888157,47.417222],[36.888156,47.417222],[36.888166,47.417207],[36.888045,47.417174],[36.887861,47.417485]]]}},{"type":"Feature","properties":{"cadnum":"2322784401:01:001:0023"},"geometry":{"type":"Polygon","coordinates":[[[36.890387,47.417723],[36.890648,47.417816],[36.890802,47.417617],[36.891064,47.417261],[36.890953,47.417216],[36.890927,47.417248],[36.89091,47.417242],[36.890931,47.417214],[36.890843,47.417182],[36.890552,47.417528],[36.890387,47.417723]]]}},{"type":"Feature","properties":{"cadnum":"2322784401:01:005:0004"},"geometry":{"type":"Polygon","coordinates":[[[36.876942,47.436242],[36.877269,47.436305],[36.877411,47.436315],[36.877615,47.436393],[36.878423,47.436609],[36.8786,47.436281],[36.877146,47.435843],[36.876942,47.436242]]]}},{"type":"Feature","properties":{"cadnum":"2322784401:01:004:0005"},"geometry":{"type":"Polygon","coordinates":[[[36.875478,47.430932],[36.875524,47.430946],[36.875525,47.430946],[36.875991,47.431085],[36.876463,47.430652],[36.876327,47.430594],[36.876326,47.430594],[36.875948,47.430405],[36.875797,47.430379],[36.875613,47.430698],[36.875478,47.430932]]]}},{"type":"Feature","properties":{"cadnum":"2322784401:01:003:0013"},"geometry":{"type":"Polygon","coordinates":[[[36.926154,47.436849],[36.927015,47.436956],[36.927124,47.436688],[36.926206,47.436565],[36.926154,47.436849]]]}},{"type":"Feature","properties":{"cadnum":"2322784401:01:003:0012"},"geometry":{"type":"Polygon","coordinates":[[[36.925136,47.436715],[36.925658,47.436786],[36.926154,47.436849],[36.926206,47.436565],[36.925785,47.436508],[36.925172,47.436437],[36.925136,47.436715]]]}},{"type":"Feature","properties":{"cadnum":"2322784401:01:002:0006"},"geometry":{"type":"Polygon","coordinates":[[[36.896233,47.408827],[36.896491,47.408927],[36.897516,47.407675],[36.897236,47.407572],[36.896233,47.408827]]]}},{"type":"Feature","properties":{"cadnum":"2322784401:01:002:0005"},"geometry":{"type":"Polygon","coordinates":[[[36.895947,47.409184],[36.896203,47.409279],[36.896491,47.408927],[36.896233,47.408827],[36.895947,47.409184]]]}},{"type":"Feature","properties":{"cadnum":"2322784401:01:002:0004"},"geometry":{"type":"Polygon","coordinates":[[[36.900072,47.411034],[36.90048,47.411357],[36.900288,47.411511],[36.9015,47.412202],[36.902521,47.411159],[36.900759,47.410343],[36.900072,47.411034]]]}},{"type":"Feature","properties":{"cadnum":"2322784401:01:002:0003"},"geometry":{"type":"Polygon","coordinates":[[[36.898429,47.410971],[36.899579,47.411465],[36.900792,47.410262],[36.899389,47.409776],[36.898429,47.410971]]]}},{"type":"Feature","properties":{"cadnum":"2322784401:01:003:0018"},"geometry":{"type":"Polygon","coordinates":[[[36.916455,47.453091],[36.916782,47.453152],[36.916894,47.452874],[36.917142,47.45292],[36.917257,47.452634],[36.916683,47.452528],[36.916455,47.453091]]]}},{"type":"Feature","properties":{"cadnum":"2322784401:01:005:0007"},"geometry":{"type":"Polygon","coordinates":[[[36.870469,47.434543],[36.872241,47.435024],[36.872291,47.434955],[36.871815,47.434798],[36.871815,47.434797],[36.871941,47.43462],[36.870625,47.434292],[36.870469,47.434543]]]}},{"type":"Feature","properties":{"cadnum":"2322784401:01:005:0008"},"geometry":{"type":"Polygon","coordinates":[[[36.871576,47.432631],[36.87331,47.433078],[36.873415,47.432873],[36.873638,47.432487],[36.87182,47.432127],[36.871635,47.432435],[36.871576,47.432631]]]}},{"type":"Feature","properties":{"cadnum":"2322784401:01:005:0006"},"geometry":{"type":"Polygon","coordinates":[[[36.873843,47.434223],[36.874331,47.434255],[36.874697,47.434304],[36.874763,47.433977],[36.87388,47.433862],[36.873843,47.434223]]]}},{"type":"Feature","properties":{"cadnum":"2322784401:01:004:0010"},"geometry":{"type":"Polygon","coordinates":[[[36.882065,47.426179],[36.882488,47.426352],[36.882785,47.426101],[36.882199,47.425887],[36.882065,47.426179]]]}},{"type":"Feature","properties":{"cadnum":"2322784401:01:004:0009"},"geometry":{"type":"Polygon","coordinates":[[[36.882488,47.426352],[36.882927,47.426532],[36.883263,47.426676],[36.883572,47.426402],[36.883225,47.42627],[36.882785,47.426101],[36.882488,47.426352]]]}}]}