{"type":"FeatureCollection","features":[{"type":"Feature","properties":{"cadnum":"2322186801:03:001:0210"},"geometry":{"type":"Polygon","coordinates":[[[35.348429,47.841153],[35.348597,47.841205],[35.348597,47.841204],[35.34867,47.841227],[35.34869,47.841199],[35.348984,47.840802],[35.348743,47.840727],[35.348449,47.841125],[35.348429,47.841153]]]}},{"type":"Feature","properties":{"cadnum":"2322186801:03:001:0248"},"geometry":{"type":"Polygon","coordinates":[[[35.343181,47.839216],[35.343459,47.839324],[35.343545,47.839195],[35.343267,47.839087],[35.343209,47.839174],[35.343181,47.839216]]]}},{"type":"Feature","properties":{"cadnum":"2322186801:03:001:0247"},"geometry":{"type":"Polygon","coordinates":[[[35.343267,47.839087],[35.343545,47.839195],[35.343638,47.839054],[35.344116,47.838337],[35.343837,47.838228],[35.343353,47.838958],[35.343283,47.839063],[35.343275,47.839073],[35.343276,47.839073],[35.343267,47.839087]]]}},{"type":"Feature","properties":{"cadnum":"2322186801:03:002:0187"},"geometry":{"type":"Polygon","coordinates":[[[35.348015,47.839702],[35.348338,47.839801],[35.348425,47.839673],[35.348425,47.839674],[35.348506,47.839554],[35.348597,47.839421],[35.348597,47.83942],[35.348829,47.839078],[35.348537,47.838988],[35.348505,47.838979],[35.348441,47.839073],[35.348015,47.839702]]]}},{"type":"Feature","properties":{"cadnum":"2322186801:03:002:0193"},"geometry":{"type":"Polygon","coordinates":[[[35.347844,47.840974],[35.348076,47.841053],[35.348165,47.840933],[35.348394,47.840622],[35.348147,47.840542],[35.347844,47.840974]]]}},{"type":"Feature","properties":{"cadnum":"2322186801:03:001:0372"},"geometry":{"type":"Polygon","coordinates":[[[35.34531,47.839572],[35.345335,47.839578],[35.34534,47.839571],[35.345594,47.839647],[35.345812,47.839306],[35.345815,47.839287],[35.34592,47.839142],[35.345936,47.839118],[35.345831,47.839077],[35.345782,47.839057],[35.345772,47.839053],[35.345716,47.839031],[35.345677,47.839016],[35.345668,47.839012],[35.345665,47.839016],[35.345652,47.839037],[35.345651,47.839037],[35.345627,47.839073],[35.345628,47.839073],[35.345445,47.839352],[35.345409,47.839419],[35.34531,47.839572]]]}},{"type":"Feature","properties":{"cadnum":"2322186801:03:001:0209"},"geometry":{"type":"Polygon","coordinates":[[[35.345063,47.839971],[35.345318,47.840047],[35.345594,47.839647],[35.34534,47.839571],[35.345063,47.839971]]]}},{"type":"Feature","properties":{"cadnum":"2322186801:03:001:0125"},"geometry":{"type":"Polygon","coordinates":[[[35.345886,47.839732],[35.346078,47.839803],[35.346097,47.83981],[35.346176,47.839837],[35.346492,47.83937],[35.346507,47.839349],[35.34622,47.839238],[35.346205,47.839259],[35.345886,47.839732]]]}},{"type":"Feature","properties":{"cadnum":"2322186801:03:001:0202"},"geometry":{"type":"Polygon","coordinates":[[[35.342993,47.838957],[35.343103,47.838998],[35.343103,47.838997],[35.343104,47.838997],[35.343283,47.839063],[35.343837,47.838228],[35.343549,47.838122],[35.342993,47.838957]]]}},{"type":"Feature","properties":{"cadnum":"2322186801:03:001:0356"},"geometry":{"type":"Polygon","coordinates":[[[35.347608,47.840899],[35.347844,47.840974],[35.348147,47.840542],[35.348087,47.840527],[35.34788,47.840464],[35.347741,47.840696],[35.347608,47.840899]]]}},{"type":"Feature","properties":{"cadnum":"2322186801:03:002:0122"},"geometry":{"type":"Polygon","coordinates":[[[35.344482,47.839753],[35.344541,47.839795],[35.344811,47.839385],[35.345045,47.839446],[35.345178,47.839225],[35.345315,47.839005],[35.345382,47.838899],[35.345095,47.838782],[35.345041,47.838891],[35.34506,47.838907],[35.34506,47.838908],[35.345015,47.838953],[35.345014,47.838953],[35.344996,47.838944],[35.344987,47.838958],[35.344986,47.838958],[35.344976,47.838975],[35.344913,47.839073],[35.344482,47.839753]]]}},{"type":"Feature","properties":{"cadnum":"2322186801:03:001:0200"},"geometry":{"type":"Polygon","coordinates":[[[35.347341,47.840264],[35.347437,47.840296],[35.347652,47.84037],[35.34798,47.839918],[35.347667,47.839802],[35.347536,47.839976],[35.347351,47.840251],[35.347341,47.840264]]]}},{"type":"Feature","properties":{"cadnum":"2322186801:03:002:0226"},"geometry":{"type":"Polygon","coordinates":[[[35.347398,47.839518],[35.347622,47.839605],[35.347842,47.839165],[35.347939,47.838958],[35.348015,47.8388],[35.347825,47.83872],[35.347697,47.838958],[35.347649,47.839047],[35.347635,47.839073],[35.347398,47.839518]]]}},{"type":"Feature","properties":{"cadnum":"2322186801:03:001:0366"},"geometry":{"type":"Polygon","coordinates":[[[35.347145,47.840182],[35.347146,47.840182],[35.347351,47.840251],[35.347536,47.839976],[35.347667,47.839802],[35.347463,47.839722],[35.347372,47.839845],[35.347372,47.839846],[35.347325,47.839904],[35.347145,47.840182]]]}},{"type":"Feature","properties":{"cadnum":"2322186801:03:001:0112"},"geometry":{"type":"Polygon","coordinates":[[[35.348422,47.840633],[35.348425,47.840634],[35.348425,47.840635],[35.348531,47.840679],[35.348597,47.840707],[35.348613,47.840713],[35.348905,47.840308],[35.348712,47.840229],[35.348507,47.840515],[35.348422,47.840633]]]}},{"type":"Feature","properties":{"cadnum":"2322186801:03:001:0203"},"geometry":{"type":"Polygon","coordinates":[[[35.342921,47.839066],[35.342932,47.83907],[35.343209,47.839174],[35.343283,47.839063],[35.342996,47.838958],[35.342993,47.838957],[35.342993,47.838958],[35.342992,47.838958],[35.342921,47.839066]]]}},{"type":"Feature","properties":{"cadnum":"2322186801:03:002:0102"},"geometry":{"type":"Polygon","coordinates":[[[35.341395,47.835656],[35.341493,47.835637],[35.341575,47.835615],[35.34158,47.835452],[35.341532,47.835451],[35.341535,47.835386],[35.341536,47.835386],[35.341546,47.835218],[35.34167,47.833946],[35.341577,47.833943],[35.341447,47.835215],[35.341426,47.835386],[35.341427,47.835386],[35.341395,47.835656]]]}},{"type":"Feature","properties":{"cadnum":"2322186801:03:002:0179"},"geometry":{"type":"Polygon","coordinates":[[[35.337889,47.835233],[35.33809,47.835256],[35.338497,47.833821],[35.338293,47.833796],[35.337889,47.835233]]]}},{"type":"Feature","properties":{"cadnum":"2322186801:03:002:0183"},"geometry":{"type":"Polygon","coordinates":[[[35.342614,47.835443],[35.342886,47.835369],[35.342932,47.835141],[35.343103,47.834281],[35.342826,47.834284],[35.342623,47.835386],[35.342624,47.835386],[35.342614,47.835443]]]}},{"type":"Feature","properties":{"cadnum":"2322186801:03:002:0185"},"geometry":{"type":"Polygon","coordinates":[[[35.342826,47.834284],[35.342932,47.834283],[35.343103,47.834281],[35.343162,47.833983],[35.342952,47.833981],[35.342882,47.83398],[35.342826,47.834284]]]}},{"type":"Feature","properties":{"cadnum":"2322186801:03:002:0371"},"geometry":{"type":"Polygon","coordinates":[[[35.343065,47.835291],[35.343267,47.835254],[35.343291,47.835137],[35.343315,47.83514],[35.343347,47.835034],[35.343321,47.83503],[35.343343,47.83496],[35.343569,47.834027],[35.343331,47.834001],[35.343148,47.834822],[35.343065,47.835291]]]}},{"type":"Feature","properties":{"cadnum":"2322186801:03:002:0188"},"geometry":{"type":"Polygon","coordinates":[[[35.343807,47.836662],[35.344001,47.836681],[35.344337,47.835386],[35.344399,47.835151],[35.34421,47.835131],[35.344173,47.835271],[35.344172,47.835271],[35.343807,47.836662]]]}},{"type":"Feature","properties":{"cadnum":"2322186801:03:002:0242"},"geometry":{"type":"Polygon","coordinates":[[[35.343805,47.835346],[35.343934,47.835359],[35.343955,47.835354],[35.344006,47.835345],[35.344101,47.835328],[35.344121,47.835325],[35.344241,47.834706],[35.343982,47.834455],[35.34382,47.835271],[35.343817,47.835285],[35.34381,47.83532],[35.343809,47.835328],[35.343805,47.835346]]]}},{"type":"Feature","properties":{"cadnum":"2322186801:03:001:0217"},"geometry":{"type":"Polygon","coordinates":[[[35.360448,47.847451],[35.360786,47.847491],[35.361014,47.846452],[35.360781,47.846387],[35.360763,47.846447],[35.360764,47.846447],[35.360703,47.846663],[35.360606,47.847159],[35.36051,47.847149],[35.360448,47.847451]]]}},{"type":"Feature","properties":{"cadnum":"2322186801:03:001:0113"},"geometry":{"type":"Polygon","coordinates":[[[35.360369,47.845477],[35.360861,47.845549],[35.360995,47.845156],[35.361013,47.845107],[35.360522,47.845036],[35.360504,47.845085],[35.360369,47.845477]]]}},{"type":"Feature","properties":{"cadnum":"2322186801:03:001:0135"},"geometry":{"type":"Polygon","coordinates":[[[35.360361,47.84744],[35.360448,47.84745],[35.36051,47.847149],[35.360606,47.847159],[35.360703,47.846663],[35.360781,47.846387],[35.360601,47.846339],[35.360569,47.846447],[35.36057,47.846447],[35.360504,47.846675],[35.360361,47.84744]]]}},{"type":"Feature","properties":{"cadnum":"2322186801:03:002:0178"},"geometry":{"type":"Polygon","coordinates":[[[35.324923,47.833173],[35.32528,47.833285],[35.325754,47.832592],[35.325395,47.832481],[35.324923,47.833173]]]}},{"type":"Feature","properties":{"cadnum":"2322186801:03:002:0375"},"geometry":{"type":"Polygon","coordinates":[[[35.342973,47.837558],[35.343103,47.837615],[35.343103,47.837614],[35.343104,47.837614],[35.343299,47.837699],[35.343647,47.837098],[35.343333,47.836961],[35.342973,47.837558]]]}},{"type":"Feature","properties":{"cadnum":"2322186801:03:002:0176"},"geometry":{"type":"Polygon","coordinates":[[[35.342324,47.837328],[35.342694,47.837453],[35.342932,47.837078],[35.342958,47.837037],[35.343103,47.836807],[35.343132,47.836762],[35.343023,47.83673],[35.342768,47.836653],[35.342576,47.836951],[35.342324,47.837328]]]}},{"type":"Feature","properties":{"cadnum":"2322186801:03:001:0244"},"geometry":{"type":"Polygon","coordinates":[[[35.342087,47.83719],[35.342343,47.837299],[35.342351,47.837289],[35.342575,47.83695],[35.3429,47.836403],[35.342614,47.836333],[35.342095,47.837176],[35.342087,47.83719]]]}},{"type":"Feature","properties":{"cadnum":"2322186801:03:002:0177"},"geometry":{"type":"Polygon","coordinates":[[[35.342874,47.836684],[35.342932,47.836701],[35.342932,47.836702],[35.343049,47.836737],[35.343103,47.836753],[35.343104,47.836753],[35.343238,47.836793],[35.343385,47.836555],[35.34303,47.836443],[35.342874,47.836684]]]}},{"type":"Feature","properties":{"cadnum":"2322186801:03:001:0222"},"geometry":{"type":"Polygon","coordinates":[[[35.341799,47.838529],[35.342031,47.838601],[35.342728,47.83758],[35.342496,47.837508],[35.341799,47.838529]]]}},{"type":"Feature","properties":{"cadnum":"2322186801:03:001:0170"},"geometry":{"type":"Polygon","coordinates":[[[35.360785,47.838665],[35.361136,47.838699],[35.361279,47.83803],[35.360925,47.837997],[35.360785,47.838665]]]}},{"type":"Feature","properties":{"cadnum":"2322186801:03:001:0148"},"geometry":{"type":"Polygon","coordinates":[[[35.36039,47.837738],[35.360736,47.837768],[35.36087,47.837083],[35.360527,47.837052],[35.36039,47.837738]]]}},{"type":"Feature","properties":{"cadnum":"2322186801:03:001:0165"},"geometry":{"type":"Polygon","coordinates":[[[35.359535,47.838476],[35.359886,47.838512],[35.360038,47.837845],[35.359688,47.837809],[35.359535,47.838476]]]}},{"type":"Feature","properties":{"cadnum":"2322186801:03:001:0185"},"geometry":{"type":"Polygon","coordinates":[[[35.363072,47.839543],[35.363427,47.839567],[35.363535,47.839012],[35.363558,47.838899],[35.363205,47.838871],[35.363188,47.838958],[35.363176,47.839016],[35.363165,47.839073],[35.363072,47.839543]]]}},{"type":"Feature","properties":{"cadnum":"2322186801:03:001:0164"},"geometry":{"type":"Polygon","coordinates":[[[35.359156,47.838464],[35.359411,47.838471],[35.359512,47.838474],[35.359583,47.838205],[35.359688,47.837809],[35.359572,47.837806],[35.359331,47.837799],[35.359156,47.838464]]]}},{"type":"Feature","properties":{"cadnum":"2322186801:03:001:0150"},"geometry":{"type":"Polygon","coordinates":[[[35.361081,47.8378],[35.361426,47.83783],[35.361564,47.837149],[35.361215,47.837118],[35.361081,47.8378]]]}},{"type":"Feature","properties":{"cadnum":"2322186801:03:001:0218"},"geometry":{"type":"Polygon","coordinates":[[[35.360433,47.847521],[35.360771,47.84756],[35.360786,47.847491],[35.360448,47.847451],[35.360433,47.847521]]]}},{"type":"Feature","properties":{"cadnum":"2322186801:03:001:0234"},"geometry":{"type":"Polygon","coordinates":[[[35.35799,47.844797],[35.358357,47.844899],[35.35845,47.844924],[35.358607,47.844666],[35.358625,47.844632],[35.358633,47.844622],[35.358172,47.844495],[35.358164,47.844509],[35.358144,47.844542],[35.35799,47.844797]]]}},{"type":"Feature","properties":{"cadnum":"2322186801:03:001:0004"},"geometry":{"type":"Polygon","coordinates":[[[35.358495,47.847034],[35.358849,47.847091],[35.359007,47.846447],[35.359008,47.846447],[35.359048,47.846284],[35.359021,47.846282],[35.35914,47.845941],[35.358822,47.845873],[35.358729,47.846093],[35.358685,47.846332],[35.358684,47.846332],[35.358667,47.846432],[35.358664,47.846447],[35.358662,47.846463],[35.358495,47.847034]]]}},{"type":"Feature","properties":{"cadnum":"2322186801:03:001:0126"},"geometry":{"type":"Polygon","coordinates":[[[35.358262,47.845556],[35.358332,47.84557],[35.35833,47.845573],[35.358392,47.845585],[35.358395,47.845583],[35.358556,47.845618],[35.35857,47.845587],[35.358859,47.844973],[35.358963,47.844738],[35.358628,47.844675],[35.358611,47.844711],[35.358411,47.845172],[35.35831,47.845452],[35.358262,47.845556]]]}},{"type":"Feature","properties":{"cadnum":"2322186801:03:001:0215"},"geometry":{"type":"Polygon","coordinates":[[[35.358236,47.846658],[35.358582,47.846735],[35.358662,47.846463],[35.358667,47.846432],[35.358729,47.846093],[35.358822,47.845873],[35.358531,47.845808],[35.358434,47.846011],[35.358369,47.846162],[35.358324,47.846332],[35.358307,47.846392],[35.358293,47.846447],[35.358236,47.846658]]]}},{"type":"Feature","properties":{"cadnum":"2322186801:03:001:0207"},"geometry":{"type":"Polygon","coordinates":[[[35.357327,47.846535],[35.357626,47.84656],[35.357713,47.846332],[35.357956,47.8457],[35.357971,47.845665],[35.357972,47.845661],[35.357624,47.845632],[35.357622,47.845637],[35.35761,47.845672],[35.357393,47.846332],[35.357374,47.846389],[35.357355,47.846447],[35.357356,47.846447],[35.357327,47.846535]]]}},{"type":"Feature","properties":{"cadnum":"2322186801:03:001:0199"},"geometry":{"type":"Polygon","coordinates":[[[35.358145,47.842877],[35.358199,47.842893],[35.358396,47.842955],[35.358464,47.84276],[35.358521,47.842601],[35.358395,47.842568],[35.358395,47.842567],[35.358604,47.841969],[35.358481,47.841932],[35.358263,47.842538],[35.358226,47.842645],[35.358218,47.842667],[35.358185,47.84276],[35.358186,47.84276],[35.358145,47.842877]]]}},{"type":"Feature","properties":{"cadnum":"2322186801:03:001:0384"},"geometry":{"type":"Polygon","coordinates":[[[35.356396,47.84529],[35.356638,47.846332],[35.356636,47.846332],[35.356661,47.846431],[35.356818,47.846431],[35.356674,47.845347],[35.356655,47.845347],[35.356655,47.845325],[35.356675,47.845324],[35.35665,47.845105],[35.356433,47.845011],[35.356404,47.845179],[35.356422,47.84529],[35.356396,47.84529]]]}},{"type":"Feature","properties":{"cadnum":"2322186801:03:001:0115"},"geometry":{"type":"Polygon","coordinates":[[[35.355482,47.845612],[35.355616,47.845926],[35.355928,47.845919],[35.355849,47.845599],[35.355762,47.84529],[35.355741,47.845199],[35.355609,47.845163],[35.355611,47.845089],[35.355623,47.845054],[35.355645,47.84502],[35.355688,47.845033],[35.35571,47.845],[35.355836,47.844784],[35.355718,47.844705],[35.355553,47.844902],[35.355526,47.844978],[35.355506,47.84506],[35.355537,47.845066],[35.355521,47.84521],[35.355482,47.845612]]]}},{"type":"Feature","properties":{"cadnum":"2322186801:03:001:0195"},"geometry":{"type":"Polygon","coordinates":[[[35.354456,47.845106],[35.35476,47.845248],[35.355147,47.844762],[35.35535,47.844489],[35.35521,47.844382],[35.355128,47.844348],[35.354834,47.84466],[35.354456,47.845106]]]}},{"type":"Feature","properties":{"cadnum":"2322186801:03:001:0252"},"geometry":{"type":"Polygon","coordinates":[[[35.352997,47.844288],[35.353225,47.844431],[35.353517,47.844129],[35.353564,47.844064],[35.353689,47.843969],[35.353773,47.843874],[35.353883,47.843848],[35.353918,47.843827],[35.353925,47.843822],[35.354059,47.84373],[35.353973,47.843672],[35.35393,47.843641],[35.353817,47.843721],[35.353754,47.843765],[35.353681,47.843816],[35.353616,47.843774],[35.352997,47.844288]]]}},{"type":"Feature","properties":{"cadnum":"2322186801:03:001:0249"},"geometry":{"type":"Polygon","coordinates":[[[35.354353,47.845227],[35.354625,47.84542],[35.35476,47.845248],[35.354456,47.845106],[35.354353,47.845227]]]}},{"type":"Feature","properties":{"cadnum":"2322186801:03:001:0254"},"geometry":{"type":"Polygon","coordinates":[[[35.353929,47.843826],[35.35409,47.843933],[35.35409,47.843932],[35.354228,47.844024],[35.354492,47.843816],[35.354493,47.84379],[35.354483,47.843759],[35.354468,47.843734],[35.354437,47.843712],[35.354412,47.843696],[35.354165,47.843541],[35.354109,47.843579],[35.35409,47.843591],[35.354017,47.843642],[35.353973,47.843672],[35.354059,47.84373],[35.354059,47.843731],[35.353938,47.843819],[35.353929,47.843826]]]}},{"type":"Feature","properties":{"cadnum":"2322186801:03:001:0255"},"geometry":{"type":"Polygon","coordinates":[[[35.353476,47.843636],[35.353583,47.843718],[35.353753,47.8436],[35.35382,47.843559],[35.353903,47.843523],[35.353918,47.843514],[35.354037,47.843442],[35.353867,47.843305],[35.353698,47.843435],[35.353698,47.843452],[35.353506,47.843597],[35.353476,47.843636]]]}},{"type":"Feature","properties":{"cadnum":"2322186801:03:001:0141"},"geometry":{"type":"Polygon","coordinates":[[[35.35824,47.837489],[35.35859,47.837533],[35.358776,47.83687],[35.358426,47.836826],[35.35824,47.837489]]]}},{"type":"Feature","properties":{"cadnum":"2322186801:03:001:0132"},"geometry":{"type":"Polygon","coordinates":[[[35.357672,47.838345],[35.358034,47.838367],[35.358218,47.837713],[35.357857,47.837692],[35.357672,47.838345]]]}},{"type":"Feature","properties":{"cadnum":"2322186801:03:001:0140"},"geometry":{"type":"Polygon","coordinates":[[[35.357833,47.837501],[35.358184,47.83754],[35.358348,47.836875],[35.357995,47.836836],[35.357833,47.837501]]]}},{"type":"Feature","properties":{"cadnum":"2322186801:03:002:0159"},"geometry":{"type":"Polygon","coordinates":[[[35.353639,47.836852],[35.353918,47.836936],[35.353965,47.83695],[35.35409,47.836987],[35.354127,47.836998],[35.354467,47.836485],[35.353978,47.836338],[35.353639,47.836852]]]}},{"type":"Feature","properties":{"cadnum":"2322186801:03:002:0106"},"geometry":{"type":"Polygon","coordinates":[[[35.354051,47.835566],[35.354542,47.835708],[35.354819,47.835271],[35.35487,47.835191],[35.354379,47.835049],[35.354165,47.835386],[35.354051,47.835566]]]}},{"type":"Feature","properties":{"cadnum":"2322186801:03:002:0162"},"geometry":{"type":"Polygon","coordinates":[[[35.355202,47.837308],[35.355757,47.837465],[35.355973,47.836915],[35.355542,47.836794],[35.355202,47.837308]]]}},{"type":"Feature","properties":{"cadnum":"2322186801:03:002:0161"},"geometry":{"type":"Polygon","coordinates":[[[35.354622,47.837141],[35.355106,47.837286],[35.355251,47.837061],[35.355446,47.836766],[35.354963,47.836622],[35.354748,47.836947],[35.354622,47.837141]]]}},{"type":"Feature","properties":{"cadnum":"2322186801:03:002:0221"},"geometry":{"type":"Polygon","coordinates":[[[35.351153,47.835471],[35.351641,47.835617],[35.351792,47.835386],[35.351979,47.835103],[35.351491,47.834957],[35.351208,47.835386],[35.351153,47.835471]]]}},{"type":"Feature","properties":{"cadnum":"2322186801:03:002:0111"},"geometry":{"type":"Polygon","coordinates":[[[35.351556,47.834913],[35.35205,47.835052],[35.352372,47.834533],[35.351878,47.834395],[35.351556,47.834913]]]}},{"type":"Feature","properties":{"cadnum":"2322186801:03:002:0110"},"geometry":{"type":"Polygon","coordinates":[[[35.352109,47.83501],[35.352597,47.835155],[35.352936,47.834641],[35.352448,47.834496],[35.352109,47.83501]]]}},{"type":"Feature","properties":{"cadnum":"2322186801:03:002:0109"},"geometry":{"type":"Polygon","coordinates":[[[35.352578,47.835199],[35.35284,47.835271],[35.353073,47.835334],[35.353073,47.835335],[35.353431,47.834827],[35.352938,47.83469],[35.352578,47.835199]]]}},{"type":"Feature","properties":{"cadnum":"2322186801:03:001:0385"},"geometry":{"type":"Polygon","coordinates":[[[35.356661,47.846431],[35.356724,47.846702],[35.356854,47.846708],[35.356818,47.846431],[35.356661,47.846431]]]}},{"type":"Feature","properties":{"cadnum":"2322186801:03:001:0208"},"geometry":{"type":"Polygon","coordinates":[[[35.357219,47.846864],[35.357493,47.846903],[35.357626,47.84656],[35.357327,47.846535],[35.357219,47.846864]]]}},{"type":"Feature","properties":{"cadnum":"2322186801:03:001:0216"},"geometry":{"type":"Polygon","coordinates":[[[35.358183,47.846855],[35.358525,47.846932],[35.358582,47.846735],[35.358236,47.846658],[35.358183,47.846855]]]}},{"type":"Feature","properties":{"cadnum":"2322186801:03:001:0393"},"geometry":{"type":"Polygon","coordinates":[[[35.351429,47.842703],[35.351515,47.84276],[35.351669,47.842861],[35.351804,47.84276],[35.352522,47.842227],[35.352291,47.842063],[35.351508,47.842645],[35.351507,47.842645],[35.351429,47.842703]]]}},{"type":"Feature","properties":{"cadnum":"2322186801:03:001:0230"},"geometry":{"type":"Polygon","coordinates":[[[35.356018,47.842215],[35.356219,47.842269],[35.356454,47.841688],[35.356254,47.841634],[35.356018,47.842215]]]}},{"type":"Feature","properties":{"cadnum":"2322186801:03:001:0250"},"geometry":{"type":"Polygon","coordinates":[[[35.356219,47.842269],[35.356504,47.842344],[35.356517,47.84231],[35.356749,47.841737],[35.356465,47.841661],[35.356454,47.841688],[35.356234,47.842234],[35.356219,47.842269]]]}},{"type":"Feature","properties":{"cadnum":"2322186801:03:001:0205"},"geometry":{"type":"Polygon","coordinates":[[[35.35478,47.84081],[35.355298,47.840913],[35.355444,47.840585],[35.354959,47.840386],[35.35478,47.84081]]]}},{"type":"Feature","properties":{"cadnum":"2322186801:03:001:0123"},"geometry":{"type":"Polygon","coordinates":[[[35.355395,47.842052],[35.355721,47.842137],[35.355735,47.842089],[35.355891,47.841569],[35.355678,47.841527],[35.355625,47.841516],[35.355395,47.842052]]]}},{"type":"Feature","properties":{"cadnum":"2322186801:03:002:0374"},"geometry":{"type":"Polygon","coordinates":[[[35.354539,47.840016],[35.354896,47.840154],[35.354975,47.840017],[35.355035,47.839849],[35.355211,47.839557],[35.354799,47.839436],[35.354656,47.839681],[35.354539,47.840016]]]}},{"type":"Feature","properties":{"cadnum":"2322186801:03:001:0114"},"geometry":{"type":"Polygon","coordinates":[[[35.354365,47.841421],[35.354936,47.841687],[35.355024,47.841441],[35.354723,47.841382],[35.354721,47.841376],[35.354676,47.841366],[35.354802,47.841094],[35.354555,47.841035],[35.354365,47.841421]]]}},{"type":"Feature","properties":{"cadnum":"2322186801:03:001:0251"},"geometry":{"type":"Polygon","coordinates":[[[35.353844,47.840698],[35.353918,47.840727],[35.353918,47.840728],[35.353953,47.840741],[35.353964,47.840724],[35.35409,47.840766],[35.3541,47.840769],[35.354405,47.840243],[35.354396,47.840241],[35.354425,47.840191],[35.354433,47.840193],[35.354461,47.840146],[35.35448,47.840113],[35.354393,47.840081],[35.354233,47.840024],[35.354214,47.840058],[35.354186,47.840106],[35.354186,47.840107],[35.354178,47.840104],[35.354125,47.840196],[35.354151,47.840203],[35.353918,47.840579],[35.353844,47.840698]]]}},{"type":"Feature","properties":{"cadnum":"2322186801:03:001:0198"},"geometry":{"type":"Polygon","coordinates":[[[35.353591,47.840658],[35.353702,47.840708],[35.353813,47.840751],[35.353918,47.84057],[35.353933,47.840545],[35.35409,47.840273],[35.35409,47.840272],[35.354233,47.840024],[35.353985,47.839936],[35.353591,47.840658]]]}},{"type":"Feature","properties":{"cadnum":"2322186801:03:002:0120"},"geometry":{"type":"Polygon","coordinates":[[[35.350025,47.839438],[35.350269,47.839538],[35.350427,47.839351],[35.350455,47.839363],[35.350756,47.839008],[35.350899,47.83884],[35.350992,47.83873],[35.350707,47.838613],[35.350422,47.838958],[35.350089,47.83936],[35.350025,47.839438]]]}},{"type":"Feature","properties":{"cadnum":"2322186801:03:002:0180"},"geometry":{"type":"Polygon","coordinates":[[[35.348621,47.838735],[35.348913,47.838821],[35.349349,47.838024],[35.349058,47.837937],[35.348621,47.838735]]]}},{"type":"Feature","properties":{"cadnum":"2322186801:03:002:0223"},"geometry":{"type":"Polygon","coordinates":[[[35.347825,47.83872],[35.348029,47.838805],[35.348597,47.837936],[35.348597,47.837935],[35.348649,47.837855],[35.348445,47.837771],[35.347825,47.83872]]]}},{"type":"Feature","properties":{"cadnum":"2322186801:03:002:0100"},"geometry":{"type":"Polygon","coordinates":[[[35.347233,47.83693],[35.348035,47.837259],[35.348425,47.837424],[35.349097,47.837707],[35.349397,47.83737],[35.349565,47.837182],[35.349509,47.837158],[35.348626,47.83679],[35.348909,47.836536],[35.349301,47.836184],[35.349706,47.835819],[35.349463,47.835697],[35.349228,47.83558],[35.348818,47.835376],[35.348492,47.835698],[35.347919,47.836262],[35.347233,47.83693]]]}},{"type":"Feature","properties":{"cadnum":"2322186801:03:002:0333"},"geometry":{"type":"Polygon","coordinates":[[[35.349643,47.839189],[35.349653,47.839194],[35.349864,47.839268],[35.349995,47.839073],[35.350238,47.838715],[35.350316,47.838574],[35.35038,47.838481],[35.350392,47.838462],[35.350139,47.838353],[35.350124,47.838371],[35.350119,47.838377],[35.34971,47.839073],[35.349711,47.839073],[35.34968,47.839125],[35.349643,47.839189]]]}},{"type":"Feature","properties":{"cadnum":"2322186801:03:002:0127"},"geometry":{"type":"Polygon","coordinates":[[[35.349429,47.838977],[35.349431,47.838978],[35.349592,47.839073],[35.34968,47.839125],[35.349778,47.838958],[35.350119,47.838377],[35.349846,47.838222],[35.34944,47.838958],[35.349439,47.838958],[35.349429,47.838977]]]}},{"type":"Feature","properties":{"cadnum":"2322186801:03:002:0141"},"geometry":{"type":"Polygon","coordinates":[[[35.353154,47.8367],[35.353638,47.836851],[35.35398,47.836338],[35.353494,47.836184],[35.353154,47.8367]]]}},{"type":"Feature","properties":{"cadnum":"2322186801:03:002:0130"},"geometry":{"type":"Polygon","coordinates":[[[35.351231,47.836095],[35.351717,47.836245],[35.352085,47.835752],[35.351568,47.835601],[35.351231,47.836095]]]}},{"type":"Feature","properties":{"cadnum":"2322186801:03:002:0143"},"geometry":{"type":"Polygon","coordinates":[[[35.35218,47.836408],[35.352423,47.836481],[35.352759,47.835967],[35.352515,47.835894],[35.35218,47.836408]]]}},{"type":"Feature","properties":{"cadnum":"2322186801:03:001:0181"},"geometry":{"type":"Polygon","coordinates":[[[35.352757,47.837387],[35.353037,47.837471],[35.353387,47.836933],[35.353107,47.836851],[35.352757,47.837387]]]}},{"type":"Feature","properties":{"cadnum":"2322186801:03:001:0389"},"geometry":{"type":"Polygon","coordinates":[[[35.353037,47.837471],[35.353319,47.837554],[35.353669,47.837016],[35.353387,47.836933],[35.353037,47.837471]]]}},{"type":"Feature","properties":{"cadnum":"2322186801:03:002:0147"},"geometry":{"type":"Polygon","coordinates":[[[35.351641,47.837407],[35.35192,47.837497],[35.352525,47.836616],[35.352247,47.836524],[35.351641,47.837407]]]}},{"type":"Feature","properties":{"cadnum":"2322186801:03:002:0139"},"geometry":{"type":"Polygon","coordinates":[[[35.352423,47.836481],[35.352667,47.836555],[35.353003,47.836041],[35.352759,47.835967],[35.352423,47.836481]]]}},{"type":"Feature","properties":{"cadnum":"2322186801:03:002:0131"},"geometry":{"type":"Polygon","coordinates":[[[35.350717,47.835964],[35.351204,47.836112],[35.35154,47.835598],[35.351053,47.83545],[35.350717,47.835964]]]}},{"type":"Feature","properties":{"cadnum":"2322186801:03:002:0128"},"geometry":{"type":"Polygon","coordinates":[[[35.335038,47.834811],[35.335246,47.834839],[35.335286,47.834709],[35.335274,47.834708],[35.335281,47.834686],[35.335219,47.834678],[35.335235,47.834626],[35.335234,47.834525],[35.335265,47.834529],[35.335639,47.833427],[35.335469,47.833404],[35.335084,47.834637],[35.335069,47.834685],[35.335092,47.834688],[35.335076,47.834741],[35.335075,47.834741],[35.335059,47.83474],[35.335038,47.834811]]]}},{"type":"Feature","properties":{"cadnum":"2322186801:03:002:0144"},"geometry":{"type":"Polygon","coordinates":[[[35.334703,47.834753],[35.335041,47.834793],[35.335059,47.83474],[35.33506,47.83474],[35.335076,47.834741],[35.335092,47.834688],[35.335069,47.834685],[35.33511,47.83454],[35.335132,47.834445],[35.335147,47.834361],[35.335384,47.833677],[35.335418,47.833567],[35.335173,47.83354],[35.334895,47.834407],[35.334874,47.834466],[35.335093,47.834511],[35.335065,47.834617],[35.334872,47.834585],[35.334884,47.834551],[35.334763,47.834547],[35.334703,47.834753]]]}},{"type":"Feature","properties":{"cadnum":"2322186801:03:002:0222"},"geometry":{"type":"Polygon","coordinates":[[[35.3363,47.834978],[35.336454,47.834998],[35.33648,47.834953],[35.336535,47.834798],[35.336541,47.83477],[35.33657,47.834681],[35.336614,47.834534],[35.33693,47.83335],[35.336751,47.833325],[35.336439,47.834514],[35.336367,47.834749],[35.3363,47.834978]]]}},{"type":"Feature","properties":{"cadnum":"2322186801:03:002:0272"},"geometry":{"type":"Polygon","coordinates":[[[35.332782,47.834524],[35.333205,47.834579],[35.333406,47.833892],[35.332985,47.833838],[35.332782,47.834524]]]}},{"type":"Feature","properties":{"cadnum":"2322186801:03:002:0343"},"geometry":{"type":"Polygon","coordinates":[[[35.335451,47.834868],[35.335667,47.834895],[35.336096,47.833588],[35.335871,47.83356],[35.335451,47.834868]]]}},{"type":"Feature","properties":{"cadnum":"2322186801:03:002:0277"},"geometry":{"type":"Polygon","coordinates":[[[35.335871,47.83356],[35.336096,47.833588],[35.33617,47.833368],[35.335942,47.833339],[35.335871,47.83356]]]}},{"type":"Feature","properties":{"cadnum":"2322186801:04:001:0203"},"geometry":{"type":"Polygon","coordinates":[[[35.365458,47.813272],[35.365611,47.813291],[35.36565,47.813142],[35.365997,47.811826],[35.36585,47.811806],[35.365462,47.813257],[35.365458,47.813272]]]}},{"type":"Feature","properties":{"cadnum":"2322186801:03:001:0228"},"geometry":{"type":"Polygon","coordinates":[[[35.348948,47.840853],[35.349185,47.840927],[35.349496,47.840537],[35.349263,47.840457],[35.348984,47.840802],[35.348948,47.840853]]]}},{"type":"Feature","properties":{"cadnum":"2322186801:03:002:0182"},"geometry":{"type":"Polygon","coordinates":[[[35.348639,47.839898],[35.348913,47.840036],[35.349376,47.83944],[35.34913,47.839315],[35.348639,47.839898]]]}},{"type":"Feature","properties":{"cadnum":"2322186801:03:001:0232"},"geometry":{"type":"Polygon","coordinates":[[[35.350109,47.841334],[35.350324,47.841401],[35.350556,47.841063],[35.350579,47.841031],[35.350395,47.840922],[35.350372,47.840955],[35.350109,47.841334]]]}},{"type":"Feature","properties":{"cadnum":"2322186801:03:002:0121"},"geometry":{"type":"Polygon","coordinates":[[[35.349934,47.839548],[35.350175,47.839648],[35.350269,47.839538],[35.350025,47.839438],[35.349934,47.839548]]]}},{"type":"Feature","properties":{"cadnum":"2322186801:03:002:0192"},"geometry":{"type":"Polygon","coordinates":[[[35.349999,47.840505],[35.350022,47.840514],[35.350057,47.840531],[35.350266,47.84062],[35.3503,47.840633],[35.350406,47.840438],[35.350442,47.840372],[35.350754,47.839823],[35.350722,47.839813],[35.350419,47.839727],[35.349999,47.840505]]]}},{"type":"Feature","properties":{"cadnum":"2322186801:03:001:0370"},"geometry":{"type":"Polygon","coordinates":[[[35.348681,47.840708],[35.348743,47.840727],[35.348984,47.840802],[35.349297,47.840415],[35.349322,47.840384],[35.349019,47.840289],[35.348994,47.840321],[35.348681,47.840708]]]}},{"type":"Feature","properties":{"cadnum":"2322186801:03:001:0211"},"geometry":{"type":"Polygon","coordinates":[[[35.352903,47.841275],[35.353091,47.841376],[35.353264,47.841222],[35.353386,47.841112],[35.353406,47.841094],[35.353213,47.840915],[35.353194,47.840932],[35.352928,47.841171],[35.352991,47.84123],[35.352903,47.841275]]]}},{"type":"Feature","properties":{"cadnum":"2322186801:03:001:0302"},"geometry":{"type":"Polygon","coordinates":[[[35.351918,47.841579],[35.352117,47.841702],[35.352188,47.841747],[35.352505,47.841492],[35.352814,47.841244],[35.352881,47.841183],[35.352564,47.841031],[35.352258,47.841287],[35.352219,47.841318],[35.351918,47.841579]]]}},{"type":"Feature","properties":{"cadnum":"2322186801:03:001:0196"},"geometry":{"type":"Polygon","coordinates":[[[35.350956,47.842063],[35.351283,47.842209],[35.35159,47.841924],[35.351429,47.841845],[35.351657,47.841626],[35.351493,47.841549],[35.3512,47.84186],[35.350956,47.842063]]]}},{"type":"Feature","properties":{"cadnum":"2322186801:03:001:0075"},"geometry":{"type":"Polygon","coordinates":[[[35.351759,47.841482],[35.351918,47.841579],[35.352219,47.841318],[35.352258,47.841287],[35.352564,47.841031],[35.352522,47.841006],[35.352411,47.84095],[35.352248,47.841076],[35.351759,47.841482]]]}},{"type":"Feature","properties":{"cadnum":"2322186801:03:001:0231"},"geometry":{"type":"Polygon","coordinates":[[[35.353032,47.841482],[35.353159,47.84156],[35.353205,47.841588],[35.353638,47.841248],[35.353661,47.841231],[35.353406,47.841094],[35.353386,47.841112],[35.353264,47.841222],[35.353091,47.841376],[35.353129,47.841395],[35.353032,47.841482]]]}},{"type":"Feature","properties":{"cadnum":"2322186801:03:001:0214"},"geometry":{"type":"Polygon","coordinates":[[[35.353205,47.841588],[35.353316,47.84167],[35.353426,47.841752],[35.353878,47.841378],[35.353899,47.84136],[35.353661,47.841231],[35.353638,47.841248],[35.353205,47.841588]]]}},{"type":"Feature","properties":{"cadnum":"2322186801:03:001:0201"},"geometry":{"type":"Polygon","coordinates":[[[35.352289,47.841819],[35.352403,47.841892],[35.352775,47.841587],[35.353038,47.841372],[35.35301,47.841353],[35.352926,47.841298],[35.352289,47.841819]]]}},{"type":"Feature","properties":{"cadnum":"2322186801:03:001:0120"},"geometry":{"type":"Polygon","coordinates":[[[35.352403,47.841892],[35.352554,47.841992],[35.352696,47.841888],[35.352672,47.841882],[35.352672,47.841881],[35.353088,47.841561],[35.352928,47.841462],[35.352403,47.841892]]]}},{"type":"Feature","properties":{"cadnum":"2322186801:03:001:0186"},"geometry":{"type":"Polygon","coordinates":[[[35.351216,47.839854],[35.351524,47.840008],[35.351709,47.83984],[35.351662,47.839819],[35.351662,47.839818],[35.351774,47.839718],[35.351507,47.83959],[35.351216,47.839854]]]}},{"type":"Feature","properties":{"cadnum":"2322186801:03:001:0213"},"geometry":{"type":"Polygon","coordinates":[[[35.35165,47.840064],[35.351897,47.840188],[35.352137,47.839823],[35.35189,47.839698],[35.35165,47.840064]]]}},{"type":"Feature","properties":{"cadnum":"2322186801:03:001:0190"},"geometry":{"type":"Polygon","coordinates":[[[35.352623,47.840536],[35.352703,47.840582],[35.352724,47.840594],[35.352763,47.840617],[35.352911,47.840701],[35.352922,47.840683],[35.352942,47.840648],[35.353109,47.840364],[35.352809,47.840252],[35.352656,47.840485],[35.352635,47.840519],[35.352623,47.840536]]]}},{"type":"Feature","properties":{"cadnum":"2322186801:03:001:0189"},"geometry":{"type":"Polygon","coordinates":[[[35.352203,47.840395],[35.352527,47.840555],[35.352719,47.840278],[35.352397,47.840119],[35.352203,47.840395]]]}},{"type":"Feature","properties":{"cadnum":"2322186801:03:002:0175"},"geometry":{"type":"Polygon","coordinates":[[[35.346972,47.838143],[35.347293,47.838273],[35.347391,47.838105],[35.347057,47.837994],[35.346972,47.838143]]]}},{"type":"Feature","properties":{"cadnum":"2322186801:03:002:0163"},"geometry":{"type":"Polygon","coordinates":[[[35.34473,47.83836],[35.345036,47.838483],[35.345251,47.838121],[35.345504,47.83769],[35.345198,47.837567],[35.344949,47.837988],[35.34473,47.83836]]]}},{"type":"Feature","properties":{"cadnum":"2322186801:03:002:0172"},"geometry":{"type":"Polygon","coordinates":[[[35.34543,47.838602],[35.345641,47.83868],[35.346216,47.837705],[35.346006,47.837627],[35.34543,47.838602]]]}},{"type":"Feature","properties":{"cadnum":"2322186801:03:002:0118"},"geometry":{"type":"Polygon","coordinates":[[[35.345351,47.837106],[35.345749,47.837275],[35.345924,47.83696],[35.346103,47.836663],[35.345711,47.836498],[35.345542,47.836769],[35.345525,47.836807],[35.345351,47.837106]]]}},{"type":"Feature","properties":{"cadnum":"2322186801:03:002:0181"},"geometry":{"type":"Polygon","coordinates":[[[35.345955,47.836364],[35.346199,47.83647],[35.346844,47.835774],[35.3466,47.835668],[35.345955,47.836364]]]}},{"type":"Feature","properties":{"cadnum":"2322186801:03:002:0119"},"geometry":{"type":"Polygon","coordinates":[[[35.345208,47.837353],[35.345336,47.837392],[35.345638,47.837479],[35.345749,47.837275],[35.345351,47.837106],[35.345208,47.837353]]]}},{"type":"Feature","properties":{"cadnum":"2322186801:03:002:0184"},"geometry":{"type":"Polygon","coordinates":[[[35.344746,47.836896],[35.345165,47.837027],[35.345525,47.836416],[35.345155,47.836261],[35.344746,47.836896]]]}},{"type":"Feature","properties":{"cadnum":"2322186801:03:002:0369"},"geometry":{"type":"Polygon","coordinates":[[[35.344914,47.83743],[35.345224,47.837523],[35.345283,47.837424],[35.345137,47.83738],[35.344972,47.83733],[35.344914,47.83743]]]}},{"type":"Feature","properties":{"cadnum":"2322186801:03:002:0168"},"geometry":{"type":"Polygon","coordinates":[[[35.344108,47.836539],[35.344422,47.83663],[35.344573,47.836359],[35.344748,47.836082],[35.344445,47.83596],[35.34425,47.836308],[35.344108,47.836539]]]}},{"type":"Feature","properties":{"cadnum":"2322186801:03:002:0115"},"geometry":{"type":"Polygon","coordinates":[[[35.343073,47.836444],[35.343123,47.83645],[35.343124,47.83645],[35.343094,47.83658],[35.343305,47.836605],[35.34357,47.835465],[35.343307,47.835435],[35.343073,47.836444]]]}},{"type":"Feature","properties":{"cadnum":"2322186801:03:002:0174"},"geometry":{"type":"Polygon","coordinates":[[[35.347057,47.837994],[35.347391,47.838105],[35.347816,47.837375],[35.347481,47.837241],[35.347057,47.837994]]]}},{"type":"Feature","properties":{"cadnum":"2322186801:03:002:0171"},"geometry":{"type":"Polygon","coordinates":[[[35.345036,47.838483],[35.345285,47.838558],[35.34587,47.837567],[35.345629,47.83748],[35.345036,47.838483]]]}},{"type":"Feature","properties":{"cadnum":"2322186801:03:002:0186"},"geometry":{"type":"Polygon","coordinates":[[[35.344593,47.837134],[35.345024,47.837266],[35.345165,47.837027],[35.344746,47.836896],[35.344593,47.837134]]]}},{"type":"Feature","properties":{"cadnum":"2322186801:03:002:0173"},"geometry":{"type":"Polygon","coordinates":[[[35.345285,47.838558],[35.34543,47.838602],[35.346011,47.837618],[35.34587,47.837567],[35.345285,47.838558]]]}},{"type":"Feature","properties":{"cadnum":"2322186801:03:002:0253"},"geometry":{"type":"Polygon","coordinates":[[[35.344427,47.838242],[35.34473,47.83836],[35.344929,47.838022],[35.345224,47.837523],[35.344914,47.83743],[35.344648,47.837887],[35.344427,47.838242]]]}},{"type":"Feature","properties":{"cadnum":"2322186801:03:002:0170"},"geometry":{"type":"Polygon","coordinates":[[[35.329273,47.834046],[35.32953,47.834083],[35.329773,47.832905],[35.329552,47.832881],[35.329273,47.834046]]]}},{"type":"Feature","properties":{"cadnum":"2322186801:03:002:0150"},"geometry":{"type":"Polygon","coordinates":[[[35.329038,47.834014],[35.329273,47.834046],[35.329364,47.833666],[35.329569,47.832807],[35.329334,47.832774],[35.329051,47.833961],[35.329038,47.834014]]]}},{"type":"Feature","properties":{"cadnum":"2322186801:03:002:0228"},"geometry":{"type":"Polygon","coordinates":[[[35.326979,47.833253],[35.32741,47.833297],[35.327449,47.833126],[35.327017,47.833081],[35.326979,47.833253]]]}},{"type":"Feature","properties":{"cadnum":"2322186801:03:002:0125"},"geometry":{"type":"Polygon","coordinates":[[[35.330218,47.834125],[35.330653,47.834224],[35.330726,47.83406],[35.33093,47.833605],[35.330484,47.833504],[35.330425,47.833639],[35.33034,47.833837],[35.330312,47.833903],[35.330218,47.834125]]]}},{"type":"Feature","properties":{"cadnum":"2322186801:03:002:0151"},"geometry":{"type":"Polygon","coordinates":[[[35.32956,47.832652],[35.329786,47.832703],[35.329951,47.832318],[35.329725,47.832266],[35.32956,47.832652]]]}},{"type":"Feature","properties":{"cadnum":"2322186801:03:002:0117"},"geometry":{"type":"Polygon","coordinates":[[[35.33095,47.833559],[35.331375,47.833646],[35.331685,47.833027],[35.331229,47.832935],[35.331031,47.833379],[35.33095,47.833559]]]}},{"type":"Feature","properties":{"cadnum":"2322186801:03:002:0241"},"geometry":{"type":"Polygon","coordinates":[[[35.327421,47.833245],[35.327835,47.833215],[35.327871,47.833036],[35.327462,47.833068],[35.327421,47.833245]]]}},{"type":"Feature","properties":{"cadnum":"2322186801:03:002:0227"},"geometry":{"type":"Polygon","coordinates":[[[35.326833,47.833938],[35.327266,47.833983],[35.327277,47.833926],[35.327323,47.833699],[35.327362,47.83351],[35.32741,47.833297],[35.326979,47.833253],[35.326845,47.833881],[35.326838,47.833917],[35.326833,47.833938]]]}},{"type":"Feature","properties":{"cadnum":"2322186801:03:002:0169"},"geometry":{"type":"Polygon","coordinates":[[[35.327681,47.833944],[35.327918,47.833925],[35.328107,47.833075],[35.327871,47.833036],[35.327835,47.833215],[35.327681,47.833944]]]}},{"type":"Feature","properties":{"cadnum":"2322186801:03:002:0126"},"geometry":{"type":"Polygon","coordinates":[[[35.330484,47.833504],[35.33093,47.833605],[35.331031,47.833379],[35.33058,47.833278],[35.330484,47.833504]]]}},{"type":"Feature","properties":{"cadnum":"2322186801:03:002:0240"},"geometry":{"type":"Polygon","coordinates":[[[35.327266,47.833983],[35.327681,47.833944],[35.327835,47.833215],[35.327421,47.833245],[35.32741,47.833297],[35.327362,47.83351],[35.327323,47.833699],[35.327277,47.833926],[35.327266,47.833983]]]}},{"type":"Feature","properties":{"cadnum":"2322186801:03:002:0116"},"geometry":{"type":"Polygon","coordinates":[[[35.330653,47.834224],[35.330658,47.834231],[35.331042,47.834315],[35.331043,47.834311],[35.331225,47.833946],[35.331375,47.833646],[35.33095,47.833559],[35.330783,47.833935],[35.330729,47.834054],[35.330681,47.834162],[35.330653,47.834224]]]}}]}