{"type":"FeatureCollection","features":[{"type":"Feature","properties":{"cadnum":"2322410101:01:024:0004"},"geometry":{"type":"Polygon","coordinates":[[[34.433387,47.492557],[34.433388,47.492632],[34.433417,47.492632],[34.433419,47.49267],[34.433503,47.49267],[34.433503,47.492631],[34.433502,47.492556],[34.433387,47.492557]]]}},{"type":"Feature","properties":{"cadnum":"2322410101:01:008:0031"},"geometry":{"type":"Polygon","coordinates":[[[34.400904,47.472005],[34.401081,47.472127],[34.401073,47.472133],[34.401746,47.472666],[34.401871,47.472561],[34.401034,47.471898],[34.400904,47.472005]]]}},{"type":"Feature","properties":{"cadnum":"2322410101:01:008:0030"},"geometry":{"type":"Polygon","coordinates":[[[34.400874,47.47229],[34.40136,47.47265],[34.401573,47.472807],[34.401746,47.472666],[34.401073,47.472133],[34.400874,47.47229]]]}},{"type":"Feature","properties":{"cadnum":"2322410101:01:024:0007"},"geometry":{"type":"Polygon","coordinates":[[[34.438251,47.485899],[34.438295,47.486613],[34.43855,47.486619],[34.438498,47.485905],[34.438251,47.485899]]]}},{"type":"Feature","properties":{"cadnum":"2322410101:01:005:0013"},"geometry":{"type":"Polygon","coordinates":[[[34.422681,47.468304],[34.422816,47.468329],[34.422854,47.468336],[34.4231,47.468297],[34.423265,47.467995],[34.422835,47.468055],[34.422681,47.468304]]]}},{"type":"Feature","properties":{"cadnum":"2322410101:01:016:0012"},"geometry":{"type":"Polygon","coordinates":[[[34.397453,47.489318],[34.397638,47.48935],[34.397648,47.48927],[34.397462,47.489232],[34.397453,47.489318]]]}},{"type":"Feature","properties":{"cadnum":"2322410101:01:016:0011"},"geometry":{"type":"Polygon","coordinates":[[[34.397383,47.48995],[34.397567,47.489982],[34.397567,47.489981],[34.397617,47.489534],[34.397638,47.48935],[34.397453,47.489318],[34.397383,47.48995]]]}}]}