{"type":"FeatureCollection","features":[{"type":"Feature","properties":{"cadnum":"2322181308:10:001:0157"},"geometry":{"type":"Polygon","coordinates":[[[34.953711,48.037586],[34.953746,48.037592],[34.954293,48.037695],[34.954396,48.037714],[34.954591,48.037103],[34.954509,48.037092],[34.953947,48.037024],[34.953914,48.037021],[34.953711,48.037586]]]}},{"type":"Feature","properties":{"cadnum":"2322181308:10:001:0089"},"geometry":{"type":"Polygon","coordinates":[[[34.956376,48.036746],[34.956617,48.036781],[34.956739,48.036441],[34.956459,48.036414],[34.956376,48.036746]]]}},{"type":"Feature","properties":{"cadnum":"2322181308:10:001:0104"},"geometry":{"type":"Polygon","coordinates":[[[34.955212,48.037462],[34.956271,48.037573],[34.956341,48.037307],[34.955287,48.037174],[34.955212,48.037462]]]}},{"type":"Feature","properties":{"cadnum":"2322181308:10:001:0103"},"geometry":{"type":"Polygon","coordinates":[[[34.956203,48.037838],[34.956293,48.037846],[34.956336,48.03768],[34.956335,48.03768],[34.956361,48.037582],[34.956273,48.037573],[34.956214,48.037795],[34.956203,48.037838]]]}},{"type":"Feature","properties":{"cadnum":"2322181308:10:001:0151"},"geometry":{"type":"Polygon","coordinates":[[[34.953551,48.034647],[34.954717,48.034744],[34.954793,48.034428],[34.953623,48.034354],[34.953551,48.034647]]]}},{"type":"Feature","properties":{"cadnum":"2322181308:10:001:0108"},"geometry":{"type":"Polygon","coordinates":[[[34.956271,48.037573],[34.95636,48.037582],[34.956428,48.037317],[34.956341,48.037307],[34.956271,48.037573]]]}},{"type":"Feature","properties":{"cadnum":"2322181308:10:001:0007"},"geometry":{"type":"Polygon","coordinates":[[[34.953778,48.037932],[34.954797,48.038063],[34.95487,48.037802],[34.954301,48.037697],[34.954294,48.037696],[34.953871,48.037623],[34.953853,48.03768],[34.953846,48.037705],[34.953818,48.037795],[34.953819,48.037795],[34.953778,48.037932]]]}},{"type":"Feature","properties":{"cadnum":"2322181308:10:001:0009"},"geometry":{"type":"Polygon","coordinates":[[[34.954396,48.037714],[34.954402,48.037715],[34.954835,48.037795],[34.954836,48.037795],[34.95487,48.037801],[34.954877,48.037772],[34.95504,48.03716],[34.954591,48.037103],[34.954407,48.03768],[34.954396,48.037714]]]}},{"type":"Feature","properties":{"cadnum":"2322181308:10:001:0102"},"geometry":{"type":"Polygon","coordinates":[[[34.955138,48.037751],[34.95567,48.037795],[34.956203,48.037838],[34.956244,48.03768],[34.956273,48.037573],[34.955212,48.037462],[34.955156,48.03768],[34.955155,48.03768],[34.955138,48.037751]]]}},{"type":"Feature","properties":{"cadnum":"2322181308:10:001:0096"},"geometry":{"type":"Polygon","coordinates":[[[34.956822,48.035433],[34.956934,48.035443],[34.957021,48.035158],[34.956884,48.035146],[34.956822,48.035433]]]}},{"type":"Feature","properties":{"cadnum":"2322181308:10:001:0021"},"geometry":{"type":"Polygon","coordinates":[[[34.954662,48.03442],[34.954793,48.034428],[34.955013,48.034443],[34.955721,48.034531],[34.955791,48.034247],[34.955412,48.034203],[34.954729,48.034141],[34.954662,48.03442]]]}},{"type":"Feature","properties":{"cadnum":"2322181308:10:001:0019"},"geometry":{"type":"Polygon","coordinates":[[[34.954717,48.034744],[34.954862,48.034755],[34.955646,48.034842],[34.955721,48.034531],[34.955013,48.034443],[34.954793,48.034428],[34.954717,48.034744]]]}},{"type":"Feature","properties":{"cadnum":"2322181308:10:001:0090"},"geometry":{"type":"Polygon","coordinates":[[[34.955711,48.035598],[34.956761,48.035719],[34.956822,48.035433],[34.955768,48.035324],[34.955711,48.035598]]]}},{"type":"Feature","properties":{"cadnum":"2322181308:10:001:0163"},"geometry":{"type":"Polygon","coordinates":[[[34.955586,48.036016],[34.955935,48.036056],[34.956285,48.036094],[34.956395,48.035676],[34.955711,48.035598],[34.955696,48.035596],[34.955586,48.036016]]]}},{"type":"Feature","properties":{"cadnum":"2322181308:10:001:0015"},"geometry":{"type":"Polygon","coordinates":[[[34.954516,48.035641],[34.95539,48.035747],[34.955493,48.035415],[34.954619,48.035308],[34.954516,48.035641]]]}},{"type":"Feature","properties":{"cadnum":"2322181308:10:001:0095"},"geometry":{"type":"Polygon","coordinates":[[[34.955768,48.035324],[34.956822,48.035433],[34.956884,48.035146],[34.955827,48.03505],[34.955827,48.035051],[34.955768,48.035324]]]}},{"type":"Feature","properties":{"cadnum":"2322181308:10:001:0014"},"geometry":{"type":"Polygon","coordinates":[[[34.955433,48.036588],[34.955991,48.036692],[34.956376,48.036746],[34.956459,48.036414],[34.955876,48.036357],[34.955501,48.036311],[34.955433,48.036588]]]}},{"type":"Feature","properties":{"cadnum":"2322181308:10:001:0155"},"geometry":{"type":"Polygon","coordinates":[[[34.953408,48.035508],[34.953667,48.035538],[34.954516,48.035641],[34.954619,48.035308],[34.953998,48.035232],[34.953515,48.035163],[34.953408,48.035508]]]}},{"type":"Feature","properties":{"cadnum":"2322181308:10:001:0148"},"geometry":{"type":"Polygon","coordinates":[[[34.953264,48.034326],[34.953623,48.034354],[34.954662,48.03442],[34.954729,48.034141],[34.953665,48.034046],[34.953635,48.034043],[34.953378,48.034064],[34.953322,48.034069],[34.95331,48.034121],[34.95331,48.034122],[34.953264,48.034326]]]}},{"type":"Feature","properties":{"cadnum":"2322181308:10:001:0092"},"geometry":{"type":"Polygon","coordinates":[[[34.954237,48.036049],[34.954843,48.036122],[34.955291,48.036174],[34.955365,48.035928],[34.954309,48.035802],[34.954237,48.036049]]]}},{"type":"Feature","properties":{"cadnum":"2322181308:10:001:0091"},"geometry":{"type":"Polygon","coordinates":[[[34.956761,48.035719],[34.956845,48.035728],[34.956934,48.035443],[34.956822,48.035433],[34.956761,48.035719]]]}},{"type":"Feature","properties":{"cadnum":"2322181308:10:001:0160"},"geometry":{"type":"Polygon","coordinates":[[[34.957022,48.029584],[34.957577,48.030118],[34.95765,48.030184],[34.958021,48.029963],[34.957962,48.029913],[34.957417,48.02942],[34.957022,48.029584]]]}},{"type":"Feature","properties":{"cadnum":"2322181308:10:001:0087"},"geometry":{"type":"Polygon","coordinates":[[[34.955837,48.030352],[34.955842,48.030358],[34.955935,48.030448],[34.956356,48.030861],[34.956678,48.030669],[34.95634,48.030345],[34.956184,48.030195],[34.955878,48.030333],[34.955839,48.030351],[34.955837,48.030352]]]}},{"type":"Feature","properties":{"cadnum":"2322181308:10:001:0159"},"geometry":{"type":"Polygon","coordinates":[[[34.95765,48.030184],[34.957781,48.0303],[34.957819,48.030333],[34.95784,48.030352],[34.957949,48.030448],[34.958208,48.030676],[34.95841,48.030556],[34.95841,48.030557],[34.958559,48.030468],[34.958422,48.030333],[34.95842,48.030333],[34.958162,48.03008],[34.958021,48.029963],[34.95765,48.030184]]]}},{"type":"Feature","properties":{"cadnum":"2322181308:10:001:0075"},"geometry":{"type":"Polygon","coordinates":[[[34.958441,48.028632],[34.9585,48.028758],[34.958582,48.028882],[34.95887,48.029318],[34.958937,48.029414],[34.95934,48.029279],[34.958853,48.028494],[34.958441,48.028632]]]}},{"type":"Feature","properties":{"cadnum":"2322181308:10:001:0069"},"geometry":{"type":"Polygon","coordinates":[[[34.958078,48.029225],[34.95841,48.029571],[34.95841,48.029572],[34.958559,48.029726],[34.958582,48.029715],[34.959006,48.029508],[34.95887,48.029318],[34.958547,48.02883],[34.958405,48.028873],[34.958316,48.028939],[34.958224,48.029065],[34.958137,48.029181],[34.958078,48.029225]]]}},{"type":"Feature","properties":{"cadnum":"2322181308:10:001:0156"},"geometry":{"type":"Polygon","coordinates":[[[34.959852,48.031754],[34.961456,48.03183],[34.961531,48.031113],[34.959927,48.031036],[34.959852,48.031754]]]}},{"type":"Feature","properties":{"cadnum":"2322181308:10:001:0147"},"geometry":{"type":"Polygon","coordinates":[[[34.960494,48.030344],[34.960567,48.030448],[34.960568,48.030448],[34.960665,48.030584],[34.960905,48.030932],[34.9613,48.03078],[34.961037,48.030333],[34.960925,48.030141],[34.960517,48.030333],[34.960497,48.030343],[34.960494,48.030344]]]}},{"type":"Feature","properties":{"cadnum":"2322181308:10:001:0079"},"geometry":{"type":"Polygon","coordinates":[[[34.961153,48.029558],[34.961514,48.030333],[34.961541,48.030391],[34.961567,48.030448],[34.961614,48.030548],[34.961814,48.030506],[34.961796,48.030448],[34.961506,48.029482],[34.961153,48.029558]]]}},{"type":"Feature","properties":{"cadnum":"2322181308:10:001:0084"},"geometry":{"type":"Polygon","coordinates":[[[34.962088,48.03037],[34.962104,48.030448],[34.962122,48.030535],[34.962399,48.030497],[34.962378,48.030402],[34.962364,48.030332],[34.962351,48.030333],[34.96235,48.030333],[34.962093,48.030369],[34.962088,48.03037]]]}},{"type":"Feature","properties":{"cadnum":"2322181308:10:001:0122"},"geometry":{"type":"Polygon","coordinates":[[[34.963859,48.031089],[34.963903,48.03108],[34.963915,48.031078],[34.964075,48.031045],[34.964579,48.03094],[34.96473,48.030531],[34.964125,48.030652],[34.963935,48.030964],[34.963859,48.031089]]]}},{"type":"Feature","properties":{"cadnum":"2322181308:10:001:0165"},"geometry":{"type":"Polygon","coordinates":[[[34.961717,48.030183],[34.961762,48.030333],[34.961796,48.030448],[34.961797,48.030448],[34.961814,48.030506],[34.962122,48.030535],[34.962088,48.03037],[34.962038,48.030133],[34.961717,48.030183]]]}},{"type":"Feature","properties":{"cadnum":"2322181308:10:001:0118"},"geometry":{"type":"Polygon","coordinates":[[[34.963547,48.0304],[34.963903,48.030318],[34.963995,48.030297],[34.964075,48.030279],[34.964075,48.030278],[34.964465,48.030187],[34.96462,48.029844],[34.964075,48.029946],[34.963721,48.030011],[34.963577,48.030333],[34.963576,48.030333],[34.963547,48.0304]]]}},{"type":"Feature","properties":{"cadnum":"2322181308:10:001:0138"},"geometry":{"type":"Polygon","coordinates":[[[34.957474,48.032248],[34.958225,48.03289],[34.95841,48.032793],[34.958573,48.032708],[34.957804,48.032068],[34.957474,48.032248]]]}},{"type":"Feature","properties":{"cadnum":"2322181308:10:001:0116"},"geometry":{"type":"Polygon","coordinates":[[[34.963071,48.03125],[34.96335,48.031195],[34.963859,48.031089],[34.963903,48.031017],[34.963935,48.030964],[34.964075,48.030734],[34.964125,48.030652],[34.964036,48.030669],[34.963881,48.0307],[34.963445,48.030798],[34.963331,48.03082],[34.963071,48.03125]]]}},{"type":"Feature","properties":{"cadnum":"2322181308:10:001:0146"},"geometry":{"type":"Polygon","coordinates":[[[34.964465,48.030187],[34.964892,48.030087],[34.965007,48.02977],[34.96462,48.029844],[34.964465,48.030187]]]}},{"type":"Feature","properties":{"cadnum":"2322181308:10:001:0002"},"geometry":{"type":"Polygon","coordinates":[[[34.954517,48.040106],[34.954976,48.040162],[34.955129,48.03953],[34.954674,48.039461],[34.954517,48.040106]]]}},{"type":"Feature","properties":{"cadnum":"2322181308:10:001:0126"},"geometry":{"type":"Polygon","coordinates":[[[34.953185,48.039328],[34.953924,48.039386],[34.954076,48.038801],[34.95345,48.038724],[34.953185,48.039328]]]}},{"type":"Feature","properties":{"cadnum":"2322181308:10:001:0005"},"geometry":{"type":"Polygon","coordinates":[[[34.953834,48.038771],[34.954197,48.038815],[34.954226,48.038819],[34.954435,48.038016],[34.954044,48.037966],[34.953834,48.038771]]]}},{"type":"Feature","properties":{"cadnum":"2322181308:10:001:0117"},"geometry":{"type":"Polygon","coordinates":[[[34.954713,48.039431],[34.955645,48.039572],[34.955758,48.03926],[34.954808,48.039132],[34.954713,48.039431]]]}},{"type":"Feature","properties":{"cadnum":"2322181308:10:001:0110"},"geometry":{"type":"Polygon","coordinates":[[[34.954226,48.038819],[34.954485,48.03886],[34.954587,48.038868],[34.954797,48.038063],[34.954435,48.038016],[34.954226,48.038819]]]}},{"type":"Feature","properties":{"cadnum":"2322181308:10:001:0004"},"geometry":{"type":"Polygon","coordinates":[[[34.953924,48.039386],[34.954442,48.039427],[34.954587,48.038868],[34.954485,48.03886],[34.954197,48.038815],[34.954076,48.038801],[34.953924,48.039386]]]}},{"type":"Feature","properties":{"cadnum":"2322181308:10:001:0106"},"geometry":{"type":"Polygon","coordinates":[[[34.954976,48.040162],[34.954986,48.040164],[34.95545,48.04021],[34.955947,48.040261],[34.956197,48.040286],[34.956474,48.040306],[34.956686,48.040321],[34.956856,48.039807],[34.956604,48.039766],[34.956087,48.039683],[34.955597,48.039604],[34.9552,48.03954],[34.955129,48.03953],[34.954976,48.040162]]]}},{"type":"Feature","properties":{"cadnum":"2322181308:10:001:0137"},"geometry":{"type":"Polygon","coordinates":[[[34.956185,48.032814],[34.956277,48.032916],[34.956341,48.032992],[34.956817,48.032774],[34.956604,48.03258],[34.956185,48.032814]]]}},{"type":"Feature","properties":{"cadnum":"2322181308:10:001:0100"},"geometry":{"type":"Polygon","coordinates":[[[34.9534,48.032107],[34.953907,48.032242],[34.954378,48.03194],[34.954015,48.031628],[34.9534,48.032107]]]}},{"type":"Feature","properties":{"cadnum":"2322181308:10:001:0101"},"geometry":{"type":"Polygon","coordinates":[[[34.953907,48.032242],[34.954219,48.032325],[34.954894,48.032644],[34.955033,48.032555],[34.954682,48.032203],[34.954378,48.03194],[34.953907,48.032242]]]}},{"type":"Feature","properties":{"cadnum":"2322181308:10:001:0020"},"geometry":{"type":"Polygon","coordinates":[[[34.956215,48.033664],[34.957316,48.033793],[34.957382,48.033527],[34.956281,48.033398],[34.956215,48.033664]]]}},{"type":"Feature","properties":{"cadnum":"2322181308:10:001:0150"},"geometry":{"type":"Polygon","coordinates":[[[34.954702,48.031285],[34.955068,48.031668],[34.955379,48.03148],[34.954958,48.031089],[34.954702,48.031285]]]}},{"type":"Feature","properties":{"cadnum":"2322181308:10:001:0039"},"geometry":{"type":"Polygon","coordinates":[[[34.956822,48.031658],[34.957156,48.031974],[34.957474,48.032248],[34.957804,48.032068],[34.957382,48.031716],[34.957121,48.031494],[34.956822,48.031658]]]}},{"type":"Feature","properties":{"cadnum":"2322181308:10:001:0144"},"geometry":{"type":"Polygon","coordinates":[[[34.957657,48.033559],[34.957999,48.0336],[34.958054,48.033387],[34.957713,48.033347],[34.957657,48.033559]]]}},{"type":"Feature","properties":{"cadnum":"2322181308:10:001:0149"},"geometry":{"type":"Polygon","coordinates":[[[34.953423,48.032579],[34.953857,48.032659],[34.953971,48.032259],[34.953907,48.032242],[34.953545,48.032146],[34.953423,48.032579]]]}},{"type":"Feature","properties":{"cadnum":"2322181308:10:001:0031"},"geometry":{"type":"Polygon","coordinates":[[[34.955068,48.031668],[34.955239,48.031846],[34.955304,48.031931],[34.955599,48.03223],[34.955976,48.032004],[34.955642,48.031725],[34.955379,48.03148],[34.955068,48.031668]]]}},{"type":"Feature","properties":{"cadnum":"2322181308:10:001:0025"},"geometry":{"type":"Polygon","coordinates":[[[34.955,48.033436],[34.955524,48.033492],[34.955787,48.03353],[34.955992,48.033556],[34.956067,48.033288],[34.955452,48.033224],[34.955479,48.033107],[34.955094,48.033104],[34.955,48.033436]]]}},{"type":"Feature","properties":{"cadnum":"2322181308:10:001:0154"},"geometry":{"type":"Polygon","coordinates":[[[34.955151,48.030902],[34.9557,48.031436],[34.955751,48.031486],[34.956216,48.031214],[34.95601,48.031026],[34.955779,48.030814],[34.955614,48.030643],[34.955151,48.030902]]]}},{"type":"Feature","properties":{"cadnum":"2322181308:10:001:0086"},"geometry":{"type":"Polygon","coordinates":[[[34.956356,48.030861],[34.956531,48.031033],[34.956629,48.031127],[34.95694,48.031436],[34.957273,48.031238],[34.956867,48.030851],[34.956678,48.030669],[34.956356,48.030861]]]}},{"type":"Feature","properties":{"cadnum":"2322181308:10:001:0099"},"geometry":{"type":"Polygon","coordinates":[[[34.954097,48.033348],[34.954854,48.033421],[34.955,48.033436],[34.955094,48.033104],[34.954938,48.033103],[34.954147,48.03317],[34.954097,48.033348]]]}},{"type":"Feature","properties":{"cadnum":"2322181308:10:001:0153"},"geometry":{"type":"Polygon","coordinates":[[[34.955751,48.031486],[34.956164,48.031892],[34.956625,48.031622],[34.956286,48.031277],[34.95626,48.031254],[34.956216,48.031214],[34.955751,48.031486]]]}},{"type":"Feature","properties":{"cadnum":"2322181308:10:001:0127"},"geometry":{"type":"Polygon","coordinates":[[[34.955736,48.032299],[34.956026,48.032631],[34.956185,48.032814],[34.956604,48.03258],[34.95633,48.032331],[34.956066,48.032094],[34.956058,48.032087],[34.95588,48.032188],[34.955744,48.03228],[34.955736,48.032299]]]}},{"type":"Feature","properties":{"cadnum":"2322181308:10:001:0143"},"geometry":{"type":"Polygon","coordinates":[[[34.956281,48.033398],[34.957657,48.033559],[34.957713,48.033347],[34.956337,48.033185],[34.956281,48.033398]]]}},{"type":"Feature","properties":{"cadnum":"2322181308:10:001:0142"},"geometry":{"type":"Polygon","coordinates":[[[34.957316,48.033793],[34.957931,48.033865],[34.957999,48.0336],[34.957382,48.033527],[34.957316,48.033793]]]}},{"type":"Feature","properties":{"cadnum":"2322181308:10:001:0064"},"geometry":{"type":"Polygon","coordinates":[[[34.953857,48.032659],[34.954623,48.032799],[34.954894,48.032644],[34.954219,48.032325],[34.953971,48.032259],[34.953857,48.032659]]]}},{"type":"Feature","properties":{"cadnum":"2322181308:10:001:0140"},"geometry":{"type":"Polygon","coordinates":[[[34.958559,48.029726],[34.958672,48.029844],[34.959051,48.03024],[34.959404,48.030069],[34.959006,48.029508],[34.958559,48.029726]]]}},{"type":"Feature","properties":{"cadnum":"2322181308:10:001:0097"},"geometry":{"type":"Polygon","coordinates":[[[34.959987,48.029519],[34.96013,48.029714],[34.960512,48.029532],[34.960439,48.029439],[34.959987,48.029519]]]}},{"type":"Feature","properties":{"cadnum":"2322181308:10:001:0068"},"geometry":{"type":"Polygon","coordinates":[[[34.96015,48.029838],[34.96016,48.029853],[34.960362,48.030158],[34.960494,48.030344],[34.960925,48.030141],[34.960626,48.029636],[34.960616,48.029619],[34.96015,48.029838]]]}},{"type":"Feature","properties":{"cadnum":"2322181308:10:001:0072"},"geometry":{"type":"Polygon","coordinates":[[[34.959578,48.028822],[34.959958,48.029479],[34.959987,48.029519],[34.960439,48.029439],[34.959906,48.028765],[34.959578,48.028822]]]}},{"type":"Feature","properties":{"cadnum":"2322181308:10:001:0085"},"geometry":{"type":"Polygon","coordinates":[[[34.95909,48.028876],[34.95934,48.029279],[34.959353,48.029299],[34.959745,48.029109],[34.959517,48.02873],[34.95909,48.028876]]]}},{"type":"Feature","properties":{"cadnum":"2322181308:10:001:0139"},"geometry":{"type":"Polygon","coordinates":[[[34.961343,48.02837],[34.961471,48.028801],[34.962109,48.028715],[34.962061,48.028598],[34.961957,48.028225],[34.961684,48.028272],[34.961343,48.02837]]]}},{"type":"Feature","properties":{"cadnum":"2322181308:10:001:0158"},"geometry":{"type":"Polygon","coordinates":[[[34.959891,48.028677],[34.959906,48.028765],[34.960252,48.029201],[34.960336,48.029177],[34.96015,48.02864],[34.959891,48.028677]]]}},{"type":"Feature","properties":{"cadnum":"2322181308:10:001:0112"},"geometry":{"type":"Polygon","coordinates":[[[34.960808,48.028888],[34.960961,48.029328],[34.961613,48.029242],[34.961579,48.029132],[34.961512,48.028942],[34.961471,48.028801],[34.960808,48.028888]]]}},{"type":"Feature","properties":{"cadnum":"2322181308:10:001:0136"},"geometry":{"type":"Polygon","coordinates":[[[34.961471,48.028801],[34.961512,48.028942],[34.961579,48.029132],[34.961613,48.029242],[34.961807,48.029216],[34.962283,48.029151],[34.962257,48.029079],[34.962109,48.028715],[34.961471,48.028801]]]}},{"type":"Feature","properties":{"cadnum":"2322181308:10:001:0111"},"geometry":{"type":"Polygon","coordinates":[[[34.962714,48.028572],[34.962774,48.029018],[34.962778,48.029058],[34.96323,48.028977],[34.96315,48.028578],[34.963142,48.028495],[34.962714,48.028572]]]}},{"type":"Feature","properties":{"cadnum":"2322181308:10:001:0094"},"geometry":{"type":"Polygon","coordinates":[[[34.961957,48.028225],[34.962061,48.028598],[34.962707,48.028517],[34.962631,48.028146],[34.962405,48.028148],[34.961957,48.028225]]]}},{"type":"Feature","properties":{"cadnum":"2322181308:10:001:0113"},"geometry":{"type":"Polygon","coordinates":[[[34.960678,48.028514],[34.960808,48.028888],[34.961471,48.028801],[34.961343,48.02837],[34.961224,48.028403],[34.960678,48.028514]]]}},{"type":"Feature","properties":{"cadnum":"2322181308:10:001:0093"},"geometry":{"type":"Polygon","coordinates":[[[34.962061,48.028598],[34.962257,48.029079],[34.962774,48.029018],[34.962707,48.028517],[34.962061,48.028598]]]}},{"type":"Feature","properties":{"cadnum":"2322181308:10:001:0074"},"geometry":{"type":"Polygon","coordinates":[[[34.96015,48.02864],[34.960336,48.029177],[34.960431,48.02915],[34.960877,48.029086],[34.960808,48.028888],[34.960696,48.028561],[34.96015,48.02864]]]}},{"type":"Feature","properties":{"cadnum":"2322181308:10:001:0070"},"geometry":{"type":"Polygon","coordinates":[[[34.958937,48.029414],[34.959404,48.030069],[34.959509,48.030016],[34.959754,48.029896],[34.959543,48.029607],[34.95934,48.029279],[34.958937,48.029414]]]}},{"type":"Feature","properties":{"cadnum":"2322181308:10:001:0071"},"geometry":{"type":"Polygon","coordinates":[[[34.959353,48.029299],[34.959543,48.029607],[34.959754,48.029896],[34.96013,48.029714],[34.959958,48.029479],[34.959745,48.029109],[34.959353,48.029299]]]}},{"type":"Feature","properties":{"cadnum":"2322181308:10:001:0098"},"geometry":{"type":"Polygon","coordinates":[[[34.961094,48.029429],[34.961153,48.029558],[34.961506,48.029482],[34.961473,48.029372],[34.961094,48.029429]]]}},{"type":"Feature","properties":{"cadnum":"2322181308:10:001:0164"},"geometry":{"type":"Polygon","coordinates":[[[34.961473,48.029372],[34.961506,48.029482],[34.961717,48.030183],[34.962038,48.030133],[34.961935,48.029635],[34.961854,48.029314],[34.961473,48.029372]]]}},{"type":"Feature","properties":{"cadnum":"2322181308:10:001:0081"},"geometry":{"type":"Polygon","coordinates":[[[34.961854,48.029314],[34.961935,48.029635],[34.962088,48.03037],[34.962364,48.030332],[34.962215,48.029621],[34.96221,48.029603],[34.962135,48.029271],[34.962027,48.029285],[34.961968,48.029295],[34.961854,48.029314]]]}}]}