{"type":"FeatureCollection","features":[{"type":"Feature","properties":{"cadnum":"2322183506:20:001:0041"},"geometry":{"type":"Polygon","coordinates":[[[35.003182,47.813715],[35.003251,47.814055],[35.003795,47.813988],[35.00367,47.813654],[35.003182,47.813715]]]}},{"type":"Feature","properties":{"cadnum":"2322183506:20:001:0027"},"geometry":{"type":"Polygon","coordinates":[[[35.005109,47.813908],[35.005141,47.814078],[35.00535,47.814811],[35.005656,47.81476],[35.005467,47.814112],[35.005452,47.814035],[35.005517,47.81403],[35.005492,47.813844],[35.005109,47.813908]]]}},{"type":"Feature","properties":{"cadnum":"2322183506:20:001:0034"},"geometry":{"type":"Polygon","coordinates":[[[35.003686,47.814092],[35.003707,47.814455],[35.004268,47.814416],[35.004217,47.814188],[35.004167,47.814014],[35.003686,47.814092]]]}},{"type":"Feature","properties":{"cadnum":"2322183506:20:001:0036"},"geometry":{"type":"Polygon","coordinates":[[[35.002753,47.814154],[35.002899,47.814845],[35.003143,47.814824],[35.003025,47.814139],[35.002947,47.814145],[35.002946,47.814137],[35.002753,47.814154]]]}},{"type":"Feature","properties":{"cadnum":"2322183506:20:001:0364"},"geometry":{"type":"Polygon","coordinates":[[[35.005452,47.814035],[35.005467,47.814112],[35.005656,47.81476],[35.005694,47.814883],[35.005991,47.814833],[35.005686,47.813813],[35.005492,47.813844],[35.005517,47.81403],[35.005516,47.81403],[35.005452,47.814035]]]}},{"type":"Feature","properties":{"cadnum":"2322183506:20:001:0040"},"geometry":{"type":"Polygon","coordinates":[[[35.002834,47.81353],[35.002948,47.814081],[35.003251,47.814055],[35.003125,47.813439],[35.002834,47.81353]]]}},{"type":"Feature","properties":{"cadnum":"2322183506:20:002:0024"},"geometry":{"type":"Polygon","coordinates":[[[35.006203,47.81374],[35.006218,47.813801],[35.006214,47.813801],[35.00623,47.813867],[35.006239,47.813906],[35.00625,47.813968],[35.006257,47.813989],[35.006264,47.81402],[35.006277,47.814086],[35.006352,47.814329],[35.006365,47.814335],[35.006478,47.814613],[35.006801,47.814566],[35.006632,47.814057],[35.006595,47.813956],[35.006565,47.81385],[35.006514,47.813697],[35.006513,47.813695],[35.00645,47.813701],[35.006453,47.813705],[35.006453,47.813706],[35.006253,47.813734],[35.006253,47.813733],[35.006203,47.81374]]]}},{"type":"Feature","properties":{"cadnum":"2322183506:20:001:0032"},"geometry":{"type":"Polygon","coordinates":[[[35.004389,47.813337],[35.004391,47.813397],[35.004623,47.813842],[35.005108,47.813779],[35.004999,47.813254],[35.004389,47.813337]]]}},{"type":"Feature","properties":{"cadnum":"2322183506:20:001:0035"},"geometry":{"type":"Polygon","coordinates":[[[35.003237,47.814114],[35.00325,47.814215],[35.003241,47.814215],[35.003257,47.814331],[35.003249,47.814422],[35.003251,47.814483],[35.003259,47.814756],[35.003725,47.814747],[35.003698,47.814367],[35.003686,47.814092],[35.003694,47.814061],[35.003237,47.814114]]]}},{"type":"Feature","properties":{"cadnum":"2322183506:20:001:0031"},"geometry":{"type":"Polygon","coordinates":[[[35.004999,47.813254],[35.004999,47.813257],[35.005108,47.813779],[35.005664,47.813724],[35.005549,47.813191],[35.005549,47.813189],[35.005458,47.813199],[35.004999,47.813254]]]}},{"type":"Feature","properties":{"cadnum":"2322183506:20:001:0325"},"geometry":{"type":"Polygon","coordinates":[[[35.008003,47.811776],[35.008334,47.811824],[35.00859,47.81123],[35.008541,47.811205],[35.008411,47.811139],[35.008003,47.811776]]]}},{"type":"Feature","properties":{"cadnum":"2322183506:20:001:0121"},"geometry":{"type":"Polygon","coordinates":[[[35.008914,47.809274],[35.008951,47.809453],[35.00895,47.809453],[35.008973,47.809558],[35.009022,47.809557],[35.009477,47.809544],[35.010016,47.809524],[35.009973,47.809242],[35.008914,47.809274]]]}},{"type":"Feature","properties":{"cadnum":"2322183506:20:001:0128"},"geometry":{"type":"Polygon","coordinates":[[[35.008589,47.810738],[35.009237,47.810761],[35.009289,47.810526],[35.009112,47.810493],[35.009147,47.810381],[35.009083,47.810378],[35.0091,47.810162],[35.0091,47.810153],[35.008745,47.81014],[35.008667,47.810488],[35.008589,47.810738]]]}},{"type":"Feature","properties":{"cadnum":"2322183506:20:001:0075"},"geometry":{"type":"Polygon","coordinates":[[[35.007157,47.809984],[35.007166,47.810067],[35.007849,47.810177],[35.007849,47.810178],[35.007888,47.810183],[35.008016,47.809926],[35.008022,47.809915],[35.007877,47.809858],[35.007546,47.809729],[35.007239,47.809609],[35.007233,47.809633],[35.0072,47.809785],[35.007157,47.809984]]]}},{"type":"Feature","properties":{"cadnum":"2322183506:20:001:0122"},"geometry":{"type":"Polygon","coordinates":[[[35.008116,47.809612],[35.008889,47.809627],[35.008867,47.80955],[35.008785,47.809264],[35.008167,47.809251],[35.008138,47.809453],[35.008137,47.809453],[35.00813,47.809506],[35.008121,47.809568],[35.008122,47.809568],[35.008116,47.809612]]]}},{"type":"Feature","properties":{"cadnum":"2322183506:20:001:0326"},"geometry":{"type":"Polygon","coordinates":[[[35.008333,47.811824],[35.00855,47.811786],[35.00864,47.811771],[35.009156,47.81165],[35.009332,47.811611],[35.009319,47.811517],[35.008863,47.811356],[35.008593,47.81123],[35.008333,47.811824]]]}},{"type":"Feature","properties":{"cadnum":"2322183506:20:001:0005"},"geometry":{"type":"Polygon","coordinates":[[[35.008588,47.812645],[35.00918,47.812657],[35.009151,47.812598],[35.00919,47.812555],[35.009198,47.812302],[35.009205,47.812132],[35.008916,47.812126],[35.008915,47.812159],[35.00861,47.812153],[35.008588,47.812645]]]}},{"type":"Feature","properties":{"cadnum":"2322183506:20:001:0340"},"geometry":{"type":"Polygon","coordinates":[[[35.008338,47.812884],[35.009458,47.812908],[35.00947,47.812664],[35.00918,47.812657],[35.008588,47.812645],[35.008338,47.812884]]]}},{"type":"Feature","properties":{"cadnum":"2322183506:20:001:0124"},"geometry":{"type":"Polygon","coordinates":[[[35.009022,47.809557],[35.009076,47.809736],[35.009331,47.809718],[35.009378,47.809718],[35.00938,47.809713],[35.00947,47.809712],[35.010114,47.809714],[35.010016,47.809524],[35.009477,47.809544],[35.009022,47.809557]]]}},{"type":"Feature","properties":{"cadnum":"2322183506:20:001:0327"},"geometry":{"type":"Polygon","coordinates":[[[35.009915,47.810549],[35.010139,47.810729],[35.010442,47.810681],[35.010629,47.810638],[35.010551,47.81045],[35.009915,47.810549]]]}},{"type":"Feature","properties":{"cadnum":"2322183506:20:001:0135"},"geometry":{"type":"Polygon","coordinates":[[[35.01193,47.811204],[35.012148,47.811666],[35.012148,47.811667],[35.012009,47.811696],[35.012071,47.811887],[35.012529,47.81179],[35.012222,47.811141],[35.01193,47.811204]]]}},{"type":"Feature","properties":{"cadnum":"2322183506:20:001:0139"},"geometry":{"type":"Polygon","coordinates":[[[35.012127,47.810395],[35.012181,47.810488],[35.012421,47.810904],[35.012969,47.810778],[35.012659,47.810341],[35.012626,47.81028],[35.012127,47.810395]]]}},{"type":"Feature","properties":{"cadnum":"2322183506:20:001:0092"},"geometry":{"type":"Polygon","coordinates":[[[35.006783,47.807292],[35.007245,47.807287],[35.007243,47.807244],[35.007248,47.807134],[35.007253,47.807084],[35.007255,47.80706],[35.007251,47.806997],[35.007261,47.806898],[35.007294,47.806661],[35.006795,47.806665],[35.006779,47.806905],[35.006772,47.806951],[35.006783,47.807169],[35.006783,47.807292]]]}},{"type":"Feature","properties":{"cadnum":"2322183506:20:001:0086"},"geometry":{"type":"Polygon","coordinates":[[[35.004558,47.806319],[35.004602,47.807318],[35.00465,47.807318],[35.00465,47.807312],[35.004884,47.807309],[35.004851,47.806975],[35.004833,47.806317],[35.004558,47.806319]]]}},{"type":"Feature","properties":{"cadnum":"2322183506:20:001:0316"},"geometry":{"type":"Polygon","coordinates":[[[35.006584,47.808595],[35.006856,47.808585],[35.006847,47.807508],[35.006597,47.807508],[35.006584,47.808595]]]}},{"type":"Feature","properties":{"cadnum":"2322183506:20:001:0106"},"geometry":{"type":"Polygon","coordinates":[[[35.006356,47.808592],[35.006584,47.808593],[35.006597,47.807513],[35.006382,47.807516],[35.006383,47.807726],[35.006383,47.80779],[35.006361,47.808035],[35.006356,47.808592]]]}},{"type":"Feature","properties":{"cadnum":"2322183506:20:001:0114"},"geometry":{"type":"Polygon","coordinates":[[[35.003671,47.808671],[35.003895,47.808672],[35.003939,47.807994],[35.003954,47.807863],[35.003954,47.807522],[35.003715,47.807525],[35.003698,47.80784],[35.003671,47.808671]]]}},{"type":"Feature","properties":{"cadnum":"2322183506:20:001:0088"},"geometry":{"type":"Polygon","coordinates":[[[35.005167,47.807336],[35.005596,47.807336],[35.005598,47.806638],[35.005177,47.806638],[35.005164,47.806966],[35.005167,47.807336]]]}},{"type":"Feature","properties":{"cadnum":"2322183506:18:001:0162"},"geometry":{"type":"Polygon","coordinates":[[[35.006525,47.809494],[35.006527,47.80951],[35.006529,47.809536],[35.006529,47.809568],[35.00653,47.809568],[35.006536,47.809734],[35.00656,47.809982],[35.007157,47.809984],[35.0072,47.809785],[35.007239,47.809609],[35.007033,47.809553],[35.007004,47.809551],[35.006982,47.809538],[35.006828,47.80951],[35.006744,47.809495],[35.006525,47.809494]]]}},{"type":"Feature","properties":{"cadnum":"2322183506:20:001:0090"},"geometry":{"type":"Polygon","coordinates":[[[35.005991,47.806559],[35.00599,47.807074],[35.006001,47.807333],[35.006388,47.80733],[35.006371,47.806555],[35.005991,47.806559]]]}},{"type":"Feature","properties":{"cadnum":"2322183506:20:001:0091"},"geometry":{"type":"Polygon","coordinates":[[[35.006351,47.807296],[35.006784,47.807296],[35.006773,47.806953],[35.00678,47.806905],[35.006799,47.806592],[35.00637,47.806591],[35.006353,47.806973],[35.006351,47.807296]]]}},{"type":"Feature","properties":{"cadnum":"2322183506:20:001:0317"},"geometry":{"type":"Polygon","coordinates":[[[35.002766,47.808315],[35.003162,47.808318],[35.003174,47.807558],[35.002779,47.807554],[35.002766,47.808315]]]}},{"type":"Feature","properties":{"cadnum":"2322183506:20:001:0362"},"geometry":{"type":"Polygon","coordinates":[[[35.002759,47.808772],[35.003154,47.808774],[35.003162,47.808318],[35.002766,47.808315],[35.002759,47.808772]]]}},{"type":"Feature","properties":{"cadnum":"2322183506:20:001:0112"},"geometry":{"type":"Polygon","coordinates":[[[35.004264,47.808223],[35.00472,47.808219],[35.004721,47.807557],[35.004268,47.807561],[35.004268,47.807826],[35.004264,47.808223]]]}},{"type":"Feature","properties":{"cadnum":"2322183506:18:001:0159"},"geometry":{"type":"Polygon","coordinates":[[[35.003707,47.807319],[35.004059,47.807319],[35.004049,47.80698],[35.004043,47.80644],[35.003707,47.806473],[35.003706,47.807025],[35.003707,47.807319]]]}},{"type":"Feature","properties":{"cadnum":"2322183506:20:001:0336"},"geometry":{"type":"Polygon","coordinates":[[[35.005596,47.807336],[35.005724,47.807335],[35.005715,47.80716],[35.005715,47.807159],[35.005715,47.807076],[35.00599,47.807074],[35.005993,47.806388],[35.0056,47.806391],[35.005596,47.807336]]]}},{"type":"Feature","properties":{"cadnum":"2322183506:18:001:0158"},"geometry":{"type":"Polygon","coordinates":[[[35.007245,47.807287],[35.007775,47.807286],[35.007763,47.806841],[35.007767,47.806698],[35.00729,47.806696],[35.007289,47.806696],[35.007261,47.806898],[35.007251,47.806997],[35.007255,47.80706],[35.007253,47.807084],[35.007248,47.807134],[35.007243,47.807244],[35.007245,47.807287]]]}},{"type":"Feature","properties":{"cadnum":"2322183506:20:001:0232"},"geometry":{"type":"Polygon","coordinates":[[[35.010853,47.804628],[35.011008,47.804734],[35.011682,47.804424],[35.011577,47.804352],[35.010923,47.804331],[35.010853,47.804628]]]}},{"type":"Feature","properties":{"cadnum":"2322183506:20:001:0314"},"geometry":{"type":"Polygon","coordinates":[[[35.011291,47.805542],[35.011353,47.80578],[35.011438,47.80577],[35.01193,47.805712],[35.012221,47.805678],[35.011896,47.805472],[35.011291,47.805542]]]}},{"type":"Feature","properties":{"cadnum":"2322183506:20:001:0312"},"geometry":{"type":"Polygon","coordinates":[[[35.01193,47.805712],[35.011943,47.805763],[35.011942,47.805763],[35.012021,47.806066],[35.012522,47.806007],[35.012489,47.805847],[35.012485,47.805845],[35.012221,47.805678],[35.01193,47.805712]]]}},{"type":"Feature","properties":{"cadnum":"2322183506:20:001:0315"},"geometry":{"type":"Polygon","coordinates":[[[35.010705,47.805488],[35.011719,47.805362],[35.011187,47.805019],[35.010751,47.805244],[35.010705,47.805488]]]}},{"type":"Feature","properties":{"cadnum":"2322183506:20:001:0311"},"geometry":{"type":"Polygon","coordinates":[[[35.011438,47.80577],[35.011464,47.805879],[35.011465,47.805879],[35.011527,47.806125],[35.012021,47.806066],[35.011972,47.805879],[35.011973,47.805879],[35.01193,47.805712],[35.011491,47.805763],[35.011447,47.805769],[35.011438,47.80577]]]}},{"type":"Feature","properties":{"cadnum":"2322183506:20:001:0310"},"geometry":{"type":"Polygon","coordinates":[[[35.010944,47.805827],[35.010956,47.805879],[35.010957,47.805879],[35.011035,47.806182],[35.011527,47.806125],[35.011438,47.80577],[35.011353,47.80578],[35.010998,47.805821],[35.010944,47.805827]]]}},{"type":"Feature","properties":{"cadnum":"2322183506:20:001:0225"},"geometry":{"type":"Polygon","coordinates":[[[35.012518,47.805644],[35.012772,47.805794],[35.013342,47.805522],[35.013342,47.805523],[35.013437,47.805477],[35.013184,47.805327],[35.012518,47.805644]]]}},{"type":"Feature","properties":{"cadnum":"2322183506:20:001:0231"},"geometry":{"type":"Polygon","coordinates":[[[35.011008,47.804734],[35.011235,47.804898],[35.011915,47.804579],[35.011682,47.804424],[35.011008,47.804734]]]}},{"type":"Feature","properties":{"cadnum":"2322183506:20:001:0216"},"geometry":{"type":"Polygon","coordinates":[[[35.011777,47.805203],[35.012024,47.805356],[35.01267,47.805033],[35.012411,47.80488],[35.011777,47.805203]]]}},{"type":"Feature","properties":{"cadnum":"2322183506:20:001:0313"},"geometry":{"type":"Polygon","coordinates":[[[35.010622,47.805865],[35.010944,47.805827],[35.010998,47.805821],[35.011353,47.80578],[35.011291,47.805542],[35.010684,47.805613],[35.010647,47.805763],[35.010646,47.805763],[35.010622,47.805865]]]}},{"type":"Feature","properties":{"cadnum":"2322183506:20:001:0226"},"geometry":{"type":"Polygon","coordinates":[[[35.012272,47.805491],[35.012518,47.805644],[35.013184,47.805327],[35.012926,47.805175],[35.012921,47.805178],[35.012272,47.805491]]]}},{"type":"Feature","properties":{"cadnum":"2322183506:20:001:0229"},"geometry":{"type":"Polygon","coordinates":[[[35.011499,47.80507],[35.011755,47.805214],[35.012411,47.80488],[35.012155,47.804736],[35.011499,47.80507]]]}},{"type":"Feature","properties":{"cadnum":"2322183506:20:001:0334"},"geometry":{"type":"Polygon","coordinates":[[[35.012003,47.80444],[35.012588,47.804794],[35.012981,47.804428],[35.012048,47.804408],[35.012003,47.80444]]]}},{"type":"Feature","properties":{"cadnum":"2322183506:20:001:0237"},"geometry":{"type":"Polygon","coordinates":[[[35.013302,47.805241],[35.013342,47.805265],[35.013342,47.805266],[35.013445,47.805328],[35.013514,47.80537],[35.013514,47.805369],[35.013544,47.805388],[35.01403,47.804943],[35.013878,47.804857],[35.013775,47.804799],[35.013452,47.805101],[35.013302,47.805241]]]}},{"type":"Feature","properties":{"cadnum":"2322183506:20:001:0265"},"geometry":{"type":"Polygon","coordinates":[[[34.942857,47.785836],[34.943056,47.785867],[34.943381,47.785071],[34.943248,47.785045],[34.943249,47.785041],[34.94319,47.785029],[34.942857,47.785836]]]}},{"type":"Feature","properties":{"cadnum":"2322183506:20:001:0258"},"geometry":{"type":"Polygon","coordinates":[[[34.941689,47.784545],[34.941931,47.784588],[34.942031,47.784606],[34.942102,47.784243],[34.942102,47.784242],[34.942202,47.783735],[34.942103,47.783719],[34.942102,47.783719],[34.941858,47.783681],[34.94176,47.784267],[34.941689,47.784545]]]}},{"type":"Feature","properties":{"cadnum":"2322183506:20:001:0029"},"geometry":{"type":"Polygon","coordinates":[[[35.005421,47.812751],[35.00551,47.813118],[35.005554,47.813113],[35.005632,47.813102],[35.005635,47.813109],[35.005745,47.813089],[35.005773,47.813086],[35.005775,47.813092],[35.005967,47.813076],[35.006128,47.81306],[35.006068,47.812775],[35.006099,47.812773],[35.006041,47.812604],[35.006021,47.81259],[35.005967,47.81259],[35.005655,47.812675],[35.005421,47.812751]]]}},{"type":"Feature","properties":{"cadnum":"2322183506:20:001:0071"},"geometry":{"type":"Polygon","coordinates":[[[35.005537,47.809613],[35.005565,47.810205],[35.005824,47.810197],[35.005806,47.809806],[35.005973,47.809791],[35.005927,47.80956],[35.005914,47.809562],[35.005905,47.809535],[35.005853,47.80954],[35.005857,47.809557],[35.005801,47.809564],[35.005804,47.809576],[35.005803,47.809576],[35.005537,47.809613]]]}},{"type":"Feature","properties":{"cadnum":"2322183506:20:001:0063"},"geometry":{"type":"Polygon","coordinates":[[[35.002236,47.81095],[35.002527,47.811464],[35.002527,47.811463],[35.002589,47.811572],[35.002892,47.811496],[35.002577,47.810865],[35.002509,47.810882],[35.002236,47.81095]]]}},{"type":"Feature","properties":{"cadnum":"2322183506:20:001:0010"},"geometry":{"type":"Polygon","coordinates":[[[35.00549,47.811485],[35.005962,47.811491],[35.00594,47.811374],[35.005926,47.811334],[35.0059,47.811239],[35.005889,47.811196],[35.005879,47.811111],[35.005861,47.811005],[35.005628,47.810965],[35.005561,47.811159],[35.00549,47.811485]]]}},{"type":"Feature","properties":{"cadnum":"2322183506:20:001:0064"},"geometry":{"type":"Polygon","coordinates":[[[35.002577,47.810865],[35.002892,47.811496],[35.00312,47.811438],[35.002856,47.810795],[35.002577,47.810865]]]}},{"type":"Feature","properties":{"cadnum":"2322183506:20:001:0069"},"geometry":{"type":"Polygon","coordinates":[[[35.004685,47.809749],[35.004745,47.809889],[35.004693,47.809899],[35.004727,47.810073],[35.004736,47.810126],[35.004763,47.810294],[35.005254,47.810175],[35.005242,47.810113],[35.005201,47.809958],[35.005126,47.80968],[35.004685,47.809749]]]}},{"type":"Feature","properties":{"cadnum":"2322183506:20:001:0066"},"geometry":{"type":"Polygon","coordinates":[[[35.00355,47.810868],[35.003551,47.810868],[35.003584,47.810935],[35.003576,47.811116],[35.003601,47.811306],[35.004047,47.811189],[35.004201,47.81114],[35.004035,47.810961],[35.003953,47.810862],[35.003929,47.810737],[35.003852,47.810625],[35.003721,47.810511],[35.003577,47.810515],[35.00355,47.810868]]]}},{"type":"Feature","properties":{"cadnum":"2322183506:20:001:0019"},"geometry":{"type":"Polygon","coordinates":[[[35.00641,47.812383],[35.006461,47.812612],[35.006504,47.812792],[35.00662,47.812782],[35.00688,47.812764],[35.00718,47.812727],[35.0072,47.812725],[35.007155,47.812541],[35.007087,47.812314],[35.006834,47.812327],[35.006525,47.812352],[35.006433,47.812376],[35.00641,47.812383]]]}},{"type":"Feature","properties":{"cadnum":"2322183506:20:002:0018"},"geometry":{"type":"Polygon","coordinates":[[[35.00605,47.812025],[35.006061,47.81211],[35.006132,47.81251],[35.006351,47.812465],[35.006424,47.81245],[35.006408,47.81238],[35.006427,47.812374],[35.006424,47.812359],[35.00639,47.812011],[35.00605,47.812025]]]}},{"type":"Feature","properties":{"cadnum":"2322183506:20:001:0361"},"geometry":{"type":"Polygon","coordinates":[[[35.019652,47.808505],[35.019672,47.808568],[35.019715,47.808637],[35.019891,47.808929],[35.020278,47.808821],[35.020321,47.80881],[35.02018,47.808528],[35.020078,47.808348],[35.019732,47.808441],[35.019696,47.80846],[35.019663,47.808482],[35.019652,47.808505]]]}},{"type":"Feature","properties":{"cadnum":"2322183506:20:001:0352"},"geometry":{"type":"Polygon","coordinates":[[[35.019846,47.807931],[35.020015,47.808299],[35.020676,47.808121],[35.020581,47.80785],[35.019846,47.807931]]]}},{"type":"Feature","properties":{"cadnum":"2322183506:20:001:0166"},"geometry":{"type":"Polygon","coordinates":[[[35.018492,47.808518],[35.01858,47.808599],[35.018654,47.808705],[35.01874,47.808818],[35.018835,47.808771],[35.018954,47.808711],[35.019007,47.808686],[35.019321,47.808531],[35.019295,47.808509],[35.018991,47.808206],[35.018492,47.808518]]]}},{"type":"Feature","properties":{"cadnum":"2322183506:20:001:0164"},"geometry":{"type":"Polygon","coordinates":[[[35.020092,47.808371],[35.02018,47.808528],[35.020308,47.808785],[35.020911,47.808625],[35.02075,47.808356],[35.02077,47.80833],[35.02087,47.808307],[35.0208,47.808171],[35.020092,47.808371]]]}},{"type":"Feature","properties":{"cadnum":"2322183506:20:001:0167"},"geometry":{"type":"Polygon","coordinates":[[[35.01914,47.808335],[35.019236,47.808439],[35.019321,47.808531],[35.019625,47.808402],[35.019583,47.808356],[35.019357,47.808073],[35.01914,47.808335]]]}},{"type":"Feature","properties":{"cadnum":"2322183506:20:001:0165"},"geometry":{"type":"Polygon","coordinates":[[[35.019359,47.807912],[35.019649,47.808391],[35.019935,47.808312],[35.020011,47.80829],[35.019846,47.807931],[35.019811,47.807858],[35.019359,47.807912]]]}},{"type":"Feature","properties":{"cadnum":"2322183506:20:001:0056"},"geometry":{"type":"Polygon","coordinates":[[[34.998268,47.812668],[34.998387,47.813042],[34.998842,47.812958],[34.998764,47.812717],[34.998723,47.812583],[34.998268,47.812668]]]}},{"type":"Feature","properties":{"cadnum":"2322183506:20:001:0371"},"geometry":{"type":"Polygon","coordinates":[[[34.998723,47.812583],[34.998764,47.812717],[34.998842,47.812958],[34.998863,47.813026],[34.999213,47.812953],[34.999193,47.812891],[34.999145,47.812495],[34.998723,47.812583]]]}},{"type":"Feature","properties":{"cadnum":"2322183506:20:002:0059"},"geometry":{"type":"Polygon","coordinates":[[[34.998429,47.81191],[34.998688,47.812499],[34.998753,47.812485],[34.999126,47.812409],[34.998926,47.811808],[34.998429,47.81191]]]}},{"type":"Feature","properties":{"cadnum":"2322183506:20:002:0054"},"geometry":{"type":"Polygon","coordinates":[[[35.000048,47.812355],[35.000263,47.812855],[35.000797,47.812739],[35.000894,47.812718],[35.000565,47.812247],[35.000048,47.812355]]]}},{"type":"Feature","properties":{"cadnum":"2322183506:20:001:0062"},"geometry":{"type":"Polygon","coordinates":[[[35.000663,47.811866],[35.000678,47.812162],[35.001731,47.811852],[35.00169,47.811781],[35.001691,47.811781],[35.001715,47.811774],[35.001598,47.811592],[35.000663,47.811866]]]}},{"type":"Feature","properties":{"cadnum":"2322183506:20:001:0067"},"geometry":{"type":"Polygon","coordinates":[[[35.000639,47.811371],[35.000663,47.811866],[35.001598,47.811592],[35.001319,47.811159],[35.000639,47.811371]]]}},{"type":"Feature","properties":{"cadnum":"2322183506:18:001:0157"},"geometry":{"type":"Polygon","coordinates":[[[34.998894,47.811703],[34.998926,47.811808],[34.999126,47.812409],[34.999526,47.812332],[34.999397,47.811939],[34.999291,47.811628],[34.998894,47.811703]]]}},{"type":"Feature","properties":{"cadnum":"2322183506:20:002:0060"},"geometry":{"type":"Polygon","coordinates":[[[34.999213,47.811395],[34.999397,47.811939],[34.999526,47.812332],[34.999735,47.81229],[34.99977,47.812283],[34.999817,47.812273],[34.999838,47.812266],[34.999673,47.811913],[34.999543,47.811361],[34.999213,47.811395]]]}},{"type":"Feature","properties":{"cadnum":"2322183506:20:001:0096"},"geometry":{"type":"Polygon","coordinates":[[[35.060841,47.800801],[35.060855,47.800906],[35.06086,47.800949],[35.060873,47.800973],[35.060873,47.801036],[35.06125,47.80106],[35.061722,47.801087],[35.061722,47.800969],[35.06165,47.80087],[35.061411,47.800846],[35.06117,47.800825],[35.060841,47.800801]]]}},{"type":"Feature","properties":{"cadnum":"2322183506:20:001:0246"},"geometry":{"type":"Polygon","coordinates":[[[35.01804,47.807488],[35.018258,47.807844],[35.018177,47.807571],[35.01861,47.807378],[35.018474,47.807268],[35.01804,47.807488]]]}},{"type":"Feature","properties":{"cadnum":"2322183506:20:001:0358"},"geometry":{"type":"Polygon","coordinates":[[[35.017385,47.807822],[35.017741,47.808168],[35.018258,47.807844],[35.01804,47.807488],[35.017385,47.807822]]]}},{"type":"Feature","properties":{"cadnum":"2322183506:20:001:0163"},"geometry":{"type":"Polygon","coordinates":[[[35.017384,47.809627],[35.01765,47.80985],[35.018358,47.809453],[35.01848,47.809384],[35.01823,47.809174],[35.017709,47.809453],[35.017675,47.809471],[35.017493,47.809568],[35.017384,47.809627]]]}},{"type":"Feature","properties":{"cadnum":"2322183506:20:001:0363"},"geometry":{"type":"Polygon","coordinates":[[[35.018089,47.808833],[35.018293,47.809046],[35.018315,47.809036],[35.01874,47.808818],[35.018654,47.808705],[35.01858,47.808599],[35.018568,47.808587],[35.018089,47.808833]]]}},{"type":"Feature","properties":{"cadnum":"2322183506:20:001:0254"},"geometry":{"type":"Polygon","coordinates":[[[35.015482,47.805767],[35.015504,47.80578],[35.015665,47.805879],[35.015679,47.805888],[35.015779,47.805948],[35.016027,47.805763],[35.016227,47.805615],[35.01593,47.805434],[35.015487,47.805763],[35.015486,47.805763],[35.015482,47.805767]]]}},{"type":"Feature","properties":{"cadnum":"2322183506:20:001:0255"},"geometry":{"type":"Polygon","coordinates":[[[35.015779,47.805948],[35.015996,47.806081],[35.016076,47.806129],[35.016524,47.805796],[35.016227,47.805615],[35.015871,47.805879],[35.015872,47.805879],[35.015779,47.805948]]]}},{"type":"Feature","properties":{"cadnum":"2322183506:20:001:0242"},"geometry":{"type":"Polygon","coordinates":[[[35.014603,47.805987],[35.014864,47.806144],[35.015375,47.805764],[35.015115,47.805607],[35.014903,47.805763],[35.014864,47.805792],[35.014747,47.805879],[35.014748,47.805879],[35.014603,47.805987]]]}},{"type":"Feature","properties":{"cadnum":"2322183506:20:001:0273"},"geometry":{"type":"Polygon","coordinates":[[[35.017894,47.805799],[35.018024,47.805879],[35.01819,47.80598],[35.018293,47.805906],[35.018488,47.805763],[35.018643,47.80565],[35.018347,47.805468],[35.017942,47.805763],[35.017941,47.805763],[35.017894,47.805798],[35.017894,47.805799]]]}},{"type":"Feature","properties":{"cadnum":"2322183506:20:001:0213"},"geometry":{"type":"Polygon","coordinates":[[[35.015796,47.807764],[35.016123,47.808003],[35.016188,47.808001],[35.01628,47.807989],[35.016585,47.807857],[35.016687,47.807869],[35.016955,47.80779],[35.016951,47.807746],[35.016716,47.807566],[35.016689,47.807577],[35.016612,47.80751],[35.016349,47.8076],[35.016287,47.807616],[35.015796,47.807764]]]}},{"type":"Feature","properties":{"cadnum":"2322183506:20:001:0319"},"geometry":{"type":"Polygon","coordinates":[[[35.015557,47.807524],[35.015823,47.807756],[35.016287,47.807616],[35.016349,47.8076],[35.016612,47.80751],[35.016177,47.807214],[35.015557,47.807524]]]}},{"type":"Feature","properties":{"cadnum":"2322183506:20:001:0077"},"geometry":{"type":"Polygon","coordinates":[[[35.014136,47.807008],[35.014352,47.807119],[35.014755,47.806924],[35.015167,47.806659],[35.015256,47.8066],[35.015265,47.806594],[35.015171,47.806534],[35.015131,47.806509],[35.015105,47.806493],[35.015095,47.806499],[35.015092,47.806501],[35.015022,47.80654],[35.014821,47.806655],[35.014798,47.806664],[35.014499,47.806809],[35.014136,47.807008]]]}},{"type":"Feature","properties":{"cadnum":"2322183506:20:001:0248"},"geometry":{"type":"Polygon","coordinates":[[[35.016198,47.806957],[35.016444,47.807101],[35.01697,47.806679],[35.016732,47.80653],[35.016198,47.806957]]]}},{"type":"Feature","properties":{"cadnum":"2322183506:20:001:0234"},"geometry":{"type":"Polygon","coordinates":[[[35.016646,47.808304],[35.016987,47.808577],[35.017438,47.808321],[35.017257,47.808176],[35.017458,47.808063],[35.017298,47.807935],[35.016646,47.808304]]]}},{"type":"Feature","properties":{"cadnum":"2322183506:20:001:0355"},"geometry":{"type":"Polygon","coordinates":[[[35.015242,47.809597],[35.015569,47.81018],[35.01602,47.810077],[35.015685,47.809483],[35.015681,47.809475],[35.015346,47.809568],[35.015242,47.809597]]]}},{"type":"Feature","properties":{"cadnum":"2322183506:20:001:0247"},"geometry":{"type":"Polygon","coordinates":[[[35.015053,47.806279],[35.015053,47.80628],[35.015367,47.80647],[35.01594,47.806047],[35.015779,47.805948],[35.015679,47.805888],[35.015627,47.805856],[35.015457,47.805986],[35.015053,47.806279]]]}},{"type":"Feature","properties":{"cadnum":"2322183506:18:001:0148"},"geometry":{"type":"Polygon","coordinates":[[[35.012408,47.808482],[35.012681,47.809237],[35.013514,47.809088],[35.014144,47.808974],[35.01377,47.808246],[35.013373,47.808315],[35.012408,47.808482]]]}},{"type":"Feature","properties":{"cadnum":"2322183506:20:001:0235"},"geometry":{"type":"Polygon","coordinates":[[[35.015544,47.808734],[35.015878,47.809018],[35.016043,47.809161],[35.016233,47.809243],[35.016433,47.809015],[35.016221,47.808919],[35.01618,47.808906],[35.016145,47.808901],[35.015911,47.808622],[35.015871,47.80862],[35.015544,47.808734]]]}},{"type":"Feature","properties":{"cadnum":"2322183506:20:001:0215"},"geometry":{"type":"Polygon","coordinates":[[[35.015108,47.807216],[35.015539,47.807538],[35.016177,47.807218],[35.016036,47.807121],[35.015942,47.807049],[35.01582,47.806965],[35.015523,47.807086],[35.015405,47.807124],[35.015108,47.807216]]]}},{"type":"Feature","properties":{"cadnum":"2322183506:20:001:0356"},"geometry":{"type":"Polygon","coordinates":[[[35.014947,47.809834],[35.015186,47.810254],[35.015569,47.81018],[35.015333,47.809759],[35.014947,47.809834]]]}},{"type":"Feature","properties":{"cadnum":"2322183506:20:001:0198"},"geometry":{"type":"Polygon","coordinates":[[[35.014167,47.811976],[35.01432,47.812347],[35.014891,47.81222],[35.014853,47.812153],[35.014957,47.812137],[35.014896,47.812018],[35.014167,47.811976]]]}},{"type":"Feature","properties":{"cadnum":"2322183506:20:001:0301"},"geometry":{"type":"Polygon","coordinates":[[[35.01381,47.811449],[35.013839,47.811509],[35.014279,47.811452],[35.014234,47.811358],[35.01381,47.811449]]]}},{"type":"Feature","properties":{"cadnum":"2322183506:18:001:0001"},"geometry":{"type":"Polygon","coordinates":[[[35.014582,47.81089],[35.014636,47.81103],[35.014778,47.811309],[35.01523,47.811217],[35.015059,47.810877],[35.014871,47.810477],[35.01469,47.810514],[35.014706,47.810545],[35.014607,47.810566],[35.014725,47.810778],[35.014754,47.810839],[35.014582,47.81089]]]}},{"type":"Feature","properties":{"cadnum":"2322183506:20:001:0351"},"geometry":{"type":"Polygon","coordinates":[[[35.016671,47.810047],[35.016912,47.810293],[35.017055,47.810434],[35.01729,47.810384],[35.017179,47.810166],[35.017031,47.810005],[35.016949,47.809931],[35.016924,47.809924],[35.016671,47.810047]]]}},{"type":"Feature","properties":{"cadnum":"2322183506:20:001:0350"},"geometry":{"type":"Polygon","coordinates":[[[35.01698,47.809897],[35.017365,47.810214],[35.017443,47.810258],[35.017723,47.810029],[35.017604,47.809951],[35.017318,47.809722],[35.01698,47.809897]]]}},{"type":"Feature","properties":{"cadnum":"2322183506:20:001:0360"},"geometry":{"type":"Polygon","coordinates":[[[35.014442,47.809862],[35.014734,47.81037],[35.015151,47.810277],[35.014859,47.809768],[35.014442,47.809862]]]}},{"type":"Feature","properties":{"cadnum":"2322183506:18:001:0152"},"geometry":{"type":"Polygon","coordinates":[[[35.013794,47.809593],[35.014081,47.810129],[35.014259,47.81047],[35.01458,47.810386],[35.014399,47.810026],[35.014348,47.810038],[35.014086,47.809518],[35.013794,47.809593]]]}},{"type":"Feature","properties":{"cadnum":"2322183506:20:001:0280"},"geometry":{"type":"Polygon","coordinates":[[[35.017062,47.804506],[35.017635,47.804854],[35.01806,47.804518],[35.017062,47.804506]]]}},{"type":"Feature","properties":{"cadnum":"2322183506:20:001:0276"},"geometry":{"type":"Polygon","coordinates":[[[35.017055,47.805261],[35.01736,47.805436],[35.017794,47.805095],[35.01749,47.80492],[35.017055,47.805261]]]}},{"type":"Feature","properties":{"cadnum":"2322183506:20:001:0275"},"geometry":{"type":"Polygon","coordinates":[[[35.017333,47.805359],[35.017631,47.805539],[35.018077,47.805205],[35.01778,47.805025],[35.017333,47.805359]]]}},{"type":"Feature","properties":{"cadnum":"2322183506:20:001:0261"},"geometry":{"type":"Polygon","coordinates":[[[35.013432,47.804603],[35.013506,47.804646],[35.013775,47.804799],[35.013878,47.804857],[35.014485,47.804519],[35.014342,47.804431],[35.013711,47.80442],[35.013432,47.804603]]]}},{"type":"Feature","properties":{"cadnum":"2322183506:20:001:0257"},"geometry":{"type":"Polygon","coordinates":[[[35.014887,47.805391],[35.01502,47.805474],[35.015181,47.805575],[35.015628,47.805242],[35.015335,47.805058],[35.014887,47.805391]]]}},{"type":"Feature","properties":{"cadnum":"2322183506:20:001:0266"},"geometry":{"type":"Polygon","coordinates":[[[35.016216,47.80539],[35.016507,47.805571],[35.017011,47.805269],[35.016709,47.805087],[35.016216,47.80539]]]}},{"type":"Feature","properties":{"cadnum":"2322183506:20:001:0365"},"geometry":{"type":"Polygon","coordinates":[[[35.016464,47.805597],[35.01676,47.805777],[35.017265,47.805475],[35.016968,47.805295],[35.016758,47.805421],[35.016507,47.805571],[35.016464,47.805597]]]}},{"type":"Feature","properties":{"cadnum":"2322183506:18:001:0163"},"geometry":{"type":"Polygon","coordinates":[[[35.014637,47.804495],[35.015261,47.804864],[35.015756,47.804563],[35.015657,47.804503],[35.014637,47.804495]]]}},{"type":"Feature","properties":{"cadnum":"2322183506:20:001:0245"},"geometry":{"type":"Polygon","coordinates":[[[35.016402,47.8049],[35.016707,47.805076],[35.017144,47.804736],[35.01684,47.804561],[35.016402,47.8049]]]}},{"type":"Feature","properties":{"cadnum":"2322183506:20:001:0120"},"geometry":{"type":"Polygon","coordinates":[[[35.009215,47.808614],[35.009254,47.808873],[35.009725,47.808856],[35.009808,47.808851],[35.009689,47.808586],[35.009215,47.808614]]]}},{"type":"Feature","properties":{"cadnum":"2322183506:20:001:0354"},"geometry":{"type":"Polygon","coordinates":[[[35.00886,47.80905],[35.008907,47.809243],[35.009143,47.809233],[35.009278,47.809228],[35.009968,47.809208],[35.009808,47.808851],[35.009725,47.808856],[35.009254,47.808873],[35.009265,47.809026],[35.00886,47.80905]]]}},{"type":"Feature","properties":{"cadnum":"2322183506:20:001:0353"},"geometry":{"type":"Polygon","coordinates":[[[35.008762,47.808642],[35.008826,47.808908],[35.009254,47.808873],[35.009215,47.808614],[35.008762,47.808642]]]}},{"type":"Feature","properties":{"cadnum":"2322183506:20:001:0374"},"geometry":{"type":"Polygon","coordinates":[[[35.008907,47.809243],[35.008914,47.809274],[35.009973,47.809242],[35.009968,47.809208],[35.009278,47.809228],[35.009143,47.809233],[35.008907,47.809243]]]}},{"type":"Feature","properties":{"cadnum":"2322183506:20:001:0308"},"geometry":{"type":"Polygon","coordinates":[[[35.011841,47.806181],[35.011942,47.806606],[35.012645,47.806476],[35.012544,47.8061],[35.011841,47.806181]]]}},{"type":"Feature","properties":{"cadnum":"2322183506:20:001:0309"},"geometry":{"type":"Polygon","coordinates":[[[35.010522,47.806243],[35.011035,47.806182],[35.010944,47.805827],[35.010622,47.805865],[35.010522,47.806243]]]}},{"type":"Feature","properties":{"cadnum":"2322183506:20:001:0333"},"geometry":{"type":"Polygon","coordinates":[[[35.011562,47.807613],[35.011672,47.808057],[35.012022,47.807983],[35.012002,47.807938],[35.012024,47.807933],[35.011938,47.807566],[35.011562,47.807613]]]}},{"type":"Feature","properties":{"cadnum":"2322183506:20:001:0330"},"geometry":{"type":"Polygon","coordinates":[[[35.010834,47.807422],[35.010845,47.807621],[35.011562,47.807613],[35.011938,47.807566],[35.011896,47.807393],[35.011678,47.807398],[35.010834,47.807422]]]}},{"type":"Feature","properties":{"cadnum":"2322183506:20:001:0329"},"geometry":{"type":"Polygon","coordinates":[[[35.012036,47.807642],[35.012076,47.807815],[35.013294,47.807593],[35.013221,47.807425],[35.012036,47.807642]]]}},{"type":"Feature","properties":{"cadnum":"2322183506:20:001:0331"},"geometry":{"type":"Polygon","coordinates":[[[35.011991,47.807453],[35.012036,47.807642],[35.013221,47.807425],[35.013184,47.807338],[35.013084,47.807365],[35.013027,47.807264],[35.01271,47.807322],[35.012069,47.80744],[35.011991,47.807453]]]}},{"type":"Feature","properties":{"cadnum":"2322183506:20:001:0328"},"geometry":{"type":"Polygon","coordinates":[[[35.012076,47.807815],[35.012111,47.807964],[35.012183,47.807949],[35.012423,47.807932],[35.013366,47.80776],[35.013294,47.807593],[35.012076,47.807815]]]}},{"type":"Feature","properties":{"cadnum":"2322183506:20:001:0081"},"geometry":{"type":"Polygon","coordinates":[[[35.010115,47.807947],[35.01075,47.80792],[35.010721,47.807622],[35.010705,47.807425],[35.010158,47.807423],[35.010115,47.807947]]]}},{"type":"Feature","properties":{"cadnum":"2322183506:20:001:0080"},"geometry":{"type":"Polygon","coordinates":[[[35.01008,47.808357],[35.010904,47.808202],[35.01099,47.808239],[35.011421,47.808157],[35.011454,47.808098],[35.011657,47.808059],[35.011554,47.807613],[35.010721,47.807622],[35.01075,47.80792],[35.010749,47.80792],[35.010115,47.807947],[35.01008,47.808357]]]}},{"type":"Feature","properties":{"cadnum":"2322183506:20:001:0306"},"geometry":{"type":"Polygon","coordinates":[[[35.01107,47.806292],[35.011179,47.806749],[35.011184,47.806748],[35.011436,47.806729],[35.01156,47.806707],[35.011451,47.80625],[35.01107,47.806292]]]}},{"type":"Feature","properties":{"cadnum":"2322183506:20:001:0303"},"geometry":{"type":"Polygon","coordinates":[[[35.010969,47.806775],[35.011011,47.807291],[35.011651,47.807281],[35.011436,47.806729],[35.011184,47.806748],[35.010969,47.806775]]]}},{"type":"Feature","properties":{"cadnum":"2322183506:20:001:0305"},"geometry":{"type":"Polygon","coordinates":[[[35.010688,47.806334],[35.010798,47.806797],[35.010969,47.806775],[35.011179,47.806749],[35.01107,47.806292],[35.010688,47.806334]]]}},{"type":"Feature","properties":{"cadnum":"2322183506:20:001:0302"},"geometry":{"type":"Polygon","coordinates":[[[35.01035,47.8073],[35.011011,47.807291],[35.010969,47.806775],[35.010798,47.806797],[35.010373,47.806867],[35.01035,47.8073]]]}},{"type":"Feature","properties":{"cadnum":"2322183506:20:001:0304"},"geometry":{"type":"Polygon","coordinates":[[[35.010373,47.806867],[35.010798,47.806797],[35.010688,47.806334],[35.010499,47.806355],[35.010373,47.806867]]]}},{"type":"Feature","properties":{"cadnum":"2322183506:20:001:0307"},"geometry":{"type":"Polygon","coordinates":[[[35.011452,47.806256],[35.01156,47.806707],[35.011947,47.806638],[35.011848,47.806212],[35.011452,47.806256]]]}}]}