{"type":"FeatureCollection","features":[{"type":"Feature","properties":{"cadnum":"2322755103:07:001:0017"},"geometry":{"type":"Polygon","coordinates":[[[36.580182,47.315621],[36.580326,47.315813],[36.580386,47.315853],[36.580799,47.315716],[36.581027,47.316018],[36.581156,47.315975],[36.580967,47.315661],[36.580967,47.31566],[36.581151,47.3156],[36.580874,47.315191],[36.580794,47.315178],[36.580424,47.315282],[36.580365,47.315319],[36.580182,47.315621]]]}},{"type":"Feature","properties":{"cadnum":"2322755103:07:001:0007"},"geometry":{"type":"Polygon","coordinates":[[[36.583569,47.314418],[36.583716,47.314425],[36.584143,47.314443],[36.584078,47.314167],[36.584033,47.314025],[36.583754,47.314015],[36.583606,47.314009],[36.583569,47.314418]]]}},{"type":"Feature","properties":{"cadnum":"2322755103:07:001:0016"},"geometry":{"type":"Polygon","coordinates":[[[36.580604,47.316367],[36.580798,47.316586],[36.580799,47.316586],[36.580809,47.316597],[36.581012,47.316514],[36.581286,47.316402],[36.581085,47.316188],[36.580604,47.316367]]]}},{"type":"Feature","properties":{"cadnum":"2322755103:07:001:0015"},"geometry":{"type":"Polygon","coordinates":[[[36.58322,47.318234],[36.583685,47.31881],[36.584558,47.318483],[36.584559,47.318483],[36.584792,47.318395],[36.584387,47.317895],[36.584326,47.317821],[36.58322,47.318234]]]}},{"type":"Feature","properties":{"cadnum":"2322755103:07:001:0020"},"geometry":{"type":"Polygon","coordinates":[[[36.592142,47.312909],[36.592149,47.312923],[36.592181,47.313],[36.592193,47.313021],[36.592303,47.313186],[36.592448,47.313379],[36.592967,47.313166],[36.592696,47.312849],[36.592585,47.312717],[36.59252,47.312745],[36.592519,47.312745],[36.592326,47.31283],[36.592251,47.312862],[36.592142,47.312909]]]}},{"type":"Feature","properties":{"cadnum":"2322755103:07:001:0012"},"geometry":{"type":"Polygon","coordinates":[[[36.581015,47.320265],[36.58105,47.320296],[36.581082,47.32031],[36.581083,47.32031],[36.581119,47.320325],[36.581277,47.320335],[36.58256,47.320194],[36.583786,47.320059],[36.583927,47.319726],[36.582948,47.319701],[36.582709,47.319694],[36.582149,47.319904],[36.582148,47.319904],[36.582122,47.319859],[36.581208,47.320194],[36.581207,47.320194],[36.581029,47.320259],[36.581015,47.320265]]]}},{"type":"Feature","properties":{"cadnum":"2322755103:07:001:0022"},"geometry":{"type":"Polygon","coordinates":[[[36.582851,47.317878],[36.582965,47.318028],[36.583216,47.317936],[36.583102,47.317786],[36.582851,47.317878]]]}},{"type":"Feature","properties":{"cadnum":"2322755103:07:001:0005"},"geometry":{"type":"Polygon","coordinates":[[[36.583657,47.316619],[36.583696,47.316648],[36.583748,47.316686],[36.58384,47.316755],[36.583883,47.316786],[36.584015,47.316706],[36.58393,47.316641],[36.583832,47.316566],[36.583794,47.316536],[36.583657,47.316619]]]}},{"type":"Feature","properties":{"cadnum":"2322755103:07:001:0018"},"geometry":{"type":"Polygon","coordinates":[[[36.581845,47.316867],[36.582063,47.317181],[36.582904,47.316903],[36.582769,47.316715],[36.582627,47.316766],[36.582414,47.316684],[36.581845,47.316867]]]}},{"type":"Feature","properties":{"cadnum":"2322755103:07:001:0013"},"geometry":{"type":"Polygon","coordinates":[[[36.581018,47.320205],[36.582352,47.319684],[36.581318,47.319657],[36.581043,47.319907],[36.581018,47.320205]]]}},{"type":"Feature","properties":{"cadnum":"2322755103:07:001:0014"},"geometry":{"type":"Polygon","coordinates":[[[36.579666,47.320031],[36.579768,47.320193],[36.579768,47.320194],[36.579796,47.320237],[36.579842,47.32031],[36.579843,47.32031],[36.579862,47.32034],[36.580384,47.320226],[36.580188,47.319918],[36.579666,47.320031]]]}},{"type":"Feature","properties":{"cadnum":"2322755103:07:001:0019"},"geometry":{"type":"Polygon","coordinates":[[[36.596223,47.310189],[36.596349,47.310381],[36.596522,47.310612],[36.596722,47.310538],[36.596894,47.310474],[36.596575,47.310058],[36.596223,47.310189]]]}},{"type":"Feature","properties":{"cadnum":"2322755103:07:001:0026"},"geometry":{"type":"Polygon","coordinates":[[[36.580543,47.322407],[36.581046,47.322517],[36.581329,47.322576],[36.581427,47.322363],[36.581141,47.322303],[36.58064,47.322195],[36.580543,47.322407]]]}},{"type":"Feature","properties":{"cadnum":"2322755103:07:001:0027"},"geometry":{"type":"Polygon","coordinates":[[[36.579948,47.323758],[36.580715,47.323923],[36.580809,47.323705],[36.580616,47.323667],[36.580043,47.323547],[36.579948,47.323758]]]}},{"type":"Feature","properties":{"cadnum":"2322755103:07:001:0006"},"geometry":{"type":"Polygon","coordinates":[[[36.587176,47.312873],[36.587176,47.313165],[36.587713,47.313172],[36.588398,47.313191],[36.588403,47.3131],[36.588078,47.313093],[36.587481,47.313068],[36.587473,47.312865],[36.587176,47.312873]]]}},{"type":"Feature","properties":{"cadnum":"2322755103:07:001:0023"},"geometry":{"type":"Polygon","coordinates":[[[36.586126,47.315279],[36.586248,47.315308],[36.586244,47.315316],[36.586663,47.315415],[36.58675,47.315244],[36.586246,47.315125],[36.586223,47.315127],[36.586205,47.315138],[36.586193,47.315152],[36.586126,47.315279]]]}},{"type":"Feature","properties":{"cadnum":"2322755103:07:001:0011"},"geometry":{"type":"Polygon","coordinates":[[[36.586506,47.314618],[36.586881,47.314707],[36.587112,47.314758],[36.587459,47.314828],[36.587656,47.314854],[36.587722,47.31473],[36.587129,47.314588],[36.58709,47.314578],[36.586608,47.31446],[36.586605,47.314474],[36.586593,47.31448],[36.586567,47.314476],[36.586506,47.314618]]]}},{"type":"Feature","properties":{"cadnum":"2322755103:07:001:0010"},"geometry":{"type":"Polygon","coordinates":[[[36.586567,47.314476],[36.586593,47.31448],[36.586605,47.314474],[36.586608,47.31446],[36.58709,47.314578],[36.587129,47.314588],[36.587722,47.31473],[36.587752,47.314659],[36.587789,47.314593],[36.587141,47.314439],[36.586632,47.314325],[36.586567,47.314476]]]}}]}