{"type":"FeatureCollection","features":[{"type":"Feature","properties":{"cadnum":"2322482401:01:005:0153"},"geometry":{"type":"Polygon","coordinates":[[[34.474289,47.489208],[34.474329,47.48943],[34.474903,47.489349],[34.474846,47.489111],[34.474289,47.489208]]]}},{"type":"Feature","properties":{"cadnum":"2322482401:01:005:0152"},"geometry":{"type":"Polygon","coordinates":[[[34.472348,47.489775],[34.47243,47.490065],[34.472709,47.490016],[34.472666,47.489893],[34.472666,47.489866],[34.472626,47.489733],[34.472348,47.489775]]]}},{"type":"Feature","properties":{"cadnum":"2322482401:01:042:0003"},"geometry":{"type":"Polygon","coordinates":[[[34.500807,47.480291],[34.501017,47.480262],[34.501032,47.480151],[34.501141,47.479394],[34.500925,47.479423],[34.500836,47.480075],[34.500835,47.480075],[34.500807,47.480291]]]}},{"type":"Feature","properties":{"cadnum":"2322482401:01:004:0005"},"geometry":{"type":"Polygon","coordinates":[[[34.48165,47.490794],[34.481686,47.491212],[34.481685,47.491212],[34.481727,47.491678],[34.482152,47.491634],[34.482109,47.491212],[34.482108,47.491212],[34.482061,47.49073],[34.48165,47.490794]]]}},{"type":"Feature","properties":{"cadnum":"2322482401:01:016:0006"},"geometry":{"type":"Polygon","coordinates":[[[34.487707,47.486468],[34.487941,47.48693],[34.488118,47.486886],[34.48794,47.48641],[34.487707,47.486468]]]}},{"type":"Feature","properties":{"cadnum":"2322482401:01:045:0004"},"geometry":{"type":"Polygon","coordinates":[[[34.499262,47.474147],[34.499293,47.474385],[34.499628,47.474356],[34.4996,47.474118],[34.499262,47.474147]]]}},{"type":"Feature","properties":{"cadnum":"2322482401:01:045:0003"},"geometry":{"type":"Polygon","coordinates":[[[34.499293,47.474385],[34.499409,47.475276],[34.499735,47.475248],[34.499628,47.474356],[34.499293,47.474385]]]}},{"type":"Feature","properties":{"cadnum":"2322482401:01:045:0002"},"geometry":{"type":"Polygon","coordinates":[[[34.498519,47.474256],[34.498571,47.474748],[34.49904,47.47471],[34.498942,47.474222],[34.498519,47.474256]]]}},{"type":"Feature","properties":{"cadnum":"2322482401:01:045:0001"},"geometry":{"type":"Polygon","coordinates":[[[34.498571,47.474748],[34.498634,47.475342],[34.49916,47.475299],[34.49904,47.47471],[34.498571,47.474748]]]}},{"type":"Feature","properties":{"cadnum":"2322482401:01:012:0004"},"geometry":{"type":"Polygon","coordinates":[[[34.488549,47.476324],[34.488553,47.476363],[34.488552,47.476363],[34.488633,47.477176],[34.48895,47.477149],[34.488879,47.476363],[34.488878,47.476363],[34.488873,47.476303],[34.488549,47.476324]]]}},{"type":"Feature","properties":{"cadnum":"2322482401:01:054:0075"},"geometry":{"type":"Polygon","coordinates":[[[34.504622,47.493823],[34.505051,47.493801],[34.505262,47.492594],[34.50483,47.492621],[34.504622,47.493823]]]}},{"type":"Feature","properties":{"cadnum":"2322482401:01:031:0005"},"geometry":{"type":"Polygon","coordinates":[[[34.491973,47.497796],[34.492541,47.497802],[34.492692,47.496932],[34.492136,47.496927],[34.491973,47.497796]]]}},{"type":"Feature","properties":{"cadnum":"2322482401:01:064:0030"},"geometry":{"type":"Polygon","coordinates":[[[34.52218,47.479865],[34.522256,47.480124],[34.522539,47.480084],[34.522475,47.479822],[34.52218,47.479865]]]}},{"type":"Feature","properties":{"cadnum":"2322482401:01:064:0028"},"geometry":{"type":"Polygon","coordinates":[[[34.521473,47.479961],[34.521527,47.480191],[34.521535,47.480222],[34.521928,47.480169],[34.521932,47.480169],[34.52187,47.479908],[34.521473,47.479961]]]}},{"type":"Feature","properties":{"cadnum":"2322482401:01:064:0027"},"geometry":{"type":"Polygon","coordinates":[[[34.523847,47.479628],[34.523913,47.479885],[34.524191,47.479846],[34.524126,47.479599],[34.523847,47.479628]]]}},{"type":"Feature","properties":{"cadnum":"2322482401:01:064:0029"},"geometry":{"type":"Polygon","coordinates":[[[34.52329,47.479717],[34.523353,47.479966],[34.523913,47.479885],[34.523849,47.479639],[34.52329,47.479717]]]}},{"type":"Feature","properties":{"cadnum":"2322482401:01:064:0022"},"geometry":{"type":"Polygon","coordinates":[[[34.522747,47.479783],[34.522811,47.480045],[34.523084,47.480006],[34.523021,47.479744],[34.522747,47.479783]]]}},{"type":"Feature","properties":{"cadnum":"2322482401:01:064:0632"},"geometry":{"type":"Polygon","coordinates":[[[34.522479,47.480144],[34.522488,47.480191],[34.522489,47.480191],[34.522538,47.480427],[34.522782,47.480396],[34.522777,47.480338],[34.52275,47.480108],[34.52256,47.480133],[34.522479,47.480144]]]}},{"type":"Feature","properties":{"cadnum":"2322482401:01:064:0010"},"geometry":{"type":"Polygon","coordinates":[[[34.523864,47.479945],[34.523911,47.480075],[34.52391,47.480075],[34.523951,47.480189],[34.524177,47.480141],[34.524111,47.479907],[34.523864,47.479945]]]}},{"type":"Feature","properties":{"cadnum":"2322482401:01:064:0009"},"geometry":{"type":"Polygon","coordinates":[[[34.523042,47.480402],[34.523246,47.480397],[34.523489,47.48035],[34.523466,47.480255],[34.52345,47.480191],[34.523404,47.480007],[34.523045,47.480066],[34.523045,47.480075],[34.523043,47.480075],[34.523042,47.480402]]]}},{"type":"Feature","properties":{"cadnum":"2322482401:01:064:0024"},"geometry":{"type":"Polygon","coordinates":[[[34.522475,47.479822],[34.522539,47.480084],[34.522811,47.480045],[34.522747,47.479783],[34.522475,47.479822]]]}},{"type":"Feature","properties":{"cadnum":"2322482401:01:064:0012"},"geometry":{"type":"Polygon","coordinates":[[[34.524402,47.479873],[34.52445,47.480047],[34.52446,47.480081],[34.524622,47.480046],[34.524774,47.480014],[34.52472,47.479824],[34.524501,47.479858],[34.524402,47.479873]]]}},{"type":"Feature","properties":{"cadnum":"2322482401:01:046:0003"},"geometry":{"type":"Polygon","coordinates":[[[34.510314,47.479582],[34.510701,47.479661],[34.511442,47.47868],[34.511042,47.478591],[34.510314,47.479582]]]}},{"type":"Feature","properties":{"cadnum":"2322482401:01:035:0004"},"geometry":{"type":"Polygon","coordinates":[[[34.498177,47.494084],[34.498681,47.494054],[34.498755,47.493129],[34.498217,47.493158],[34.498177,47.494084]]]}},{"type":"Feature","properties":{"cadnum":"2322482401:01:012:0005"},"geometry":{"type":"Polygon","coordinates":[[[34.492211,47.476033],[34.492282,47.476363],[34.492281,47.476363],[34.492382,47.47683],[34.492733,47.476799],[34.492671,47.476479],[34.49258,47.475997],[34.492211,47.476033]]]}},{"type":"Feature","properties":{"cadnum":"2322482401:01:037:0002"},"geometry":{"type":"Polygon","coordinates":[[[34.494518,47.48843],[34.494874,47.488426],[34.494919,47.487802],[34.494937,47.487616],[34.49454,47.487661],[34.494521,47.487992],[34.494518,47.48843]]]}},{"type":"Feature","properties":{"cadnum":"2322482401:01:064:0018"},"geometry":{"type":"Polygon","coordinates":[[[34.521948,47.480219],[34.522005,47.4805],[34.522306,47.480455],[34.522247,47.480174],[34.521948,47.480219]]]}},{"type":"Feature","properties":{"cadnum":"2322482401:01:038:0005"},"geometry":{"type":"Polygon","coordinates":[[[34.500485,47.485496],[34.500874,47.48546],[34.501027,47.484611],[34.500659,47.484639],[34.500485,47.485496]]]}},{"type":"Feature","properties":{"cadnum":"2322482401:01:065:0004"},"geometry":{"type":"Polygon","coordinates":[[[34.527245,47.477928],[34.527685,47.477881],[34.527709,47.477143],[34.527552,47.47716],[34.527562,47.476872],[34.527279,47.476903],[34.527245,47.477928]]]}},{"type":"Feature","properties":{"cadnum":"2322482401:01:064:0015"},"geometry":{"type":"Polygon","coordinates":[[[34.525575,47.479704],[34.525609,47.479863],[34.525618,47.479912],[34.526225,47.479856],[34.526222,47.479612],[34.525575,47.479704]]]}},{"type":"Feature","properties":{"cadnum":"2322482401:01:064:0013"},"geometry":{"type":"Polygon","coordinates":[[[34.52472,47.479824],[34.524774,47.480014],[34.525164,47.47993],[34.525118,47.479769],[34.52472,47.479824]]]}},{"type":"Feature","properties":{"cadnum":"2322482401:01:064:0004"},"geometry":{"type":"Polygon","coordinates":[[[34.528132,47.479011],[34.528208,47.479299],[34.528348,47.479261],[34.528467,47.479242],[34.528377,47.478975],[34.528132,47.479011]]]}},{"type":"Feature","properties":{"cadnum":"2322482401:01:064:0034"},"geometry":{"type":"Polygon","coordinates":[[[34.524961,47.47949],[34.525043,47.479732],[34.525331,47.47969],[34.525246,47.479439],[34.524961,47.47949]]]}},{"type":"Feature","properties":{"cadnum":"2322482401:01:005:0022"},"geometry":{"type":"Polygon","coordinates":[[[34.529234,47.478898],[34.529292,47.479135],[34.529738,47.479072],[34.529753,47.479054],[34.529701,47.4789],[34.529679,47.478873],[34.529234,47.478898]]]}},{"type":"Feature","properties":{"cadnum":"2322482401:01:064:0025"},"geometry":{"type":"Polygon","coordinates":[[[34.525246,47.479439],[34.525331,47.47969],[34.525596,47.47965],[34.525503,47.479396],[34.525246,47.479439]]]}},{"type":"Feature","properties":{"cadnum":"2322482401:01:064:0017"},"geometry":{"type":"Polygon","coordinates":[[[34.525503,47.479396],[34.525596,47.47965],[34.526019,47.479587],[34.525964,47.479328],[34.525503,47.479396]]]}},{"type":"Feature","properties":{"cadnum":"2322482401:01:064:0016"},"geometry":{"type":"Polygon","coordinates":[[[34.525964,47.479328],[34.526019,47.479587],[34.526111,47.479573],[34.526343,47.479541],[34.526379,47.47929],[34.526254,47.479297],[34.526056,47.479317],[34.525964,47.479328]]]}},{"type":"Feature","properties":{"cadnum":"2322482401:01:044:0003"},"geometry":{"type":"Polygon","coordinates":[[[34.497159,47.477828],[34.49742,47.477814],[34.497668,47.476823],[34.497428,47.476802],[34.497159,47.477828]]]}},{"type":"Feature","properties":{"cadnum":"2322482401:01:053:0003"},"geometry":{"type":"Polygon","coordinates":[[[34.508845,47.4898],[34.508849,47.489907],[34.509066,47.489895],[34.509076,47.489867],[34.509099,47.489765],[34.509135,47.489636],[34.509178,47.489514],[34.509225,47.489395],[34.509299,47.489194],[34.509057,47.489153],[34.508851,47.489711],[34.508857,47.489799],[34.508845,47.4898]]]}}]}