{"type":"FeatureCollection","features":[{"type":"Feature","properties":{"cadnum":"2322183501:15:002:0437"},"geometry":{"type":"Polygon","coordinates":[[[34.928832,47.790953],[34.928839,47.791003],[34.928844,47.791038],[34.928855,47.791119],[34.928856,47.791119],[34.928876,47.791264],[34.929772,47.791521],[34.929945,47.791271],[34.929271,47.791078],[34.928832,47.790953]]]}},{"type":"Feature","properties":{"cadnum":"2322183501:15:002:0294"},"geometry":{"type":"Polygon","coordinates":[[[34.941283,47.788105],[34.942102,47.788336],[34.942103,47.788336],[34.942175,47.788356],[34.942216,47.788157],[34.941931,47.788077],[34.941401,47.787927],[34.941283,47.788105]]]}},{"type":"Feature","properties":{"cadnum":"2322183501:15:002:0298"},"geometry":{"type":"Polygon","coordinates":[[[34.942475,47.788615],[34.943065,47.788669],[34.943146,47.788251],[34.942558,47.788193],[34.942475,47.788615]]]}},{"type":"Feature","properties":{"cadnum":"2322183501:15:002:0293"},"geometry":{"type":"Polygon","coordinates":[[[34.941157,47.788294],[34.941931,47.788512],[34.94205,47.788545],[34.942102,47.78856],[34.942103,47.78856],[34.942129,47.788567],[34.942175,47.788356],[34.941931,47.788288],[34.941283,47.788105],[34.941157,47.788294]]]}},{"type":"Feature","properties":{"cadnum":"2322183501:15:002:0444"},"geometry":{"type":"Polygon","coordinates":[[[34.943786,47.790477],[34.944781,47.790579],[34.94479,47.790322],[34.944791,47.790279],[34.943794,47.790177],[34.943786,47.790477]]]}},{"type":"Feature","properties":{"cadnum":"2322183501:15:002:0349"},"geometry":{"type":"Polygon","coordinates":[[[34.946053,47.790274],[34.946056,47.790543],[34.946135,47.790549],[34.946132,47.79028],[34.946053,47.790274]]]}},{"type":"Feature","properties":{"cadnum":"2322183501:15:002:0430"},"geometry":{"type":"Polygon","coordinates":[[[34.947432,47.790164],[34.947596,47.790202],[34.94782,47.790254],[34.948171,47.789561],[34.947783,47.789471],[34.947432,47.790164]]]}},{"type":"Feature","properties":{"cadnum":"2322183501:15:001:0172"},"geometry":{"type":"Polygon","coordinates":[[[34.944986,47.788958],[34.94516,47.788969],[34.945376,47.788972],[34.945436,47.788972],[34.945477,47.788973],[34.945482,47.788974],[34.945509,47.788974],[34.945507,47.789009],[34.946041,47.789018],[34.946056,47.788797],[34.945536,47.788765],[34.944993,47.788733],[34.944988,47.788883],[34.944987,47.788919],[34.944986,47.788958]]]}},{"type":"Feature","properties":{"cadnum":"2322183501:15:002:0285"},"geometry":{"type":"Polygon","coordinates":[[[34.945597,47.787314],[34.945616,47.787318],[34.946061,47.787428],[34.946062,47.787428],[34.946106,47.787439],[34.946128,47.787338],[34.946213,47.786978],[34.945758,47.78686],[34.945598,47.787313],[34.945597,47.787313],[34.945597,47.787314]]]}},{"type":"Feature","properties":{"cadnum":"2322183501:15:002:0129"},"geometry":{"type":"Polygon","coordinates":[[[34.945554,47.788463],[34.945561,47.788465],[34.945666,47.788486],[34.94615,47.788575],[34.946175,47.788499],[34.946256,47.78829],[34.945982,47.788219],[34.945804,47.788178],[34.945678,47.788144],[34.945554,47.788463]]]}},{"type":"Feature","properties":{"cadnum":"2322183501:15:002:0284"},"geometry":{"type":"Polygon","coordinates":[[[34.94394,47.788325],[34.944824,47.788421],[34.944832,47.788306],[34.943963,47.788211],[34.94394,47.788325]]]}},{"type":"Feature","properties":{"cadnum":"2322183501:15:002:0203"},"geometry":{"type":"Polygon","coordinates":[[[34.945416,47.787822],[34.945984,47.787968],[34.946106,47.787439],[34.945616,47.787318],[34.945597,47.787314],[34.945556,47.787428],[34.945557,47.787428],[34.945416,47.787822]]]}},{"type":"Feature","properties":{"cadnum":"2322183501:15:002:0515"},"geometry":{"type":"Polygon","coordinates":[[[34.945011,47.78842],[34.945541,47.788465],[34.94565,47.788136],[34.94506,47.787984],[34.945011,47.78842]]]}},{"type":"Feature","properties":{"cadnum":"2322183501:15:002:0346"},"geometry":{"type":"Polygon","coordinates":[[[34.944956,47.789632],[34.945427,47.789673],[34.9459,47.789717],[34.945945,47.789482],[34.945922,47.78948],[34.945506,47.789411],[34.944962,47.789367],[34.944956,47.789632]]]}},{"type":"Feature","properties":{"cadnum":"2322183501:15:002:0348"},"geometry":{"type":"Polygon","coordinates":[[[34.94494,47.790186],[34.944943,47.790456],[34.946056,47.790543],[34.946053,47.790274],[34.94494,47.790186]]]}},{"type":"Feature","properties":{"cadnum":"2322183501:15:002:0356"},"geometry":{"type":"Polygon","coordinates":[[[34.944943,47.790456],[34.944946,47.790726],[34.94606,47.790813],[34.946056,47.790543],[34.944943,47.790456]]]}},{"type":"Feature","properties":{"cadnum":"2322183501:15:002:0315"},"geometry":{"type":"Polygon","coordinates":[[[34.947204,47.790669],[34.947424,47.79069],[34.947424,47.790691],[34.948262,47.79077],[34.948297,47.790592],[34.947596,47.790525],[34.947239,47.790491],[34.947204,47.790669]]]}},{"type":"Feature","properties":{"cadnum":"2322183501:15:002:0313"},"geometry":{"type":"Polygon","coordinates":[[[34.947081,47.791048],[34.947424,47.791082],[34.948139,47.79115],[34.94817,47.791003],[34.948169,47.791003],[34.948176,47.790972],[34.947596,47.790916],[34.94712,47.79087],[34.94709,47.791003],[34.947081,47.791048]]]}},{"type":"Feature","properties":{"cadnum":"2322183501:15:002:0327"},"geometry":{"type":"Polygon","coordinates":[[[34.946086,47.791226],[34.946488,47.791258],[34.946902,47.791294],[34.946945,47.791062],[34.946943,47.791062],[34.946128,47.790994],[34.946127,47.791003],[34.946126,47.791003],[34.946114,47.791068],[34.946104,47.791119],[34.946105,47.791119],[34.946086,47.791226]]]}},{"type":"Feature","properties":{"cadnum":"2322183501:15:002:0357"},"geometry":{"type":"Polygon","coordinates":[[[34.946056,47.790543],[34.94606,47.790813],[34.94615,47.79082],[34.946145,47.79055],[34.946135,47.790549],[34.946056,47.790543]]]}},{"type":"Feature","properties":{"cadnum":"2322183501:15:001:0371"},"geometry":{"type":"Polygon","coordinates":[[[34.929728,47.783867],[34.930041,47.783952],[34.930168,47.783741],[34.930219,47.783658],[34.930244,47.783618],[34.930328,47.783487],[34.929988,47.783396],[34.929971,47.783425],[34.929945,47.783466],[34.929846,47.783622],[34.929845,47.783622],[34.929825,47.783655],[34.929787,47.783737],[34.929728,47.783867]]]}},{"type":"Feature","properties":{"cadnum":"2322183501:15:002:0023"},"geometry":{"type":"Polygon","coordinates":[[[34.929854,47.784864],[34.930656,47.785013],[34.93102,47.784434],[34.930354,47.784284],[34.930189,47.784492],[34.930062,47.78448],[34.929854,47.784864]]]}},{"type":"Feature","properties":{"cadnum":"2322183501:15:002:0182"},"geometry":{"type":"Polygon","coordinates":[[[34.928805,47.783579],[34.928933,47.783622],[34.929126,47.783687],[34.929127,47.783688],[34.929603,47.782896],[34.929276,47.782809],[34.928805,47.783579]]]}},{"type":"Feature","properties":{"cadnum":"2322183501:15:001:0162"},"geometry":{"type":"Polygon","coordinates":[[[34.963555,47.791363],[34.963865,47.79146],[34.963903,47.791402],[34.963944,47.79134],[34.964075,47.791142],[34.964158,47.791015],[34.964392,47.790664],[34.964076,47.790566],[34.963949,47.79076],[34.96379,47.791003],[34.963789,47.791003],[34.963555,47.791363]]]}},{"type":"Feature","properties":{"cadnum":"2322183501:15:001:0491"},"geometry":{"type":"Polygon","coordinates":[[[34.963596,47.789329],[34.963903,47.789426],[34.963903,47.789427],[34.963936,47.789437],[34.964009,47.789282],[34.963671,47.789176],[34.963596,47.789329]]]}},{"type":"Feature","properties":{"cadnum":"2322183501:15:001:0359"},"geometry":{"type":"Polygon","coordinates":[[[34.962939,47.789984],[34.963236,47.790067],[34.963643,47.789167],[34.963347,47.789085],[34.962939,47.789984]]]}},{"type":"Feature","properties":{"cadnum":"2322183501:15:002:0300"},"geometry":{"type":"Polygon","coordinates":[[[34.963873,47.790293],[34.964075,47.790352],[34.964178,47.790382],[34.964591,47.789525],[34.964287,47.789432],[34.964086,47.78985],[34.964019,47.78999],[34.963873,47.790293]]]}},{"type":"Feature","properties":{"cadnum":"2322183501:15:001:0489"},"geometry":{"type":"Polygon","coordinates":[[[34.961803,47.78967],[34.962113,47.789756],[34.96259,47.788701],[34.962372,47.788616],[34.961803,47.78967]]]}},{"type":"Feature","properties":{"cadnum":"2322183501:15:001:0360"},"geometry":{"type":"Polygon","coordinates":[[[34.963347,47.789085],[34.963643,47.789167],[34.963702,47.789039],[34.963413,47.78894],[34.963347,47.789085]]]}},{"type":"Feature","properties":{"cadnum":"2322183501:15:001:0159"},"geometry":{"type":"Polygon","coordinates":[[[34.962536,47.790866],[34.96293,47.79098],[34.963346,47.790337],[34.96295,47.790226],[34.962536,47.790866]]]}},{"type":"Feature","properties":{"cadnum":"2322183501:15:001:0161"},"geometry":{"type":"Polygon","coordinates":[[[34.963256,47.791184],[34.963595,47.791294],[34.96371,47.791119],[34.963848,47.79091],[34.964075,47.790568],[34.964076,47.790566],[34.963959,47.790528],[34.963736,47.790455],[34.963297,47.791119],[34.963298,47.791119],[34.963256,47.791184]]]}},{"type":"Feature","properties":{"cadnum":"2322183501:15:001:0158"},"geometry":{"type":"Polygon","coordinates":[[[34.962106,47.79053],[34.962651,47.790688],[34.96295,47.790226],[34.962407,47.790065],[34.962106,47.79053]]]}},{"type":"Feature","properties":{"cadnum":"2322183501:15:002:0144"},"geometry":{"type":"Polygon","coordinates":[[[34.959719,47.790221],[34.960013,47.790313],[34.96054,47.789496],[34.960248,47.789404],[34.959719,47.790221]]]}},{"type":"Feature","properties":{"cadnum":"2322183501:15:001:0516"},"geometry":{"type":"Polygon","coordinates":[[[34.942773,47.792073],[34.942886,47.792085],[34.943519,47.792149],[34.94359,47.79182],[34.942912,47.791718],[34.942851,47.791709],[34.942773,47.792073]]]}},{"type":"Feature","properties":{"cadnum":"2322183501:15:002:0121"},"geometry":{"type":"Polygon","coordinates":[[[34.944267,47.793825],[34.944904,47.79387],[34.944976,47.793509],[34.944345,47.793443],[34.944267,47.793825]]]}},{"type":"Feature","properties":{"cadnum":"2322183501:15:001:0514"},"geometry":{"type":"Polygon","coordinates":[[[34.943519,47.792149],[34.944433,47.792241],[34.944503,47.791916],[34.943855,47.791859],[34.94359,47.79182],[34.943519,47.792149]]]}},{"type":"Feature","properties":{"cadnum":"2322183501:15:002:0117"},"geometry":{"type":"Polygon","coordinates":[[[34.943413,47.793169],[34.943415,47.793404],[34.943929,47.793423],[34.94422,47.793444],[34.944268,47.793212],[34.943413,47.793169]]]}},{"type":"Feature","properties":{"cadnum":"2322183501:15:001:0118"},"geometry":{"type":"Polygon","coordinates":[[[34.94336,47.7928],[34.943941,47.792854],[34.944323,47.792879],[34.944361,47.79258],[34.94395,47.792543],[34.943409,47.792482],[34.94336,47.7928]]]}},{"type":"Feature","properties":{"cadnum":"2322183501:15:002:0292"},"geometry":{"type":"Polygon","coordinates":[[[34.944123,47.794581],[34.944954,47.794672],[34.945019,47.794377],[34.944195,47.794288],[34.944123,47.794581]]]}},{"type":"Feature","properties":{"cadnum":"2322183501:15:002:0324"},"geometry":{"type":"Polygon","coordinates":[[[34.945953,47.791916],[34.94641,47.791955],[34.9468,47.791988],[34.94683,47.791764],[34.946601,47.791745],[34.9466,47.791745],[34.946583,47.791742],[34.946572,47.791743],[34.946533,47.791738],[34.946436,47.791729],[34.945996,47.791691],[34.945953,47.791916]]]}},{"type":"Feature","properties":{"cadnum":"2322183501:15:002:0419"},"geometry":{"type":"Polygon","coordinates":[[[34.944714,47.791722],[34.945851,47.791865],[34.9459,47.791645],[34.944787,47.791489],[34.944714,47.791722]]]}},{"type":"Feature","properties":{"cadnum":"2322183501:15:001:0495"},"geometry":{"type":"Polygon","coordinates":[[[34.944541,47.792502],[34.945493,47.792563],[34.94554,47.792249],[34.944597,47.79219],[34.944541,47.792502]]]}},{"type":"Feature","properties":{"cadnum":"2322183501:15:002:0434"},"geometry":{"type":"Polygon","coordinates":[[[34.944432,47.793111],[34.94525,47.793179],[34.945289,47.792947],[34.944469,47.79288],[34.944432,47.793111]]]}},{"type":"Feature","properties":{"cadnum":"2322183501:15:002:0377"},"geometry":{"type":"Polygon","coordinates":[[[34.939312,47.790158],[34.939674,47.790198],[34.939882,47.789741],[34.939533,47.789669],[34.939312,47.790158]]]}},{"type":"Feature","properties":{"cadnum":"2322183501:15:002:0370"},"geometry":{"type":"Polygon","coordinates":[[[34.939159,47.789592],[34.93953,47.789669],[34.939731,47.789224],[34.939464,47.789155],[34.939363,47.789161],[34.939159,47.789592]]]}},{"type":"Feature","properties":{"cadnum":"2322183501:15:002:0372"},"geometry":{"type":"Polygon","coordinates":[[[34.939907,47.789746],[34.9403,47.789828],[34.940486,47.789418],[34.940102,47.789318],[34.939907,47.789746]]]}},{"type":"Feature","properties":{"cadnum":"2322183501:15:002:0077"},"geometry":{"type":"Polygon","coordinates":[[[34.939422,47.78873],[34.940214,47.788984],[34.940417,47.788672],[34.939624,47.788417],[34.939422,47.78873]]]}},{"type":"Feature","properties":{"cadnum":"2322183501:15:002:0374"},"geometry":{"type":"Polygon","coordinates":[[[34.94071,47.789912],[34.941117,47.789995],[34.941142,47.790001],[34.941311,47.789628],[34.940889,47.78952],[34.94071,47.789912]]]}},{"type":"Feature","properties":{"cadnum":"2322183501:15:002:0380"},"geometry":{"type":"Polygon","coordinates":[[[34.940489,47.790287],[34.940961,47.790338],[34.941117,47.789995],[34.94071,47.789912],[34.940663,47.789902],[34.940489,47.790287]]]}},{"type":"Feature","properties":{"cadnum":"2322183501:15:002:0371"},"geometry":{"type":"Polygon","coordinates":[[[34.93953,47.789669],[34.939533,47.789669],[34.939882,47.789741],[34.939907,47.789746],[34.940102,47.789318],[34.939731,47.789224],[34.93953,47.789669]]]}},{"type":"Feature","properties":{"cadnum":"2322183501:15:002:0373"},"geometry":{"type":"Polygon","coordinates":[[[34.9403,47.789828],[34.940663,47.789902],[34.94071,47.789912],[34.940889,47.78952],[34.940486,47.789418],[34.9403,47.789828]]]}},{"type":"Feature","properties":{"cadnum":"2322183501:15:002:0432"},"geometry":{"type":"Polygon","coordinates":[[[34.939722,47.788197],[34.940517,47.788352],[34.940607,47.788143],[34.939813,47.787988],[34.939722,47.788197]]]}},{"type":"Feature","properties":{"cadnum":"2322183501:15:002:0208"},"geometry":{"type":"Polygon","coordinates":[[[34.940803,47.787853],[34.941338,47.788004],[34.941516,47.787717],[34.940981,47.787566],[34.940803,47.787853]]]}},{"type":"Feature","properties":{"cadnum":"2322183501:15:002:0387"},"geometry":{"type":"Polygon","coordinates":[[[34.940588,47.790916],[34.940962,47.790957],[34.941075,47.790488],[34.940701,47.790447],[34.940588,47.790916]]]}},{"type":"Feature","properties":{"cadnum":"2322183501:15:002:0388"},"geometry":{"type":"Polygon","coordinates":[[[34.940962,47.790957],[34.941314,47.790995],[34.941471,47.790531],[34.941075,47.790488],[34.940962,47.790957]]]}},{"type":"Feature","properties":{"cadnum":"2322183501:15:002:0074"},"geometry":{"type":"Polygon","coordinates":[[[34.938944,47.787771],[34.939246,47.787853],[34.939659,47.787944],[34.939847,47.787564],[34.939613,47.787506],[34.939175,47.787397],[34.938944,47.787771]]]}},{"type":"Feature","properties":{"cadnum":"2322183501:15:002:0378"},"geometry":{"type":"Polygon","coordinates":[[[34.939674,47.790198],[34.940064,47.79024],[34.940256,47.789819],[34.939907,47.789746],[34.939882,47.789741],[34.939674,47.790198]]]}},{"type":"Feature","properties":{"cadnum":"2322183501:15:002:0375"},"geometry":{"type":"Polygon","coordinates":[[[34.941142,47.790001],[34.941616,47.790099],[34.941736,47.789737],[34.941311,47.789628],[34.941142,47.790001]]]}},{"type":"Feature","properties":{"cadnum":"2322183501:15:002:0064"},"geometry":{"type":"Polygon","coordinates":[[[34.936034,47.78814],[34.936363,47.788229],[34.936438,47.788247],[34.936438,47.788248],[34.937018,47.788389],[34.937164,47.788147],[34.936655,47.787991],[34.936596,47.787975],[34.9362,47.787863],[34.936034,47.78814]]]}},{"type":"Feature","properties":{"cadnum":"2322183501:15:002:0360"},"geometry":{"type":"Polygon","coordinates":[[[34.937862,47.790107],[34.937984,47.790136],[34.938121,47.790159],[34.938546,47.790256],[34.93872,47.78992],[34.938747,47.789862],[34.93807,47.789709],[34.937862,47.790107]]]}},{"type":"Feature","properties":{"cadnum":"2322183501:15:002:0359"},"geometry":{"type":"Polygon","coordinates":[[[34.937394,47.789995],[34.937862,47.790107],[34.93807,47.789709],[34.93797,47.789687],[34.937937,47.789756],[34.937565,47.789666],[34.937394,47.789995]]]}},{"type":"Feature","properties":{"cadnum":"2322183501:15:002:0441"},"geometry":{"type":"Polygon","coordinates":[[[34.93797,47.789687],[34.93807,47.789709],[34.938752,47.789863],[34.938831,47.789671],[34.938064,47.789498],[34.93797,47.789687]]]}},{"type":"Feature","properties":{"cadnum":"2322183501:15:002:0290"},"geometry":{"type":"Polygon","coordinates":[[[34.940214,47.788984],[34.940614,47.789113],[34.940818,47.788799],[34.940417,47.788672],[34.940214,47.788984]]]}},{"type":"Feature","properties":{"cadnum":"2322183501:15:002:0386"},"geometry":{"type":"Polygon","coordinates":[[[34.940214,47.790875],[34.940588,47.790916],[34.940701,47.790447],[34.940328,47.790406],[34.940214,47.790875]]]}},{"type":"Feature","properties":{"cadnum":"2322183501:15:002:0078"},"geometry":{"type":"Polygon","coordinates":[[[34.940737,47.789251],[34.941189,47.789344],[34.94163,47.789428],[34.941799,47.789164],[34.941319,47.789057],[34.940882,47.788976],[34.940737,47.789251]]]}},{"type":"Feature","properties":{"cadnum":"2322183501:15:002:0381"},"geometry":{"type":"Polygon","coordinates":[[[34.940961,47.790338],[34.941515,47.7904],[34.941582,47.790199],[34.941616,47.790099],[34.9416,47.790095],[34.941142,47.790001],[34.941117,47.789995],[34.940961,47.790338]]]}},{"type":"Feature","properties":{"cadnum":"2322183501:15:002:0379"},"geometry":{"type":"Polygon","coordinates":[[[34.940064,47.79024],[34.940489,47.790287],[34.940663,47.789902],[34.9403,47.789828],[34.940256,47.789819],[34.940064,47.79024]]]}},{"type":"Feature","properties":{"cadnum":"2322183501:15:001:0350"},"geometry":{"type":"Polygon","coordinates":[[[34.945738,47.784642],[34.946201,47.784711],[34.94628,47.784013],[34.945884,47.783985],[34.945738,47.784642]]]}},{"type":"Feature","properties":{"cadnum":"2322183501:15:001:0256"},"geometry":{"type":"Polygon","coordinates":[[[34.946057,47.785329],[34.946406,47.785386],[34.946582,47.784467],[34.946293,47.784428],[34.946057,47.785329]]]}},{"type":"Feature","properties":{"cadnum":"2322183501:15:001:0255"},"geometry":{"type":"Polygon","coordinates":[[[34.946406,47.785386],[34.946764,47.785441],[34.946851,47.784498],[34.946584,47.784452],[34.946406,47.785386]]]}},{"type":"Feature","properties":{"cadnum":"2322183501:15:001:0257"},"geometry":{"type":"Polygon","coordinates":[[[34.945592,47.785258],[34.946057,47.785329],[34.946187,47.784831],[34.946201,47.784711],[34.945738,47.784642],[34.945722,47.784721],[34.945592,47.785258]]]}},{"type":"Feature","properties":{"cadnum":"2322183501:15:001:0484"},"geometry":{"type":"Polygon","coordinates":[[[34.943694,47.78441],[34.944305,47.784514],[34.94444,47.783925],[34.943838,47.783822],[34.943694,47.78441]]]}},{"type":"Feature","properties":{"cadnum":"2322183501:15:001:0260"},"geometry":{"type":"Polygon","coordinates":[[[34.943566,47.784872],[34.9442,47.78498],[34.944305,47.784514],[34.943694,47.78441],[34.943659,47.784553],[34.943566,47.784872]]]}},{"type":"Feature","properties":{"cadnum":"2322183501:15:001:0355"},"geometry":{"type":"Polygon","coordinates":[[[34.944703,47.785069],[34.945022,47.785123],[34.94518,47.784177],[34.944868,47.784154],[34.944703,47.785069]]]}},{"type":"Feature","properties":{"cadnum":"2322183501:15:002:0248"},"geometry":{"type":"Polygon","coordinates":[[[34.943154,47.785812],[34.943469,47.785872],[34.943653,47.785427],[34.943667,47.785422],[34.943668,47.785422],[34.943735,47.785258],[34.943735,47.785229],[34.943798,47.785077],[34.943481,47.785019],[34.943154,47.785812]]]}},{"type":"Feature","properties":{"cadnum":"2322183501:15:002:0126"},"geometry":{"type":"Polygon","coordinates":[[[34.942407,47.785318],[34.942427,47.785447],[34.942639,47.785594],[34.942833,47.785144],[34.942934,47.784912],[34.942576,47.784844],[34.942494,47.785062],[34.942407,47.785318]]]}},{"type":"Feature","properties":{"cadnum":"2322183501:15:001:0200"},"geometry":{"type":"Polygon","coordinates":[[[34.941633,47.786878],[34.941931,47.78697],[34.942039,47.787004],[34.942102,47.786902],[34.942102,47.786901],[34.94222,47.786709],[34.941931,47.786621],[34.94181,47.786584],[34.941633,47.786878]]]}},{"type":"Feature","properties":{"cadnum":"2322183501:15:002:0006"},"geometry":{"type":"Polygon","coordinates":[[[34.944562,47.786018],[34.944956,47.786087],[34.945222,47.785402],[34.944829,47.785333],[34.944562,47.786018]]]}},{"type":"Feature","properties":{"cadnum":"2322183501:15:001:0506"},"geometry":{"type":"Polygon","coordinates":[[[34.943433,47.785961],[34.943732,47.786018],[34.944079,47.785114],[34.943802,47.785066],[34.943735,47.785229],[34.943735,47.785258],[34.943668,47.785422],[34.943667,47.785422],[34.943653,47.785427],[34.943433,47.785961]]]}},{"type":"Feature","properties":{"cadnum":"2322183501:15:001:0250"},"geometry":{"type":"Polygon","coordinates":[[[34.943823,47.785783],[34.944243,47.785863],[34.944494,47.785185],[34.944079,47.785114],[34.943823,47.785783]]]}},{"type":"Feature","properties":{"cadnum":"2322183501:15:001:0253"},"geometry":{"type":"Polygon","coordinates":[[[34.945432,47.786138],[34.945843,47.786211],[34.946013,47.785668],[34.946076,47.785466],[34.945723,47.785403],[34.945432,47.786138]]]}},{"type":"Feature","properties":{"cadnum":"2322183501:15:001:0264"},"geometry":{"type":"Polygon","coordinates":[[[34.941227,47.784432],[34.941689,47.784545],[34.94176,47.784267],[34.941858,47.783681],[34.941859,47.78368],[34.94186,47.783666],[34.941587,47.783612],[34.941586,47.783622],[34.941585,47.783622],[34.94157,47.783711],[34.941566,47.783737],[34.941491,47.784207],[34.941491,47.784208],[34.941295,47.784178],[34.941227,47.784432]]]}},{"type":"Feature","properties":{"cadnum":"2322183501:15:001:0265"},"geometry":{"type":"Polygon","coordinates":[[[34.938799,47.783851],[34.939133,47.783942],[34.93927,47.783691],[34.939576,47.783133],[34.939254,47.783058],[34.93893,47.783622],[34.938929,47.783622],[34.938879,47.783711],[34.938864,47.783737],[34.938799,47.783851]]]}},{"type":"Feature","properties":{"cadnum":"2322183501:14:001:1740"},"geometry":{"type":"Polygon","coordinates":[[[35.051665,47.789236],[35.051794,47.789249],[35.051794,47.78925],[35.051903,47.789261],[35.051966,47.789029],[35.051976,47.78899],[35.051794,47.788965],[35.05174,47.788958],[35.051665,47.789236]]]}},{"type":"Feature","properties":{"cadnum":"2322183501:15:002:0426"},"geometry":{"type":"Polygon","coordinates":[[[34.940311,47.79295],[34.940785,47.792988],[34.940844,47.79263],[34.940848,47.792608],[34.940405,47.792559],[34.940311,47.79295]]]}},{"type":"Feature","properties":{"cadnum":"2322183501:15:002:0425"},"geometry":{"type":"Polygon","coordinates":[[[34.939865,47.792914],[34.940311,47.79295],[34.940405,47.792559],[34.940005,47.792516],[34.939962,47.792512],[34.939865,47.792914]]]}},{"type":"Feature","properties":{"cadnum":"2322183501:15:002:0424"},"geometry":{"type":"Polygon","coordinates":[[[34.939434,47.79288],[34.939865,47.792914],[34.939962,47.792512],[34.939603,47.792472],[34.939534,47.792465],[34.939434,47.79288]]]}},{"type":"Feature","properties":{"cadnum":"2322183501:15:002:0423"},"geometry":{"type":"Polygon","coordinates":[[[34.939015,47.792847],[34.939434,47.79288],[34.939534,47.792465],[34.939203,47.792429],[34.939118,47.792419],[34.939015,47.792847]]]}},{"type":"Feature","properties":{"cadnum":"2322183501:15:002:0416"},"geometry":{"type":"Polygon","coordinates":[[[34.940384,47.792558],[34.940764,47.792599],[34.94078,47.792522],[34.940903,47.792154],[34.940493,47.792109],[34.940384,47.792558]]]}},{"type":"Feature","properties":{"cadnum":"2322183501:15:002:0415"},"geometry":{"type":"Polygon","coordinates":[[[34.939994,47.792514],[34.940384,47.792558],[34.940493,47.792109],[34.940102,47.792066],[34.939994,47.792514]]]}},{"type":"Feature","properties":{"cadnum":"2322183501:15:002:1444"},"geometry":{"type":"Polygon","coordinates":[[[34.936144,47.792603],[34.936438,47.792656],[34.936931,47.792744],[34.937,47.792368],[34.936571,47.792292],[34.936239,47.792232],[34.936144,47.792603]]]}},{"type":"Feature","properties":{"cadnum":"2322183501:15:002:1445"},"geometry":{"type":"Polygon","coordinates":[[[34.936038,47.793018],[34.936609,47.793122],[34.936609,47.793121],[34.936855,47.793165],[34.936931,47.792744],[34.936609,47.792687],[34.936609,47.792686],[34.936144,47.792603],[34.936038,47.793018]]]}},{"type":"Feature","properties":{"cadnum":"2322183501:15:002:0414"},"geometry":{"type":"Polygon","coordinates":[[[34.939603,47.792472],[34.939994,47.792514],[34.940102,47.792066],[34.939711,47.792023],[34.939603,47.792472]]]}},{"type":"Feature","properties":{"cadnum":"2322183501:15:002:0421"},"geometry":{"type":"Polygon","coordinates":[[[34.938211,47.792783],[34.938608,47.792814],[34.938713,47.792375],[34.938401,47.79234],[34.938319,47.792331],[34.938211,47.792783]]]}},{"type":"Feature","properties":{"cadnum":"2322183501:15:002:0420"},"geometry":{"type":"Polygon","coordinates":[[[34.937784,47.792749],[34.938211,47.792783],[34.938319,47.792331],[34.937972,47.792294],[34.93795,47.792352],[34.937887,47.792503],[34.937784,47.792749]]]}},{"type":"Feature","properties":{"cadnum":"2322183501:15:002:0422"},"geometry":{"type":"Polygon","coordinates":[[[34.938608,47.792814],[34.939015,47.792847],[34.939118,47.792419],[34.938799,47.792385],[34.938713,47.792375],[34.938608,47.792814]]]}},{"type":"Feature","properties":{"cadnum":"2322183501:15:002:0435"},"geometry":{"type":"Polygon","coordinates":[[[34.932253,47.791208],[34.933118,47.791404],[34.933261,47.79122],[34.933346,47.79111],[34.933336,47.791107],[34.932481,47.790912],[34.932411,47.791003],[34.93241,47.791003],[34.932326,47.791114],[34.932322,47.791119],[34.932253,47.791208]]]}},{"type":"Feature","properties":{"cadnum":"2322183501:15:001:0512"},"geometry":{"type":"Polygon","coordinates":[[[34.931655,47.789246],[34.932432,47.789461],[34.932664,47.789136],[34.931893,47.788923],[34.931749,47.789122],[34.931655,47.789246]]]}},{"type":"Feature","properties":{"cadnum":"2322183501:15:001:0496"},"geometry":{"type":"Polygon","coordinates":[[[34.929732,47.789515],[34.930879,47.789831],[34.930944,47.789735],[34.930944,47.789736],[34.931018,47.789627],[34.93103,47.789609],[34.929975,47.789318],[34.929841,47.789355],[34.929732,47.789515]]]}},{"type":"Feature","properties":{"cadnum":"2322183501:15:001:0336"},"geometry":{"type":"Polygon","coordinates":[[[34.93206,47.78869],[34.932746,47.78889],[34.932898,47.788672],[34.932212,47.788472],[34.93206,47.78869]]]}},{"type":"Feature","properties":{"cadnum":"2322183501:15:001:0499"},"geometry":{"type":"Polygon","coordinates":[[[34.929975,47.789318],[34.930944,47.789585],[34.93103,47.789609],[34.931116,47.78948],[34.931234,47.789302],[34.931116,47.78927],[34.930635,47.789137],[34.929975,47.789318]]]}},{"type":"Feature","properties":{"cadnum":"2322183501:15:001:0252"},"geometry":{"type":"Polygon","coordinates":[[[34.930947,47.790243],[34.931116,47.790287],[34.931627,47.790419],[34.931868,47.790065],[34.931569,47.789965],[34.931217,47.789844],[34.931103,47.790019],[34.930989,47.790183],[34.930947,47.790243]]]}},{"type":"Feature","properties":{"cadnum":"2322183501:15:001:0517"},"geometry":{"type":"Polygon","coordinates":[[[34.933853,47.79088],[34.934218,47.791003],[34.934253,47.791015],[34.934257,47.791016],[34.934594,47.791119],[34.934595,47.791119],[34.934779,47.791175],[34.934869,47.791055],[34.934978,47.790914],[34.934717,47.790832],[34.934464,47.790755],[34.93405,47.790625],[34.933853,47.79088]]]}},{"type":"Feature","properties":{"cadnum":"2322183501:15:002:0439"},"geometry":{"type":"Polygon","coordinates":[[[34.935971,47.789733],[34.936257,47.789825],[34.936438,47.789595],[34.936147,47.789498],[34.935971,47.789733]]]}},{"type":"Feature","properties":{"cadnum":"2322183501:15:002:0035"},"geometry":{"type":"Polygon","coordinates":[[[34.934737,47.788082],[34.935003,47.788118],[34.935493,47.788234],[34.935672,47.787901],[34.935097,47.787739],[34.935096,47.787739],[34.934978,47.787633],[34.934737,47.788082]]]}},{"type":"Feature","properties":{"cadnum":"2322183501:15:002:0060"},"geometry":{"type":"Polygon","coordinates":[[[34.934956,47.789411],[34.935346,47.789528],[34.935711,47.789649],[34.935971,47.789733],[34.936147,47.789498],[34.935503,47.789282],[34.935139,47.789167],[34.934956,47.789411]]]}},{"type":"Feature","properties":{"cadnum":"2322183501:15:001:0186"},"geometry":{"type":"Polygon","coordinates":[[[34.953593,47.789044],[34.953686,47.789054],[34.95369,47.789025],[34.953728,47.789034],[34.953738,47.789019],[34.953738,47.789018],[34.953828,47.789045],[34.953813,47.789061],[34.953912,47.789073],[34.953927,47.789053],[34.953966,47.788993],[34.953963,47.788974],[34.953982,47.788945],[34.953994,47.788947],[34.954025,47.7889],[34.954138,47.788736],[34.954399,47.788297],[34.954116,47.788142],[34.953593,47.789044]]]}},{"type":"Feature","properties":{"cadnum":"2322183501:15:001:0150"},"geometry":{"type":"Polygon","coordinates":[[[34.957343,47.789228],[34.957768,47.78936],[34.958151,47.788772],[34.957726,47.788642],[34.957343,47.789228]]]}},{"type":"Feature","properties":{"cadnum":"2322183501:15:001:0178"},"geometry":{"type":"Polygon","coordinates":[[[34.956566,47.787267],[34.956912,47.787313],[34.957516,47.787393],[34.957525,47.787394],[34.957587,47.787179],[34.957111,47.787108],[34.957152,47.786949],[34.957013,47.786933],[34.956652,47.786894],[34.956566,47.787267]]]}},{"type":"Feature","properties":{"cadnum":"2322183501:15:001:0366"},"geometry":{"type":"Polygon","coordinates":[[[34.957525,47.787394],[34.957784,47.787428],[34.957785,47.787428],[34.958353,47.787503],[34.958405,47.787313],[34.958409,47.787298],[34.957587,47.787179],[34.957548,47.787313],[34.957525,47.787394]]]}},{"type":"Feature","properties":{"cadnum":"2322183501:15:001:0185"},"geometry":{"type":"Polygon","coordinates":[[[34.953912,47.789075],[34.954215,47.78912],[34.954524,47.788731],[34.954647,47.788576],[34.954363,47.788357],[34.954138,47.788736],[34.954025,47.7889],[34.953994,47.788947],[34.953982,47.788945],[34.953963,47.788974],[34.953966,47.788993],[34.953912,47.789075]]]}},{"type":"Feature","properties":{"cadnum":"2322183501:15:001:0095"},"geometry":{"type":"Polygon","coordinates":[[[34.957492,47.788381],[34.958008,47.788541],[34.958299,47.788166],[34.958009,47.78807],[34.958182,47.787841],[34.957986,47.787769],[34.957492,47.788381]]]}},{"type":"Feature","properties":{"cadnum":"2322183501:15:001:0149"},"geometry":{"type":"Polygon","coordinates":[[[34.956793,47.789693],[34.957007,47.789759],[34.957567,47.788872],[34.957722,47.78864],[34.957488,47.788568],[34.957434,47.78867],[34.957355,47.788808],[34.957339,47.788837],[34.957262,47.788902],[34.957245,47.788937],[34.956793,47.789693]]]}},{"type":"Feature","properties":{"cadnum":"2322183501:15:001:0147"},"geometry":{"type":"Polygon","coordinates":[[[34.956267,47.789131],[34.956497,47.789198],[34.95669,47.788869],[34.956962,47.788407],[34.956739,47.788336],[34.956702,47.788395],[34.956578,47.78859],[34.956267,47.789131]]]}},{"type":"Feature","properties":{"cadnum":"2322183501:00:000:0000"},"geometry":{"type":"Polygon","coordinates":[[[34.93885,47.785992],[34.938988,47.786043],[34.939042,47.785976],[34.939101,47.785903],[34.939086,47.785897],[34.939081,47.785903],[34.939039,47.785888],[34.93896,47.785859],[34.93885,47.785992]]]}},{"type":"Feature","properties":{"cadnum":"2322183501:15:001:0522"},"geometry":{"type":"Polygon","coordinates":[[[34.940198,47.786429],[34.940515,47.786524],[34.940592,47.786403],[34.940618,47.78641],[34.940709,47.786273],[34.940897,47.785991],[34.940532,47.785882],[34.94043,47.786028],[34.940355,47.786157],[34.940198,47.786429]]]}},{"type":"Feature","properties":{"cadnum":"2322183501:15:001:0240"},"geometry":{"type":"Polygon","coordinates":[[[34.938519,47.784636],[34.939021,47.784704],[34.939309,47.78412],[34.938901,47.784023],[34.938519,47.784636]]]}},{"type":"Feature","properties":{"cadnum":"2322183501:15:001:0242"},"geometry":{"type":"Polygon","coordinates":[[[34.940061,47.784671],[34.940456,47.784782],[34.940511,47.784668],[34.940999,47.784808],[34.941153,47.784553],[34.940245,47.784327],[34.940061,47.784671]]]}},{"type":"Feature","properties":{"cadnum":"2322183501:15:002:0238"},"geometry":{"type":"Polygon","coordinates":[[[34.937131,47.784399],[34.937472,47.784486],[34.937831,47.78388],[34.937787,47.783866],[34.937844,47.783774],[34.937547,47.783698],[34.937131,47.784399]]]}},{"type":"Feature","properties":{"cadnum":"2322183501:15:001:0239"},"geometry":{"type":"Polygon","coordinates":[[[34.937741,47.784384],[34.937972,47.784449],[34.938152,47.784488],[34.938485,47.783924],[34.93808,47.783826],[34.937741,47.784384]]]}},{"type":"Feature","properties":{"cadnum":"2322183501:15:002:0438"},"geometry":{"type":"Polygon","coordinates":[[[34.93749,47.786209],[34.937933,47.786333],[34.938141,47.785991],[34.937716,47.785852],[34.93752,47.786163],[34.93749,47.786209]]]}},{"type":"Feature","properties":{"cadnum":"2322183501:15:002:0068"},"geometry":{"type":"Polygon","coordinates":[[[34.936989,47.786006],[34.93752,47.786163],[34.937714,47.785848],[34.937183,47.785691],[34.936989,47.786006]]]}},{"type":"Feature","properties":{"cadnum":"2322183501:15:001:0215"},"geometry":{"type":"Polygon","coordinates":[[[34.937757,47.785693],[34.938001,47.785765],[34.93828,47.785336],[34.938036,47.785264],[34.937757,47.785693]]]}},{"type":"Feature","properties":{"cadnum":"2322183501:15:001:0365"},"geometry":{"type":"Polygon","coordinates":[[[34.931347,47.782094],[34.931686,47.782174],[34.931732,47.782157],[34.931868,47.781511],[34.93147,47.781455],[34.931347,47.782094]]]}},{"type":"Feature","properties":{"cadnum":"2322183501:15:001:0520"},"geometry":{"type":"Polygon","coordinates":[[[34.931788,47.782804],[34.932408,47.782948],[34.93244,47.782889],[34.932652,47.782519],[34.932036,47.782376],[34.931944,47.782536],[34.931788,47.782804]]]}},{"type":"Feature","properties":{"cadnum":"2322183501:15:001:0479"},"geometry":{"type":"Polygon","coordinates":[[[34.933061,47.782483],[34.933307,47.782551],[34.933515,47.78188],[34.93327,47.781811],[34.933061,47.782483]]]}},{"type":"Feature","properties":{"cadnum":"2322183501:15:002:0295"},"geometry":{"type":"Polygon","coordinates":[[[34.934087,47.783307],[34.934953,47.783494],[34.934988,47.783418],[34.93412,47.783232],[34.934099,47.783268],[34.934087,47.783307]]]}},{"type":"Feature","properties":{"cadnum":"2322183501:15:002:0232"},"geometry":{"type":"Polygon","coordinates":[[[34.93412,47.783232],[34.934988,47.783418],[34.935139,47.783096],[34.934391,47.782935],[34.934345,47.782936],[34.934301,47.782956],[34.93426,47.782999],[34.93412,47.783232]]]}},{"type":"Feature","properties":{"cadnum":"2322183501:15:001:0364"},"geometry":{"type":"Polygon","coordinates":[[[34.931006,47.782007],[34.931116,47.782036],[34.931116,47.782035],[34.931347,47.782094],[34.931489,47.781361],[34.931143,47.781272],[34.931116,47.781416],[34.931006,47.782007]]]}},{"type":"Feature","properties":{"cadnum":"2322183501:15:002:0433"},"geometry":{"type":"Polygon","coordinates":[[[34.932638,47.792785],[34.932923,47.792836],[34.934028,47.793066],[34.934087,47.792935],[34.933188,47.79274],[34.933112,47.792729],[34.932709,47.792645],[34.932638,47.792785]]]}},{"type":"Feature","properties":{"cadnum":"2322183501:15:002:0047"},"geometry":{"type":"Polygon","coordinates":[[[34.932893,47.792283],[34.933979,47.792524],[34.934099,47.792322],[34.93298,47.792094],[34.932893,47.792283]]]}},{"type":"Feature","properties":{"cadnum":"2322183501:15:002:0045"},"geometry":{"type":"Polygon","coordinates":[[[34.932758,47.792619],[34.934021,47.792896],[34.934134,47.792684],[34.932872,47.792405],[34.932758,47.792619]]]}},{"type":"Feature","properties":{"cadnum":"2322183501:15:002:0350"},"geometry":{"type":"Polygon","coordinates":[[[34.935783,47.79322],[34.936021,47.793245],[34.936257,47.79225],[34.936261,47.792233],[34.936023,47.792207],[34.936019,47.792225],[34.935783,47.79322]]]}},{"type":"Feature","properties":{"cadnum":"2322183501:15:002:0355"},"geometry":{"type":"Polygon","coordinates":[[[34.935551,47.79318],[34.935787,47.793202],[34.936023,47.792207],[34.935787,47.792186],[34.935551,47.79318]]]}},{"type":"Feature","properties":{"cadnum":"2322183501:15:002:0048"},"geometry":{"type":"Polygon","coordinates":[[[34.93298,47.792094],[34.93427,47.792358],[34.934362,47.792215],[34.933105,47.791899],[34.93298,47.792094]]]}},{"type":"Feature","properties":{"cadnum":"2322183501:15:002:0340"},"geometry":{"type":"Polygon","coordinates":[[[34.932994,47.793665],[34.933541,47.793804],[34.933822,47.793329],[34.933222,47.793226],[34.93302,47.793618],[34.932994,47.793665]]]}},{"type":"Feature","properties":{"cadnum":"2322183501:15:001:0423"},"geometry":{"type":"Polygon","coordinates":[[[34.953845,47.785598],[34.954233,47.785622],[34.954296,47.785161],[34.953908,47.785138],[34.953845,47.785598]]]}},{"type":"Feature","properties":{"cadnum":"2322183501:15:001:0475"},"geometry":{"type":"Polygon","coordinates":[[[34.955971,47.784669],[34.956361,47.784693],[34.956424,47.784237],[34.956034,47.784212],[34.955971,47.784669]]]}},{"type":"Feature","properties":{"cadnum":"2322183501:15:001:0425"},"geometry":{"type":"Polygon","coordinates":[[[34.95462,47.785646],[34.955008,47.78567],[34.955072,47.78521],[34.95469,47.785186],[34.954683,47.785185],[34.95462,47.785646]]]}},{"type":"Feature","properties":{"cadnum":"2322183501:15:001:0446"},"geometry":{"type":"Polygon","coordinates":[[[34.953908,47.785138],[34.954296,47.785161],[34.9543,47.785162],[34.954361,47.784705],[34.953971,47.784681],[34.953908,47.785138]]]}},{"type":"Feature","properties":{"cadnum":"2322183501:15:001:0451"},"geometry":{"type":"Polygon","coordinates":[[[34.955862,47.785259],[34.956235,47.785282],[34.956252,47.785283],[34.956315,47.784826],[34.955925,47.784802],[34.955862,47.785259]]]}},{"type":"Feature","properties":{"cadnum":"2322183501:15:001:0473"},"geometry":{"type":"Polygon","coordinates":[[[34.955189,47.78462],[34.955579,47.784645],[34.955642,47.784188],[34.955252,47.784164],[34.955189,47.78462]]]}},{"type":"Feature","properties":{"cadnum":"2322183501:15:001:0428"},"geometry":{"type":"Polygon","coordinates":[[[34.955784,47.785718],[34.956172,47.785742],[34.956235,47.785282],[34.955864,47.785259],[34.955847,47.785257],[34.955784,47.785718]]]}},{"type":"Feature","properties":{"cadnum":"2322183501:15:001:0474"},"geometry":{"type":"Polygon","coordinates":[[[34.955579,47.784645],[34.955971,47.784669],[34.956034,47.784212],[34.955642,47.784188],[34.955579,47.784645]]]}},{"type":"Feature","properties":{"cadnum":"2322183501:15:001:0450"},"geometry":{"type":"Polygon","coordinates":[[[34.955472,47.785234],[34.955847,47.785257],[34.955862,47.785259],[34.955925,47.784802],[34.955534,47.784778],[34.955472,47.785234]]]}},{"type":"Feature","properties":{"cadnum":"2322183501:15:001:0448"},"geometry":{"type":"Polygon","coordinates":[[[34.95469,47.785186],[34.955072,47.78521],[34.95508,47.785211],[34.955143,47.784754],[34.954753,47.784729],[34.95469,47.785186]]]}},{"type":"Feature","properties":{"cadnum":"2322183501:15:001:0449"},"geometry":{"type":"Polygon","coordinates":[[[34.95508,47.785211],[34.95546,47.785234],[34.955472,47.785235],[34.955534,47.784778],[34.955143,47.784754],[34.95508,47.785211]]]}},{"type":"Feature","properties":{"cadnum":"2322183501:15:001:0447"},"geometry":{"type":"Polygon","coordinates":[[[34.9543,47.785162],[34.954683,47.785185],[34.95469,47.785186],[34.954753,47.784729],[34.954361,47.784705],[34.9543,47.785162]]]}},{"type":"Feature","properties":{"cadnum":"2322183501:15:001:0502"},"geometry":{"type":"Polygon","coordinates":[[[34.954799,47.784596],[34.955189,47.78462],[34.955252,47.784164],[34.95486,47.78414],[34.954799,47.784596]]]}},{"type":"Feature","properties":{"cadnum":"2322183501:15:001:0471"},"geometry":{"type":"Polygon","coordinates":[[[34.954407,47.784572],[34.954799,47.784596],[34.95486,47.78414],[34.95447,47.784116],[34.954407,47.784572]]]}},{"type":"Feature","properties":{"cadnum":"2322183501:15:001:0476"},"geometry":{"type":"Polygon","coordinates":[[[34.956361,47.784693],[34.956742,47.784718],[34.956825,47.784262],[34.956424,47.784237],[34.956361,47.784693]]]}},{"type":"Feature","properties":{"cadnum":"2322183501:15:001:0504"},"geometry":{"type":"Polygon","coordinates":[[[34.957119,47.787109],[34.958393,47.787296],[34.958414,47.787133],[34.957152,47.786949],[34.957119,47.787109]]]}},{"type":"Feature","properties":{"cadnum":"2322183501:15:001:0452"},"geometry":{"type":"Polygon","coordinates":[[[34.956252,47.785283],[34.956633,47.785307],[34.956716,47.784851],[34.956315,47.784826],[34.956252,47.785283]]]}},{"type":"Feature","properties":{"cadnum":"2322183501:15:001:0426"},"geometry":{"type":"Polygon","coordinates":[[[34.955008,47.78567],[34.955397,47.785694],[34.95546,47.785234],[34.95508,47.785211],[34.955072,47.78521],[34.955008,47.78567]]]}},{"type":"Feature","properties":{"cadnum":"2322183501:15:001:0427"},"geometry":{"type":"Polygon","coordinates":[[[34.955395,47.785694],[34.955784,47.785718],[34.955847,47.785257],[34.955472,47.785234],[34.95546,47.785234],[34.955395,47.785694]]]}},{"type":"Feature","properties":{"cadnum":"2322183501:15:001:0429"},"geometry":{"type":"Polygon","coordinates":[[[34.956172,47.785742],[34.956549,47.785766],[34.956633,47.785307],[34.956254,47.785284],[34.956235,47.785282],[34.956172,47.785742]]]}},{"type":"Feature","properties":{"cadnum":"2322183501:15:001:0424"},"geometry":{"type":"Polygon","coordinates":[[[34.954233,47.785622],[34.95462,47.785646],[34.954683,47.785185],[34.9543,47.785162],[34.954296,47.785161],[34.954233,47.785622]]]}},{"type":"Feature","properties":{"cadnum":"2322183501:15:002:0320"},"geometry":{"type":"Polygon","coordinates":[[[34.947648,47.790444],[34.94871,47.790521],[34.948738,47.790343],[34.947677,47.790265],[34.947648,47.790444]]]}},{"type":"Feature","properties":{"cadnum":"2322183501:15:001:0527"},"geometry":{"type":"Polygon","coordinates":[[[34.951682,47.787914],[34.951685,47.788468],[34.952047,47.788433],[34.951976,47.787893],[34.951682,47.787914]]]}},{"type":"Feature","properties":{"cadnum":"2322183501:15:001:0526"},"geometry":{"type":"Polygon","coordinates":[[[34.951685,47.788468],[34.951687,47.7892],[34.952142,47.789157],[34.952047,47.788433],[34.951685,47.788468]]]}},{"type":"Feature","properties":{"cadnum":"2322183501:15:001:0195"},"geometry":{"type":"Polygon","coordinates":[[[34.949145,47.788772],[34.949583,47.78888],[34.949672,47.788485],[34.949268,47.788369],[34.949145,47.788772]]]}},{"type":"Feature","properties":{"cadnum":"2322183501:15:001:0480"},"geometry":{"type":"Polygon","coordinates":[[[34.950793,47.789182],[34.951191,47.789241],[34.951196,47.789068],[34.951251,47.788454],[34.950859,47.788446],[34.950804,47.789061],[34.950793,47.789182]]]}},{"type":"Feature","properties":{"cadnum":"2322183501:15:001:0191"},"geometry":{"type":"Polygon","coordinates":[[[34.950859,47.788446],[34.951251,47.788454],[34.951257,47.788397],[34.951298,47.787935],[34.950905,47.787928],[34.950864,47.78839],[34.950859,47.788446]]]}},{"type":"Feature","properties":{"cadnum":"2322183501:15:001:0194"},"geometry":{"type":"Polygon","coordinates":[[[34.949583,47.78888],[34.949964,47.788976],[34.950109,47.788611],[34.949672,47.788485],[34.949583,47.78888]]]}},{"type":"Feature","properties":{"cadnum":"2322183501:15:002:0139"},"geometry":{"type":"Polygon","coordinates":[[[34.949175,47.789782],[34.949613,47.789845],[34.949771,47.789325],[34.949843,47.789208],[34.949399,47.789102],[34.949175,47.789782]]]}},{"type":"Feature","properties":{"cadnum":"2322183501:15:001:0485"},"geometry":{"type":"Polygon","coordinates":[[[34.950326,47.789999],[34.950978,47.790056],[34.951018,47.78989],[34.950399,47.789766],[34.950326,47.789999]]]}},{"type":"Feature","properties":{"cadnum":"2322183501:15:002:0180"},"geometry":{"type":"Polygon","coordinates":[[[34.949837,47.790404],[34.950191,47.790435],[34.950495,47.789369],[34.950153,47.789292],[34.949837,47.790404]]]}},{"type":"Feature","properties":{"cadnum":"2322183501:15:002:0199"},"geometry":{"type":"Polygon","coordinates":[[[34.94774,47.788417],[34.947994,47.788484],[34.948289,47.78785],[34.948034,47.787786],[34.94774,47.788417]]]}},{"type":"Feature","properties":{"cadnum":"2322183501:15:002:0140"},"geometry":{"type":"Polygon","coordinates":[[[34.949584,47.78996],[34.949937,47.790044],[34.950164,47.789283],[34.949843,47.789208],[34.949771,47.789325],[34.949613,47.789845],[34.949584,47.78996]]]}},{"type":"Feature","properties":{"cadnum":"2322183501:15:001:0135"},"geometry":{"type":"Polygon","coordinates":[[[34.950399,47.789766],[34.951018,47.78989],[34.951057,47.789734],[34.951253,47.789769],[34.951276,47.789715],[34.951309,47.789721],[34.951314,47.78971],[34.951315,47.78971],[34.951331,47.789713],[34.951384,47.789575],[34.950519,47.78938],[34.950399,47.789766]]]}},{"type":"Feature","properties":{"cadnum":"2322183501:15:002:0283"},"geometry":{"type":"Polygon","coordinates":[[[34.951117,47.790509],[34.951403,47.790527],[34.951634,47.789857],[34.951335,47.789851],[34.951117,47.790509]]]}},{"type":"Feature","properties":{"cadnum":"2322183501:15:002:0002"},"geometry":{"type":"Polygon","coordinates":[[[34.929188,47.790715],[34.930097,47.790983],[34.930121,47.790991],[34.930155,47.790944],[34.930313,47.790719],[34.930023,47.790637],[34.92937,47.790456],[34.92937,47.790457],[34.929188,47.790715]]]}},{"type":"Feature","properties":{"cadnum":"2322183501:15:001:0503"},"geometry":{"type":"Polygon","coordinates":[[[34.929583,47.789736],[34.93073,47.790052],[34.930769,47.789992],[34.930879,47.789831],[34.929732,47.789515],[34.929583,47.789736]]]}},{"type":"Feature","properties":{"cadnum":"2322183501:15:001:0498"},"geometry":{"type":"Polygon","coordinates":[[[34.929285,47.790176],[34.930444,47.790496],[34.930546,47.790323],[34.930581,47.790273],[34.929434,47.789956],[34.929285,47.790176]]]}},{"type":"Feature","properties":{"cadnum":"2322183501:15:001:0497"},"geometry":{"type":"Polygon","coordinates":[[[34.929434,47.789956],[34.930581,47.790273],[34.93073,47.790052],[34.929583,47.789736],[34.929434,47.789956]]]}},{"type":"Feature","properties":{"cadnum":"2322183501:15:001:0525"},"geometry":{"type":"Polygon","coordinates":[[[34.929684,47.781304],[34.930063,47.781682],[34.930289,47.781155],[34.92989,47.781119],[34.929684,47.781304]]]}},{"type":"Feature","properties":{"cadnum":"2322183501:15:001:0361"},"geometry":{"type":"Polygon","coordinates":[[[34.930063,47.781682],[34.930075,47.781692],[34.930338,47.781769],[34.930592,47.781178],[34.930303,47.781123],[34.930063,47.781682]]]}},{"type":"Feature","properties":{"cadnum":"2322183501:15:002:0225"},"geometry":{"type":"Polygon","coordinates":[[[34.929878,47.78205],[34.930492,47.782397],[34.930814,47.782014],[34.930234,47.781793],[34.929878,47.78205]]]}},{"type":"Feature","properties":{"cadnum":"2322183501:15:001:0362"},"geometry":{"type":"Polygon","coordinates":[[[34.930338,47.781769],[34.930428,47.781795],[34.930633,47.781856],[34.930652,47.781799],[34.930836,47.781227],[34.930675,47.781193],[34.930592,47.781178],[34.930338,47.781769]]]}},{"type":"Feature","properties":{"cadnum":"2322183501:15:002:0319"},"geometry":{"type":"Polygon","coordinates":[[[34.948023,47.79204],[34.949084,47.792118],[34.949114,47.79194],[34.948053,47.791861],[34.948023,47.79204]]]}}]}