{"type":"FeatureCollection","features":[{"type":"Feature","properties":{"cadnum":"2322782701:01:001:0017"},"geometry":{"type":"Polygon","coordinates":[[[36.528213,47.363354],[36.528243,47.363638],[36.528541,47.363622],[36.528511,47.36334],[36.528213,47.363354]]]}},{"type":"Feature","properties":{"cadnum":"2322782701:01:001:0008"},"geometry":{"type":"Polygon","coordinates":[[[36.527153,47.363535],[36.527183,47.363877],[36.527705,47.363855],[36.527674,47.363513],[36.527153,47.363535]]]}},{"type":"Feature","properties":{"cadnum":"2322782701:01:004:0033"},"geometry":{"type":"Polygon","coordinates":[[[36.540498,47.352306],[36.540613,47.35247],[36.540613,47.352469],[36.54107,47.353115],[36.541274,47.353015],[36.541146,47.352885],[36.541111,47.352691],[36.540767,47.35225],[36.540498,47.352306]]]}},{"type":"Feature","properties":{"cadnum":"2322782701:01:004:0039"},"geometry":{"type":"Polygon","coordinates":[[[36.540201,47.35373],[36.540202,47.35373],[36.540278,47.353814],[36.540279,47.353814],[36.540441,47.353989],[36.540442,47.353989],[36.540442,47.35399],[36.540817,47.354394],[36.541124,47.354238],[36.54064,47.353721],[36.540613,47.353693],[36.540505,47.353577],[36.540266,47.353697],[36.540203,47.353729],[36.540201,47.35373]]]}},{"type":"Feature","properties":{"cadnum":"2322782701:01:004:0029"},"geometry":{"type":"Polygon","coordinates":[[[36.539464,47.353231],[36.539607,47.353547],[36.539724,47.353697],[36.539723,47.353697],[36.539772,47.35376],[36.540204,47.353544],[36.540004,47.353084],[36.539464,47.353231]]]}},{"type":"Feature","properties":{"cadnum":"2322782701:01:004:0030"},"geometry":{"type":"Polygon","coordinates":[[[36.539189,47.352624],[36.539464,47.353231],[36.540004,47.353084],[36.539737,47.352468],[36.539189,47.352624]]]}},{"type":"Feature","properties":{"cadnum":"2322782701:01:004:0025"},"geometry":{"type":"Polygon","coordinates":[[[36.536871,47.353831],[36.537102,47.3545],[36.537648,47.354231],[36.537526,47.353771],[36.537342,47.353074],[36.537075,47.353171],[36.536876,47.353814],[36.536877,47.353814],[36.536871,47.353831]]]}},{"type":"Feature","properties":{"cadnum":"2322782701:01:009:0032"},"geometry":{"type":"Polygon","coordinates":[[[36.490265,47.361631],[36.490334,47.362444],[36.490688,47.362393],[36.490636,47.361579],[36.490265,47.361631]]]}},{"type":"Feature","properties":{"cadnum":"2322782701:01:009:0020"},"geometry":{"type":"Polygon","coordinates":[[[36.490058,47.361126],[36.490061,47.36114],[36.49006,47.36114],[36.490146,47.361512],[36.4909,47.361411],[36.490859,47.361256],[36.49086,47.361256],[36.490801,47.361026],[36.490058,47.361126]]]}},{"type":"Feature","properties":{"cadnum":"2322782701:01:009:0033"},"geometry":{"type":"Polygon","coordinates":[[[36.490334,47.362444],[36.490412,47.363388],[36.490751,47.363366],[36.491003,47.363351],[36.49109,47.363345],[36.491029,47.362406],[36.490692,47.362454],[36.490688,47.362393],[36.490334,47.362444]]]}},{"type":"Feature","properties":{"cadnum":"2322782701:01:002:0021"},"geometry":{"type":"Polygon","coordinates":[[[36.517739,47.356707],[36.517915,47.357419],[36.517914,47.357419],[36.517931,47.357484],[36.51801,47.357477],[36.518277,47.357452],[36.518154,47.356941],[36.51808,47.356639],[36.517739,47.356707]]]}},{"type":"Feature","properties":{"cadnum":"2322782701:01:002:0020"},"geometry":{"type":"Polygon","coordinates":[[[36.517931,47.357484],[36.517943,47.357535],[36.517944,47.357535],[36.518142,47.358332],[36.518482,47.3583],[36.518277,47.357452],[36.51801,47.357477],[36.517931,47.357484]]]}},{"type":"Feature","properties":{"cadnum":"2322782701:01:002:0033"},"geometry":{"type":"Polygon","coordinates":[[[36.523749,47.35901],[36.52381,47.359418],[36.523962,47.359393],[36.5241,47.359369],[36.524044,47.358987],[36.523749,47.35901]]]}},{"type":"Feature","properties":{"cadnum":"2322782701:01:002:0034"},"geometry":{"type":"Polygon","coordinates":[[[36.523597,47.358021],[36.523749,47.35901],[36.524044,47.358987],[36.523896,47.357997],[36.523597,47.358021]]]}},{"type":"Feature","properties":{"cadnum":"2322782701:01:002:0031"},"geometry":{"type":"Polygon","coordinates":[[[36.522899,47.357419],[36.522905,47.357452],[36.522921,47.357535],[36.522922,47.357535],[36.523003,47.357942],[36.523542,47.357907],[36.523488,47.357455],[36.523479,47.357381],[36.522899,47.357418],[36.522899,47.357419]]]}},{"type":"Feature","properties":{"cadnum":"2322782701:01:002:0019"},"geometry":{"type":"Polygon","coordinates":[[[36.518733,47.35931],[36.518869,47.359929],[36.519194,47.359856],[36.519068,47.35928],[36.518733,47.35931]]]}},{"type":"Feature","properties":{"cadnum":"2322782701:01:002:0008"},"geometry":{"type":"Polygon","coordinates":[[[36.520413,47.358282],[36.520565,47.358975],[36.520986,47.358939],[36.520835,47.358246],[36.520413,47.358282]]]}},{"type":"Feature","properties":{"cadnum":"2322782701:01:001:0012"},"geometry":{"type":"Polygon","coordinates":[[[36.522435,47.359756],[36.52251,47.360286],[36.522527,47.360387],[36.522869,47.360365],[36.522845,47.360154],[36.522724,47.359801],[36.522435,47.359756]]]}},{"type":"Feature","properties":{"cadnum":"2322782701:01:002:0027"},"geometry":{"type":"Polygon","coordinates":[[[36.520361,47.35935],[36.520408,47.359562],[36.520688,47.359543],[36.520641,47.359326],[36.520361,47.35935]]]}},{"type":"Feature","properties":{"cadnum":"2322782701:01:002:0017"},"geometry":{"type":"Polygon","coordinates":[[[36.519243,47.358382],[36.519475,47.35944],[36.51975,47.359417],[36.519727,47.359313],[36.519519,47.358357],[36.519243,47.358382]]]}},{"type":"Feature","properties":{"cadnum":"2322782701:01:002:0016"},"geometry":{"type":"Polygon","coordinates":[[[36.519727,47.359313],[36.51975,47.359417],[36.519794,47.359619],[36.520101,47.359597],[36.520034,47.359287],[36.519727,47.359313]]]}},{"type":"Feature","properties":{"cadnum":"2322782701:01:002:0013"},"geometry":{"type":"Polygon","coordinates":[[[36.519825,47.358332],[36.520031,47.359278],[36.52034,47.359252],[36.520133,47.358306],[36.519825,47.358332]]]}},{"type":"Feature","properties":{"cadnum":"2322782701:01:002:0009"},"geometry":{"type":"Polygon","coordinates":[[[36.520565,47.358975],[36.520641,47.359326],[36.520688,47.359543],[36.521123,47.359565],[36.521042,47.359197],[36.520986,47.358939],[36.520565,47.358975]]]}},{"type":"Feature","properties":{"cadnum":"2322782701:01:002:0007"},"geometry":{"type":"Polygon","coordinates":[[[36.520835,47.358246],[36.520986,47.358939],[36.521042,47.359197],[36.52135,47.359171],[36.521142,47.358221],[36.520835,47.358246]]]}},{"type":"Feature","properties":{"cadnum":"2322782701:01:002:0028"},"geometry":{"type":"Polygon","coordinates":[[[36.519475,47.35944],[36.519538,47.359732],[36.519794,47.359619],[36.51975,47.359417],[36.519475,47.35944]]]}},{"type":"Feature","properties":{"cadnum":"2322782701:01:002:0015"},"geometry":{"type":"Polygon","coordinates":[[[36.519519,47.358357],[36.519727,47.359313],[36.520034,47.359287],[36.520031,47.359278],[36.519825,47.358332],[36.519519,47.358357]]]}},{"type":"Feature","properties":{"cadnum":"2322782701:01:002:0014"},"geometry":{"type":"Polygon","coordinates":[[[36.520031,47.359278],[36.520034,47.359287],[36.520101,47.359597],[36.520408,47.359562],[36.520361,47.35935],[36.52034,47.359252],[36.520031,47.359278]]]}},{"type":"Feature","properties":{"cadnum":"2322782701:01:001:0014"},"geometry":{"type":"Polygon","coordinates":[[[36.522097,47.359699],[36.522215,47.360309],[36.52251,47.360286],[36.522435,47.359756],[36.522097,47.359699]]]}},{"type":"Feature","properties":{"cadnum":"2322782701:01:002:0006"},"geometry":{"type":"Polygon","coordinates":[[[36.521443,47.357537],[36.521537,47.358019],[36.522152,47.357963],[36.522039,47.357481],[36.521443,47.357537]]]}},{"type":"Feature","properties":{"cadnum":"2322782701:01:002:0011"},"geometry":{"type":"Polygon","coordinates":[[[36.519994,47.357302],[36.520015,47.357419],[36.520022,47.357455],[36.520037,47.357535],[36.520151,47.358146],[36.520491,47.358116],[36.520388,47.357521],[36.520345,47.357269],[36.519994,47.357302]]]}},{"type":"Feature","properties":{"cadnum":"2322782701:01:002:0026"},"geometry":{"type":"Polygon","coordinates":[[[36.521311,47.356857],[36.52142,47.357419],[36.521419,47.357419],[36.521424,47.357442],[36.521442,47.357535],[36.521443,47.357535],[36.521443,47.357537],[36.522036,47.357482],[36.522039,47.357481],[36.522051,47.357535],[36.522152,47.357963],[36.522404,47.357939],[36.522303,47.357535],[36.522118,47.356787],[36.521882,47.356808],[36.521311,47.356857]]]}},{"type":"Feature","properties":{"cadnum":"2322782701:01:001:0016"},"geometry":{"type":"Polygon","coordinates":[[[36.521767,47.359713],[36.52191,47.360389],[36.522225,47.360365],[36.522215,47.360309],[36.522097,47.359699],[36.521906,47.359664],[36.521767,47.359713]]]}},{"type":"Feature","properties":{"cadnum":"2322782701:01:002:0010"},"geometry":{"type":"Polygon","coordinates":[[[36.520133,47.358305],[36.52034,47.359252],[36.520361,47.35935],[36.520641,47.359326],[36.520565,47.358975],[36.520413,47.358282],[36.520133,47.358305]]]}},{"type":"Feature","properties":{"cadnum":"2322782701:01:002:0018"},"geometry":{"type":"Polygon","coordinates":[[[36.518543,47.358441],[36.518641,47.358888],[36.518733,47.35931],[36.519068,47.35928],[36.518879,47.358412],[36.518543,47.358441]]]}},{"type":"Feature","properties":{"cadnum":"2322782701:01:001:0015"},"geometry":{"type":"Polygon","coordinates":[[[36.52191,47.360389],[36.522066,47.361256],[36.522067,47.361256],[36.52208,47.361331],[36.52239,47.361307],[36.522361,47.36114],[36.522225,47.360365],[36.52191,47.360389]]]}},{"type":"Feature","properties":{"cadnum":"2322782701:01:001:0011"},"geometry":{"type":"Polygon","coordinates":[[[36.522527,47.360387],[36.522657,47.36114],[36.522658,47.361147],[36.522677,47.361256],[36.522678,47.361256],[36.522683,47.361284],[36.52284,47.361274],[36.522998,47.361264],[36.522994,47.361242],[36.522869,47.360365],[36.522527,47.360387]]]}},{"type":"Feature","properties":{"cadnum":"2322782701:01:003:0026"},"geometry":{"type":"Polygon","coordinates":[[[36.519524,47.360858],[36.519536,47.360946],[36.5196,47.36114],[36.519599,47.36114],[36.519801,47.361748],[36.520073,47.361719],[36.519959,47.36118],[36.519885,47.36082],[36.519524,47.360858]]]}},{"type":"Feature","properties":{"cadnum":"2322782701:01:001:0013"},"geometry":{"type":"Polygon","coordinates":[[[36.522215,47.360309],[36.522225,47.360365],[36.522381,47.361256],[36.52239,47.361307],[36.522683,47.361284],[36.522658,47.361147],[36.522527,47.360387],[36.52251,47.360286],[36.522215,47.360309]]]}},{"type":"Feature","properties":{"cadnum":"2322782701:01:001:0007"},"geometry":{"type":"Polygon","coordinates":[[[36.521185,47.361025],[36.521205,47.36114],[36.521216,47.361202],[36.521226,47.361256],[36.521227,47.361256],[36.521254,47.361403],[36.521545,47.36138],[36.521523,47.36125],[36.521484,47.361014],[36.521185,47.361025]]]}},{"type":"Feature","properties":{"cadnum":"2322782701:01:003:0027"},"geometry":{"type":"Polygon","coordinates":[[[36.518234,47.360702],[36.518414,47.361256],[36.518556,47.361688],[36.518641,47.361678],[36.51883,47.361653],[36.518678,47.36114],[36.518677,47.36114],[36.518641,47.361014],[36.518641,47.361013],[36.518537,47.360662],[36.518234,47.360702]]]}},{"type":"Feature","properties":{"cadnum":"2322782701:01:010:0008"},"geometry":{"type":"Polygon","coordinates":[[[36.546825,47.35213],[36.547333,47.352747],[36.54783,47.352623],[36.547313,47.352],[36.546825,47.35213]]]}},{"type":"Feature","properties":{"cadnum":"2322782701:01:010:0010"},"geometry":{"type":"Polygon","coordinates":[[[36.547386,47.35137],[36.547795,47.351836],[36.548318,47.351696],[36.547897,47.351233],[36.547386,47.35137]]]}},{"type":"Feature","properties":{"cadnum":"2322782701:01:010:0011"},"geometry":{"type":"Polygon","coordinates":[[[36.547795,47.351836],[36.548409,47.352536],[36.548968,47.352413],[36.548318,47.351696],[36.547795,47.351836]]]}},{"type":"Feature","properties":{"cadnum":"2322782701:01:010:0006"},"geometry":{"type":"Polygon","coordinates":[[[36.54587,47.351774],[36.545935,47.351854],[36.545935,47.351855],[36.546021,47.351962],[36.546106,47.352069],[36.546107,47.352069],[36.54623,47.352223],[36.546781,47.352076],[36.546413,47.351629],[36.546106,47.351712],[36.546106,47.351711],[36.54587,47.351774]]]}},{"type":"Feature","properties":{"cadnum":"2322782701:01:010:0005"},"geometry":{"type":"Polygon","coordinates":[[[36.5452,47.352509],[36.545884,47.353209],[36.545935,47.353192],[36.546029,47.353161],[36.546106,47.353135],[36.5464,47.353036],[36.545935,47.352569],[36.545738,47.352371],[36.5452,47.352509]]]}},{"type":"Feature","properties":{"cadnum":"2322782701:01:010:0009"},"geometry":{"type":"Polygon","coordinates":[[[36.546413,47.351629],[36.546781,47.352076],[36.546825,47.35213],[36.547313,47.352],[36.546899,47.3515],[36.546413,47.351629]]]}},{"type":"Feature","properties":{"cadnum":"2322782701:01:010:0007"},"geometry":{"type":"Polygon","coordinates":[[[36.54623,47.352223],[36.54679,47.352926],[36.547333,47.352747],[36.546825,47.35213],[36.546781,47.352076],[36.54623,47.352223]]]}},{"type":"Feature","properties":{"cadnum":"2322782701:01:010:0012"},"geometry":{"type":"Polygon","coordinates":[[[36.549592,47.350754],[36.54995,47.351211],[36.550469,47.351049],[36.550116,47.350589],[36.549592,47.350754]]]}},{"type":"Feature","properties":{"cadnum":"2322782701:01:009:0022"},"geometry":{"type":"Polygon","coordinates":[[[36.496735,47.360654],[36.496757,47.36114],[36.496756,47.36114],[36.496759,47.361191],[36.496762,47.361256],[36.496779,47.361613],[36.497078,47.3616],[36.497067,47.361174],[36.497055,47.36064],[36.496735,47.360654]]]}},{"type":"Feature","properties":{"cadnum":"2322782701:01:009:0016"},"geometry":{"type":"Polygon","coordinates":[[[36.499561,47.361285],[36.499932,47.361269],[36.499938,47.361222],[36.500043,47.360504],[36.499632,47.360522],[36.499574,47.36114],[36.499561,47.361285]]]}},{"type":"Feature","properties":{"cadnum":"2322782701:01:008:0037"},"geometry":{"type":"Polygon","coordinates":[[[36.498826,47.364398],[36.49894,47.364977],[36.498948,47.365015],[36.499437,47.36501],[36.499424,47.364953],[36.499299,47.364394],[36.498826,47.364398]]]}},{"type":"Feature","properties":{"cadnum":"2322782701:01:008:0038"},"geometry":{"type":"Polygon","coordinates":[[[36.498622,47.363376],[36.498728,47.363904],[36.498826,47.364398],[36.499299,47.364394],[36.499058,47.363325],[36.498622,47.363376]]]}},{"type":"Feature","properties":{"cadnum":"2322782701:01:009:0036"},"geometry":{"type":"Polygon","coordinates":[[[36.500694,47.362293],[36.501057,47.362433],[36.501159,47.36114],[36.501213,47.36047],[36.500882,47.36048],[36.500812,47.36114],[36.50081,47.361158],[36.5008,47.361256],[36.500801,47.361256],[36.5008,47.361267],[36.500694,47.362293]]]}},{"type":"Feature","properties":{"cadnum":"2322782701:01:008:0035"},"geometry":{"type":"Polygon","coordinates":[[[36.501591,47.364287],[36.501705,47.364899],[36.502161,47.364855],[36.502161,47.364854],[36.50218,47.364852],[36.502074,47.36424],[36.501591,47.364287]]]}},{"type":"Feature","properties":{"cadnum":"2322782701:01:009:0040"},"geometry":{"type":"Polygon","coordinates":[[[36.496779,47.361613],[36.49681,47.362274],[36.497093,47.362278],[36.497078,47.3616],[36.496779,47.361613]]]}},{"type":"Feature","properties":{"cadnum":"2322782701:01:009:0019"},"geometry":{"type":"Polygon","coordinates":[[[36.498513,47.362026],[36.498824,47.361996],[36.498861,47.361413],[36.498529,47.361428],[36.498516,47.361937],[36.498513,47.362026]]]}},{"type":"Feature","properties":{"cadnum":"2322782701:01:009:0018"},"geometry":{"type":"Polygon","coordinates":[[[36.498529,47.361428],[36.498861,47.361413],[36.498869,47.361301],[36.498871,47.361256],[36.498916,47.360554],[36.498552,47.36057],[36.498537,47.36114],[36.498536,47.36114],[36.498529,47.361428]]]}},{"type":"Feature","properties":{"cadnum":"2322782701:01:008:0036"},"geometry":{"type":"Polygon","coordinates":[[[36.501484,47.36357],[36.501489,47.36361],[36.501591,47.364287],[36.502074,47.36424],[36.501997,47.363565],[36.501484,47.36357]]]}},{"type":"Feature","properties":{"cadnum":"2322782701:01:009:0014"},"geometry":{"type":"Polygon","coordinates":[[[36.501769,47.362627],[36.501989,47.362645],[36.502075,47.362652],[36.502161,47.362659],[36.502161,47.362658],[36.502165,47.362659],[36.502149,47.362108],[36.50213,47.361405],[36.501796,47.361415],[36.501769,47.362627]]]}},{"type":"Feature","properties":{"cadnum":"2322782701:01:002:0035"},"geometry":{"type":"Polygon","coordinates":[[[36.523973,47.356825],[36.523979,47.356861],[36.524006,47.356982],[36.524134,47.356974],[36.524134,47.356973],[36.524321,47.35696],[36.524284,47.356785],[36.523973,47.356825]]]}},{"type":"Feature","properties":{"cadnum":"2322782701:01:002:0036"},"geometry":{"type":"Polygon","coordinates":[[[36.524006,47.356982],[36.524034,47.357112],[36.524081,47.357419],[36.52408,47.357419],[36.52415,47.357869],[36.524507,47.357845],[36.524417,47.35742],[36.524321,47.35696],[36.524006,47.356982]]]}},{"type":"Feature","properties":{"cadnum":"2322782701:01:002:0043"},"geometry":{"type":"Polygon","coordinates":[[[36.526309,47.35724],[36.526344,47.357419],[36.52635,47.35745],[36.526367,47.357535],[36.5264,47.357703],[36.527001,47.357657],[36.526989,47.35747],[36.526974,47.357189],[36.526309,47.35724]]]}},{"type":"Feature","properties":{"cadnum":"2322782701:01:002:0046"},"geometry":{"type":"Polygon","coordinates":[[[36.527092,47.356895],[36.527138,47.357419],[36.527145,47.357491],[36.527148,47.357535],[36.527149,47.357535],[36.527159,47.357645],[36.527584,47.357613],[36.527555,47.357447],[36.527456,47.356868],[36.527092,47.356895]]]}},{"type":"Feature","properties":{"cadnum":"2322782701:01:002:0053"},"geometry":{"type":"Polygon","coordinates":[[[36.527751,47.356527],[36.527798,47.356773],[36.527942,47.357535],[36.527943,47.357535],[36.527953,47.357585],[36.528216,47.357565],[36.528191,47.357419],[36.52819,47.357419],[36.528028,47.356487],[36.527751,47.356527]]]}},{"type":"Feature","properties":{"cadnum":"2322782701:01:002:0049"},"geometry":{"type":"Polygon","coordinates":[[[36.527444,47.356799],[36.527456,47.356868],[36.52755,47.357419],[36.527549,47.357419],[36.527555,47.357447],[36.52757,47.357535],[36.527584,47.357613],[36.527953,47.357585],[36.527921,47.357419],[36.52792,47.357419],[36.527798,47.356773],[36.527444,47.356799]]]}},{"type":"Feature","properties":{"cadnum":"2322782701:01:002:0050"},"geometry":{"type":"Polygon","coordinates":[[[36.527406,47.356579],[36.527444,47.356799],[36.527798,47.356773],[36.527751,47.356527],[36.527406,47.356579]]]}},{"type":"Feature","properties":{"cadnum":"2322782701:01:002:0047"},"geometry":{"type":"Polygon","coordinates":[[[36.527067,47.356621],[36.527092,47.356895],[36.527456,47.356868],[36.527444,47.356799],[36.527406,47.356579],[36.527067,47.356621]]]}},{"type":"Feature","properties":{"cadnum":"2322782701:01:008:0013"},"geometry":{"type":"Polygon","coordinates":[[[36.506807,47.360812],[36.506914,47.361137],[36.506915,47.36114],[36.506914,47.36114],[36.507369,47.362515],[36.507482,47.362488],[36.507483,47.362488],[36.507621,47.362454],[36.507654,47.362446],[36.507717,47.362431],[36.507587,47.362034],[36.507483,47.361718],[36.507482,47.361718],[36.507329,47.361256],[36.50733,47.361256],[36.50717,47.36077],[36.506807,47.360812]]]}},{"type":"Feature","properties":{"cadnum":"2322782701:01:008:0017"},"geometry":{"type":"Polygon","coordinates":[[[36.510019,47.360361],[36.510198,47.361256],[36.510199,47.361256],[36.510338,47.361941],[36.510748,47.36188],[36.510605,47.361256],[36.510382,47.360284],[36.510019,47.360361]]]}},{"type":"Feature","properties":{"cadnum":"2322782701:01:003:0010"},"geometry":{"type":"Polygon","coordinates":[[[36.512718,47.359996],[36.512976,47.360996],[36.512982,47.36102],[36.513013,47.36114],[36.513012,47.36114],[36.513125,47.361573],[36.513147,47.361567],[36.513437,47.361483],[36.513349,47.36114],[36.513348,47.36114],[36.513147,47.360359],[36.51307,47.360056],[36.513041,47.359949],[36.512718,47.359996]]]}},{"type":"Feature","properties":{"cadnum":"2322782701:01:008:0022"},"geometry":{"type":"Polygon","coordinates":[[[36.512178,47.362169],[36.51237,47.362586],[36.512509,47.362889],[36.513147,47.362794],[36.513147,47.362793],[36.513162,47.362791],[36.513011,47.362371],[36.512864,47.362288],[36.512178,47.362169]]]}},{"type":"Feature","properties":{"cadnum":"2322782701:01:008:0016"},"geometry":{"type":"Polygon","coordinates":[[[36.510378,47.360268],[36.510382,47.360284],[36.510578,47.36114],[36.510748,47.36188],[36.511122,47.361638],[36.510994,47.36114],[36.510993,47.36114],[36.510751,47.360199],[36.510378,47.360268]]]}},{"type":"Feature","properties":{"cadnum":"2322782701:01:008:0006"},"geometry":{"type":"Polygon","coordinates":[[[36.509277,47.36081],[36.509406,47.361256],[36.509628,47.362017],[36.509883,47.361986],[36.509636,47.36114],[36.509529,47.360768],[36.509277,47.36081]]]}},{"type":"Feature","properties":{"cadnum":"2322782701:01:008:0023"},"geometry":{"type":"Polygon","coordinates":[[[36.511981,47.362643],[36.512351,47.363383],[36.512533,47.363357],[36.512713,47.36333],[36.512509,47.362889],[36.51237,47.362586],[36.511981,47.362643]]]}},{"type":"Feature","properties":{"cadnum":"2322782701:01:003:0022"},"geometry":{"type":"Polygon","coordinates":[[[36.511128,47.360417],[36.511314,47.36114],[36.511313,47.36114],[36.511425,47.361572],[36.511712,47.361596],[36.511594,47.36114],[36.511396,47.360367],[36.511128,47.360417]]]}},{"type":"Feature","properties":{"cadnum":"2322782701:01:003:0015"},"geometry":{"type":"Polygon","coordinates":[[[36.511904,47.359912],[36.512249,47.361256],[36.512333,47.36158],[36.512765,47.361588],[36.51265,47.36114],[36.512649,47.36114],[36.512319,47.359852],[36.511904,47.359912]]]}},{"type":"Feature","properties":{"cadnum":"2322782701:01:008:0025"},"geometry":{"type":"Polygon","coordinates":[[[36.509579,47.363311],[36.509749,47.363749],[36.510413,47.363661],[36.510206,47.363227],[36.509579,47.363311]]]}},{"type":"Feature","properties":{"cadnum":"2322782701:01:003:0016"},"geometry":{"type":"Polygon","coordinates":[[[36.515379,47.359751],[36.515596,47.360747],[36.515826,47.360398],[36.515675,47.359716],[36.515379,47.359751]]]}},{"type":"Feature","properties":{"cadnum":"2322782701:01:002:0022"},"geometry":{"type":"Polygon","coordinates":[[[36.516119,47.358663],[36.516275,47.359374],[36.516684,47.359334],[36.51653,47.358623],[36.516119,47.358663]]]}},{"type":"Feature","properties":{"cadnum":"2322782701:01:002:0029"},"geometry":{"type":"Polygon","coordinates":[[[36.516024,47.359654],[36.516129,47.360137],[36.51642,47.360039],[36.516327,47.359618],[36.516024,47.359654]]]}},{"type":"Feature","properties":{"cadnum":"2322782701:01:002:0024"},"geometry":{"type":"Polygon","coordinates":[[[36.515463,47.358741],[36.515643,47.359565],[36.515995,47.359523],[36.515815,47.358699],[36.515463,47.358741]]]}},{"type":"Feature","properties":{"cadnum":"2322782701:01:003:0008"},"geometry":{"type":"Polygon","coordinates":[[[36.512813,47.359062],[36.512976,47.359693],[36.512976,47.359694],[36.513041,47.359949],[36.51307,47.360056],[36.513147,47.360045],[36.513358,47.360014],[36.51335,47.359983],[36.513102,47.35902],[36.512813,47.359062]]]}},{"type":"Feature","properties":{"cadnum":"2322782701:01:003:0018"},"geometry":{"type":"Polygon","coordinates":[[[36.513102,47.35902],[36.51335,47.359983],[36.51365,47.359948],[36.513402,47.358985],[36.513102,47.35902]]]}},{"type":"Feature","properties":{"cadnum":"2322782701:01:003:0004"},"geometry":{"type":"Polygon","coordinates":[[[36.515166,47.358775],[36.515276,47.359277],[36.515379,47.359751],[36.515675,47.359716],[36.515643,47.359565],[36.515463,47.358741],[36.515166,47.358775]]]}},{"type":"Feature","properties":{"cadnum":"2322782701:01:003:0017"},"geometry":{"type":"Polygon","coordinates":[[[36.513838,47.359464],[36.514273,47.361152],[36.514777,47.360948],[36.514501,47.359824],[36.514396,47.359397],[36.513838,47.359464]]]}},{"type":"Feature","properties":{"cadnum":"2322782701:01:002:0025"},"geometry":{"type":"Polygon","coordinates":[[[36.515643,47.359565],[36.515675,47.359716],[36.515826,47.360398],[36.51589,47.360218],[36.516129,47.360137],[36.516024,47.359654],[36.515995,47.359523],[36.515643,47.359565]]]}},{"type":"Feature","properties":{"cadnum":"2322782701:01:003:0005"},"geometry":{"type":"Polygon","coordinates":[[[36.514588,47.358843],[36.514647,47.35911],[36.514698,47.359346],[36.515276,47.359277],[36.515166,47.358775],[36.514899,47.358807],[36.514588,47.358843]]]}},{"type":"Feature","properties":{"cadnum":"2322782701:01:003:0020"},"geometry":{"type":"Polygon","coordinates":[[[36.51307,47.360056],[36.513378,47.361256],[36.513379,47.361256],[36.513437,47.361483],[36.513708,47.361376],[36.513677,47.361256],[36.513358,47.360014],[36.51307,47.360056]]]}},{"type":"Feature","properties":{"cadnum":"2322782701:01:002:0023"},"geometry":{"type":"Polygon","coordinates":[[[36.515815,47.358699],[36.515995,47.359523],[36.516024,47.359654],[36.516327,47.359618],[36.516275,47.359374],[36.516119,47.358663],[36.515815,47.358699]]]}},{"type":"Feature","properties":{"cadnum":"2322782701:01:003:0029"},"geometry":{"type":"Polygon","coordinates":[[[36.517255,47.360738],[36.517465,47.36114],[36.517464,47.36114],[36.517503,47.361212],[36.517888,47.361103],[36.517741,47.360654],[36.517255,47.360738]]]}},{"type":"Feature","properties":{"cadnum":"2322782701:01:003:0028"},"geometry":{"type":"Polygon","coordinates":[[[36.517503,47.361212],[36.517525,47.361256],[36.517526,47.361256],[36.517538,47.361281],[36.517758,47.361702],[36.517865,47.362027],[36.518163,47.361944],[36.517937,47.361256],[36.517938,47.361256],[36.517888,47.361103],[36.51776,47.36114],[36.517759,47.36114],[36.517503,47.361212]]]}},{"type":"Feature","properties":{"cadnum":"2322782701:01:003:0031"},"geometry":{"type":"Polygon","coordinates":[[[36.516782,47.360605],[36.517053,47.36114],[36.517096,47.361226],[36.517112,47.361256],[36.517183,47.361396],[36.517538,47.361281],[36.517503,47.361212],[36.517255,47.360738],[36.517153,47.360578],[36.516974,47.360528],[36.516782,47.360605]]]}},{"type":"Feature","properties":{"cadnum":"2322782701:01:010:0002"},"geometry":{"type":"Polygon","coordinates":[[[36.542249,47.351996],[36.542542,47.352468],[36.543082,47.352319],[36.542787,47.351847],[36.542249,47.351996]]]}},{"type":"Feature","properties":{"cadnum":"2322782701:01:010:0004"},"geometry":{"type":"Polygon","coordinates":[[[36.544764,47.352064],[36.5452,47.352509],[36.545738,47.352371],[36.545294,47.351927],[36.544764,47.352064]]]}},{"type":"Feature","properties":{"cadnum":"2322782701:01:010:0003"},"geometry":{"type":"Polygon","coordinates":[[[36.541923,47.351467],[36.542249,47.351996],[36.542787,47.351847],[36.542404,47.351235],[36.541923,47.351467]]]}},{"type":"Feature","properties":{"cadnum":"2322782701:01:004:0043"},"geometry":{"type":"Polygon","coordinates":[[[36.543051,47.353186],[36.543542,47.353697],[36.543541,47.353697],[36.543608,47.353766],[36.543652,47.353814],[36.543653,47.353814],[36.543733,47.353897],[36.543798,47.353875],[36.544257,47.353845],[36.544153,47.353742],[36.543479,47.35307],[36.543051,47.353186]]]}},{"type":"Feature","properties":{"cadnum":"2322782701:01:004:0044"},"geometry":{"type":"Polygon","coordinates":[[[36.542511,47.352621],[36.543051,47.353186],[36.543479,47.35307],[36.542943,47.352533],[36.54292,47.352509],[36.542511,47.352621]]]}},{"type":"Feature","properties":{"cadnum":"2322782701:01:004:0042"},"geometry":{"type":"Polygon","coordinates":[[[36.541319,47.353169],[36.541773,47.353648],[36.541831,47.353708],[36.542192,47.353538],[36.54172,47.35298],[36.541319,47.353169]]]}},{"type":"Feature","properties":{"cadnum":"2322782701:01:004:0041"},"geometry":{"type":"Polygon","coordinates":[[[36.541831,47.353708],[36.541832,47.353709],[36.54193,47.353814],[36.541931,47.353814],[36.542432,47.354343],[36.542776,47.354226],[36.542425,47.353814],[36.542192,47.353538],[36.541854,47.353697],[36.541831,47.353708]]]}},{"type":"Feature","properties":{"cadnum":"2322782701:01:004:0040"},"geometry":{"type":"Polygon","coordinates":[[[36.541353,47.353857],[36.541989,47.354524],[36.542432,47.354343],[36.541832,47.353709],[36.541831,47.353708],[36.541773,47.353648],[36.541675,47.353697],[36.541674,47.353697],[36.541511,47.353779],[36.541441,47.353814],[36.541353,47.353857]]]}},{"type":"Feature","properties":{"cadnum":"2322782701:01:009:0031"},"geometry":{"type":"Polygon","coordinates":[[[36.491535,47.36145],[36.491572,47.362014],[36.492096,47.361939],[36.492058,47.361375],[36.491535,47.36145]]]}},{"type":"Feature","properties":{"cadnum":"2322782701:01:009:0044"},"geometry":{"type":"Polygon","coordinates":[[[36.491572,47.362014],[36.491655,47.363289],[36.492178,47.363194],[36.492096,47.361939],[36.491572,47.362014]]]}},{"type":"Feature","properties":{"cadnum":"2322782701:01:009:0029"},"geometry":{"type":"Polygon","coordinates":[[[36.494281,47.360999],[36.494312,47.36114],[36.494338,47.361253],[36.494338,47.361256],[36.494434,47.361668],[36.49486,47.36159],[36.494783,47.361256],[36.494784,47.361256],[36.494707,47.360922],[36.494281,47.360999]]]}},{"type":"Feature","properties":{"cadnum":"2322782701:01:009:0023"},"geometry":{"type":"Polygon","coordinates":[[[36.496111,47.360685],[36.496148,47.36114],[36.496152,47.361189],[36.496157,47.361256],[36.496193,47.361696],[36.496468,47.36168],[36.496447,47.361226],[36.496422,47.360667],[36.496111,47.360685]]]}},{"type":"Feature","properties":{"cadnum":"2322782701:01:009:0024"},"geometry":{"type":"Polygon","coordinates":[[[36.496193,47.361696],[36.496237,47.362255],[36.496496,47.362261],[36.496468,47.36168],[36.496193,47.361696]]]}},{"type":"Feature","properties":{"cadnum":"2322782701:01:009:0027"},"geometry":{"type":"Polygon","coordinates":[[[36.494707,47.360922],[36.494757,47.36114],[36.49486,47.36159],[36.494873,47.361651],[36.495246,47.361584],[36.495241,47.361556],[36.495183,47.361221],[36.495119,47.360847],[36.494707,47.360922]]]}},{"type":"Feature","properties":{"cadnum":"2322782701:01:009:0030"},"geometry":{"type":"Polygon","coordinates":[[[36.493507,47.361139],[36.493507,47.36114],[36.493528,47.361224],[36.493536,47.361256],[36.493952,47.362889],[36.494313,47.362705],[36.493981,47.361256],[36.493982,47.361256],[36.493937,47.361062],[36.493507,47.361139]]]}},{"type":"Feature","properties":{"cadnum":"2322782701:01:009:0025"},"geometry":{"type":"Polygon","coordinates":[[[36.495548,47.360769],[36.495589,47.36114],[36.495588,47.36114],[36.495627,47.361486],[36.495675,47.361921],[36.495911,47.361878],[36.495858,47.361228],[36.495819,47.360721],[36.495548,47.360769]]]}},{"type":"Feature","properties":{"cadnum":"2322782701:01:009:0028"},"geometry":{"type":"Polygon","coordinates":[[[36.494873,47.361651],[36.495049,47.362416],[36.49537,47.3623],[36.495246,47.361584],[36.494873,47.361651]]]}},{"type":"Feature","properties":{"cadnum":"2322782701:01:009:0042"},"geometry":{"type":"Polygon","coordinates":[[[36.495241,47.361556],[36.495246,47.361584],[36.49537,47.3623],[36.495712,47.362246],[36.495675,47.361921],[36.495627,47.361486],[36.495241,47.361556]]]}},{"type":"Feature","properties":{"cadnum":"2322782701:01:009:0041"},"geometry":{"type":"Polygon","coordinates":[[[36.495675,47.361921],[36.495712,47.362246],[36.495941,47.36225],[36.495911,47.361878],[36.495675,47.361921]]]}},{"type":"Feature","properties":{"cadnum":"2322782701:01:009:0026"},"geometry":{"type":"Polygon","coordinates":[[[36.495119,47.360847],[36.495169,47.36114],[36.495183,47.361221],[36.495189,47.361256],[36.495241,47.361556],[36.495627,47.361486],[36.495601,47.361256],[36.495602,47.361256],[36.495548,47.360769],[36.495119,47.360847]]]}},{"type":"Feature","properties":{"cadnum":"2322782701:01:009:0043"},"geometry":{"type":"Polygon","coordinates":[[[36.494434,47.361668],[36.494639,47.362564],[36.495049,47.362416],[36.494873,47.361651],[36.49486,47.36159],[36.494434,47.361668]]]}},{"type":"Feature","properties":{"cadnum":"2322782701:01:009:0017"},"geometry":{"type":"Polygon","coordinates":[[[36.491796,47.360772],[36.49192,47.361256],[36.491921,47.361256],[36.491926,47.361274],[36.492498,47.361198],[36.492368,47.360696],[36.491796,47.360772]]]}},{"type":"Feature","properties":{"cadnum":"2322782701:01:002:0051"},"geometry":{"type":"Polygon","coordinates":[[[36.525858,47.357841],[36.526031,47.358517],[36.526471,47.358486],[36.526282,47.357811],[36.525858,47.357841]]]}},{"type":"Feature","properties":{"cadnum":"2322782701:01:002:0041"},"geometry":{"type":"Polygon","coordinates":[[[36.525138,47.35881],[36.525241,47.35944],[36.525594,47.359409],[36.525504,47.358939],[36.525475,47.358786],[36.525138,47.35881]]]}},{"type":"Feature","properties":{"cadnum":"2322782701:01:002:0037"},"geometry":{"type":"Polygon","coordinates":[[[36.52434,47.359054],[36.52439,47.359415],[36.524716,47.359471],[36.524634,47.359028],[36.52434,47.359054]]]}},{"type":"Feature","properties":{"cadnum":"2322782701:01:002:0045"},"geometry":{"type":"Polygon","coordinates":[[[36.525303,47.357881],[36.525475,47.358786],[36.525504,47.358939],[36.525811,47.358917],[36.525551,47.357863],[36.525303,47.357881]]]}},{"type":"Feature","properties":{"cadnum":"2322782701:01:002:0040"},"geometry":{"type":"Polygon","coordinates":[[[36.524991,47.357904],[36.525138,47.35881],[36.525475,47.358786],[36.525303,47.357881],[36.524991,47.357904]]]}},{"type":"Feature","properties":{"cadnum":"2322782701:01:002:0056"},"geometry":{"type":"Polygon","coordinates":[[[36.526949,47.358797],[36.526973,47.358896],[36.526986,47.358948],[36.527262,47.358968],[36.527221,47.358777],[36.526949,47.358797]]]}},{"type":"Feature","properties":{"cadnum":"2322782701:01:002:0052"},"geometry":{"type":"Polygon","coordinates":[[[36.526031,47.358517],[36.526152,47.35899],[36.526595,47.358924],[36.526483,47.358531],[36.526471,47.358486],[36.526031,47.358517]]]}},{"type":"Feature","properties":{"cadnum":"2322782701:01:002:0054"},"geometry":{"type":"Polygon","coordinates":[[[36.526483,47.358531],[36.526595,47.358924],[36.526973,47.358896],[36.526949,47.358797],[36.526876,47.358503],[36.526483,47.358531]]]}},{"type":"Feature","properties":{"cadnum":"2322782701:01:002:0057"},"geometry":{"type":"Polygon","coordinates":[[[36.526699,47.35778],[36.526876,47.358503],[36.526949,47.358797],[36.527221,47.358777],[36.527002,47.357758],[36.526699,47.35778]]]}},{"type":"Feature","properties":{"cadnum":"2322782701:01:002:0039"},"geometry":{"type":"Polygon","coordinates":[[[36.524924,47.35902],[36.525017,47.359509],[36.525241,47.35944],[36.525169,47.358999],[36.524924,47.35902]]]}},{"type":"Feature","properties":{"cadnum":"2322782701:01:002:0055"},"geometry":{"type":"Polygon","coordinates":[[[36.526282,47.357811],[36.526471,47.358486],[36.526483,47.358531],[36.526876,47.358503],[36.526699,47.35778],[36.526282,47.357811]]]}},{"type":"Feature","properties":{"cadnum":"2322782701:01:002:0044"},"geometry":{"type":"Polygon","coordinates":[[[36.525504,47.358939],[36.525594,47.359409],[36.525846,47.35906],[36.525811,47.358917],[36.525504,47.358939]]]}},{"type":"Feature","properties":{"cadnum":"2322782701:01:002:0038"},"geometry":{"type":"Polygon","coordinates":[[[36.524189,47.357972],[36.52434,47.359054],[36.524634,47.359028],[36.524633,47.359019],[36.524438,47.35795],[36.524189,47.357972]]]}},{"type":"Feature","properties":{"cadnum":"2322782701:01:002:0062"},"geometry":{"type":"Polygon","coordinates":[[[36.527967,47.357692],[36.528054,47.358192],[36.528063,47.358255],[36.528565,47.358222],[36.528511,47.357656],[36.527967,47.357692]]]}},{"type":"Feature","properties":{"cadnum":"2322782701:01:001:0021"},"geometry":{"type":"Polygon","coordinates":[[[36.527465,47.359602],[36.527602,47.360348],[36.52805,47.360319],[36.527902,47.359575],[36.527465,47.359602]]]}},{"type":"Feature","properties":{"cadnum":"2322782701:01:002:0063"},"geometry":{"type":"Polygon","coordinates":[[[36.528063,47.358255],[36.528132,47.358731],[36.528176,47.359249],[36.528663,47.359241],[36.528565,47.358222],[36.528063,47.358255]]]}},{"type":"Feature","properties":{"cadnum":"2322782701:01:002:0067"},"geometry":{"type":"Polygon","coordinates":[[[36.528841,47.357634],[36.528956,47.358603],[36.529261,47.358582],[36.529243,47.358435],[36.529144,47.357613],[36.528841,47.357634]]]}},{"type":"Feature","properties":{"cadnum":"2322782701:01:002:0059"},"geometry":{"type":"Polygon","coordinates":[[[36.527549,47.35772],[36.527689,47.358426],[36.527792,47.358951],[36.527933,47.358883],[36.527913,47.358752],[36.527755,47.357707],[36.527549,47.35772]]]}},{"type":"Feature","properties":{"cadnum":"2322782701:01:002:0066"},"geometry":{"type":"Polygon","coordinates":[[[36.528956,47.358603],[36.529017,47.359115],[36.52932,47.359071],[36.529261,47.358582],[36.528956,47.358603]]]}},{"type":"Feature","properties":{"cadnum":"2322782701:01:002:0058"},"geometry":{"type":"Polygon","coordinates":[[[36.527283,47.358453],[36.527397,47.358959],[36.527792,47.358951],[36.527689,47.358426],[36.527283,47.358453]]]}},{"type":"Feature","properties":{"cadnum":"2322782701:01:009:0021"},"geometry":{"type":"Polygon","coordinates":[[[36.489878,47.360339],[36.490058,47.361126],[36.490801,47.361026],[36.490597,47.360244],[36.489878,47.360339]]]}},{"type":"Feature","properties":{"cadnum":"2322782701:01:009:0011"},"geometry":{"type":"Polygon","coordinates":[[[36.502624,47.360429],[36.502703,47.36114],[36.502701,47.36114],[36.502714,47.361238],[36.503093,47.361227],[36.502978,47.360419],[36.502624,47.360429]]]}},{"type":"Feature","properties":{"cadnum":"2322782701:01:009:0034"},"geometry":{"type":"Polygon","coordinates":[[[36.503102,47.361292],[36.503297,47.362664],[36.503672,47.36265],[36.503447,47.361262],[36.503102,47.361292]]]}},{"type":"Feature","properties":{"cadnum":"2322782701:01:009:0007"},"geometry":{"type":"Polygon","coordinates":[[[36.503546,47.360368],[36.503697,47.36114],[36.503708,47.361197],[36.503719,47.361256],[36.50372,47.361256],[36.503993,47.362642],[36.504449,47.362635],[36.504747,47.36263],[36.50468,47.36228],[36.50446,47.36114],[36.504459,47.36114],[36.504452,47.361098],[36.50411,47.361138],[36.503925,47.360325],[36.503546,47.360368]]]}},{"type":"Feature","properties":{"cadnum":"2322782701:01:008:0021"},"geometry":{"type":"Polygon","coordinates":[[[36.506439,47.361267],[36.506878,47.362598],[36.507115,47.362559],[36.506681,47.361239],[36.506439,47.361267]]]}},{"type":"Feature","properties":{"cadnum":"2322782701:01:009:0012"},"geometry":{"type":"Polygon","coordinates":[[[36.502714,47.361238],[36.502874,47.36268],[36.503297,47.362664],[36.503102,47.361292],[36.503093,47.361227],[36.502714,47.361238]]]}},{"type":"Feature","properties":{"cadnum":"2322782701:01:008:0028"},"geometry":{"type":"Polygon","coordinates":[[[36.505751,47.36346],[36.505939,47.364318],[36.506259,47.364276],[36.506213,47.363943],[36.506084,47.363417],[36.505751,47.36346]]]}},{"type":"Feature","properties":{"cadnum":"2322782701:01:008:0015"},"geometry":{"type":"Polygon","coordinates":[[[36.506048,47.36008],[36.506397,47.36114],[36.506396,47.36114],[36.506421,47.361213],[36.506435,47.361256],[36.506439,47.361267],[36.506676,47.361239],[36.506681,47.361239],[36.506667,47.361198],[36.506656,47.361167],[36.506289,47.360051],[36.506048,47.36008]]]}},{"type":"Feature","properties":{"cadnum":"2322782701:01:008:0031"},"geometry":{"type":"Polygon","coordinates":[[[36.504495,47.363516],[36.504729,47.364506],[36.504993,47.364461],[36.504816,47.363511],[36.504806,47.363463],[36.504495,47.363516]]]}},{"type":"Feature","properties":{"cadnum":"2322782701:01:008:0027"},"geometry":{"type":"Polygon","coordinates":[[[36.506847,47.363086],[36.5069,47.363397],[36.507268,47.363334],[36.507167,47.363022],[36.506868,47.363041],[36.506847,47.363086]]]}},{"type":"Feature","properties":{"cadnum":"2322782701:01:009:0003"},"geometry":{"type":"Polygon","coordinates":[[[36.505968,47.361933],[36.506164,47.362322],[36.506217,47.362425],[36.506293,47.36258],[36.506702,47.362488],[36.506623,47.362328],[36.506572,47.362224],[36.50638,47.361835],[36.505968,47.361933]]]}},{"type":"Feature","properties":{"cadnum":"2322782701:01:008:0032"},"geometry":{"type":"Polygon","coordinates":[[[36.503903,47.363519],[36.504095,47.364605],[36.504252,47.364584],[36.504374,47.364567],[36.504158,47.363484],[36.503903,47.363519]]]}},{"type":"Feature","properties":{"cadnum":"2322782701:01:008:0030"},"geometry":{"type":"Polygon","coordinates":[[[36.505318,47.363776],[36.505471,47.364379],[36.505939,47.364318],[36.505806,47.363712],[36.505318,47.363776]]]}},{"type":"Feature","properties":{"cadnum":"2322782701:01:008:0034"},"geometry":{"type":"Polygon","coordinates":[[[36.502495,47.364268],[36.502585,47.364813],[36.503121,47.36474],[36.503026,47.364195],[36.502495,47.364268]]]}},{"type":"Feature","properties":{"cadnum":"2322782701:01:008:0026"},"geometry":{"type":"Polygon","coordinates":[[[36.5069,47.363397],[36.507059,47.36416],[36.507444,47.364094],[36.507285,47.363399],[36.507268,47.363334],[36.5069,47.363397]]]}},{"type":"Feature","properties":{"cadnum":"2322782701:01:009:0008"},"geometry":{"type":"Polygon","coordinates":[[[36.502978,47.360419],[36.503081,47.36114],[36.50308,47.36114],[36.503093,47.361227],[36.503097,47.361256],[36.503102,47.361292],[36.503447,47.361262],[36.503429,47.361154],[36.503306,47.360389],[36.502978,47.360419]]]}},{"type":"Feature","properties":{"cadnum":"2322782701:01:008:0033"},"geometry":{"type":"Polygon","coordinates":[[[36.503793,47.363004],[36.503903,47.363519],[36.504158,47.363484],[36.504063,47.363001],[36.503918,47.363002],[36.503793,47.363004]]]}},{"type":"Feature","properties":{"cadnum":"2322782701:01:008:0029"},"geometry":{"type":"Polygon","coordinates":[[[36.505667,47.363204],[36.50572,47.36332],[36.505751,47.36346],[36.506084,47.363417],[36.50607,47.363359],[36.506011,47.363178],[36.505667,47.363204]]]}},{"type":"Feature","properties":{"cadnum":"2322782701:01:004:0017"},"geometry":{"type":"Polygon","coordinates":[[[36.534027,47.355267],[36.534125,47.356042],[36.534129,47.356072],[36.53425,47.356211],[36.534561,47.356052],[36.534431,47.355934],[36.534349,47.355249],[36.534027,47.355267]]]}},{"type":"Feature","properties":{"cadnum":"2322782701:01:004:0016"},"geometry":{"type":"Polygon","coordinates":[[[36.533897,47.354203],[36.534016,47.355179],[36.534027,47.355267],[36.534349,47.355249],[36.534431,47.355934],[36.534561,47.356052],[36.534873,47.355901],[36.53512,47.355784],[36.535191,47.35575],[36.535041,47.355621],[36.534848,47.354124],[36.534635,47.354142],[36.533897,47.354203]]]}},{"type":"Feature","properties":{"cadnum":"2322782701:01:004:0015"},"geometry":{"type":"Polygon","coordinates":[[[36.533481,47.354407],[36.533639,47.35542],[36.533912,47.355398],[36.534,47.356224],[36.534213,47.356196],[36.534116,47.355422],[36.534103,47.355334],[36.533985,47.354356],[36.533481,47.354407]]]}},{"type":"Feature","properties":{"cadnum":"2322782701:01:004:0018"},"geometry":{"type":"Polygon","coordinates":[[[36.533142,47.357095],[36.533316,47.357345],[36.533336,47.357419],[36.533346,47.357452],[36.533369,47.357535],[36.533546,47.358165],[36.53382,47.358118],[36.533736,47.357859],[36.533593,47.357421],[36.533592,47.357421],[36.533385,47.356986],[36.533142,47.357095]]]}},{"type":"Feature","properties":{"cadnum":"2322782701:01:004:0023"},"geometry":{"type":"Polygon","coordinates":[[[36.534032,47.356668],[36.534262,47.356981],[36.534436,47.357457],[36.534786,47.357341],[36.534726,47.35723],[36.534338,47.356507],[36.534032,47.356668]]]}},{"type":"Feature","properties":{"cadnum":"2322782701:01:004:0027"},"geometry":{"type":"Polygon","coordinates":[[[36.534726,47.35723],[36.534786,47.357341],[36.534889,47.357535],[36.53489,47.357535],[36.534948,47.357643],[36.535025,47.357785],[36.53512,47.357757],[36.53512,47.357756],[36.535434,47.35766],[36.535317,47.357478],[36.535099,47.357131],[36.534726,47.35723]]]}},{"type":"Feature","properties":{"cadnum":"2322782701:01:004:0010"},"geometry":{"type":"Polygon","coordinates":[[[36.532933,47.35443],[36.533095,47.355532],[36.533143,47.355867],[36.533442,47.355837],[36.533564,47.356574],[36.53369,47.356707],[36.533898,47.356604],[36.533811,47.356518],[36.533639,47.35542],[36.533481,47.354407],[36.532933,47.35443]]]}},{"type":"Feature","properties":{"cadnum":"2322782701:01:004:0024"},"geometry":{"type":"Polygon","coordinates":[[[36.534436,47.357457],[36.534464,47.357535],[36.534465,47.357535],[36.534534,47.357722],[36.534608,47.357925],[36.535025,47.357785],[36.534828,47.357419],[36.534786,47.357341],[36.534551,47.357419],[36.53455,47.357419],[36.534437,47.357457],[36.534436,47.357457]]]}},{"type":"Feature","properties":{"cadnum":"2322782701:01:004:0011"},"geometry":{"type":"Polygon","coordinates":[[[36.533143,47.355867],[36.533233,47.356492],[36.533383,47.356864],[36.53369,47.356707],[36.533564,47.356574],[36.533442,47.355837],[36.533143,47.355867]]]}},{"type":"Feature","properties":{"cadnum":"2322782701:01:004:0021"},"geometry":{"type":"Polygon","coordinates":[[[36.533385,47.356986],[36.533592,47.357419],[36.533591,47.357419],[36.533592,47.357421],[36.533593,47.357421],[36.533629,47.357535],[36.53363,47.357535],[36.533736,47.357859],[36.534054,47.357768],[36.533918,47.357419],[36.533846,47.35723],[36.53363,47.356865],[36.533385,47.356986]]]}},{"type":"Feature","properties":{"cadnum":"2322782701:01:004:0022"},"geometry":{"type":"Polygon","coordinates":[[[36.533823,47.35677],[36.534012,47.357048],[36.534144,47.357419],[36.534171,47.357496],[36.534185,47.357535],[36.534294,47.357838],[36.534534,47.357722],[36.534436,47.357457],[36.534262,47.356981],[36.534032,47.356668],[36.533823,47.35677]]]}},{"type":"Feature","properties":{"cadnum":"2322782701:01:004:0028"},"geometry":{"type":"Polygon","coordinates":[[[36.534338,47.356507],[36.534726,47.35723],[36.534948,47.357171],[36.535099,47.357131],[36.534604,47.356347],[36.534338,47.356507]]]}},{"type":"Feature","properties":{"cadnum":"2322782701:01:004:0014"},"geometry":{"type":"Polygon","coordinates":[[[36.533639,47.35542],[36.533811,47.356518],[36.533898,47.356604],[36.534136,47.356475],[36.534007,47.356294],[36.534,47.356224],[36.533912,47.355398],[36.533639,47.35542]]]}},{"type":"Feature","properties":{"cadnum":"2322782701:01:002:0065"},"geometry":{"type":"Polygon","coordinates":[[[36.530199,47.356098],[36.530242,47.356458],[36.530587,47.356427],[36.530564,47.35605],[36.5302,47.356098],[36.530199,47.356098]]]}},{"type":"Feature","properties":{"cadnum":"2322782701:01:002:0064"},"geometry":{"type":"Polygon","coordinates":[[[36.530242,47.356458],[36.530355,47.357389],[36.530643,47.357362],[36.530587,47.356427],[36.530242,47.356458]]]}},{"type":"Feature","properties":{"cadnum":"2322782701:01:002:0061"},"geometry":{"type":"Polygon","coordinates":[[[36.529583,47.356535],[36.529702,47.357448],[36.530021,47.357419],[36.529907,47.356506],[36.529583,47.356535]]]}},{"type":"Feature","properties":{"cadnum":"2322782701:01:002:0060"},"geometry":{"type":"Polygon","coordinates":[[[36.529541,47.356226],[36.529583,47.356532],[36.529583,47.356535],[36.529907,47.356506],[36.529864,47.356155],[36.529541,47.356226]]]}},{"type":"Feature","properties":{"cadnum":"2322782701:01:002:0069"},"geometry":{"type":"Polygon","coordinates":[[[36.532187,47.356725],[36.53232,47.357191],[36.532923,47.35707],[36.532792,47.356604],[36.532187,47.356725]]]}},{"type":"Feature","properties":{"cadnum":"2322782701:01:002:0073"},"geometry":{"type":"Polygon","coordinates":[[[36.530747,47.35748],[36.530756,47.357535],[36.530914,47.358413],[36.53125,47.358379],[36.531036,47.357451],[36.530782,47.357477],[36.530747,47.35748]]]}},{"type":"Feature","properties":{"cadnum":"2322782701:01:009:0004"},"geometry":{"type":"Polygon","coordinates":[[[36.499292,47.359619],[36.499319,47.360368],[36.499736,47.360341],[36.499669,47.359594],[36.499292,47.359619]]]}},{"type":"Feature","properties":{"cadnum":"2322782701:01:009:0009"},"geometry":{"type":"Polygon","coordinates":[[[36.497412,47.359721],[36.49746,47.360467],[36.497859,47.360443],[36.497809,47.359696],[36.497412,47.359721]]]}},{"type":"Feature","properties":{"cadnum":"2322782701:01:009:0005"},"geometry":{"type":"Polygon","coordinates":[[[36.499274,47.359073],[36.499292,47.359619],[36.499669,47.359594],[36.499669,47.359595],[36.499736,47.360341],[36.50014,47.360315],[36.500029,47.359065],[36.499622,47.359077],[36.499274,47.359073]]]}},{"type":"Feature","properties":{"cadnum":"2322782701:01:009:0035"},"geometry":{"type":"Polygon","coordinates":[[[36.496491,47.359275],[36.496496,47.359391],[36.496518,47.359854],[36.496668,47.359845],[36.496956,47.359826],[36.496917,47.359221],[36.496657,47.359254],[36.496491,47.359275]]]}},{"type":"Feature","properties":{"cadnum":"2322782701:01:009:0010"},"geometry":{"type":"Polygon","coordinates":[[[36.497379,47.359197],[36.497412,47.359721],[36.497809,47.359696],[36.497781,47.359275],[36.497774,47.359175],[36.497379,47.359197]]]}},{"type":"Feature","properties":{"cadnum":"2322782701:01:009:0013"},"geometry":{"type":"Polygon","coordinates":[[[36.496518,47.359854],[36.49655,47.360524],[36.496668,47.360517],[36.496668,47.360516],[36.496999,47.360495],[36.496956,47.359826],[36.496518,47.359854]]]}},{"type":"Feature","properties":{"cadnum":"2322782701:01:003:0012"},"geometry":{"type":"Polygon","coordinates":[[[36.510253,47.358064],[36.510395,47.358658],[36.51091,47.358579],[36.510783,47.357995],[36.510253,47.358064]]]}},{"type":"Feature","properties":{"cadnum":"2322782701:01:003:0013"},"geometry":{"type":"Polygon","coordinates":[[[36.509838,47.358816],[36.509943,47.359312],[36.510531,47.359222],[36.510412,47.358728],[36.510411,47.358728],[36.509838,47.358816]]]}},{"type":"Feature","properties":{"cadnum":"2322782701:01:003:0011"},"geometry":{"type":"Polygon","coordinates":[[[36.510395,47.358658],[36.510412,47.358728],[36.510531,47.359222],[36.511034,47.359144],[36.51091,47.358579],[36.510395,47.358658]]]}},{"type":"Feature","properties":{"cadnum":"2322782701:01:003:0002"},"geometry":{"type":"Polygon","coordinates":[[[36.509416,47.359614],[36.509585,47.360289],[36.509994,47.360243],[36.509855,47.359551],[36.509416,47.359614]]]}},{"type":"Feature","properties":{"cadnum":"2322782701:01:008:0002"},"geometry":{"type":"Polygon","coordinates":[[[36.507479,47.358329],[36.507483,47.358356],[36.507483,47.358357],[36.507579,47.359014],[36.507654,47.359003],[36.508032,47.358946],[36.507933,47.358283],[36.507569,47.35832],[36.507479,47.358329]]]}},{"type":"Feature","properties":{"cadnum":"2322782701:01:008:0001"},"geometry":{"type":"Polygon","coordinates":[[[36.507579,47.359014],[36.507676,47.359657],[36.508128,47.35959],[36.508032,47.358946],[36.507579,47.359014]]]}},{"type":"Feature","properties":{"cadnum":"2322782701:01:003:0021"},"geometry":{"type":"Polygon","coordinates":[[[36.509693,47.358137],[36.509838,47.358816],[36.510411,47.358728],[36.510412,47.358728],[36.510395,47.358658],[36.510253,47.358064],[36.509693,47.358137]]]}},{"type":"Feature","properties":{"cadnum":"2322782701:01:008:0005"},"geometry":{"type":"Polygon","coordinates":[[[36.508948,47.359684],[36.509277,47.36081],[36.509529,47.360768],[36.5092,47.359642],[36.508948,47.359684]]]}},{"type":"Feature","properties":{"cadnum":"2322782701:01:008:0003"},"geometry":{"type":"Polygon","coordinates":[[[36.510197,47.359479],[36.510378,47.360268],[36.510751,47.360199],[36.510548,47.359414],[36.510197,47.359479]]]}},{"type":"Feature","properties":{"cadnum":"2322782701:01:003:0009"},"geometry":{"type":"Polygon","coordinates":[[[36.512489,47.359109],[36.512718,47.359996],[36.513041,47.359949],[36.512813,47.359062],[36.512489,47.359109]]]}},{"type":"Feature","properties":{"cadnum":"2322782701:01:003:0014"},"geometry":{"type":"Polygon","coordinates":[[[36.511726,47.35922],[36.511904,47.359912],[36.512319,47.359852],[36.51214,47.35916],[36.511726,47.35922]]]}},{"type":"Feature","properties":{"cadnum":"2322782701:01:004:0003"},"geometry":{"type":"Polygon","coordinates":[[[36.534986,47.358831],[36.53512,47.359225],[36.535129,47.359252],[36.535497,47.359187],[36.535372,47.358769],[36.535056,47.358819],[36.534986,47.358831]]]}},{"type":"Feature","properties":{"cadnum":"2322782701:01:004:0019"},"geometry":{"type":"Polygon","coordinates":[[[36.533546,47.358165],[36.53357,47.358253],[36.533842,47.358182],[36.53382,47.358118],[36.533546,47.358165]]]}},{"type":"Feature","properties":{"cadnum":"2322782701:01:004:0020"},"geometry":{"type":"Polygon","coordinates":[[[36.533736,47.357859],[36.53382,47.358118],[36.533842,47.358182],[36.534176,47.358086],[36.534054,47.357768],[36.533736,47.357859]]]}},{"type":"Feature","properties":{"cadnum":"2322782701:01:004:0012"},"geometry":{"type":"Polygon","coordinates":[[[36.531275,47.358246],[36.531372,47.358692],[36.531735,47.358602],[36.531644,47.358207],[36.531275,47.358246]]]}},{"type":"Feature","properties":{"cadnum":"2322782701:01:002:0070"},"geometry":{"type":"Polygon","coordinates":[[[36.530646,47.358642],[36.530657,47.358741],[36.530964,47.358692],[36.530949,47.358612],[36.530646,47.358642]]]}},{"type":"Feature","properties":{"cadnum":"2322782701:01:002:0072"},"geometry":{"type":"Polygon","coordinates":[[[36.530914,47.358413],[36.530949,47.358612],[36.530964,47.358692],[36.531335,47.358757],[36.53125,47.358379],[36.530914,47.358413]]]}},{"type":"Feature","properties":{"cadnum":"2322782701:01:002:0068"},"geometry":{"type":"Polygon","coordinates":[[[36.529611,47.358594],[36.529652,47.359031],[36.530052,47.358984],[36.529962,47.358568],[36.529611,47.358594]]]}},{"type":"Feature","properties":{"cadnum":"2322782701:01:002:0071"},"geometry":{"type":"Polygon","coordinates":[[[36.530533,47.357502],[36.530646,47.358642],[36.530949,47.358612],[36.530914,47.358413],[36.530747,47.35748],[36.530533,47.357502]]]}},{"type":"Feature","properties":{"cadnum":"2322782701:01:009:0015"},"geometry":{"type":"Polygon","coordinates":[[[36.493248,47.359634],[36.493546,47.360551],[36.4942,47.360395],[36.494038,47.359519],[36.493248,47.359634]]]}},{"type":"Feature","properties":{"cadnum":"2322782701:01:009:0039"},"geometry":{"type":"Polygon","coordinates":[[[36.491617,47.360088],[36.491796,47.360772],[36.492368,47.360696],[36.492195,47.360031],[36.491617,47.360088]]]}},{"type":"Feature","properties":{"cadnum":"2322782701:01:009:0037"},"geometry":{"type":"Polygon","coordinates":[[[36.494038,47.359519],[36.4942,47.360395],[36.494285,47.360851],[36.49464,47.360778],[36.494454,47.359457],[36.494038,47.359519]]]}},{"type":"Feature","properties":{"cadnum":"2322782701:01:004:0036"},"geometry":{"type":"Polygon","coordinates":[[[36.539766,47.35395],[36.540243,47.354511],[36.540441,47.354746],[36.540442,47.354746],[36.540442,47.354747],[36.540601,47.354935],[36.540613,47.354929],[36.540822,47.354822],[36.540609,47.354579],[36.539968,47.353848],[36.539766,47.35395]]]}},{"type":"Feature","properties":{"cadnum":"2322782701:01:004:0035"},"geometry":{"type":"Polygon","coordinates":[[[36.53987,47.354698],[36.540416,47.355344],[36.540441,47.355332],[36.540442,47.355332],[36.540442,47.355333],[36.5408,47.355168],[36.540601,47.354935],[36.540243,47.354511],[36.53987,47.354698]]]}},{"type":"Feature","properties":{"cadnum":"2322782701:01:004:0034"},"geometry":{"type":"Polygon","coordinates":[[[36.539394,47.354134],[36.53987,47.354698],[36.540243,47.354511],[36.539766,47.35395],[36.539394,47.354134]]]}},{"type":"Feature","properties":{"cadnum":"2322782701:01:004:0026"},"geometry":{"type":"Polygon","coordinates":[[[36.537102,47.3545],[36.537133,47.35459],[36.537353,47.35497],[36.53782,47.35474],[36.537754,47.35463],[36.537648,47.354231],[36.537102,47.3545]]]}},{"type":"Feature","properties":{"cadnum":"2322782701:01:004:0032"},"geometry":{"type":"Polygon","coordinates":[[[36.536896,47.355151],[36.537413,47.356022],[36.537128,47.356143],[36.53738,47.356582],[36.537659,47.356434],[36.53808,47.356161],[36.537188,47.355027],[36.536896,47.355151]]]}},{"type":"Feature","properties":{"cadnum":"2322782701:01:004:0031"},"geometry":{"type":"Polygon","coordinates":[[[36.536657,47.355253],[36.536798,47.355566],[36.537128,47.356143],[36.537413,47.356022],[36.536896,47.355151],[36.536657,47.355253]]]}},{"type":"Feature","properties":{"cadnum":"2322782701:01:004:0046"},"geometry":{"type":"Polygon","coordinates":[[[36.535327,47.356696],[36.535745,47.357336],[36.536158,47.357167],[36.535706,47.356557],[36.535327,47.356696]]]}},{"type":"Feature","properties":{"cadnum":"2322782701:01:001:0004"},"geometry":{"type":"Polygon","coordinates":[[[36.520175,47.363111],[36.52027,47.363306],[36.520341,47.36329],[36.52035,47.363312],[36.520415,47.363297],[36.520405,47.363276],[36.520406,47.363276],[36.520493,47.363256],[36.520399,47.363061],[36.520175,47.363111]]]}},{"type":"Feature","properties":{"cadnum":"2322782701:01:001:0002"},"geometry":{"type":"Polygon","coordinates":[[[36.521882,47.36126],[36.521897,47.361337],[36.521917,47.361335],[36.52192,47.361345],[36.521932,47.361343],[36.521993,47.361339],[36.522075,47.361333],[36.522062,47.361233],[36.522036,47.361235],[36.521976,47.36124],[36.521977,47.361252],[36.521882,47.36126]]]}},{"type":"Feature","properties":{"cadnum":"2322782701:01:001:0001"},"geometry":{"type":"Polygon","coordinates":[[[36.521957,47.362692],[36.521961,47.362795],[36.521965,47.362873],[36.522172,47.362868],[36.522164,47.362689],[36.521957,47.362692]]]}},{"type":"Feature","properties":{"cadnum":"2322782701:01:001:0009"},"geometry":{"type":"Polygon","coordinates":[[[36.521859,47.361975],[36.521905,47.36214],[36.52218,47.362109],[36.522121,47.361892],[36.521937,47.361916],[36.52195,47.361963],[36.521859,47.361975]]]}},{"type":"Feature","properties":{"cadnum":"2322782701:01:008:0004"},"geometry":{"type":"Polygon","coordinates":[[[36.506069,47.359268],[36.506158,47.359861],[36.506634,47.359805],[36.506581,47.359208],[36.506069,47.359268]]]}},{"type":"Feature","properties":{"cadnum":"2322782701:01:008:0018"},"geometry":{"type":"Polygon","coordinates":[[[36.505959,47.358524],[36.506069,47.359268],[36.506581,47.359208],[36.506516,47.358458],[36.505959,47.358524]]]}},{"type":"Feature","properties":{"cadnum":"2322782701:01:008:0014"},"geometry":{"type":"Polygon","coordinates":[[[36.506289,47.360051],[36.506656,47.361167],[36.506914,47.361137],[36.506807,47.360812],[36.506546,47.360021],[36.506289,47.360051]]]}},{"type":"Feature","properties":{"cadnum":"2322782701:01:009:0006"},"geometry":{"type":"Polygon","coordinates":[[[36.503925,47.360325],[36.50411,47.361138],[36.504452,47.361098],[36.504295,47.360282],[36.503925,47.360325]]]}},{"type":"Feature","properties":{"cadnum":"2322782701:01:008:0008"},"geometry":{"type":"Polygon","coordinates":[[[36.504835,47.358657],[36.50489,47.35923],[36.504894,47.359273],[36.505295,47.359226],[36.505246,47.358608],[36.504835,47.358657]]]}},{"type":"Feature","properties":{"cadnum":"2322782701:01:008:0009"},"geometry":{"type":"Polygon","coordinates":[[[36.504507,47.359276],[36.504511,47.359325],[36.504583,47.360046],[36.504963,47.360001],[36.504894,47.359273],[36.50489,47.35923],[36.504507,47.359276]]]}},{"type":"Feature","properties":{"cadnum":"2322782701:01:008:0007"},"geometry":{"type":"Polygon","coordinates":[[[36.504894,47.359273],[36.504963,47.360001],[36.50537,47.359953],[36.505299,47.359282],[36.505295,47.359226],[36.504894,47.359273]]]}},{"type":"Feature","properties":{"cadnum":"2322782701:01:008:0012"},"geometry":{"type":"Polygon","coordinates":[[[36.506546,47.360021],[36.506807,47.360812],[36.50717,47.36077],[36.506909,47.35998],[36.506546,47.360021]]]}},{"type":"Feature","properties":{"cadnum":"2322782701:01:008:0019"},"geometry":{"type":"Polygon","coordinates":[[[36.504051,47.358754],[36.504057,47.358829],[36.504107,47.359372],[36.504511,47.359325],[36.504507,47.359276],[36.504449,47.358703],[36.504051,47.358754]]]}},{"type":"Feature","properties":{"cadnum":"2322782701:01:008:0010"},"geometry":{"type":"Polygon","coordinates":[[[36.504449,47.358703],[36.504507,47.359276],[36.50489,47.35923],[36.504835,47.358657],[36.504449,47.358703]]]}},{"type":"Feature","properties":{"cadnum":"2322782701:01:005:0001"},"geometry":{"type":"Polygon","coordinates":[[[36.542094,47.362402],[36.542224,47.362718],[36.542853,47.362412],[36.542094,47.362402]]]}},{"type":"Feature","properties":{"cadnum":"2322782701:01:004:0004"},"geometry":{"type":"Polygon","coordinates":[[[36.53549,47.359166],[36.535497,47.359187],[36.535736,47.359994],[36.536068,47.359934],[36.535829,47.35909],[36.53549,47.359166]]]}},{"type":"Feature","properties":{"cadnum":"2322782701:01:004:0005"},"geometry":{"type":"Polygon","coordinates":[[[36.535392,47.358833],[36.53549,47.359166],[36.535829,47.35909],[36.535736,47.358766],[36.535392,47.358833]]]}},{"type":"Feature","properties":{"cadnum":"2322782701:01:004:0002"},"geometry":{"type":"Polygon","coordinates":[[[36.535129,47.359252],[36.535403,47.360055],[36.535736,47.359994],[36.535497,47.359187],[36.535129,47.359252]]]}},{"type":"Feature","properties":{"cadnum":"2322782701:01:002:0030"},"geometry":{"type":"Polygon","coordinates":[[[36.522821,47.357024],[36.522899,47.357418],[36.523479,47.357381],[36.523427,47.356951],[36.522821,47.357024]]]}},{"type":"Feature","properties":{"cadnum":"2322782701:01:002:0032"},"geometry":{"type":"Polygon","coordinates":[[[36.523513,47.355574],[36.523687,47.356608],[36.523719,47.356877],[36.523979,47.356861],[36.523973,47.356825],[36.523694,47.355549],[36.523513,47.355574]]]}},{"type":"Feature","properties":{"cadnum":"2322782701:01:002:0004"},"geometry":{"type":"Polygon","coordinates":[[[36.521773,47.355095],[36.52189,47.355642],[36.522428,47.355589],[36.522306,47.355045],[36.521773,47.355095]]]}},{"type":"Feature","properties":{"cadnum":"2322782701:01:002:0012"},"geometry":{"type":"Polygon","coordinates":[[[36.519878,47.356681],[36.519994,47.357302],[36.520345,47.357269],[36.520234,47.35663],[36.519878,47.356681]]]}},{"type":"Feature","properties":{"cadnum":"2322782701:01:003:0030"},"geometry":{"type":"Polygon","coordinates":[[[36.517183,47.361396],[36.517553,47.362128],[36.517865,47.362027],[36.517758,47.361702],[36.517538,47.361281],[36.517183,47.361396]]]}},{"type":"Feature","properties":{"cadnum":"2322782701:01:004:0037"},"geometry":{"type":"Polygon","coordinates":[[[36.540601,47.354935],[36.5408,47.355168],[36.541048,47.35508],[36.540822,47.354822],[36.540601,47.354935]]]}},{"type":"Feature","properties":{"cadnum":"2322782701:01:004:0038"},"geometry":{"type":"Polygon","coordinates":[[[36.540817,47.354394],[36.541257,47.354868],[36.541583,47.354727],[36.541571,47.354714],[36.541124,47.354238],[36.540817,47.354394]]]}}]}