{"type":"FeatureCollection","features":[{"type":"Feature","properties":{"cadnum":"2323655000:02:041:0001"},"geometry":{"type":"Polygon","coordinates":[[[35.906901,47.973892],[35.90698,47.973946],[35.907141,47.974058],[35.907757,47.973737],[35.907517,47.97357],[35.906901,47.973892]]]}},{"type":"Feature","properties":{"cadnum":"2323655000:02:048:0001"},"geometry":{"type":"Polygon","coordinates":[[[35.90985,47.978308],[35.910515,47.978356],[35.910546,47.978088],[35.90988,47.978039],[35.90985,47.978308]]]}},{"type":"Feature","properties":{"cadnum":"2323655000:08:011:4001"},"geometry":{"type":"Polygon","coordinates":[[[35.866131,47.985269],[35.866149,47.985283],[35.866169,47.985272],[35.866153,47.985258],[35.866131,47.985269]]]}},{"type":"Feature","properties":{"cadnum":"2323655000:07:020:4001"},"geometry":{"type":"Polygon","coordinates":[[[35.872488,47.959104],[35.87251,47.959116],[35.872526,47.959102],[35.872506,47.959091],[35.872488,47.959104]]]}},{"type":"Feature","properties":{"cadnum":"2323655000:07:016:0009"},"geometry":{"type":"Polygon","coordinates":[[[35.877127,47.964485],[35.879718,47.965644],[35.880371,47.965007],[35.878754,47.964283],[35.877782,47.963848],[35.877452,47.964168],[35.877408,47.964211],[35.877334,47.964283],[35.877127,47.964485]]]}},{"type":"Feature","properties":{"cadnum":"2323655000:02:029:0001"},"geometry":{"type":"Polygon","coordinates":[[[35.915342,47.97304],[35.915358,47.973075],[35.915441,47.973064],[35.915489,47.973057],[35.915473,47.973023],[35.915425,47.97303],[35.915342,47.97304]]]}}]}