{"type":"FeatureCollection","features":[{"type":"Feature","properties":{"cadnum":"2324583601:03:003:0008"},"geometry":{"type":"Polygon","coordinates":[[[35.545551,46.714897],[35.545897,46.715085],[35.546179,46.714848],[35.546255,46.714784],[35.54635,46.714702],[35.54635,46.714701],[35.546351,46.714701],[35.546523,46.714551],[35.546192,46.714371],[35.545907,46.714616],[35.545551,46.714897]]]}},{"type":"Feature","properties":{"cadnum":"2324583601:03:003:0005"},"geometry":{"type":"Polygon","coordinates":[[[35.547747,46.716262],[35.548106,46.716458],[35.548262,46.71633],[35.547902,46.716134],[35.547747,46.716262]]]}},{"type":"Feature","properties":{"cadnum":"2324583601:03:004:0007"},"geometry":{"type":"Polygon","coordinates":[[[35.549306,46.715095],[35.549709,46.715286],[35.549923,46.715099],[35.549511,46.714904],[35.549306,46.715095]]]}},{"type":"Feature","properties":{"cadnum":"2324583601:03:004:0006"},"geometry":{"type":"Polygon","coordinates":[[[35.548777,46.715586],[35.549145,46.715778],[35.549709,46.715286],[35.549306,46.715095],[35.548777,46.715586]]]}},{"type":"Feature","properties":{"cadnum":"2324583601:03:003:0006"},"geometry":{"type":"Polygon","coordinates":[[[35.547902,46.716134],[35.548262,46.71633],[35.548862,46.715837],[35.548503,46.715641],[35.547902,46.716134]]]}},{"type":"Feature","properties":{"cadnum":"2324583601:03:005:0005"},"geometry":{"type":"Polygon","coordinates":[[[35.54557,46.713835],[35.545907,46.714024],[35.54635,46.71364],[35.546351,46.71364],[35.546521,46.713492],[35.546184,46.713305],[35.545834,46.713606],[35.545835,46.713606],[35.54557,46.713835]]]}},{"type":"Feature","properties":{"cadnum":"2324583601:03:005:0009"},"geometry":{"type":"Polygon","coordinates":[[[35.547232,46.713923],[35.547579,46.714131],[35.547792,46.713943],[35.547427,46.713748],[35.547232,46.713923]]]}},{"type":"Feature","properties":{"cadnum":"2324583601:03:005:0008"},"geometry":{"type":"Polygon","coordinates":[[[35.546636,46.714413],[35.546986,46.714621],[35.547288,46.714389],[35.547579,46.714131],[35.547232,46.713923],[35.546874,46.714237],[35.546636,46.714413]]]}},{"type":"Feature","properties":{"cadnum":"2324583601:03:006:0002"},"geometry":{"type":"Polygon","coordinates":[[[35.542322,46.711453],[35.542833,46.711726],[35.543065,46.711519],[35.542555,46.711247],[35.542322,46.711453]]]}},{"type":"Feature","properties":{"cadnum":"2324583601:03:006:0004"},"geometry":{"type":"Polygon","coordinates":[[[35.541946,46.710842],[35.542224,46.710976],[35.54283,46.710425],[35.542552,46.71029],[35.541946,46.710842]]]}},{"type":"Feature","properties":{"cadnum":"2324583601:03:009:0003"},"geometry":{"type":"Polygon","coordinates":[[[35.545709,46.710559],[35.546165,46.71079],[35.546179,46.710778],[35.546226,46.710735],[35.54635,46.710622],[35.546351,46.710622],[35.546621,46.710376],[35.546351,46.710239],[35.54635,46.710239],[35.546165,46.710145],[35.545709,46.710559]]]}},{"type":"Feature","properties":{"cadnum":"2324583601:03:009:0004"},"geometry":{"type":"Polygon","coordinates":[[[35.546165,46.710145],[35.546179,46.710152],[35.546621,46.710376],[35.547258,46.709796],[35.547258,46.709795],[35.546802,46.709565],[35.546499,46.70984],[35.5465,46.70984],[35.546261,46.710058],[35.546165,46.710145]]]}},{"type":"Feature","properties":{"cadnum":"2324583601:03:006:0005"},"geometry":{"type":"Polygon","coordinates":[[[35.542552,46.71029],[35.54283,46.710425],[35.543589,46.709734],[35.543312,46.7096],[35.543177,46.709722],[35.543176,46.709722],[35.542552,46.71029]]]}},{"type":"Feature","properties":{"cadnum":"2324583601:03:005:0004"},"geometry":{"type":"Polygon","coordinates":[[[35.546184,46.713305],[35.54635,46.713397],[35.546351,46.713397],[35.546521,46.713492],[35.546643,46.713386],[35.546306,46.713198],[35.546184,46.713305]]]}},{"type":"Feature","properties":{"cadnum":"2324583601:03:009:0005"},"geometry":{"type":"Polygon","coordinates":[[[35.546802,46.709565],[35.547113,46.709722],[35.547112,46.709722],[35.547258,46.709795],[35.547258,46.709796],[35.547517,46.709561],[35.547061,46.709329],[35.546802,46.709565]]]}},{"type":"Feature","properties":{"cadnum":"2324583601:03:003:0007"},"geometry":{"type":"Polygon","coordinates":[[[35.54487,46.714479],[35.545236,46.71468],[35.545559,46.714401],[35.545818,46.714166],[35.545479,46.71398],[35.545217,46.714199],[35.54487,46.714479]]]}},{"type":"Feature","properties":{"cadnum":"2324583601:03:003:0009"},"geometry":{"type":"Polygon","coordinates":[[[35.545205,46.714903],[35.545401,46.715016],[35.545907,46.714616],[35.546192,46.714371],[35.546114,46.714329],[35.54598,46.714447],[35.545904,46.714405],[35.545842,46.71437],[35.545205,46.714903]]]}},{"type":"Feature","properties":{"cadnum":"2324583601:03:010:0003"},"geometry":{"type":"Polygon","coordinates":[[[35.550733,46.712423],[35.551173,46.712657],[35.551738,46.712156],[35.551299,46.711922],[35.550733,46.712423]]]}},{"type":"Feature","properties":{"cadnum":"2324583601:03:010:0005"},"geometry":{"type":"Polygon","coordinates":[[[35.550662,46.713058],[35.550926,46.713199],[35.550975,46.713156],[35.551078,46.71321],[35.551031,46.713253],[35.551109,46.713292],[35.551567,46.712868],[35.551132,46.712638],[35.550662,46.713058]]]}},{"type":"Feature","properties":{"cadnum":"2324583601:03:005:0002"},"geometry":{"type":"Polygon","coordinates":[[[35.546663,46.713134],[35.547115,46.713349],[35.547991,46.712509],[35.54785,46.712428],[35.548157,46.712137],[35.547857,46.71199],[35.546663,46.713134]]]}},{"type":"Feature","properties":{"cadnum":"2324583601:03:005:0006"},"geometry":{"type":"Polygon","coordinates":[[[35.547366,46.713109],[35.547662,46.713257],[35.548107,46.712834],[35.547808,46.712685],[35.547366,46.713109]]]}},{"type":"Feature","properties":{"cadnum":"2324583601:03:010:0004"},"geometry":{"type":"Polygon","coordinates":[[[35.550926,46.713199],[35.551031,46.713253],[35.551078,46.71321],[35.550975,46.713156],[35.550926,46.713199]]]}},{"type":"Feature","properties":{"cadnum":"2324583601:03:005:0007"},"geometry":{"type":"Polygon","coordinates":[[[35.547808,46.712685],[35.548107,46.712834],[35.548622,46.712346],[35.548173,46.712122],[35.54785,46.712428],[35.547991,46.712509],[35.547808,46.712685]]]}},{"type":"Feature","properties":{"cadnum":"2324583601:03:009:0002"},"geometry":{"type":"Polygon","coordinates":[[[35.548256,46.711807],[35.548683,46.712027],[35.549105,46.711649],[35.549192,46.711569],[35.549886,46.710932],[35.549469,46.710716],[35.548994,46.711161],[35.548781,46.711357],[35.548624,46.7115],[35.548551,46.711594],[35.548256,46.711807]]]}},{"type":"Feature","properties":{"cadnum":"2324583601:03:007:0004"},"geometry":{"type":"Polygon","coordinates":[[[35.541898,46.708668],[35.542224,46.708806],[35.542811,46.708153],[35.542485,46.708014],[35.541898,46.708668]]]}},{"type":"Feature","properties":{"cadnum":"2324583601:03:007:0003"},"geometry":{"type":"Polygon","coordinates":[[[35.542485,46.708014],[35.542811,46.708153],[35.543396,46.707503],[35.543063,46.707371],[35.542485,46.708014]]]}}]}