{"type":"FeatureCollection","features":[{"type":"Feature","properties":{"cadnum":"2324981201:04:001:0089"},"geometry":{"type":"Polygon","coordinates":[[[37.205576,47.437601],[37.205784,47.437734],[37.205977,47.437587],[37.205769,47.437449],[37.205576,47.437601]]]}},{"type":"Feature","properties":{"cadnum":"2324981201:04:001:0084"},"geometry":{"type":"Polygon","coordinates":[[[37.205759,47.437443],[37.20584,47.437496],[37.206002,47.437366],[37.205911,47.437306],[37.205759,47.437443]]]}},{"type":"Feature","properties":{"cadnum":"2324981201:04:001:0082"},"geometry":{"type":"Polygon","coordinates":[[[37.205081,47.438553],[37.205114,47.438563],[37.205114,47.438564],[37.205239,47.438602],[37.205286,47.438617],[37.205286,47.438616],[37.20575,47.438758],[37.206069,47.438841],[37.206291,47.438855],[37.206497,47.438846],[37.206655,47.438797],[37.206909,47.438628],[37.207964,47.437757],[37.208448,47.437344],[37.209977,47.43617],[37.210607,47.435705],[37.210608,47.435705],[37.210663,47.435664],[37.210779,47.435595],[37.210779,47.435594],[37.210915,47.435513],[37.211186,47.435394],[37.211376,47.435276],[37.211633,47.434979],[37.211812,47.434718],[37.211958,47.434506],[37.212457,47.433778],[37.213103,47.432813],[37.213355,47.432247],[37.213412,47.431792],[37.213247,47.431377],[37.213224,47.431088],[37.213245,47.430809],[37.213197,47.430328],[37.213011,47.429793],[37.212512,47.428687],[37.212216,47.428106],[37.211969,47.42762],[37.211601,47.426928],[37.211501,47.426703],[37.211486,47.426573],[37.211353,47.426573],[37.211369,47.426718],[37.211475,47.426955],[37.211844,47.427649],[37.212059,47.428074],[37.212089,47.428134],[37.212118,47.42819],[37.212386,47.428716],[37.212885,47.429819],[37.213066,47.430341],[37.213114,47.430809],[37.213097,47.431082],[37.213115,47.431396],[37.213274,47.43179],[37.213278,47.4318],[37.213264,47.431906],[37.213224,47.43223],[37.212977,47.432784],[37.212336,47.43374],[37.211883,47.4344],[37.211738,47.434612],[37.211517,47.434935],[37.211273,47.435218],[37.211104,47.435323],[37.210833,47.435442],[37.210608,47.435577],[37.210607,47.435577],[37.210582,47.435592],[37.21054,47.435622],[37.210541,47.435622],[37.209878,47.43611],[37.208346,47.437286],[37.207862,47.437699],[37.206812,47.438567],[37.206579,47.438722],[37.206464,47.438757],[37.206292,47.438765],[37.2061,47.438753],[37.205801,47.438675],[37.205152,47.438477],[37.205081,47.438553]]]}},{"type":"Feature","properties":{"cadnum":"2324981201:04:001:0088"},"geometry":{"type":"Polygon","coordinates":[[[37.210267,47.436192],[37.210561,47.436373],[37.210607,47.436338],[37.210608,47.436338],[37.210608,47.436339],[37.210751,47.436232],[37.210779,47.436211],[37.210909,47.436114],[37.210614,47.435932],[37.210267,47.436192]]]}},{"type":"Feature","properties":{"cadnum":"2324981201:04:001:0090"},"geometry":{"type":"Polygon","coordinates":[[[37.205784,47.437734],[37.206534,47.438222],[37.20652,47.438232],[37.20687,47.438451],[37.20706,47.438302],[37.205977,47.437587],[37.205784,47.437734]]]}},{"type":"Feature","properties":{"cadnum":"2324981201:04:001:0083"},"geometry":{"type":"Polygon","coordinates":[[[37.20584,47.437496],[37.20706,47.438302],[37.207232,47.438165],[37.206002,47.437366],[37.20584,47.437496]]]}},{"type":"Feature","properties":{"cadnum":"2324981201:04:002:0072"},"geometry":{"type":"Polygon","coordinates":[[[37.208941,47.436372],[37.208997,47.436403],[37.208981,47.436417],[37.20902,47.436437],[37.209034,47.436423],[37.209092,47.436454],[37.209146,47.436409],[37.209319,47.436502],[37.209407,47.436427],[37.209236,47.436333],[37.209292,47.436285],[37.20914,47.436203],[37.208941,47.436372]]]}},{"type":"Feature","properties":{"cadnum":"2324981201:04:001:0086"},"geometry":{"type":"Polygon","coordinates":[[[37.212297,47.439649],[37.213125,47.440624],[37.212559,47.440821],[37.212987,47.441323],[37.214065,47.441204],[37.213888,47.440867],[37.213439,47.440969],[37.212433,47.439602],[37.212297,47.439649]]]}},{"type":"Feature","properties":{"cadnum":"2324981201:04:001:0085"},"geometry":{"type":"Polygon","coordinates":[[[37.212987,47.441323],[37.213612,47.442058],[37.214462,47.441962],[37.214065,47.441204],[37.212987,47.441323]]]}},{"type":"Feature","properties":{"cadnum":"2324981201:04:001:0087"},"geometry":{"type":"Polygon","coordinates":[[[37.21452,47.441535],[37.214583,47.441767],[37.216101,47.441266],[37.216101,47.441267],[37.216924,47.440995],[37.216974,47.440838],[37.216272,47.441038],[37.216272,47.441037],[37.21452,47.441535]]]}},{"type":"Feature","properties":{"cadnum":"2324981201:04:002:0073"},"geometry":{"type":"Polygon","coordinates":[[[37.212804,47.432089],[37.212933,47.432177],[37.212991,47.432139],[37.213032,47.43211],[37.213018,47.432101],[37.213018,47.4321],[37.213125,47.432029],[37.213011,47.43195],[37.212804,47.432089]]]}},{"type":"Feature","properties":{"cadnum":"2324981201:04:001:0081"},"geometry":{"type":"Polygon","coordinates":[[[37.222589,47.434587],[37.222632,47.434589],[37.222745,47.435506],[37.222856,47.436396],[37.222896,47.436398],[37.222938,47.436381],[37.222975,47.435506],[37.223018,47.434528],[37.223019,47.434522],[37.223072,47.434256],[37.223241,47.433911],[37.222804,47.433889],[37.222653,47.434185],[37.222589,47.434587]]]}},{"type":"Feature","properties":{"cadnum":"2324981201:04:002:0071"},"geometry":{"type":"Polygon","coordinates":[[[37.222171,47.434798],[37.222608,47.43482],[37.22307,47.433872],[37.22264,47.43387],[37.222171,47.434797],[37.222171,47.434798]]]}},{"type":"Feature","properties":{"cadnum":"2324981201:04:002:0070"},"geometry":{"type":"Polygon","coordinates":[[[37.221956,47.435496],[37.221999,47.435498],[37.222164,47.435507],[37.222204,47.435509],[37.222246,47.435492],[37.222385,47.435437],[37.222386,47.435431],[37.222439,47.435165],[37.222608,47.43482],[37.222171,47.434798],[37.22202,47.435094],[37.221956,47.435496]]]}}]}