{"type":"FeatureCollection","features":[{"type":"Feature","properties":{"cadnum":"2324586801:03:002:0003"},"geometry":{"type":"Polygon","coordinates":[[[35.65483,46.559644],[35.655082,46.559888],[35.655449,46.559719],[35.655912,46.559511],[35.655667,46.559273],[35.65483,46.559644]]]}},{"type":"Feature","properties":{"cadnum":"2324586801:03:002:0007"},"geometry":{"type":"Polygon","coordinates":[[[35.655122,46.560904],[35.655508,46.561274],[35.656042,46.561011],[35.656115,46.560975],[35.656214,46.560927],[35.656214,46.560926],[35.656442,46.560813],[35.656056,46.560472],[35.655122,46.560904]]]}},{"type":"Feature","properties":{"cadnum":"2324586801:03:002:0006"},"geometry":{"type":"Polygon","coordinates":[[[35.656056,46.560472],[35.656214,46.560612],[35.656442,46.560813],[35.657002,46.560536],[35.65663,46.560206],[35.656056,46.560472]]]}},{"type":"Feature","properties":{"cadnum":"2324586801:03:003:0002"},"geometry":{"type":"Polygon","coordinates":[[[35.65265,46.559062],[35.652861,46.559263],[35.65331,46.559058],[35.653104,46.558858],[35.653104,46.558857],[35.652866,46.558964],[35.65265,46.559062]]]}},{"type":"Feature","properties":{"cadnum":"2324586801:03:002:0002"},"geometry":{"type":"Polygon","coordinates":[[[35.654119,46.559958],[35.654375,46.560213],[35.655082,46.559888],[35.65483,46.559644],[35.654119,46.559958]]]}},{"type":"Feature","properties":{"cadnum":"2324586801:03:001:0006"},"geometry":{"type":"Polygon","coordinates":[[[35.653232,46.562171],[35.653605,46.562508],[35.654178,46.562237],[35.653805,46.5619],[35.653232,46.562171]]]}},{"type":"Feature","properties":{"cadnum":"2324586801:03:002:0004"},"geometry":{"type":"Polygon","coordinates":[[[35.653923,46.560539],[35.65419,46.560792],[35.654698,46.560557],[35.654444,46.560296],[35.653923,46.560539]]]}},{"type":"Feature","properties":{"cadnum":"2324586801:03:005:0005"},"geometry":{"type":"Polygon","coordinates":[[[35.650788,46.558634],[35.650996,46.558846],[35.65108,46.558931],[35.65108,46.558932],[35.651751,46.558613],[35.651457,46.558315],[35.650788,46.558634]]]}},{"type":"Feature","properties":{"cadnum":"2324586801:03:003:0003"},"geometry":{"type":"Polygon","coordinates":[[[35.651682,46.559501],[35.651909,46.559719],[35.65231,46.559513],[35.652861,46.559263],[35.65265,46.559062],[35.652152,46.559286],[35.651682,46.559501]]]}},{"type":"Feature","properties":{"cadnum":"2324586801:03:001:0002"},"geometry":{"type":"Polygon","coordinates":[[[35.652068,46.562283],[35.652371,46.562577],[35.653805,46.5619],[35.653501,46.561599],[35.652068,46.562283]]]}},{"type":"Feature","properties":{"cadnum":"2324586801:03:002:0005"},"geometry":{"type":"Polygon","coordinates":[[[35.653143,46.560903],[35.653408,46.561153],[35.65419,46.560792],[35.653923,46.560539],[35.653143,46.560903]]]}},{"type":"Feature","properties":{"cadnum":"2324586801:03:001:0007"},"geometry":{"type":"Polygon","coordinates":[[[35.65224,46.562641],[35.652241,46.562641],[35.652341,46.562741],[35.65259,46.562988],[35.65322,46.56269],[35.653605,46.562508],[35.653232,46.562171],[35.652371,46.562577],[35.652276,46.562623],[35.652275,46.562623],[35.65224,46.562641]]]}},{"type":"Feature","properties":{"cadnum":"2324586801:03:006:0005"},"geometry":{"type":"Polygon","coordinates":[[[35.650927,46.56131],[35.651173,46.561584],[35.651928,46.561199],[35.651689,46.560941],[35.650927,46.56131]]]}},{"type":"Feature","properties":{"cadnum":"2324586801:03:001:0004"},"geometry":{"type":"Polygon","coordinates":[[[35.651647,46.560518],[35.651934,46.560821],[35.652483,46.560562],[35.65218,46.560263],[35.651647,46.560518]]]}},{"type":"Feature","properties":{"cadnum":"2324586801:03:001:0003"},"geometry":{"type":"Polygon","coordinates":[[[35.650592,46.561024],[35.650721,46.561158],[35.650887,46.561329],[35.651934,46.560821],[35.651647,46.560518],[35.650592,46.561024]]]}},{"type":"Feature","properties":{"cadnum":"2324586801:03:006:0006"},"geometry":{"type":"Polygon","coordinates":[[[35.651689,46.560941],[35.651928,46.561199],[35.65222,46.561051],[35.652727,46.560816],[35.652483,46.560562],[35.651689,46.560941]]]}},{"type":"Feature","properties":{"cadnum":"2324586801:03:012:0003"},"geometry":{"type":"Polygon","coordinates":[[[35.641995,46.552576],[35.642344,46.552797],[35.642482,46.552734],[35.643095,46.552422],[35.642749,46.552203],[35.64269,46.552242],[35.642481,46.552353],[35.64247,46.552349],[35.642191,46.55248],[35.641995,46.552576]]]}},{"type":"Feature","properties":{"cadnum":"2324586801:03:013:0008"},"geometry":{"type":"Polygon","coordinates":[[[35.640205,46.552014],[35.640397,46.552137],[35.641289,46.551753],[35.641691,46.551521],[35.641496,46.551397],[35.641015,46.551646],[35.640205,46.552014]]]}},{"type":"Feature","properties":{"cadnum":"2324586801:03:013:0009"},"geometry":{"type":"Polygon","coordinates":[[[35.640092,46.552066],[35.640281,46.552187],[35.640397,46.552137],[35.640205,46.552014],[35.640092,46.552066]]]}},{"type":"Feature","properties":{"cadnum":"2324586801:03:012:0002"},"geometry":{"type":"Polygon","coordinates":[[[35.641209,46.552963],[35.641491,46.553191],[35.642344,46.552797],[35.641995,46.552576],[35.641209,46.552963]]]}},{"type":"Feature","properties":{"cadnum":"2324586801:03:018:0007"},"geometry":{"type":"Polygon","coordinates":[[[35.637686,46.546291],[35.638016,46.54651],[35.638795,46.546156],[35.638435,46.545917],[35.63818,46.546064],[35.637686,46.546291]]]}},{"type":"Feature","properties":{"cadnum":"2324586801:03:014:0006"},"geometry":{"type":"Polygon","coordinates":[[[35.638458,46.54759],[35.638525,46.547632],[35.6386,46.547678],[35.638926,46.547532],[35.639562,46.54725],[35.639563,46.54725],[35.639698,46.547189],[35.639734,46.547173],[35.639765,46.547159],[35.640087,46.546965],[35.639903,46.546855],[35.639563,46.547028],[35.639563,46.547029],[35.638608,46.547514],[35.638458,46.54759]]]}},{"type":"Feature","properties":{"cadnum":"2324586801:03:014:0007"},"geometry":{"type":"Polygon","coordinates":[[[35.638244,46.547459],[35.638333,46.547513],[35.638333,46.547514],[35.638455,46.547588],[35.638458,46.54759],[35.639734,46.546942],[35.639734,46.546941],[35.639903,46.546855],[35.639737,46.546754],[35.639642,46.546803],[35.639195,46.54703],[35.638244,46.547459]]]}},{"type":"Feature","properties":{"cadnum":"2324586801:03:018:0006"},"geometry":{"type":"Polygon","coordinates":[[[35.636934,46.546639],[35.637229,46.546867],[35.638016,46.54651],[35.637686,46.546291],[35.636934,46.546639]]]}},{"type":"Feature","properties":{"cadnum":"2324586801:03:018:0008"},"geometry":{"type":"Polygon","coordinates":[[[35.635907,46.545972],[35.636222,46.546205],[35.636972,46.545852],[35.636643,46.545628],[35.635907,46.545972]]]}},{"type":"Feature","properties":{"cadnum":"2324586801:03:018:0009"},"geometry":{"type":"Polygon","coordinates":[[[35.636643,46.545628],[35.636972,46.545852],[35.637245,46.545723],[35.637747,46.54547],[35.637437,46.545258],[35.636643,46.545628]]]}},{"type":"Feature","properties":{"cadnum":"2324586801:03:018:0003"},"geometry":{"type":"Polygon","coordinates":[[[35.633966,46.546492],[35.634069,46.546555],[35.634073,46.546557],[35.634241,46.546659],[35.634309,46.5467],[35.63431,46.5467],[35.635069,46.546311],[35.634721,46.5461],[35.634069,46.546439],[35.633966,46.546492]]]}},{"type":"Feature","properties":{"cadnum":"2324586801:03:018:0004"},"geometry":{"type":"Polygon","coordinates":[[[35.635571,46.545757],[35.635879,46.545965],[35.636679,46.545598],[35.636351,46.545381],[35.635571,46.545757]]]}},{"type":"Feature","properties":{"cadnum":"2324586801:03:018:0005"},"geometry":{"type":"Polygon","coordinates":[[[35.636351,46.545381],[35.636679,46.545598],[35.637009,46.545447],[35.637445,46.545234],[35.637102,46.545007],[35.636647,46.545237],[35.636351,46.545381]]]}},{"type":"Feature","properties":{"cadnum":"2324586801:03:018:0002"},"geometry":{"type":"Polygon","coordinates":[[[35.634721,46.5461],[35.635069,46.546311],[35.635817,46.545928],[35.635464,46.545715],[35.634721,46.5461]]]}},{"type":"Feature","properties":{"cadnum":"2324586801:03:004:0008"},"geometry":{"type":"Polygon","coordinates":[[[35.631352,46.544812],[35.631537,46.544942],[35.631588,46.544919],[35.631771,46.544815],[35.631786,46.544828],[35.631885,46.544774],[35.632856,46.544293],[35.632673,46.544163],[35.631732,46.544632],[35.631727,46.544627],[35.631708,46.544638],[35.631692,46.544625],[35.631606,46.544671],[35.631591,46.544678],[35.631576,46.544664],[35.63154,46.544684],[35.631555,46.544697],[35.631352,46.544812]]]}},{"type":"Feature","properties":{"cadnum":"2324586801:03:004:0007"},"geometry":{"type":"Polygon","coordinates":[[[35.632673,46.544163],[35.632856,46.544293],[35.633132,46.544155],[35.63294,46.544031],[35.632673,46.544163]]]}},{"type":"Feature","properties":{"cadnum":"2324586801:03:003:0007"},"geometry":{"type":"Polygon","coordinates":[[[35.657547,46.559769],[35.657869,46.560086],[35.659088,46.559388],[35.65886,46.559135],[35.657547,46.559769]]]}},{"type":"Feature","properties":{"cadnum":"2324586801:03:003:0008"},"geometry":{"type":"Polygon","coordinates":[[[35.656553,46.559657],[35.656753,46.559857],[35.65774,46.559387],[35.657536,46.559185],[35.656553,46.559657]]]}},{"type":"Feature","properties":{"cadnum":"2324586801:03:003:0006"},"geometry":{"type":"Polygon","coordinates":[[[35.656958,46.560053],[35.657313,46.560405],[35.657869,46.560086],[35.657547,46.559769],[35.656958,46.560053]]]}},{"type":"Feature","properties":{"cadnum":"2324586801:03:003:0009"},"geometry":{"type":"Polygon","coordinates":[[[35.657536,46.559185],[35.65774,46.559387],[35.65865,46.558953],[35.658651,46.558953],[35.65865,46.558952],[35.658447,46.558747],[35.658239,46.558846],[35.658099,46.558914],[35.657993,46.558964],[35.657536,46.559185]]]}},{"type":"Feature","properties":{"cadnum":"2324586801:01:001:0008"},"geometry":{"type":"Polygon","coordinates":[[[35.608625,46.585738],[35.610888,46.588301],[35.612097,46.587736],[35.612097,46.587737],[35.612259,46.587661],[35.610156,46.58528],[35.609995,46.585097],[35.609934,46.585126],[35.609604,46.58528],[35.608625,46.585738]]]}},{"type":"Feature","properties":{"cadnum":"2324586801:03:011:0009"},"geometry":{"type":"Polygon","coordinates":[[[35.646009,46.552177],[35.646267,46.552395],[35.647057,46.551999],[35.646743,46.55179],[35.646009,46.552177]]]}},{"type":"Feature","properties":{"cadnum":"2324586801:03:011:0010"},"geometry":{"type":"Polygon","coordinates":[[[35.646743,46.55179],[35.647057,46.551999],[35.647822,46.551614],[35.647472,46.55138],[35.647069,46.551618],[35.646743,46.55179]]]}},{"type":"Feature","properties":{"cadnum":"2324586801:03:011:0006"},"geometry":{"type":"Polygon","coordinates":[[[35.647749,46.552458],[35.648018,46.552742],[35.648714,46.552416],[35.64843,46.552116],[35.647914,46.552377],[35.647749,46.552458]]]}},{"type":"Feature","properties":{"cadnum":"2324586801:03:010:0004"},"geometry":{"type":"Polygon","coordinates":[[[35.648163,46.551494],[35.648492,46.551742],[35.648953,46.551519],[35.649234,46.551382],[35.648921,46.551145],[35.648622,46.551291],[35.64862,46.551291],[35.648599,46.551302],[35.648355,46.551409],[35.648356,46.551409],[35.648356,46.55141],[35.648355,46.55141],[35.648163,46.551494]]]}},{"type":"Feature","properties":{"cadnum":"2324586801:03:010:0003"},"geometry":{"type":"Polygon","coordinates":[[[35.648921,46.551145],[35.649115,46.551291],[35.649114,46.551291],[35.649234,46.551382],[35.649235,46.551382],[35.650004,46.551005],[35.649649,46.550787],[35.648921,46.551145]]]}},{"type":"Feature","properties":{"cadnum":"2324586801:03:011:0007"},"geometry":{"type":"Polygon","coordinates":[[[35.646186,46.553243],[35.646552,46.553475],[35.647155,46.553149],[35.646852,46.552901],[35.646186,46.553243]]]}},{"type":"Feature","properties":{"cadnum":"2324586801:03:005:0009"},"geometry":{"type":"Polygon","coordinates":[[[35.649087,46.554827],[35.649311,46.555056],[35.649868,46.554798],[35.64963,46.554568],[35.649087,46.554827]]]}},{"type":"Feature","properties":{"cadnum":"2324586801:03:007:0008"},"geometry":{"type":"Polygon","coordinates":[[[35.647269,46.555146],[35.647309,46.555187],[35.64731,46.555187],[35.64758,46.555453],[35.648213,46.555145],[35.648213,46.555144],[35.647894,46.55483],[35.647422,46.555069],[35.647421,46.555069],[35.647269,46.555146]]]}},{"type":"Feature","properties":{"cadnum":"2324586801:03:011:0003"},"geometry":{"type":"Polygon","coordinates":[[[35.645881,46.552994],[35.646232,46.55322],[35.646852,46.552901],[35.646556,46.55265],[35.645881,46.552994]]]}},{"type":"Feature","properties":{"cadnum":"2324586801:03:011:0005"},"geometry":{"type":"Polygon","coordinates":[[[35.646852,46.552901],[35.647155,46.553149],[35.648018,46.552742],[35.647749,46.552458],[35.646852,46.552901]]]}},{"type":"Feature","properties":{"cadnum":"2324586801:03:008:0004"},"geometry":{"type":"Polygon","coordinates":[[[35.650053,46.553254],[35.650379,46.553576],[35.650549,46.553499],[35.651001,46.553294],[35.650672,46.55297],[35.650053,46.553254]]]}},{"type":"Feature","properties":{"cadnum":"2324586801:03:007:0006"},"geometry":{"type":"Polygon","coordinates":[[[35.646947,46.553858],[35.647286,46.554138],[35.647924,46.553835],[35.64759,46.553534],[35.646947,46.553858]]]}},{"type":"Feature","properties":{"cadnum":"2324586801:03:007:0007"},"geometry":{"type":"Polygon","coordinates":[[[35.646283,46.554192],[35.646607,46.55446],[35.647286,46.554138],[35.646947,46.553858],[35.646283,46.554192]]]}},{"type":"Feature","properties":{"cadnum":"2324586801:03:011:0008"},"geometry":{"type":"Polygon","coordinates":[[[35.645502,46.553596],[35.645863,46.553825],[35.645907,46.553798],[35.645948,46.553805],[35.646267,46.553631],[35.646552,46.553475],[35.646186,46.553243],[35.645502,46.553596]]]}},{"type":"Feature","properties":{"cadnum":"2324586801:03:007:0005"},"geometry":{"type":"Polygon","coordinates":[[[35.647098,46.55497],[35.647194,46.555069],[35.647193,46.555069],[35.647268,46.555146],[35.647269,46.555146],[35.648409,46.55457],[35.648242,46.554398],[35.64758,46.554733],[35.647098,46.55497]]]}},{"type":"Feature","properties":{"cadnum":"2324586801:03:011:0004"},"geometry":{"type":"Polygon","coordinates":[[[35.64516,46.553376],[35.645502,46.553596],[35.646232,46.55322],[35.645881,46.552994],[35.645851,46.553009],[35.64516,46.553376]]]}},{"type":"Feature","properties":{"cadnum":"2324586801:03:005:0010"},"geometry":{"type":"Polygon","coordinates":[[[35.64963,46.554568],[35.649868,46.554798],[35.650549,46.554481],[35.650717,46.554403],[35.650471,46.554166],[35.64963,46.554568]]]}},{"type":"Feature","properties":{"cadnum":"2324586801:03:007:0004"},"geometry":{"type":"Polygon","coordinates":[[[35.648242,46.554398],[35.648409,46.55457],[35.648637,46.554455],[35.64847,46.554282],[35.648242,46.554398]]]}},{"type":"Feature","properties":{"cadnum":"2324586801:03:007:0009"},"geometry":{"type":"Polygon","coordinates":[[[35.647892,46.55483],[35.648135,46.555069],[35.648213,46.555144],[35.648213,46.555145],[35.649015,46.554754],[35.648687,46.554429],[35.648637,46.554455],[35.647892,46.55483]]]}},{"type":"Feature","properties":{"cadnum":"2324586801:03:004:0005"},"geometry":{"type":"Polygon","coordinates":[[[35.652696,46.555861],[35.652982,46.556146],[35.653671,46.555817],[35.653379,46.555526],[35.652696,46.555861]]]}},{"type":"Feature","properties":{"cadnum":"2324586801:03:005:0007"},"geometry":{"type":"Polygon","coordinates":[[[35.652661,46.557253],[35.652982,46.55756],[35.653608,46.557258],[35.653275,46.556939],[35.652809,46.557181],[35.652661,46.557253]]]}},{"type":"Feature","properties":{"cadnum":"2324586801:03:003:0010"},"geometry":{"type":"Polygon","coordinates":[[[35.654615,46.557759],[35.654863,46.558002],[35.655473,46.557703],[35.655656,46.55761],[35.655402,46.557362],[35.655161,46.557485],[35.654615,46.557759]]]}},{"type":"Feature","properties":{"cadnum":"2324586801:03:004:0002"},"geometry":{"type":"Polygon","coordinates":[[[35.653569,46.555157],[35.653599,46.555187],[35.6536,46.555187],[35.653758,46.555341],[35.654313,46.555069],[35.655487,46.554494],[35.655298,46.554311],[35.65375,46.555069],[35.653749,46.555069],[35.653569,46.555157]]]}},{"type":"Feature","properties":{"cadnum":"2324586801:03:003:0011"},"geometry":{"type":"Polygon","coordinates":[[[35.655402,46.557362],[35.655656,46.55761],[35.656214,46.557326],[35.657659,46.556591],[35.657427,46.556335],[35.656214,46.556951],[35.655402,46.557362]]]}},{"type":"Feature","properties":{"cadnum":"2324586801:03:004:0006"},"geometry":{"type":"Polygon","coordinates":[[[35.653379,46.555526],[35.653671,46.555817],[35.654988,46.555187],[35.655664,46.554864],[35.655357,46.554558],[35.654071,46.555187],[35.653379,46.555526]]]}},{"type":"Feature","properties":{"cadnum":"2324586801:03:004:0004"},"geometry":{"type":"Polygon","coordinates":[[[35.654552,46.555395],[35.654844,46.555695],[35.655918,46.55517],[35.655919,46.555169],[35.655918,46.555169],[35.655634,46.554879],[35.654988,46.555187],[35.654552,46.555395]]]}},{"type":"Feature","properties":{"cadnum":"2324586801:03:005:0003"},"geometry":{"type":"Polygon","coordinates":[[[35.650163,46.55607],[35.650491,46.556388],[35.650549,46.556359],[35.651347,46.555957],[35.65102,46.55564],[35.650721,46.55579],[35.650163,46.55607]]]}},{"type":"Feature","properties":{"cadnum":"2324586801:03:005:0004"},"geometry":{"type":"Polygon","coordinates":[[[35.651457,46.558315],[35.651751,46.558613],[35.652453,46.558277],[35.652161,46.557979],[35.651457,46.558315]]]}},{"type":"Feature","properties":{"cadnum":"2324586801:03:005:0002"},"geometry":{"type":"Polygon","coordinates":[[[35.65102,46.55564],[35.651347,46.555957],[35.651956,46.555652],[35.651629,46.555335],[35.65102,46.55564]]]}},{"type":"Feature","properties":{"cadnum":"2324586801:03:005:0006"},"geometry":{"type":"Polygon","coordinates":[[[35.651806,46.557669],[35.652119,46.557974],[35.652982,46.55756],[35.652661,46.557253],[35.651806,46.557669]]]}},{"type":"Feature","properties":{"cadnum":"2324586801:03:004:0003"},"geometry":{"type":"Polygon","coordinates":[[[35.652507,46.555678],[35.652696,46.555861],[35.653758,46.555341],[35.653569,46.555157],[35.652507,46.555678]]]}},{"type":"Feature","properties":{"cadnum":"2324586801:03:013:0004"},"geometry":{"type":"Polygon","coordinates":[[[35.639337,46.550921],[35.639563,46.55106],[35.639689,46.551137],[35.639734,46.551115],[35.639957,46.551006],[35.640399,46.550759],[35.640033,46.550533],[35.639834,46.550654],[35.639687,46.550735],[35.639337,46.550921]]]}},{"type":"Feature","properties":{"cadnum":"2324586801:03:014:0011"},"geometry":{"type":"Polygon","coordinates":[[[35.640772,46.548991],[35.641117,46.549185],[35.641896,46.548843],[35.641535,46.548629],[35.640772,46.548991]]]}},{"type":"Feature","properties":{"cadnum":"2324586801:03:014:0008"},"geometry":{"type":"Polygon","coordinates":[[[35.639274,46.54977],[35.639563,46.54995],[35.639595,46.54997],[35.639734,46.549892],[35.639734,46.549891],[35.639958,46.549766],[35.640334,46.549575],[35.640051,46.549338],[35.639682,46.549525],[35.639274,46.54977]]]}},{"type":"Feature","properties":{"cadnum":"2324586801:03:014:0005"},"geometry":{"type":"Polygon","coordinates":[[[35.641415,46.551076],[35.641747,46.551284],[35.642194,46.551031],[35.6425,46.550869],[35.642172,46.550664],[35.641726,46.550898],[35.641415,46.551076]]]}},{"type":"Feature","properties":{"cadnum":"2324586801:03:014:0003"},"geometry":{"type":"Polygon","coordinates":[[[35.641452,46.549422],[35.641806,46.549648],[35.643343,46.54889],[35.642984,46.548672],[35.641452,46.549422]]]}},{"type":"Feature","properties":{"cadnum":"2324586801:03:014:0009"},"geometry":{"type":"Polygon","coordinates":[[[35.640051,46.549338],[35.640334,46.549575],[35.641055,46.549207],[35.640745,46.548984],[35.640051,46.549338]]]}},{"type":"Feature","properties":{"cadnum":"2324586801:03:013:0003"},"geometry":{"type":"Polygon","coordinates":[[[35.638608,46.551305],[35.638611,46.551307],[35.638778,46.551409],[35.638932,46.551503],[35.639299,46.551326],[35.639562,46.551198],[35.639563,46.551198],[35.639563,46.551199],[35.639689,46.551137],[35.639337,46.550921],[35.638634,46.551291],[35.638633,46.551291],[35.638608,46.551305]]]}},{"type":"Feature","properties":{"cadnum":"2324586801:03:014:0004"},"geometry":{"type":"Polygon","coordinates":[[[35.642172,46.550664],[35.6425,46.550869],[35.643125,46.550539],[35.642801,46.550337],[35.642172,46.550664]]]}},{"type":"Feature","properties":{"cadnum":"2324586801:03:015:0004"},"geometry":{"type":"Polygon","coordinates":[[[35.643491,46.54829],[35.644204,46.548662],[35.644307,46.548059],[35.643491,46.54829]]]}},{"type":"Feature","properties":{"cadnum":"2324586801:03:014:0010"},"geometry":{"type":"Polygon","coordinates":[[[35.641535,46.548629],[35.641896,46.548843],[35.642357,46.54864],[35.642614,46.548468],[35.642262,46.54826],[35.641962,46.548427],[35.641535,46.548629]]]}},{"type":"Feature","properties":{"cadnum":"2324586801:03:016:0010"},"geometry":{"type":"Polygon","coordinates":[[[35.648197,46.547797],[35.648532,46.548039],[35.648926,46.547819],[35.649443,46.547514],[35.649881,46.547254],[35.649562,46.547024],[35.648687,46.547514],[35.648686,46.547514],[35.648494,46.547621],[35.648494,46.547622],[35.648477,46.547632],[35.648197,46.547797]]]}},{"type":"Feature","properties":{"cadnum":"2324586801:03:015:0014"},"geometry":{"type":"Polygon","coordinates":[[[35.645321,46.547849],[35.645713,46.548106],[35.646349,46.547754],[35.646012,46.547534],[35.645974,46.54751],[35.645967,46.547514],[35.645966,46.547514],[35.645321,46.547849]]]}},{"type":"Feature","properties":{"cadnum":"2324586801:03:015:0015"},"geometry":{"type":"Polygon","coordinates":[[[35.645974,46.54751],[35.64598,46.547513],[35.64598,46.547514],[35.646012,46.547534],[35.646159,46.547632],[35.64616,46.547632],[35.646161,46.547632],[35.646349,46.547754],[35.646652,46.547586],[35.647015,46.547385],[35.646661,46.547154],[35.645974,46.54751]]]}},{"type":"Feature","properties":{"cadnum":"2324586801:03:016:0005"},"geometry":{"type":"Polygon","coordinates":[[[35.64808,46.546956],[35.648454,46.547187],[35.648795,46.546992],[35.64922,46.54675],[35.648834,46.546515],[35.64808,46.546956]]]}},{"type":"Feature","properties":{"cadnum":"2324586801:03:016:0004"},"geometry":{"type":"Polygon","coordinates":[[[35.647421,46.547335],[35.647796,46.547567],[35.648139,46.547368],[35.648454,46.547187],[35.64808,46.546956],[35.647841,46.547097],[35.647421,46.547335]]]}},{"type":"Feature","properties":{"cadnum":"2324586801:03:016:0007"},"geometry":{"type":"Polygon","coordinates":[[[35.644122,46.545292],[35.644458,46.545519],[35.644762,46.545348],[35.645056,46.545182],[35.645056,46.545183],[35.645178,46.545114],[35.644857,46.544895],[35.644534,46.54507],[35.644122,46.545292]]]}},{"type":"Feature","properties":{"cadnum":"2324586801:03:016:0006"},"geometry":{"type":"Polygon","coordinates":[[[35.644857,46.544895],[35.645056,46.54503],[35.645056,46.545031],[35.645178,46.545114],[35.645227,46.545086],[35.64591,46.544702],[35.645584,46.5445],[35.645142,46.544741],[35.644857,46.544895]]]}},{"type":"Feature","properties":{"cadnum":"2324586801:03:010:0015"},"geometry":{"type":"Polygon","coordinates":[[[35.650805,46.550302],[35.651299,46.550611],[35.651488,46.550515],[35.651574,46.55058],[35.651827,46.55039],[35.651313,46.550062],[35.650805,46.550302]]]}},{"type":"Feature","properties":{"cadnum":"2324586801:03:010:0016"},"geometry":{"type":"Polygon","coordinates":[[[35.649703,46.55082],[35.650004,46.551005],[35.65024,46.551155],[35.650549,46.550997],[35.651299,46.550611],[35.650805,46.550302],[35.650549,46.550423],[35.649703,46.55082]]]}},{"type":"Feature","properties":{"cadnum":"2324586801:03:009:0004"},"geometry":{"type":"Polygon","coordinates":[[[35.6502,46.549058],[35.650549,46.549263],[35.650611,46.549299],[35.650721,46.549236],[35.651225,46.548946],[35.650818,46.548707],[35.650671,46.548785],[35.6502,46.549058]]]}},{"type":"Feature","properties":{"cadnum":"2324586801:03:009:0005"},"geometry":{"type":"Polygon","coordinates":[[[35.650818,46.548707],[35.651225,46.548946],[35.652105,46.548441],[35.651729,46.548222],[35.650818,46.548707]]]}},{"type":"Feature","properties":{"cadnum":"2324586801:03:009:0002"},"geometry":{"type":"Polygon","coordinates":[[[35.651195,46.548262],[35.651401,46.548393],[35.651596,46.548287],[35.651391,46.548158],[35.651195,46.548262]]]}},{"type":"Feature","properties":{"cadnum":"2324586801:03:009:0003"},"geometry":{"type":"Polygon","coordinates":[[[35.64999,46.548925],[35.650199,46.549058],[35.650549,46.548856],[35.650674,46.548785],[35.650721,46.54876],[35.650721,46.548759],[35.651401,46.548393],[35.651195,46.548263],[35.650678,46.548542],[35.650509,46.548632],[35.64999,46.548925]]]}},{"type":"Feature","properties":{"cadnum":"2324586801:03:006:0004"},"geometry":{"type":"Polygon","coordinates":[[[35.646477,46.556408],[35.646664,46.556589],[35.647432,46.556228],[35.647766,46.556047],[35.647593,46.555878],[35.647181,46.556085],[35.646477,46.556408]]]}},{"type":"Feature","properties":{"cadnum":"2324586801:03:006:0003"},"geometry":{"type":"Polygon","coordinates":[[[35.646241,46.556516],[35.646428,46.556699],[35.646664,46.556589],[35.646477,46.556408],[35.646241,46.556516]]]}},{"type":"Feature","properties":{"cadnum":"2324586801:03:005:0011"},"geometry":{"type":"Polygon","coordinates":[[[35.649477,46.557372],[35.649793,46.55768],[35.650428,46.557371],[35.650113,46.557062],[35.649477,46.557372]]]}},{"type":"Feature","properties":{"cadnum":"2324586801:01:001:0481"},"geometry":{"type":"Polygon","coordinates":[[[35.627758,46.553199],[35.628059,46.553496],[35.628748,46.553169],[35.63229,46.551489],[35.632189,46.551389],[35.631991,46.551192],[35.63178,46.551291],[35.631766,46.551298],[35.631531,46.551409],[35.631531,46.55141],[35.628576,46.552811],[35.627758,46.553199]]]}},{"type":"Feature","properties":{"cadnum":"2324586801:03:016:0003"},"geometry":{"type":"Polygon","coordinates":[[[35.64377,46.543378],[35.644231,46.543695],[35.644507,46.543503],[35.644047,46.543187],[35.64377,46.543378]]]}},{"type":"Feature","properties":{"cadnum":"2324586801:03:010:0006"},"geometry":{"type":"Polygon","coordinates":[[[35.648233,46.550673],[35.648599,46.550891],[35.649312,46.550558],[35.648969,46.550308],[35.648233,46.550673]]]}},{"type":"Feature","properties":{"cadnum":"2324586801:03:010:0002"},"geometry":{"type":"Polygon","coordinates":[[[35.647101,46.550827],[35.647466,46.551046],[35.647847,46.550831],[35.648948,46.550294],[35.648575,46.550111],[35.647552,46.550572],[35.647101,46.550827]]]}},{"type":"Feature","properties":{"cadnum":"2324586801:03:015:0013"},"geometry":{"type":"Polygon","coordinates":[[[35.646306,46.548643],[35.646501,46.548771],[35.646869,46.548594],[35.646657,46.548466],[35.646306,46.548643]]]}},{"type":"Feature","properties":{"cadnum":"2324586801:03:010:0005"},"geometry":{"type":"Polygon","coordinates":[[[35.647475,46.551049],[35.647818,46.551254],[35.648599,46.550891],[35.648233,46.550673],[35.647475,46.551049]]]}},{"type":"Feature","properties":{"cadnum":"2324586801:03:015:0012"},"geometry":{"type":"Polygon","coordinates":[[[35.646657,46.548466],[35.646869,46.548594],[35.648068,46.548017],[35.647828,46.547873],[35.646657,46.548466]]]}},{"type":"Feature","properties":{"cadnum":"2324586801:03:015:0005"},"geometry":{"type":"Polygon","coordinates":[[[35.64672,46.548887],[35.646991,46.549087],[35.648654,46.548383],[35.648264,46.548136],[35.64672,46.548887]]]}},{"type":"Feature","properties":{"cadnum":"2324586801:03:004:0009"},"geometry":{"type":"Polygon","coordinates":[[[35.653334,46.553851],[35.653454,46.553971],[35.653636,46.554158],[35.654666,46.553618],[35.654386,46.553342],[35.653334,46.553851]]]}},{"type":"Feature","properties":{"cadnum":"2324586801:03:005:0008"},"geometry":{"type":"Polygon","coordinates":[[[35.653485,46.554236],[35.653624,46.554372],[35.654826,46.553769],[35.654666,46.553618],[35.653485,46.554236]]]}},{"type":"Feature","properties":{"cadnum":"2324586801:03:008:0005"},"geometry":{"type":"Polygon","coordinates":[[[35.650672,46.55297],[35.651001,46.553294],[35.653208,46.552297],[35.65286,46.551966],[35.650672,46.55297]]]}},{"type":"Feature","properties":{"cadnum":"2324586801:03:013:0002"},"geometry":{"type":"Polygon","coordinates":[[[35.635612,46.548754],[35.635952,46.548973],[35.636782,46.548571],[35.636412,46.548356],[35.636206,46.548472],[35.635612,46.548754]]]}},{"type":"Feature","properties":{"cadnum":"2324586801:03:013:0006"},"geometry":{"type":"Polygon","coordinates":[[[35.635542,46.54956],[35.635917,46.549787],[35.6368,46.549379],[35.63643,46.549154],[35.635542,46.54956]]]}},{"type":"Feature","properties":{"cadnum":"2324586801:03:013:0007"},"geometry":{"type":"Polygon","coordinates":[[[35.63643,46.549154],[35.6368,46.549379],[35.637544,46.549036],[35.637177,46.548813],[35.63643,46.549154]]]}},{"type":"Feature","properties":{"cadnum":"2324586801:03:015:0003"},"geometry":{"type":"Polygon","coordinates":[[[35.6401,46.546614],[35.640456,46.546836],[35.640846,46.546604],[35.641136,46.546439],[35.640778,46.546217],[35.640539,46.54635],[35.6401,46.546614]]]}},{"type":"Feature","properties":{"cadnum":"2324586801:03:015:0006"},"geometry":{"type":"Polygon","coordinates":[[[35.641644,46.545825],[35.641977,46.54605],[35.642768,46.545625],[35.642821,46.545596],[35.642482,46.545374],[35.641644,46.545825]]]}},{"type":"Feature","properties":{"cadnum":"2324586801:03:015:0007"},"geometry":{"type":"Polygon","coordinates":[[[35.642482,46.545374],[35.642821,46.545596],[35.64353,46.54521],[35.643177,46.544979],[35.642577,46.545323],[35.642482,46.545374]]]}},{"type":"Feature","properties":{"cadnum":"2324586801:03:015:0009"},"geometry":{"type":"Polygon","coordinates":[[[35.640456,46.546836],[35.640803,46.547051],[35.641503,46.546655],[35.641145,46.546433],[35.640846,46.546604],[35.640456,46.546836]]]}},{"type":"Feature","properties":{"cadnum":"2324586801:03:015:0002"},"geometry":{"type":"Polygon","coordinates":[[[35.640778,46.546217],[35.641136,46.546439],[35.641877,46.546017],[35.641554,46.545785],[35.640778,46.546217]]]}},{"type":"Feature","properties":{"cadnum":"2324586801:03:015:0017"},"geometry":{"type":"Polygon","coordinates":[[[35.641267,46.545542],[35.641641,46.545806],[35.642492,46.545357],[35.642148,46.545116],[35.641267,46.545542]]]}},{"type":"Feature","properties":{"cadnum":"2324586801:03:015:0008"},"geometry":{"type":"Polygon","coordinates":[[[35.641145,46.546433],[35.641503,46.546655],[35.642231,46.546243],[35.641877,46.546017],[35.641145,46.546433]]]}}]}