{"type":"FeatureCollection","features":[{"type":"Feature","properties":{"cadnum":"2324555401:09:002:0003"},"geometry":{"type":"Polygon","coordinates":[[[35.704542,46.886956],[35.70488,46.886992],[35.705245,46.886983],[35.705257,46.886977],[35.705161,46.886592],[35.705042,46.886522],[35.705021,46.88651],[35.704632,46.886468],[35.70461,46.886581],[35.704611,46.886581],[35.704542,46.886956]]]}},{"type":"Feature","properties":{"cadnum":"2324555401:09:004:0007"},"geometry":{"type":"Polygon","coordinates":[[[35.705478,46.884917],[35.705481,46.88492],[35.705511,46.884949],[35.705652,46.885086],[35.705652,46.885085],[35.705786,46.885214],[35.705986,46.88509],[35.706265,46.884882],[35.706174,46.884825],[35.705892,46.884751],[35.705623,46.884839],[35.705478,46.884917]]]}},{"type":"Feature","properties":{"cadnum":"2324555401:06:001:0004"},"geometry":{"type":"Polygon","coordinates":[[[35.701968,46.884447],[35.702401,46.884614],[35.702902,46.884728],[35.702983,46.884618],[35.702517,46.884432],[35.702105,46.884279],[35.701968,46.884447]]]}},{"type":"Feature","properties":{"cadnum":"2324555401:09:002:0006"},"geometry":{"type":"Polygon","coordinates":[[[35.702114,46.886026],[35.702549,46.886097],[35.702747,46.885512],[35.702249,46.88546],[35.702172,46.885855],[35.702114,46.886026]]]}},{"type":"Feature","properties":{"cadnum":"2324555401:09:002:0002"},"geometry":{"type":"Polygon","coordinates":[[[35.704632,46.886468],[35.705021,46.88651],[35.704798,46.886379],[35.704699,46.886345],[35.70465,46.886366],[35.704632,46.886468]]]}},{"type":"Feature","properties":{"cadnum":"2324555401:09:002:0005"},"geometry":{"type":"Polygon","coordinates":[[[35.703179,46.886829],[35.703561,46.886868],[35.703714,46.886482],[35.703747,46.8864],[35.7038,46.886066],[35.703519,46.886038],[35.703398,46.886301],[35.70333,46.886464],[35.703329,46.886464],[35.703288,46.886563],[35.703281,46.886581],[35.703179,46.886829]]]}},{"type":"Feature","properties":{"cadnum":"2324555401:09:004:0012"},"geometry":{"type":"Polygon","coordinates":[[[35.705422,46.884706],[35.705481,46.884759],[35.705481,46.88476],[35.705542,46.884815],[35.705652,46.884762],[35.705708,46.884735],[35.705709,46.884735],[35.705711,46.884738],[35.705776,46.884705],[35.705813,46.884682],[35.705809,46.884676],[35.707031,46.883897],[35.706903,46.883795],[35.7058,46.884493],[35.705766,46.884515],[35.705684,46.884552],[35.705596,46.884597],[35.705568,46.884631],[35.705533,46.884653],[35.705454,46.88469],[35.705422,46.884706]]]}},{"type":"Feature","properties":{"cadnum":"2324555401:09:005:0002"},"geometry":{"type":"Polygon","coordinates":[[[35.701616,46.882489],[35.702067,46.882709],[35.702066,46.882709],[35.702184,46.882766],[35.702316,46.882827],[35.702317,46.882827],[35.702745,46.883022],[35.702765,46.883018],[35.70281,46.882968],[35.702811,46.882968],[35.702843,46.882981],[35.702938,46.882873],[35.702685,46.882756],[35.701735,46.882316],[35.701616,46.882489]]]}},{"type":"Feature","properties":{"cadnum":"2324555401:09:002:0007"},"geometry":{"type":"Polygon","coordinates":[[[35.70346,46.885927],[35.703854,46.885969],[35.703893,46.886078],[35.704257,46.886138],[35.704362,46.885689],[35.703517,46.8856],[35.70346,46.885927]]]}},{"type":"Feature","properties":{"cadnum":"2324555401:06:001:0003"},"geometry":{"type":"Polygon","coordinates":[[[35.702105,46.884279],[35.702517,46.884432],[35.702983,46.884618],[35.703084,46.88448],[35.702682,46.884329],[35.702227,46.884136],[35.702105,46.884279]]]}},{"type":"Feature","properties":{"cadnum":"2324555401:06:050:0016"},"geometry":{"type":"Polygon","coordinates":[[[35.75828,46.825183],[35.758293,46.825223],[35.758312,46.82522],[35.758342,46.825294],[35.758423,46.825478],[35.758616,46.825439],[35.758595,46.825392],[35.758643,46.825383],[35.75856,46.825111],[35.758511,46.825122],[35.758515,46.825135],[35.758515,46.825136],[35.758514,46.825136],[35.75835,46.825172],[35.75828,46.825183]]]}},{"type":"Feature","properties":{"cadnum":"2324555401:06:044:0009"},"geometry":{"type":"Polygon","coordinates":[[[35.775335,46.828507],[35.77674,46.828752],[35.776653,46.828465],[35.775423,46.828294],[35.775335,46.828507]]]}},{"type":"Feature","properties":{"cadnum":"2324555401:06:044:0008"},"geometry":{"type":"Polygon","coordinates":[[[35.774505,46.82836],[35.775044,46.828456],[35.775335,46.828507],[35.775423,46.828294],[35.774581,46.828177],[35.774505,46.82836]]]}},{"type":"Feature","properties":{"cadnum":"2324555401:06:043:0002"},"geometry":{"type":"Polygon","coordinates":[[[35.773779,46.82765],[35.774526,46.827787],[35.774592,46.827604],[35.773849,46.827454],[35.773779,46.82765]]]}},{"type":"Feature","properties":{"cadnum":"2324555401:06:043:0005"},"geometry":{"type":"Polygon","coordinates":[[[35.771087,46.827275],[35.771398,46.827326],[35.771399,46.827326],[35.771399,46.827327],[35.771496,46.827342],[35.771545,46.827222],[35.77157,46.827151],[35.77157,46.82715],[35.771647,46.826935],[35.77142,46.826898],[35.771244,46.826869],[35.771152,46.8271],[35.771087,46.827275]]]}},{"type":"Feature","properties":{"cadnum":"2324555401:06:043:0004"},"geometry":{"type":"Polygon","coordinates":[[[35.770808,46.828024],[35.771192,46.828099],[35.771398,46.827586],[35.771399,46.827586],[35.771496,46.827342],[35.771087,46.827275],[35.770808,46.828024]]]}},{"type":"Feature","properties":{"cadnum":"2324555401:09:004:0003"},"geometry":{"type":"Polygon","coordinates":[[[35.707377,46.885079],[35.708904,46.88518],[35.709114,46.884421],[35.708313,46.884382],[35.707402,46.885063],[35.707377,46.885079]]]}},{"type":"Feature","properties":{"cadnum":"2324555401:09:007:0003"},"geometry":{"type":"Polygon","coordinates":[[[35.707416,46.886426],[35.707693,46.886463],[35.707693,46.886464],[35.708341,46.886551],[35.708348,46.886552],[35.708403,46.886243],[35.708271,46.886224],[35.707502,46.886113],[35.707416,46.886426]]]}},{"type":"Feature","properties":{"cadnum":"2324555401:09:004:0004"},"geometry":{"type":"Polygon","coordinates":[[[35.706863,46.885384],[35.708813,46.885512],[35.708904,46.88518],[35.707377,46.885079],[35.706863,46.885384]]]}},{"type":"Feature","properties":{"cadnum":"2324555401:09:007:0002"},"geometry":{"type":"Polygon","coordinates":[[[35.706513,46.886306],[35.707416,46.886426],[35.707502,46.886113],[35.706619,46.885985],[35.706513,46.886306]]]}},{"type":"Feature","properties":{"cadnum":"2324555401:07:002:0004"},"geometry":{"type":"Polygon","coordinates":[[[35.775014,46.819386],[35.777063,46.820204],[35.777064,46.820204],[35.777617,46.820424],[35.777757,46.820273],[35.777054,46.81998],[35.775227,46.819217],[35.775014,46.819386]]]}},{"type":"Feature","properties":{"cadnum":"2324555401:04:046:0002"},"geometry":{"type":"Polygon","coordinates":[[[35.762541,46.823754],[35.764263,46.824189],[35.764352,46.824021],[35.762632,46.823586],[35.762541,46.823754]]]}},{"type":"Feature","properties":{"cadnum":"2324555401:09:004:0005"},"geometry":{"type":"Polygon","coordinates":[[[35.707465,46.887514],[35.707712,46.887534],[35.707786,46.887278],[35.7075,46.887256],[35.707465,46.887514]]]}},{"type":"Feature","properties":{"cadnum":"2324555401:09:001:0006"},"geometry":{"type":"Polygon","coordinates":[[[35.70511,46.887706],[35.70548,46.887664],[35.705481,46.887664],[35.705631,46.887647],[35.705615,46.887203],[35.705254,46.887179],[35.705254,46.88718],[35.70511,46.887706]]]}},{"type":"Feature","properties":{"cadnum":"2324555401:09:004:0006"},"geometry":{"type":"Polygon","coordinates":[[[35.706325,46.887419],[35.707465,46.887514],[35.7075,46.887256],[35.70636,46.887165],[35.706325,46.887419]]]}},{"type":"Feature","properties":{"cadnum":"2324555401:09:001:0007"},"geometry":{"type":"Polygon","coordinates":[[[35.704426,46.887573],[35.705031,46.887625],[35.705127,46.887206],[35.7051,46.887162],[35.704479,46.887109],[35.704426,46.887573]]]}},{"type":"Feature","properties":{"cadnum":"2324555401:09:001:0008"},"geometry":{"type":"Polygon","coordinates":[[[35.703256,46.887905],[35.703482,46.887921],[35.703516,46.887681],[35.703639,46.887033],[35.70337,46.887013],[35.703273,46.887729],[35.703256,46.887905]]]}},{"type":"Feature","properties":{"cadnum":"2324555401:09:001:0005"},"geometry":{"type":"Polygon","coordinates":[[[35.702882,46.887869],[35.703256,46.887905],[35.703273,46.887729],[35.70337,46.887013],[35.703096,46.886986],[35.702914,46.887696],[35.702882,46.887869]]]}},{"type":"Feature","properties":{"cadnum":"2324555401:09:001:0004"},"geometry":{"type":"Polygon","coordinates":[[[35.704386,46.887916],[35.704846,46.887882],[35.704978,46.887813],[35.705006,46.887735],[35.705031,46.887625],[35.704426,46.887573],[35.704386,46.887916]]]}},{"type":"Feature","properties":{"cadnum":"2324555401:09:001:0002"},"geometry":{"type":"Polygon","coordinates":[[[35.702611,46.88788],[35.702875,46.887899],[35.702914,46.887696],[35.703096,46.886986],[35.702814,46.886961],[35.702733,46.887429],[35.702611,46.88788]]]}},{"type":"Feature","properties":{"cadnum":"2324555401:09:001:0003"},"geometry":{"type":"Polygon","coordinates":[[[35.703802,46.887839],[35.704089,46.887863],[35.704207,46.887086],[35.703911,46.887058],[35.703802,46.887839]]]}}]}