{"type":"FeatureCollection","features":[{"type":"Feature","properties":{"cadnum":"2324587301:03:001:0002"},"geometry":{"type":"Polygon","coordinates":[[[35.670852,46.645813],[35.671288,46.646069],[35.671636,46.645679],[35.67167,46.645641],[35.671378,46.64547],[35.671143,46.645407],[35.670968,46.645651],[35.670967,46.645651],[35.670943,46.645685],[35.670883,46.645769],[35.670852,46.645813]]]}},{"type":"Feature","properties":{"cadnum":"2324587301:03:001:0004"},"geometry":{"type":"Polygon","coordinates":[[[35.670593,46.646854],[35.671025,46.647022],[35.672102,46.64581],[35.671813,46.645697],[35.67167,46.645641],[35.671661,46.645651],[35.670593,46.646854]]]}},{"type":"Feature","properties":{"cadnum":"2324587301:03:001:0003"},"geometry":{"type":"Polygon","coordinates":[[[35.670281,46.646611],[35.670672,46.64676],[35.671288,46.646069],[35.670852,46.645813],[35.670281,46.646611]]]}},{"type":"Feature","properties":{"cadnum":"2324587301:03:007:0006"},"geometry":{"type":"Polygon","coordinates":[[[35.677645,46.651109],[35.677983,46.651251],[35.678015,46.651214],[35.678058,46.651162],[35.678186,46.651011],[35.678186,46.65101],[35.678612,46.650508],[35.678247,46.650376],[35.678102,46.650553],[35.677645,46.651109]]]}},{"type":"Feature","properties":{"cadnum":"2324587301:03:005:0007"},"geometry":{"type":"Polygon","coordinates":[[[35.681215,46.649712],[35.681624,46.649859],[35.681921,46.649477],[35.681511,46.64933],[35.681439,46.649422],[35.681368,46.649514],[35.681347,46.64954],[35.681215,46.649712]]]}},{"type":"Feature","properties":{"cadnum":"2324587301:03:005:0002"},"geometry":{"type":"Polygon","coordinates":[[[35.679058,46.648191],[35.679576,46.648382],[35.68026,46.647486],[35.680038,46.647404],[35.679761,46.647302],[35.679478,46.647648],[35.679104,46.648133],[35.679058,46.648191]]]}},{"type":"Feature","properties":{"cadnum":"2324587301:03:004:0004"},"geometry":{"type":"Polygon","coordinates":[[[35.678767,46.646538],[35.679281,46.646733],[35.67954,46.646421],[35.679637,46.646303],[35.679114,46.646104],[35.679011,46.646229],[35.678767,46.646538]]]}},{"type":"Feature","properties":{"cadnum":"2324587301:03:003:0003"},"geometry":{"type":"Polygon","coordinates":[[[35.678342,46.646373],[35.678767,46.646538],[35.679011,46.646229],[35.679188,46.646016],[35.678751,46.645846],[35.678342,46.646373]]]}},{"type":"Feature","properties":{"cadnum":"2324587301:03:005:0003"},"geometry":{"type":"Polygon","coordinates":[[[35.68345,46.648312],[35.683508,46.648336],[35.683598,46.648373],[35.68368,46.648407],[35.684133,46.648594],[35.684389,46.64827],[35.683701,46.647987],[35.683508,46.648237],[35.68345,46.648312]]]}},{"type":"Feature","properties":{"cadnum":"2324587301:03:003:0004"},"geometry":{"type":"Polygon","coordinates":[[[35.678751,46.645846],[35.679188,46.646016],[35.679457,46.645691],[35.679666,46.64544],[35.679206,46.645263],[35.67881,46.645769],[35.678811,46.645769],[35.678751,46.645846]]]}},{"type":"Feature","properties":{"cadnum":"2324587301:03:004:0005"},"geometry":{"type":"Polygon","coordinates":[[[35.679114,46.646104],[35.679637,46.646303],[35.680082,46.645769],[35.680083,46.645769],[35.680218,46.645607],[35.679667,46.645438],[35.679667,46.645439],[35.67949,46.645651],[35.679454,46.645695],[35.679392,46.645769],[35.679114,46.646104]]]}},{"type":"Feature","properties":{"cadnum":"2324587301:03:004:0002"},"geometry":{"type":"Polygon","coordinates":[[[35.682322,46.647266],[35.682802,46.647446],[35.683311,46.646837],[35.682819,46.646654],[35.682322,46.647266]]]}},{"type":"Feature","properties":{"cadnum":"2324587301:03:004:0003"},"geometry":{"type":"Polygon","coordinates":[[[35.681937,46.64774],[35.682408,46.647916],[35.682802,46.647446],[35.682322,46.647266],[35.681937,46.64774]]]}},{"type":"Feature","properties":{"cadnum":"2324587301:03:003:0006"},"geometry":{"type":"Polygon","coordinates":[[[35.67313,46.643838],[35.673636,46.643997],[35.673881,46.643563],[35.673375,46.643404],[35.67313,46.643838]]]}},{"type":"Feature","properties":{"cadnum":"2324587301:03:004:0008"},"geometry":{"type":"Polygon","coordinates":[[[35.674663,46.64442],[35.675161,46.644608],[35.675583,46.644025],[35.675068,46.643831],[35.674663,46.64442]]]}},{"type":"Feature","properties":{"cadnum":"2324587301:03:002:0003"},"geometry":{"type":"Polygon","coordinates":[[[35.674687,46.646264],[35.675029,46.646466],[35.675528,46.645682],[35.675178,46.645552],[35.67511,46.645651],[35.675109,46.645651],[35.674687,46.646264]]]}},{"type":"Feature","properties":{"cadnum":"2324587301:03:004:0006"},"geometry":{"type":"Polygon","coordinates":[[[35.675801,46.645432],[35.676061,46.645527],[35.676706,46.644624],[35.67645,46.64453],[35.675801,46.645432]]]}},{"type":"Feature","properties":{"cadnum":"2324587301:03:003:0005"},"geometry":{"type":"Polygon","coordinates":[[[35.672892,46.644343],[35.673345,46.644511],[35.673636,46.643997],[35.67313,46.643838],[35.672983,46.644101],[35.672892,46.644343]]]}},{"type":"Feature","properties":{"cadnum":"2324587301:03:009:0002"},"geometry":{"type":"Polygon","coordinates":[[[35.683386,46.651227],[35.683508,46.65127],[35.683508,46.651271],[35.683629,46.651314],[35.68368,46.651332],[35.683862,46.651398],[35.684145,46.6511],[35.684758,46.650308],[35.684228,46.650144],[35.68365,46.650931],[35.683386,46.651227]]]}},{"type":"Feature","properties":{"cadnum":"2324587301:03:007:0005"},"geometry":{"type":"Polygon","coordinates":[[[35.678247,46.650377],[35.678612,46.650508],[35.679127,46.649897],[35.678751,46.649763],[35.678247,46.650377]]]}},{"type":"Feature","properties":{"cadnum":"2324587301:03:007:0004"},"geometry":{"type":"Polygon","coordinates":[[[35.681416,46.651336],[35.681874,46.651508],[35.68208,46.651248],[35.681782,46.651148],[35.681927,46.65096],[35.68176,46.6509],[35.681416,46.651336]]]}},{"type":"Feature","properties":{"cadnum":"2324587301:03:007:0002"},"geometry":{"type":"Polygon","coordinates":[[[35.680851,46.650846],[35.680991,46.650901],[35.681046,46.650834],[35.680995,46.650814],[35.681017,46.650786],[35.680981,46.650771],[35.680959,46.650799],[35.680958,46.650799],[35.680906,46.65078],[35.680851,46.650846]]]}},{"type":"Feature","properties":{"cadnum":"2324587301:03:009:0007"},"geometry":{"type":"Polygon","coordinates":[[[35.683095,46.651122],[35.683386,46.651227],[35.683508,46.65109],[35.68365,46.650931],[35.68368,46.650891],[35.683979,46.650484],[35.683677,46.650376],[35.683095,46.651122]]]}},{"type":"Feature","properties":{"cadnum":"2324587301:03:007:0003"},"geometry":{"type":"Polygon","coordinates":[[[35.679951,46.652116],[35.68111,46.65255],[35.681793,46.651687],[35.681334,46.651515],[35.681227,46.651649],[35.680527,46.651387],[35.679951,46.652116]]]}},{"type":"Feature","properties":{"cadnum":"2324587301:03:009:0008"},"geometry":{"type":"Polygon","coordinates":[[[35.684553,46.649648],[35.685049,46.649824],[35.685288,46.6495],[35.685403,46.649346],[35.684928,46.649176],[35.684731,46.649422],[35.684695,46.649467],[35.684637,46.64954],[35.684638,46.64954],[35.684553,46.649648]]]}},{"type":"Feature","properties":{"cadnum":"2324587301:03:009:0003"},"geometry":{"type":"Polygon","coordinates":[[[35.684707,46.651096],[35.685186,46.651281],[35.685734,46.650625],[35.685233,46.650454],[35.684707,46.651096]]]}},{"type":"Feature","properties":{"cadnum":"2324587301:03:011:0002"},"geometry":{"type":"Polygon","coordinates":[[[35.68656,46.649651],[35.687106,46.649847],[35.687432,46.649423],[35.686888,46.649229],[35.686738,46.649422],[35.686737,46.649422],[35.686689,46.649485],[35.686646,46.64954],[35.68656,46.649651]]]}},{"type":"Feature","properties":{"cadnum":"2324587301:03:009:0006"},"geometry":{"type":"Polygon","coordinates":[[[35.684236,46.650048],[35.684748,46.65023],[35.685049,46.649824],[35.684553,46.649648],[35.684236,46.650048]]]}},{"type":"Feature","properties":{"cadnum":"2324587301:03:009:0012"},"geometry":{"type":"Polygon","coordinates":[[[35.686828,46.653439],[35.687239,46.653588],[35.687451,46.653311],[35.687673,46.653021],[35.687272,46.652875],[35.687022,46.653193],[35.686828,46.653439]]]}},{"type":"Feature","properties":{"cadnum":"2324587301:03:009:0005"},"geometry":{"type":"Polygon","coordinates":[[[35.685237,46.652693],[35.685774,46.652884],[35.686115,46.65246],[35.685576,46.652268],[35.685237,46.652693]]]}},{"type":"Feature","properties":{"cadnum":"2324587301:03:009:0009"},"geometry":{"type":"Polygon","coordinates":[[[35.684761,46.65329],[35.68482,46.653311],[35.685297,46.65348],[35.685432,46.653311],[35.685774,46.652884],[35.685237,46.652693],[35.684838,46.653193],[35.684837,46.653193],[35.684761,46.65329]]]}},{"type":"Feature","properties":{"cadnum":"2324587301:03:009:0015"},"geometry":{"type":"Polygon","coordinates":[[[35.686368,46.652343],[35.686705,46.652472],[35.687345,46.651814],[35.687152,46.651747],[35.687117,46.651783],[35.687028,46.65175],[35.686643,46.652022],[35.686368,46.652343]]]}},{"type":"Feature","properties":{"cadnum":"2324587301:03:009:0004"},"geometry":{"type":"Polygon","coordinates":[[[35.684322,46.651564],[35.684795,46.651748],[35.685186,46.651281],[35.684707,46.651096],[35.684322,46.651564]]]}},{"type":"Feature","properties":{"cadnum":"2324587301:03:009:0010"},"geometry":{"type":"Polygon","coordinates":[[[35.688026,46.650736],[35.68871,46.650977],[35.688966,46.650635],[35.688293,46.650397],[35.688026,46.650736]]]}},{"type":"Feature","properties":{"cadnum":"2324587301:03:009:0011"},"geometry":{"type":"Polygon","coordinates":[[[35.687659,46.651201],[35.688359,46.651447],[35.68871,46.650977],[35.688026,46.650736],[35.687659,46.651201]]]}},{"type":"Feature","properties":{"cadnum":"2324587301:03:008:0006"},"geometry":{"type":"Polygon","coordinates":[[[35.688396,46.654493],[35.688974,46.654696],[35.689001,46.654656],[35.689169,46.654405],[35.689173,46.6544],[35.689359,46.654121],[35.689065,46.654017],[35.688781,46.653916],[35.688431,46.65444],[35.688396,46.654493]]]}},{"type":"Feature","properties":{"cadnum":"2324587301:03:009:0013"},"geometry":{"type":"Polygon","coordinates":[[[35.686222,46.654205],[35.686647,46.654359],[35.687239,46.653588],[35.686828,46.653439],[35.686222,46.654205]]]}},{"type":"Feature","properties":{"cadnum":"2324587301:03:011:0012"},"geometry":{"type":"Polygon","coordinates":[[[35.686418,46.648914],[35.686926,46.649098],[35.68711,46.648861],[35.686634,46.648663],[35.686418,46.648914]]]}},{"type":"Feature","properties":{"cadnum":"2324587301:03:011:0003"},"geometry":{"type":"Polygon","coordinates":[[[35.686888,46.649229],[35.687432,46.649423],[35.68763,46.649163],[35.687087,46.648969],[35.686888,46.649229]]]}},{"type":"Feature","properties":{"cadnum":"2324587301:03:005:0004"},"geometry":{"type":"Polygon","coordinates":[[[35.683701,46.647987],[35.684389,46.64827],[35.684967,46.647538],[35.684948,46.647448],[35.684301,46.647205],[35.683701,46.647987]]]}},{"type":"Feature","properties":{"cadnum":"2324587301:03:002:0002"},"geometry":{"type":"Polygon","coordinates":[[[35.674274,46.646902],[35.674576,46.64708],[35.674784,46.646851],[35.675029,46.646466],[35.674687,46.646264],[35.674411,46.646668],[35.674457,46.646685],[35.674274,46.646902]]]}},{"type":"Feature","properties":{"cadnum":"2324587301:03:006:0002"},"geometry":{"type":"Polygon","coordinates":[[[35.675747,46.648402],[35.676025,46.648506],[35.676275,46.648145],[35.676765,46.647549],[35.676544,46.647466],[35.676049,46.648049],[35.675747,46.648402]]]}},{"type":"Feature","properties":{"cadnum":"2324587301:03:006:0005"},"geometry":{"type":"Polygon","coordinates":[[[35.677183,46.648188],[35.677567,46.648337],[35.677885,46.647933],[35.677509,46.647788],[35.677183,46.648188]]]}},{"type":"Feature","properties":{"cadnum":"2324587301:03:006:0004"},"geometry":{"type":"Polygon","coordinates":[[[35.676717,46.648763],[35.677111,46.648916],[35.677539,46.648373],[35.677567,46.648337],[35.677183,46.648188],[35.676717,46.648763]]]}},{"type":"Feature","properties":{"cadnum":"2324587301:03:006:0003"},"geometry":{"type":"Polygon","coordinates":[[[35.676688,46.646705],[35.677248,46.646906],[35.677588,46.646508],[35.677017,46.646303],[35.676688,46.646705]]]}}]}