{"type":"FeatureCollection","features":[{"type":"Feature","properties":{"cadnum":"2324984005:10:002:0076"},"geometry":{"type":"Polygon","coordinates":[[[36.844721,47.50418],[36.844797,47.504411],[36.846031,47.504237],[36.845955,47.504006],[36.844721,47.50418]]]}},{"type":"Feature","properties":{"cadnum":"2324984005:10:002:0105"},"geometry":{"type":"Polygon","coordinates":[[[36.843656,47.504009],[36.843688,47.504188],[36.845887,47.504007],[36.845855,47.503828],[36.843656,47.504009]]]}},{"type":"Feature","properties":{"cadnum":"2324984005:10:002:0104"},"geometry":{"type":"Polygon","coordinates":[[[36.846873,47.503377],[36.846895,47.503488],[36.847863,47.503402],[36.847921,47.503706],[36.84792,47.503706],[36.846954,47.503792],[36.84698,47.503925],[36.848059,47.503824],[36.848215,47.50381],[36.84823,47.503808],[36.84882,47.503752],[36.848735,47.503333],[36.848284,47.50336],[36.848216,47.503257],[36.847992,47.503277],[36.846873,47.503377]]]}},{"type":"Feature","properties":{"cadnum":"2324984005:10:002:0103"},"geometry":{"type":"Polygon","coordinates":[[[36.846895,47.503488],[36.846954,47.503792],[36.847921,47.503706],[36.847863,47.503402],[36.846895,47.503488]]]}},{"type":"Feature","properties":{"cadnum":"2324984005:10:002:0075"},"geometry":{"type":"Polygon","coordinates":[[[36.843681,47.504326],[36.843758,47.504557],[36.844642,47.504432],[36.844797,47.504411],[36.844721,47.50418],[36.843681,47.504326]]]}},{"type":"Feature","properties":{"cadnum":"2324984005:10:002:0083"},"geometry":{"type":"Polygon","coordinates":[[[36.839684,47.491237],[36.839705,47.491328],[36.839706,47.491328],[36.839728,47.491415],[36.840809,47.491271],[36.84081,47.491271],[36.840763,47.491094],[36.839875,47.491212],[36.839874,47.491212],[36.839687,47.491237],[36.839684,47.491237]]]}},{"type":"Feature","properties":{"cadnum":"2324984005:10:002:0074"},"geometry":{"type":"Polygon","coordinates":[[[36.842529,47.489045],[36.842566,47.489211],[36.842566,47.489212],[36.842621,47.489464],[36.842737,47.489451],[36.842737,47.48945],[36.84331,47.489385],[36.843227,47.488964],[36.842717,47.489024],[36.842529,47.489045]]]}},{"type":"Feature","properties":{"cadnum":"2324984005:10:002:0082"},"geometry":{"type":"Polygon","coordinates":[[[36.849408,47.489369],[36.849413,47.489396],[36.849547,47.490048],[36.850077,47.489984],[36.849938,47.489304],[36.849408,47.489369]]]}},{"type":"Feature","properties":{"cadnum":"2324984005:10:002:0062"},"geometry":{"type":"Polygon","coordinates":[[[36.844984,47.498081],[36.845029,47.4983],[36.845313,47.49827],[36.845512,47.498246],[36.845464,47.498035],[36.844984,47.498081]]]}},{"type":"Feature","properties":{"cadnum":"2324984005:10:002:0081"},"geometry":{"type":"Polygon","coordinates":[[[36.841198,47.497152],[36.841246,47.497372],[36.842565,47.497202],[36.842566,47.497202],[36.842566,47.497203],[36.842736,47.497181],[36.842678,47.496962],[36.841198,47.497152]]]}},{"type":"Feature","properties":{"cadnum":"2324984005:10:002:0100"},"geometry":{"type":"Polygon","coordinates":[[[36.845748,47.49605],[36.845784,47.496266],[36.8466,47.496184],[36.846563,47.495968],[36.845748,47.49605]]]}},{"type":"Feature","properties":{"cadnum":"2324984005:10:002:0087"},"geometry":{"type":"Polygon","coordinates":[[[36.842944,47.497384],[36.843008,47.497631],[36.844179,47.49748],[36.844115,47.497234],[36.842944,47.497384]]]}},{"type":"Feature","properties":{"cadnum":"2324984005:10:002:0086"},"geometry":{"type":"Polygon","coordinates":[[[36.841296,47.497596],[36.841349,47.497844],[36.842737,47.497666],[36.843008,47.497631],[36.842944,47.497384],[36.84282,47.497401],[36.842737,47.497412],[36.841296,47.497596]]]}},{"type":"Feature","properties":{"cadnum":"2324984005:10:002:0090"},"geometry":{"type":"Polygon","coordinates":[[[36.841495,47.498109],[36.84155,47.498324],[36.842565,47.498172],[36.842566,47.498172],[36.842566,47.498173],[36.842709,47.498151],[36.842655,47.497956],[36.841495,47.498109]]]}},{"type":"Feature","properties":{"cadnum":"2324984005:10:002:0091"},"geometry":{"type":"Polygon","coordinates":[[[36.842655,47.497956],[36.842709,47.498151],[36.842861,47.498128],[36.844285,47.497915],[36.844238,47.497746],[36.842655,47.497956]]]}},{"type":"Feature","properties":{"cadnum":"2324984005:10:001:0072"},"geometry":{"type":"Polygon","coordinates":[[[36.839036,47.49499],[36.839048,47.495039],[36.839049,47.495039],[36.83914,47.495397],[36.840652,47.495222],[36.840574,47.494923],[36.840546,47.494814],[36.839604,47.494923],[36.839603,47.494923],[36.839036,47.49499]]]}},{"type":"Feature","properties":{"cadnum":"2324984005:10:002:0109"},"geometry":{"type":"Polygon","coordinates":[[[36.841801,47.49327],[36.841867,47.493504],[36.842565,47.493435],[36.842566,47.493435],[36.843072,47.493384],[36.843004,47.493136],[36.842566,47.493185],[36.842565,47.493185],[36.841801,47.49327]]]}},{"type":"Feature","properties":{"cadnum":"2324984005:10:002:0107"},"geometry":{"type":"Polygon","coordinates":[[[36.840528,47.494479],[36.840594,47.494726],[36.842197,47.494538],[36.842128,47.494292],[36.840528,47.494479]]]}},{"type":"Feature","properties":{"cadnum":"2324984005:10:002:0108"},"geometry":{"type":"Polygon","coordinates":[[[36.840239,47.493444],[36.840291,47.493661],[36.841867,47.493504],[36.841801,47.49327],[36.841631,47.493289],[36.840239,47.493444]]]}},{"type":"Feature","properties":{"cadnum":"2324984005:10:002:0102"},"geometry":{"type":"Polygon","coordinates":[[[36.840066,47.492756],[36.840131,47.493021],[36.841801,47.492836],[36.841727,47.492569],[36.840066,47.492756]]]}},{"type":"Feature","properties":{"cadnum":"2324984005:10:002:0110"},"geometry":{"type":"Polygon","coordinates":[[[36.842128,47.494292],[36.842197,47.494538],[36.842565,47.494496],[36.842566,47.494496],[36.842607,47.494491],[36.842737,47.494476],[36.843368,47.494401],[36.843299,47.494155],[36.842572,47.49424],[36.842128,47.494292]]]}},{"type":"Feature","properties":{"cadnum":"2324984005:10:002:0101"},"geometry":{"type":"Polygon","coordinates":[[[36.844431,47.49007],[36.844478,47.490229],[36.844584,47.490597],[36.845032,47.49055],[36.844882,47.490015],[36.844431,47.49007]]]}},{"type":"Feature","properties":{"cadnum":"2324984005:10:002:0065"},"geometry":{"type":"Polygon","coordinates":[[[36.845661,47.489282],[36.845732,47.489555],[36.845819,47.489887],[36.846296,47.489814],[36.846213,47.489483],[36.846149,47.489225],[36.845661,47.489282]]]}},{"type":"Feature","properties":{"cadnum":"2324984005:10:002:0066"},"geometry":{"type":"Polygon","coordinates":[[[36.845819,47.489887],[36.846031,47.490529],[36.846508,47.490457],[36.846296,47.489814],[36.845819,47.489887]]]}},{"type":"Feature","properties":{"cadnum":"2324984005:10:002:0111"},"geometry":{"type":"Polygon","coordinates":[[[36.842843,47.490402],[36.84294,47.490781],[36.844584,47.490597],[36.844478,47.490229],[36.842843,47.490402]]]}},{"type":"Feature","properties":{"cadnum":"2324984005:10:002:0112"},"geometry":{"type":"Polygon","coordinates":[[[36.844257,47.490688],[36.844308,47.490912],[36.845596,47.490782],[36.845547,47.490558],[36.844257,47.490688]]]}},{"type":"Feature","properties":{"cadnum":"2324984005:10:002:0079"},"geometry":{"type":"Polygon","coordinates":[[[36.844935,47.492494],[36.844986,47.492691],[36.845024,47.492686],[36.845997,47.492558],[36.845952,47.492357],[36.844935,47.492494]]]}},{"type":"Feature","properties":{"cadnum":"2324984005:10:002:0069"},"geometry":{"type":"Polygon","coordinates":[[[36.842261,47.500831],[36.84233,47.50107],[36.842737,47.50102],[36.843766,47.500892],[36.843856,47.500881],[36.843789,47.500641],[36.842737,47.500772],[36.842261,47.500831]]]}},{"type":"Feature","properties":{"cadnum":"2324984005:10:001:0066"},"geometry":{"type":"Polygon","coordinates":[[[36.836869,47.49858],[36.836914,47.498751],[36.836915,47.498751],[36.836949,47.498877],[36.837072,47.498862],[36.838085,47.498736],[36.838088,47.498735],[36.838087,47.498735],[36.838012,47.498437],[36.837244,47.498534],[36.837244,47.498533],[36.836869,47.49858]]]}},{"type":"Feature","properties":{"cadnum":"2324984005:10:001:0058"},"geometry":{"type":"Polygon","coordinates":[[[36.836415,47.496902],[36.836489,47.497178],[36.837244,47.497084],[36.837557,47.497045],[36.837581,47.497042],[36.837512,47.496766],[36.837244,47.496799],[36.836415,47.496902]]]}},{"type":"Feature","properties":{"cadnum":"2324984005:10:001:0056"},"geometry":{"type":"Polygon","coordinates":[[[36.836563,47.497447],[36.836638,47.497726],[36.837244,47.497651],[36.837244,47.49765],[36.837731,47.497589],[36.837661,47.49731],[36.837625,47.497315],[36.837072,47.497383],[36.837072,47.497384],[36.836563,47.497447]]]}},{"type":"Feature","properties":{"cadnum":"2324984005:10:001:0054"},"geometry":{"type":"Polygon","coordinates":[[[36.836323,47.496563],[36.836415,47.496902],[36.837072,47.49682],[36.837072,47.496821],[36.837512,47.496766],[36.837708,47.496741],[36.837622,47.496401],[36.837441,47.496424],[36.837072,47.49647],[36.837072,47.496471],[36.836323,47.496563]]]}},{"type":"Feature","properties":{"cadnum":"2324984005:10:001:0061"},"geometry":{"type":"Polygon","coordinates":[[[36.836248,47.496283],[36.836323,47.496563],[36.837244,47.496449],[36.837441,47.496424],[36.837371,47.496144],[36.837072,47.496181],[36.836248,47.496283]]]}},{"type":"Feature","properties":{"cadnum":"2324984005:10:001:0063"},"geometry":{"type":"Polygon","coordinates":[[[36.836489,47.497178],[36.836563,47.497447],[36.837244,47.497363],[36.837244,47.497362],[36.837625,47.497315],[36.837557,47.497045],[36.837072,47.497105],[36.837072,47.497106],[36.836489,47.497178]]]}},{"type":"Feature","properties":{"cadnum":"2324984005:10:002:0070"},"geometry":{"type":"Polygon","coordinates":[[[36.843789,47.500641],[36.843856,47.500881],[36.84506,47.50073],[36.844992,47.500491],[36.843789,47.500641]]]}},{"type":"Feature","properties":{"cadnum":"2324984005:10:002:0099"},"geometry":{"type":"Polygon","coordinates":[[[36.840979,47.496242],[36.841035,47.496455],[36.842465,47.496287],[36.842469,47.496287],[36.84241,47.496075],[36.840979,47.496242]]]}},{"type":"Feature","properties":{"cadnum":"2324984005:10:001:0059"},"geometry":{"type":"Polygon","coordinates":[[[36.837512,47.496766],[36.837581,47.497042],[36.838629,47.496911],[36.83856,47.496635],[36.837708,47.496741],[36.837512,47.496766]]]}},{"type":"Feature","properties":{"cadnum":"2324984005:10:002:0080"},"geometry":{"type":"Polygon","coordinates":[[[36.840841,47.495721],[36.840909,47.495975],[36.842563,47.495782],[36.842493,47.495528],[36.840841,47.495721]]]}},{"type":"Feature","properties":{"cadnum":"2324984005:10:001:0062"},"geometry":{"type":"Polygon","coordinates":[[[36.839568,47.496123],[36.839649,47.49643],[36.839751,47.496418],[36.840899,47.496284],[36.840827,47.495977],[36.83967,47.496111],[36.839568,47.496123]]]}},{"type":"Feature","properties":{"cadnum":"2324984005:10:001:0071"},"geometry":{"type":"Polygon","coordinates":[[[36.839598,47.495834],[36.83967,47.496111],[36.840827,47.495977],[36.840762,47.495699],[36.839598,47.495834]]]}},{"type":"Feature","properties":{"cadnum":"2324984005:10:001:0055"},"geometry":{"type":"Polygon","coordinates":[[[36.837622,47.496401],[36.837708,47.496741],[36.83856,47.496635],[36.838474,47.496295],[36.837622,47.496401]]]}}]}