{"type":"FeatureCollection","features":[{"type":"Feature","properties":{"cadnum":"2324581401:04:018:0008"},"geometry":{"type":"Polygon","coordinates":[[[35.864548,46.676107],[35.864954,46.676203],[35.864954,46.676202],[35.865195,46.676259],[35.865397,46.675851],[35.864954,46.675749],[35.864749,46.675701],[35.864635,46.675929],[35.864635,46.67593],[35.864548,46.676107]]]}},{"type":"Feature","properties":{"cadnum":"2324581401:05:016:0003"},"geometry":{"type":"Polygon","coordinates":[[[35.861231,46.676043],[35.861911,46.676203],[35.862103,46.675816],[35.861424,46.675655],[35.861346,46.675812],[35.861345,46.675812],[35.861231,46.676043]]]}},{"type":"Feature","properties":{"cadnum":"2324581401:04:018:0002"},"geometry":{"type":"Polygon","coordinates":[[[35.863566,46.678317],[35.864471,46.678468],[35.864616,46.678168],[35.863711,46.678016],[35.863566,46.678317]]]}},{"type":"Feature","properties":{"cadnum":"2324581401:04:018:0003"},"geometry":{"type":"Polygon","coordinates":[[[35.863511,46.678429],[35.864086,46.678527],[35.86414,46.678413],[35.863566,46.678317],[35.863511,46.678429]]]}},{"type":"Feature","properties":{"cadnum":"2324581401:05:016:0002"},"geometry":{"type":"Polygon","coordinates":[[[35.860552,46.675882],[35.860751,46.675929],[35.861231,46.676043],[35.861287,46.675929],[35.861424,46.675655],[35.860746,46.675495],[35.860588,46.675812],[35.860587,46.675812],[35.860552,46.675882]]]}},{"type":"Feature","properties":{"cadnum":"2324581401:01:004:0033"},"geometry":{"type":"Polygon","coordinates":[[[35.81948,46.679028],[35.821009,46.679215],[35.823415,46.679508],[35.823357,46.678955],[35.820837,46.678648],[35.820837,46.678649],[35.819531,46.678489],[35.81948,46.679028]]]}},{"type":"Feature","properties":{"cadnum":"2324581401:04:020:0021"},"geometry":{"type":"Polygon","coordinates":[[[35.844199,46.684963],[35.844274,46.685357],[35.845253,46.685246],[35.845178,46.684851],[35.844199,46.684963]]]}},{"type":"Feature","properties":{"cadnum":"2324581401:04:020:0015"},"geometry":{"type":"Polygon","coordinates":[[[35.843077,46.684219],[35.843177,46.684657],[35.84383,46.684616],[35.843727,46.684167],[35.843077,46.684219]]]}},{"type":"Feature","properties":{"cadnum":"2324581401:04:028:0008"},"geometry":{"type":"Polygon","coordinates":[[[35.847048,46.684863],[35.847081,46.685024],[35.847797,46.684978],[35.847764,46.684818],[35.847048,46.684863]]]}},{"type":"Feature","properties":{"cadnum":"2324581401:04:021:0005"},"geometry":{"type":"Polygon","coordinates":[[[35.846467,46.685583],[35.846486,46.685654],[35.846797,46.685628],[35.846853,46.685913],[35.847321,46.68588],[35.847249,46.68552],[35.846467,46.685583]]]}},{"type":"Feature","properties":{"cadnum":"2324581401:04:020:0019"},"geometry":{"type":"Polygon","coordinates":[[[35.84498,46.684056],[35.84504,46.684345],[35.845776,46.684267],[35.845713,46.683983],[35.84498,46.684056]]]}},{"type":"Feature","properties":{"cadnum":"2324581401:04:034:0003"},"geometry":{"type":"Polygon","coordinates":[[[35.846101,46.683517],[35.846148,46.683732],[35.847033,46.68366],[35.84699,46.683445],[35.846101,46.683517]]]}},{"type":"Feature","properties":{"cadnum":"2324581401:04:021:0010"},"geometry":{"type":"Polygon","coordinates":[[[35.846534,46.683868],[35.846589,46.684084],[35.846593,46.684096],[35.846656,46.684099],[35.846714,46.684102],[35.847041,46.68407],[35.847572,46.684026],[35.847538,46.683791],[35.847528,46.683779],[35.84705,46.683821],[35.846534,46.683868]]]}},{"type":"Feature","properties":{"cadnum":"2324581401:04:020:0022"},"geometry":{"type":"Polygon","coordinates":[[[35.84234,46.684514],[35.842376,46.684733],[35.842377,46.684733],[35.84281,46.68469],[35.842882,46.684683],[35.842964,46.68467],[35.842865,46.684236],[35.842434,46.684271],[35.842476,46.684505],[35.84234,46.684514]]]}},{"type":"Feature","properties":{"cadnum":"2324581401:04:027:0013"},"geometry":{"type":"Polygon","coordinates":[[[35.842226,46.683883],[35.842269,46.684097],[35.84281,46.684052],[35.842916,46.684043],[35.842863,46.683813],[35.842226,46.683883]]]}},{"type":"Feature","properties":{"cadnum":"2324581401:04:021:0007"},"geometry":{"type":"Polygon","coordinates":[[[35.846297,46.684767],[35.846327,46.684931],[35.846972,46.68488],[35.847048,46.684863],[35.848033,46.684777],[35.848019,46.684656],[35.846875,46.684722],[35.846297,46.684767]]]}},{"type":"Feature","properties":{"cadnum":"2324581401:07:027:0012"},"geometry":{"type":"Polygon","coordinates":[[[35.842106,46.68332],[35.842112,46.683349],[35.842111,46.683349],[35.842175,46.683637],[35.842503,46.683608],[35.842587,46.683594],[35.84271,46.683572],[35.84274,46.683565],[35.842981,46.683543],[35.843085,46.683533],[35.843451,46.683519],[35.843746,46.683511],[35.843737,46.683465],[35.84368,46.683149],[35.843317,46.683185],[35.842977,46.68321],[35.842106,46.68332]]]}},{"type":"Feature","properties":{"cadnum":"2324581401:04:020:0007"},"geometry":{"type":"Polygon","coordinates":[[[35.845077,46.685351],[35.84515,46.685664],[35.846066,46.685556],[35.845993,46.685243],[35.845077,46.685351]]]}},{"type":"Feature","properties":{"cadnum":"2324581401:04:020:0016"},"geometry":{"type":"Polygon","coordinates":[[[35.842863,46.684236],[35.842964,46.68467],[35.842981,46.684669],[35.843177,46.684657],[35.843077,46.684219],[35.842863,46.684236]]]}},{"type":"Feature","properties":{"cadnum":"2324581401:04:020:0014"},"geometry":{"type":"Polygon","coordinates":[[[35.845061,46.684346],[35.845111,46.68456],[35.845865,46.684483],[35.845816,46.68427],[35.845061,46.684346]]]}},{"type":"Feature","properties":{"cadnum":"2324581401:04:020:0018"},"geometry":{"type":"Polygon","coordinates":[[[35.843578,46.684632],[35.843651,46.684998],[35.844139,46.684957],[35.84408,46.6846],[35.84383,46.684616],[35.843578,46.684632]]]}},{"type":"Feature","properties":{"cadnum":"2324581401:04:020:0020"},"geometry":{"type":"Polygon","coordinates":[[[35.845178,46.684851],[35.845253,46.685246],[35.845324,46.685238],[35.845997,46.685181],[35.845926,46.684808],[35.845354,46.684831],[35.845178,46.684851]]]}},{"type":"Feature","properties":{"cadnum":"2324581401:04:020:0017"},"geometry":{"type":"Polygon","coordinates":[[[35.842417,46.684908],[35.842457,46.685096],[35.84281,46.685067],[35.84281,46.685068],[35.843651,46.684998],[35.843578,46.684632],[35.843239,46.684654],[35.843266,46.684833],[35.84281,46.684874],[35.842417,46.684908]]]}},{"type":"Feature","properties":{"cadnum":"2324581401:04:006:0002"},"geometry":{"type":"Polygon","coordinates":[[[35.840286,46.692587],[35.840327,46.692765],[35.841907,46.692598],[35.841864,46.692413],[35.840286,46.692587]]]}},{"type":"Feature","properties":{"cadnum":"2324581401:04:004:0005"},"geometry":{"type":"Polygon","coordinates":[[[35.83854,46.691426],[35.838566,46.691616],[35.83922,46.691557],[35.83969,46.691502],[35.83965,46.691336],[35.838718,46.691417],[35.83854,46.691426]]]}},{"type":"Feature","properties":{"cadnum":"2324581401:04:004:0002"},"geometry":{"type":"Polygon","coordinates":[[[35.838022,46.692122],[35.838175,46.692859],[35.839961,46.692686],[35.839808,46.69195],[35.838022,46.692122]]]}},{"type":"Feature","properties":{"cadnum":"2324581401:04:034:0004"},"geometry":{"type":"Polygon","coordinates":[[[35.845513,46.68156],[35.845531,46.681637],[35.845537,46.681666],[35.848303,46.681368],[35.848418,46.681355],[35.848475,46.68135],[35.848475,46.681349],[35.848476,46.681349],[35.848452,46.681242],[35.848183,46.681272],[35.845513,46.68156]]]}},{"type":"Feature","properties":{"cadnum":"2324581401:04:035:0002"},"geometry":{"type":"Polygon","coordinates":[[[35.851366,46.680171],[35.851413,46.680902],[35.851704,46.680864],[35.851609,46.680455],[35.851585,46.680156],[35.851366,46.680171]]]}},{"type":"Feature","properties":{"cadnum":"2324581401:04:001:0003"},"geometry":{"type":"Polygon","coordinates":[[[35.853545,46.68298],[35.853796,46.683037],[35.853906,46.683062],[35.853968,46.682921],[35.854233,46.682313],[35.853863,46.682251],[35.853545,46.68298]]]}},{"type":"Feature","properties":{"cadnum":"2324581401:05:011:0003"},"geometry":{"type":"Polygon","coordinates":[[[35.864637,46.683464],[35.864648,46.683467],[35.864649,46.683467],[35.864782,46.683499],[35.864786,46.6835],[35.864954,46.68354],[35.865065,46.683566],[35.865843,46.683715],[35.86595,46.683498],[35.86522,46.683349],[35.865219,46.683349],[35.864954,46.683295],[35.864743,46.683252],[35.864695,46.683349],[35.864694,46.683349],[35.864637,46.683464]]]}},{"type":"Feature","properties":{"cadnum":"2324581401:04:024:0007"},"geometry":{"type":"Polygon","coordinates":[[[35.830808,46.683332],[35.830839,46.683467],[35.83084,46.683467],[35.830973,46.684037],[35.831284,46.684005],[35.831209,46.683697],[35.831159,46.683467],[35.83116,46.683467],[35.831123,46.683293],[35.830808,46.683332]]]}},{"type":"Feature","properties":{"cadnum":"2324581401:04:023:0006"},"geometry":{"type":"Polygon","coordinates":[[[35.829722,46.683486],[35.829809,46.683836],[35.8301,46.683803],[35.830622,46.683736],[35.830533,46.683386],[35.829877,46.683467],[35.829722,46.683486]]]}},{"type":"Feature","properties":{"cadnum":"2324581401:04:022:0002"},"geometry":{"type":"Polygon","coordinates":[[[35.82659,46.68491],[35.826664,46.685265],[35.827467,46.685177],[35.827391,46.684816],[35.82659,46.68491]]]}},{"type":"Feature","properties":{"cadnum":"2324581401:04:016:0002"},"geometry":{"type":"Polygon","coordinates":[[[35.830067,46.687059],[35.830076,46.687117],[35.830081,46.687148],[35.830096,46.687235],[35.830097,46.687235],[35.830104,46.687275],[35.831353,46.687169],[35.831308,46.686924],[35.8308,46.686976],[35.830067,46.687059]]]}},{"type":"Feature","properties":{"cadnum":"2324581401:04:023:0007"},"geometry":{"type":"Polygon","coordinates":[[[35.828901,46.683589],[35.828974,46.683931],[35.829031,46.683924],[35.829809,46.683836],[35.829722,46.683486],[35.828901,46.683589]]]}},{"type":"Feature","properties":{"cadnum":"2324581401:04:023:0003"},"geometry":{"type":"Polygon","coordinates":[[[35.827439,46.683863],[35.827469,46.684166],[35.827875,46.684141],[35.828394,46.684089],[35.828363,46.68377],[35.827439,46.683863]]]}},{"type":"Feature","properties":{"cadnum":"2324581401:04:024:0004"},"geometry":{"type":"Polygon","coordinates":[[[35.831096,46.683273],[35.831141,46.683467],[35.831142,46.683467],[35.83126,46.68397],[35.831648,46.683929],[35.831539,46.683467],[35.831484,46.68323],[35.831096,46.683273]]]}},{"type":"Feature","properties":{"cadnum":"2324581401:04:016:0003"},"geometry":{"type":"Polygon","coordinates":[[[35.829513,46.686323],[35.829527,46.686454],[35.830815,46.68637],[35.831194,46.686344],[35.831161,46.686168],[35.830569,46.686219],[35.829513,46.686323]]]}},{"type":"Feature","properties":{"cadnum":"2324581401:04:006:0004"},"geometry":{"type":"Polygon","coordinates":[[[35.834299,46.690424],[35.834345,46.690656],[35.835589,46.690543],[35.835544,46.690311],[35.834299,46.690424]]]}},{"type":"Feature","properties":{"cadnum":"2324581401:04:010:0005"},"geometry":{"type":"Polygon","coordinates":[[[35.835301,46.68716],[35.835306,46.687235],[35.835332,46.687588],[35.836008,46.687542],[35.835982,46.687187],[35.835977,46.687105],[35.835828,46.687117],[35.835827,46.687117],[35.835307,46.687159],[35.835301,46.68716]]]}},{"type":"Feature","properties":{"cadnum":"2324581401:04:011:0001"},"geometry":{"type":"Polygon","coordinates":[[[35.835514,46.688682],[35.835557,46.688898],[35.835576,46.688913],[35.836017,46.688872],[35.836796,46.688814],[35.836747,46.688573],[35.835514,46.688682]]]}},{"type":"Feature","properties":{"cadnum":"2324581401:04:010:0003"},"geometry":{"type":"Polygon","coordinates":[[[35.831826,46.688563],[35.831877,46.688871],[35.831995,46.688863],[35.831995,46.688862],[35.832817,46.688798],[35.832766,46.68849],[35.831826,46.688563]]]}},{"type":"Feature","properties":{"cadnum":"2324581401:04:037:0002"},"geometry":{"type":"Polygon","coordinates":[[[35.831609,46.679309],[35.831658,46.679511],[35.831823,46.679493],[35.831823,46.679494],[35.832836,46.679381],[35.833187,46.67935],[35.833143,46.679172],[35.831995,46.679275],[35.831609,46.679309]]]}},{"type":"Feature","properties":{"cadnum":"2324581401:04:037:0003"},"geometry":{"type":"Polygon","coordinates":[[[35.83205,46.679468],[35.832108,46.679698],[35.832113,46.679717],[35.832781,46.679649],[35.832793,46.679648],[35.83287,46.679639],[35.833249,46.679599],[35.833187,46.67935],[35.832836,46.679381],[35.83205,46.679468]]]}},{"type":"Feature","properties":{"cadnum":"2324581401:04:043:0003"},"geometry":{"type":"Polygon","coordinates":[[[35.83303,46.677528],[35.833079,46.677703],[35.834624,46.677566],[35.83457,46.67737],[35.83303,46.677528]]]}},{"type":"Feature","properties":{"cadnum":"2324581401:04:038:0002"},"geometry":{"type":"Polygon","coordinates":[[[35.835422,46.679019],[35.83547,46.6792],[35.837068,46.679039],[35.837021,46.678862],[35.835422,46.679019]]]}},{"type":"Feature","properties":{"cadnum":"2324581401:04:043:0002"},"geometry":{"type":"Polygon","coordinates":[[[35.835747,46.677764],[35.835794,46.678005],[35.836793,46.677912],[35.836736,46.677658],[35.835747,46.677764]]]}},{"type":"Feature","properties":{"cadnum":"2324581401:04:057:0005"},"geometry":{"type":"Polygon","coordinates":[[[35.856147,46.677083],[35.857433,46.677136],[35.857459,46.676674],[35.857058,46.676669],[35.857062,46.676529],[35.857457,46.676535],[35.857452,46.676452],[35.857451,46.675998],[35.856945,46.675974],[35.856209,46.675904],[35.856197,46.676537],[35.856147,46.677083]]]}},{"type":"Feature","properties":{"cadnum":"2324581401:04:036:0009"},"geometry":{"type":"Polygon","coordinates":[[[35.826176,46.679696],[35.826211,46.680015],[35.826502,46.680004],[35.826502,46.680003],[35.827123,46.679978],[35.827095,46.679658],[35.826502,46.679683],[35.826176,46.679696]]]}},{"type":"Feature","properties":{"cadnum":"2324581401:04:025:0012"},"geometry":{"type":"Polygon","coordinates":[[[35.837227,46.684027],[35.837317,46.684414],[35.837359,46.684598],[35.837488,46.684583],[35.837488,46.684582],[35.837632,46.684564],[35.837543,46.68401],[35.837351,46.684021],[35.837227,46.684027]]]}},{"type":"Feature","properties":{"cadnum":"2324581401:04:018:0009"},"geometry":{"type":"Polygon","coordinates":[[[35.836953,46.684828],[35.837031,46.685225],[35.837086,46.685578],[35.837316,46.685555],[35.837317,46.685555],[35.837484,46.685538],[35.83733,46.684786],[35.836953,46.684828]]]}},{"type":"Feature","properties":{"cadnum":"2324581401:04:019:0003"},"geometry":{"type":"Polygon","coordinates":[[[35.838874,46.685739],[35.838914,46.685919],[35.840515,46.685764],[35.840475,46.685585],[35.838874,46.685739]]]}},{"type":"Feature","properties":{"cadnum":"2324581401:04:026:0010"},"geometry":{"type":"Polygon","coordinates":[[[35.838792,46.683847],[35.838796,46.683862],[35.838827,46.683984],[35.838867,46.683979],[35.839287,46.683937],[35.839217,46.683621],[35.838969,46.683639],[35.838892,46.683645],[35.838874,46.683646],[35.838879,46.683676],[35.838895,46.683762],[35.838908,46.683836],[35.83886,46.68384],[35.838802,46.683846],[35.838792,46.683847]]]}},{"type":"Feature","properties":{"cadnum":"2324581401:04:025:0003"},"geometry":{"type":"Polygon","coordinates":[[[35.836325,46.683711],[35.836351,46.683816],[35.837316,46.683686],[35.837317,46.683686],[35.837317,46.683687],[35.838147,46.683574],[35.838129,46.683503],[35.837317,46.683597],[35.837316,46.683597],[35.836325,46.683711]]]}},{"type":"Feature","properties":{"cadnum":"2324581401:04:025:0002"},"geometry":{"type":"Polygon","coordinates":[[[35.836304,46.683621],[35.836325,46.683711],[35.837488,46.683577],[35.838129,46.683503],[35.838108,46.683414],[35.837488,46.683486],[35.837488,46.683485],[35.836304,46.683621]]]}},{"type":"Feature","properties":{"cadnum":"2324581401:04:025:0010"},"geometry":{"type":"Polygon","coordinates":[[[35.837986,46.684301],[35.838026,46.68449],[35.838282,46.684464],[35.838242,46.684278],[35.837986,46.684301]]]}},{"type":"Feature","properties":{"cadnum":"2324581401:04:012:0010"},"geometry":{"type":"Polygon","coordinates":[[[35.840842,46.687214],[35.840846,46.687235],[35.840847,46.687235],[35.84088,46.687392],[35.841035,46.687384],[35.842191,46.68726],[35.842409,46.687234],[35.84241,46.687234],[35.84237,46.687045],[35.841714,46.687117],[35.841713,46.687117],[35.840842,46.687214]]]}},{"type":"Feature","properties":{"cadnum":"2324581401:04:019:0004"},"geometry":{"type":"Polygon","coordinates":[[[35.839853,46.684416],[35.839972,46.68492],[35.840119,46.684911],[35.840223,46.684876],[35.840519,46.684892],[35.840392,46.684354],[35.839853,46.684416]]]}},{"type":"Feature","properties":{"cadnum":"2324581401:04:019:0005"},"geometry":{"type":"Polygon","coordinates":[[[35.841258,46.684258],[35.841329,46.68463],[35.84184,46.684572],[35.841764,46.684207],[35.841258,46.684258]]]}},{"type":"Feature","properties":{"cadnum":"2324581401:04:026:0011"},"geometry":{"type":"Polygon","coordinates":[[[35.838754,46.68403],[35.838762,46.684057],[35.8388,46.684052],[35.838798,46.684043],[35.838799,46.684043],[35.839091,46.684105],[35.839342,46.684073],[35.839316,46.683976],[35.839346,46.683972],[35.839344,46.683967],[35.839206,46.683985],[35.839207,46.683989],[35.839064,46.684008],[35.839061,46.683999],[35.838796,46.684034],[35.838793,46.684025],[35.838754,46.68403]]]}},{"type":"Feature","properties":{"cadnum":"2324581401:04:045:0004"},"geometry":{"type":"Polygon","coordinates":[[[35.842953,46.677064],[35.843028,46.677284],[35.844313,46.677147],[35.844237,46.676925],[35.842953,46.677064]]]}},{"type":"Feature","properties":{"cadnum":"2324581401:04:045:0008"},"geometry":{"type":"Polygon","coordinates":[[[35.843157,46.676063],[35.843231,46.676401],[35.844112,46.676299],[35.844043,46.675986],[35.843527,46.676032],[35.843157,46.676063]]]}},{"type":"Feature","properties":{"cadnum":"2324581401:04:041:0004"},"geometry":{"type":"Polygon","coordinates":[[[35.846571,46.678672],[35.846597,46.678904],[35.847018,46.678868],[35.847402,46.678846],[35.847436,46.678615],[35.846571,46.678672]]]}},{"type":"Feature","properties":{"cadnum":"2324581401:04:045:0005"},"geometry":{"type":"Polygon","coordinates":[[[35.842473,46.677115],[35.842548,46.677334],[35.84281,46.677307],[35.84281,46.677308],[35.84291,46.677297],[35.842981,46.677289],[35.843028,46.677284],[35.842953,46.677064],[35.842473,46.677115]]]}},{"type":"Feature","properties":{"cadnum":"2324581401:04:046:0002"},"geometry":{"type":"Polygon","coordinates":[[[35.844585,46.676431],[35.844631,46.676616],[35.845344,46.676539],[35.846062,46.67647],[35.846048,46.676299],[35.845237,46.676367],[35.844585,46.676431]]]}},{"type":"Feature","properties":{"cadnum":"2324581401:04:007:0004"},"geometry":{"type":"Polygon","coordinates":[[[35.844923,46.688571],[35.844996,46.689043],[35.845512,46.688996],[35.845457,46.688528],[35.844923,46.688571]]]}},{"type":"Feature","properties":{"cadnum":"2324581401:04:013:0006"},"geometry":{"type":"Polygon","coordinates":[[[35.84474,46.688012],[35.844744,46.688128],[35.845948,46.687979],[35.845993,46.688152],[35.846514,46.688119],[35.846467,46.687843],[35.845949,46.68789],[35.84474,46.688012]]]}},{"type":"Feature","properties":{"cadnum":"2324581401:04:013:0004"},"geometry":{"type":"Polygon","coordinates":[[[35.842948,46.68758],[35.842992,46.687786],[35.843585,46.687734],[35.844396,46.687673],[35.844353,46.687463],[35.842948,46.68758]]]}},{"type":"Feature","properties":{"cadnum":"2324581401:04:013:0002"},"geometry":{"type":"Polygon","coordinates":[[[35.843691,46.688115],[35.843791,46.688582],[35.844766,46.688485],[35.844721,46.68801],[35.843691,46.688115]]]}},{"type":"Feature","properties":{"cadnum":"2324581401:04:006:0006"},"geometry":{"type":"Polygon","coordinates":[[[35.842063,46.689339],[35.842138,46.689709],[35.842391,46.689685],[35.84281,46.689643],[35.84281,46.689644],[35.842904,46.689633],[35.842827,46.689254],[35.842237,46.689317],[35.842063,46.689339]]]}},{"type":"Feature","properties":{"cadnum":"2324581401:04:005:0003"},"geometry":{"type":"Polygon","coordinates":[[[35.845032,46.68904],[35.845087,46.689395],[35.846408,46.6893],[35.84628,46.688468],[35.845457,46.688528],[35.845512,46.688996],[35.845032,46.68904]]]}},{"type":"Feature","properties":{"cadnum":"2324581401:04:005:0002"},"geometry":{"type":"Polygon","coordinates":[[[35.84628,46.688468],[35.846408,46.6893],[35.846757,46.689275],[35.846629,46.688442],[35.84628,46.688468]]]}},{"type":"Feature","properties":{"cadnum":"2324581401:04:013:0005"},"geometry":{"type":"Polygon","coordinates":[[[35.842992,46.687786],[35.843034,46.68798],[35.843346,46.687956],[35.843616,46.687934],[35.844554,46.687833],[35.844518,46.687665],[35.844396,46.687673],[35.843585,46.687734],[35.842992,46.687786]]]}},{"type":"Feature","properties":{"cadnum":"2324581401:04:013:0003"},"geometry":{"type":"Polygon","coordinates":[[[35.843075,46.688176],[35.843174,46.688644],[35.843734,46.688588],[35.843791,46.688582],[35.843691,46.688115],[35.843075,46.688176]]]}},{"type":"Feature","properties":{"cadnum":"2324581401:04:057:0002"},"geometry":{"type":"Polygon","coordinates":[[[35.852939,46.673482],[35.853411,46.673693],[35.853659,46.673202],[35.853158,46.672976],[35.852939,46.673482]]]}},{"type":"Feature","properties":{"cadnum":"2324581401:04:018:0004"},"geometry":{"type":"Polygon","coordinates":[[[35.865213,46.67836],[35.865874,46.678439],[35.866718,46.678557],[35.866782,46.678421],[35.865338,46.678121],[35.865336,46.678124],[35.865213,46.67836]]]}},{"type":"Feature","properties":{"cadnum":"2324581401:04:036:0007"},"geometry":{"type":"Polygon","coordinates":[[[35.828166,46.677098],[35.828264,46.677465],[35.829046,46.677394],[35.828947,46.677027],[35.828166,46.677098]]]}},{"type":"Feature","properties":{"cadnum":"2324581401:04:036:0006"},"geometry":{"type":"Polygon","coordinates":[[[35.827616,46.677523],[35.827726,46.677921],[35.828434,46.677857],[35.828324,46.67746],[35.827616,46.677523]]]}},{"type":"Feature","properties":{"cadnum":"2324581401:04:036:0008"},"geometry":{"type":"Polygon","coordinates":[[[35.827518,46.677156],[35.827616,46.677523],[35.828264,46.677465],[35.828166,46.677098],[35.827518,46.677156]]]}},{"type":"Feature","properties":{"cadnum":"2324581401:04:036:0011"},"geometry":{"type":"Polygon","coordinates":[[[35.82844,46.678451],[35.828522,46.678792],[35.829399,46.678692],[35.829315,46.678379],[35.828817,46.678418],[35.82844,46.678451]]]}},{"type":"Feature","properties":{"cadnum":"2324581401:04:036:0010"},"geometry":{"type":"Polygon","coordinates":[[[35.828067,46.679493],[35.828085,46.67958],[35.828084,46.67958],[35.828096,46.679631],[35.82811,46.679698],[35.828111,46.679698],[35.828111,46.679699],[35.829105,46.67958],[35.829598,46.679522],[35.829561,46.67934],[35.829226,46.679374],[35.829054,46.679396],[35.828067,46.679493]]]}},{"type":"Feature","properties":{"cadnum":"2324581401:04:048:0002"},"geometry":{"type":"Polygon","coordinates":[[[35.831361,46.675028],[35.831464,46.675812],[35.831489,46.675998],[35.831809,46.675979],[35.831782,46.675812],[35.831754,46.675635],[35.831636,46.67501],[35.831361,46.675028]]]}},{"type":"Feature","properties":{"cadnum":"2324581401:04:036:0005"},"geometry":{"type":"Polygon","coordinates":[[[35.828324,46.67746],[35.828434,46.677857],[35.829156,46.677792],[35.829046,46.677394],[35.828324,46.67746]]]}},{"type":"Feature","properties":{"cadnum":"2324581401:04:036:0004"},"geometry":{"type":"Polygon","coordinates":[[[35.828071,46.679247],[35.828134,46.679518],[35.828501,46.679485],[35.828437,46.679214],[35.828071,46.679247]]]}},{"type":"Feature","properties":{"cadnum":"2324581401:04:036:0013"},"geometry":{"type":"Polygon","coordinates":[[[35.827386,46.676582],[35.827427,46.676783],[35.828332,46.67672],[35.828884,46.676694],[35.828834,46.676488],[35.827386,46.676582]]]}},{"type":"Feature","properties":{"cadnum":"2324581401:04:036:0003"},"geometry":{"type":"Polygon","coordinates":[[[35.828437,46.679214],[35.828501,46.679485],[35.829564,46.679389],[35.829501,46.679118],[35.828437,46.679214]]]}},{"type":"Feature","properties":{"cadnum":"2324581401:04:030:0006"},"geometry":{"type":"Polygon","coordinates":[[[35.832758,46.680709],[35.832853,46.681088],[35.833076,46.681065],[35.833588,46.68101],[35.833599,46.680996],[35.833505,46.680623],[35.832758,46.680709]]]}},{"type":"Feature","properties":{"cadnum":"2324581401:04:031:0006"},"geometry":{"type":"Polygon","coordinates":[[[35.833993,46.681231],[35.834066,46.68155],[35.834966,46.681452],[35.834893,46.681134],[35.833993,46.681231]]]}},{"type":"Feature","properties":{"cadnum":"2324581401:04:025:0006"},"geometry":{"type":"Polygon","coordinates":[[[35.836116,46.682709],[35.836228,46.683091],[35.836966,46.683018],[35.836852,46.682626],[35.836116,46.682709]]]}},{"type":"Feature","properties":{"cadnum":"2324581401:04:031:0005"},"geometry":{"type":"Polygon","coordinates":[[[35.834066,46.68155],[35.834109,46.681739],[35.835633,46.681572],[35.835591,46.681384],[35.834066,46.68155]]]}},{"type":"Feature","properties":{"cadnum":"2324581401:04:030:0003"},"geometry":{"type":"Polygon","coordinates":[[[35.830801,46.680899],[35.830909,46.681342],[35.831995,46.681259],[35.831995,46.681258],[35.832025,46.681256],[35.831917,46.680812],[35.830801,46.680899]]]}},{"type":"Feature","properties":{"cadnum":"2324581401:04:025:0005"},"geometry":{"type":"Polygon","coordinates":[[[35.836852,46.682626],[35.836966,46.683018],[35.837316,46.682974],[35.837317,46.682974],[35.837317,46.682975],[35.837422,46.682961],[35.837333,46.682575],[35.836852,46.682626]]]}},{"type":"Feature","properties":{"cadnum":"2324581401:04:025:0004"},"geometry":{"type":"Polygon","coordinates":[[[35.835135,46.682816],[35.835179,46.683077],[35.835513,46.683036],[35.835813,46.683002],[35.83575,46.682747],[35.835135,46.682816]]]}},{"type":"Feature","properties":{"cadnum":"2324581401:04:053:0002"},"geometry":{"type":"Polygon","coordinates":[[[35.834429,46.672544],[35.834437,46.672678],[35.834894,46.672677],[35.834846,46.672042],[35.83483,46.671823],[35.83451,46.671824],[35.834524,46.672042],[35.834525,46.672054],[35.834532,46.67216],[35.834533,46.67216],[35.834561,46.672542],[35.83456,46.672542],[35.834429,46.672544]]]}},{"type":"Feature","properties":{"cadnum":"2324581401:04:053:0003"},"geometry":{"type":"Polygon","coordinates":[[[35.834047,46.671826],[35.834071,46.67216],[35.834072,46.67216],[35.834111,46.672679],[35.834437,46.672678],[35.834429,46.672544],[35.834561,46.672542],[35.834525,46.672054],[35.83451,46.671824],[35.834047,46.671826]]]}},{"type":"Feature","properties":{"cadnum":"2324581401:04:008:0002"},"geometry":{"type":"Polygon","coordinates":[[[35.855825,46.680935],[35.856533,46.681065],[35.856564,46.680542],[35.855965,46.680605],[35.855825,46.680935]]]}},{"type":"Feature","properties":{"cadnum":"2324581401:04:008:0003"},"geometry":{"type":"Polygon","coordinates":[[[35.855065,46.680795],[35.855825,46.680935],[35.855965,46.680605],[35.855108,46.680695],[35.855065,46.680795]]]}},{"type":"Feature","properties":{"cadnum":"2324581401:04:040:0004"},"geometry":{"type":"Polygon","coordinates":[[[35.84088,46.677594],[35.840927,46.677802],[35.842305,46.677668],[35.842258,46.67746],[35.84088,46.677594]]]}},{"type":"Feature","properties":{"cadnum":"2324581401:04:039:0003"},"geometry":{"type":"Polygon","coordinates":[[[35.837449,46.679358],[35.837498,46.679579],[35.838861,46.679416],[35.838784,46.679215],[35.837449,46.679358]]]}},{"type":"Feature","properties":{"cadnum":"2324581401:04:039:0002"},"geometry":{"type":"Polygon","coordinates":[[[35.838076,46.678949],[35.838108,46.679138],[35.838879,46.679068],[35.838847,46.678882],[35.838076,46.678949]]]}},{"type":"Feature","properties":{"cadnum":"2324581401:04:039:0004"},"geometry":{"type":"Polygon","coordinates":[[[35.837498,46.679579],[35.837498,46.67958],[35.837526,46.679682],[35.837531,46.679698],[35.837573,46.679844],[35.838333,46.679752],[35.838314,46.679666],[35.838277,46.679486],[35.837498,46.679579]]]}},{"type":"Feature","properties":{"cadnum":"2324581401:04:039:0006"},"geometry":{"type":"Polygon","coordinates":[[[35.839155,46.678037],[35.839209,46.678255],[35.839604,46.678209],[35.840539,46.678107],[35.840494,46.677892],[35.839155,46.678037]]]}},{"type":"Feature","properties":{"cadnum":"2324581401:04:039:0005"},"geometry":{"type":"Polygon","coordinates":[[[35.838859,46.677974],[35.838926,46.678289],[35.839209,46.678256],[35.839209,46.678255],[35.839155,46.678038],[35.839155,46.678037],[35.840494,46.677892],[35.840475,46.677805],[35.839671,46.67789],[35.838859,46.677974]]]}},{"type":"Feature","properties":{"cadnum":"2324581401:04:045:0002"},"geometry":{"type":"Polygon","coordinates":[[[35.840624,46.676312],[35.840684,46.67659],[35.841718,46.676481],[35.841659,46.676203],[35.840624,46.676312]]]}},{"type":"Feature","properties":{"cadnum":"2324581401:04:044:0007"},"geometry":{"type":"Polygon","coordinates":[[[35.838481,46.676284],[35.838511,46.676425],[35.839549,46.676334],[35.839551,46.676344],[35.839757,46.676325],[35.839772,46.676375],[35.839878,46.676359],[35.839857,46.676295],[35.84014,46.676264],[35.840098,46.676075],[35.838481,46.676284]]]}},{"type":"Feature","properties":{"cadnum":"2324581401:04:040:0002"},"geometry":{"type":"Polygon","coordinates":[[[35.841233,46.67906],[35.841277,46.679256],[35.842397,46.679147],[35.842338,46.678834],[35.84176,46.678889],[35.841785,46.679003],[35.841785,46.679004],[35.841233,46.67906]]]}},{"type":"Feature","properties":{"cadnum":"2324581401:04:044:0006"},"geometry":{"type":"Polygon","coordinates":[[[35.838546,46.676064],[35.838591,46.676269],[35.840098,46.676075],[35.840059,46.6759],[35.838546,46.676064]]]}},{"type":"Feature","properties":{"cadnum":"2324581401:04:045:0009"},"geometry":{"type":"Polygon","coordinates":[[[35.840641,46.676625],[35.840689,46.676845],[35.841194,46.67679],[35.84208,46.676689],[35.842036,46.676493],[35.841163,46.676581],[35.840641,46.676625]]]}},{"type":"Feature","properties":{"cadnum":"2324581401:04:040:0003"},"geometry":{"type":"Polygon","coordinates":[[[35.84123,46.679226],[35.841285,46.679498],[35.842347,46.679373],[35.842292,46.679104],[35.84123,46.679226]]]}},{"type":"Feature","properties":{"cadnum":"2324581401:04:007:0003"},"geometry":{"type":"Polygon","coordinates":[[[35.849034,46.686411],[35.849175,46.687117],[35.849248,46.687482],[35.849538,46.687185],[35.849695,46.687025],[35.849569,46.686361],[35.849034,46.686411]]]}},{"type":"Feature","properties":{"cadnum":"2324581401:04:028:0009"},"geometry":{"type":"Polygon","coordinates":[[[35.845883,46.682571],[35.845922,46.682767],[35.847304,46.682621],[35.847282,46.682418],[35.846488,46.682505],[35.845883,46.682571]]]}},{"type":"Feature","properties":{"cadnum":"2324581401:04:032:0012"},"geometry":{"type":"Polygon","coordinates":[[[35.84558,46.680924],[35.84561,46.681114],[35.846189,46.681047],[35.846978,46.680972],[35.847154,46.680954],[35.847056,46.680576],[35.846932,46.680589],[35.846995,46.6808],[35.846995,46.680801],[35.846309,46.680867],[35.84558,46.680924]]]}},{"type":"Feature","properties":{"cadnum":"2324581401:04:033:0014"},"geometry":{"type":"Polygon","coordinates":[[[35.842423,46.681549],[35.842464,46.681802],[35.84281,46.681767],[35.84281,46.681768],[35.843613,46.681687],[35.843565,46.681435],[35.842981,46.681494],[35.842981,46.681493],[35.842423,46.681549]]]}},{"type":"Feature","properties":{"cadnum":"2324581401:04:033:0006"},"geometry":{"type":"Polygon","coordinates":[[[35.843752,46.681275],[35.843834,46.68169],[35.844501,46.681623],[35.844418,46.681208],[35.843752,46.681275]]]}},{"type":"Feature","properties":{"cadnum":"2324581401:04:027:0011"},"geometry":{"type":"Polygon","coordinates":[[[35.843899,46.682956],[35.843932,46.683121],[35.845525,46.682976],[35.845487,46.68278],[35.843899,46.682956]]]}},{"type":"Feature","properties":{"cadnum":"2324581401:04:027:0008"},"geometry":{"type":"Polygon","coordinates":[[[35.84366,46.682585],[35.843691,46.682746],[35.845449,46.682596],[35.845413,46.682424],[35.844656,46.682499],[35.84366,46.682585]]]}},{"type":"Feature","properties":{"cadnum":"2324581401:04:033:0005"},"geometry":{"type":"Polygon","coordinates":[[[35.844808,46.681388],[35.844848,46.681592],[35.845208,46.681553],[35.845171,46.681375],[35.844938,46.68138],[35.844808,46.681388]]]}},{"type":"Feature","properties":{"cadnum":"2324581401:04:027:0010"},"geometry":{"type":"Polygon","coordinates":[[[35.844061,46.683109],[35.844096,46.683298],[35.845568,46.683182],[35.845525,46.682976],[35.844061,46.683109]]]}},{"type":"Feature","properties":{"cadnum":"2324581401:04:027:0005"},"geometry":{"type":"Polygon","coordinates":[[[35.842022,46.682613],[35.842073,46.682755],[35.842098,46.682827],[35.842445,46.682772],[35.842438,46.682751],[35.842782,46.682697],[35.842697,46.682443],[35.84281,46.682428],[35.843404,46.682349],[35.843272,46.682038],[35.842881,46.682072],[35.842143,46.682135],[35.842182,46.682349],[35.842217,46.682538],[35.842026,46.68257],[35.842041,46.682609],[35.842022,46.682613]]]}},{"type":"Feature","properties":{"cadnum":"2324581401:04:027:0004"},"geometry":{"type":"Polygon","coordinates":[[[35.843272,46.682038],[35.843404,46.682349],[35.843789,46.682298],[35.843661,46.682005],[35.843272,46.682038]]]}},{"type":"Feature","properties":{"cadnum":"2324581401:04:028:0010"},"geometry":{"type":"Polygon","coordinates":[[[35.846698,46.681622],[35.846806,46.682056],[35.847241,46.682017],[35.847147,46.681577],[35.846698,46.681622]]]}},{"type":"Feature","properties":{"cadnum":"2324581401:04:028:0007"},"geometry":{"type":"Polygon","coordinates":[[[35.847164,46.681564],[35.847321,46.682239],[35.847593,46.682216],[35.847436,46.68154],[35.847164,46.681564]]]}},{"type":"Feature","properties":{"cadnum":"2324581401:04:028:0013"},"geometry":{"type":"Polygon","coordinates":[[[35.847435,46.682898],[35.847447,46.68316],[35.848192,46.683106],[35.848161,46.682846],[35.847435,46.682898]]]}},{"type":"Feature","properties":{"cadnum":"2324581401:04:033:0013"},"geometry":{"type":"Polygon","coordinates":[[[35.841699,46.681969],[35.841715,46.682077],[35.84281,46.681965],[35.84282,46.681964],[35.842981,46.681948],[35.843736,46.68187],[35.845228,46.681701],[35.845537,46.681666],[35.845531,46.681637],[35.845513,46.68156],[35.843712,46.681763],[35.84281,46.681856],[35.841699,46.681969]]]}},{"type":"Feature","properties":{"cadnum":"2324581401:04:034:0005"},"geometry":{"type":"Polygon","coordinates":[[[35.847446,46.680478],[35.84758,46.68087],[35.848028,46.680816],[35.84785,46.680399],[35.84762,46.680453],[35.847446,46.680478]]]}},{"type":"Feature","properties":{"cadnum":"2324581401:04:012:0007"},"geometry":{"type":"Polygon","coordinates":[[[35.841021,46.687384],[35.84106,46.68758],[35.841073,46.687579],[35.841851,46.687518],[35.84245,46.687438],[35.84241,46.687234],[35.842191,46.68726],[35.841035,46.687384],[35.841021,46.687384]]]}},{"type":"Feature","properties":{"cadnum":"2324581401:04:012:0009"},"geometry":{"type":"Polygon","coordinates":[[[35.841009,46.687585],[35.841056,46.687804],[35.842493,46.687636],[35.84245,46.687438],[35.841851,46.687518],[35.841073,46.687579],[35.841009,46.687585]]]}},{"type":"Feature","properties":{"cadnum":"2324581401:04:012:0005"},"geometry":{"type":"Polygon","coordinates":[[[35.839985,46.687274],[35.840039,46.687647],[35.84081,46.687555],[35.840756,46.687182],[35.839985,46.687274]]]}},{"type":"Feature","properties":{"cadnum":"2324581401:04:012:0004"},"geometry":{"type":"Polygon","coordinates":[[[35.83921,46.687366],[35.839264,46.687739],[35.840039,46.687647],[35.839985,46.687274],[35.83921,46.687366]]]}},{"type":"Feature","properties":{"cadnum":"2324581401:04:006:0009"},"geometry":{"type":"Polygon","coordinates":[[[35.839528,46.689116],[35.839612,46.689564],[35.840048,46.689529],[35.840254,46.689511],[35.840166,46.689055],[35.839528,46.689116]]]}},{"type":"Feature","properties":{"cadnum":"2324581401:04:012:0008"},"geometry":{"type":"Polygon","coordinates":[[[35.841117,46.687796],[35.841159,46.687996],[35.841817,46.687927],[35.842024,46.687906],[35.842537,46.687857],[35.842493,46.687636],[35.841117,46.687796]]]}},{"type":"Feature","properties":{"cadnum":"2324581401:04:006:0008"},"geometry":{"type":"Polygon","coordinates":[[[35.840166,46.689055],[35.840254,46.689511],[35.841125,46.689434],[35.841002,46.688976],[35.840166,46.689055]]]}},{"type":"Feature","properties":{"cadnum":"2324581401:04:004:0004"},"geometry":{"type":"Polygon","coordinates":[[[35.838819,46.690375],[35.838903,46.690782],[35.839608,46.690699],[35.839524,46.690291],[35.838819,46.690375]]]}},{"type":"Feature","properties":{"cadnum":"2324581401:04:004:0003"},"geometry":{"type":"Polygon","coordinates":[[[35.837739,46.690502],[35.837823,46.690909],[35.838903,46.690782],[35.838819,46.690375],[35.837739,46.690502]]]}},{"type":"Feature","properties":{"cadnum":"2324581401:04:006:0005"},"geometry":{"type":"Polygon","coordinates":[[[35.84117,46.68945],[35.841243,46.689792],[35.842138,46.689709],[35.842063,46.689339],[35.84117,46.68945]]]}},{"type":"Feature","properties":{"cadnum":"2324581401:05:029:0005"},"geometry":{"type":"Polygon","coordinates":[[[35.865893,46.668776],[35.866378,46.668888],[35.866834,46.668995],[35.866921,46.668619],[35.866821,46.668601],[35.865971,46.66844],[35.865893,46.668776]]]}},{"type":"Feature","properties":{"cadnum":"2324581401:05:029:0004"},"geometry":{"type":"Polygon","coordinates":[[[35.866834,46.668995],[35.866983,46.669031],[35.867275,46.669081],[35.867364,46.6687],[35.866921,46.668619],[35.866834,46.668995]]]}},{"type":"Feature","properties":{"cadnum":"2324581401:04:026:0012"},"geometry":{"type":"Polygon","coordinates":[[[35.869168,46.671657],[35.869879,46.671812],[35.870056,46.671447],[35.869353,46.671274],[35.869168,46.671657]]]}},{"type":"Feature","properties":{"cadnum":"2324581401:04:050:0006"},"geometry":{"type":"Polygon","coordinates":[[[35.836021,46.673236],[35.836107,46.673636],[35.836866,46.673623],[35.836788,46.673253],[35.836021,46.673236]]]}},{"type":"Feature","properties":{"cadnum":"2324581401:04:050:0005"},"geometry":{"type":"Polygon","coordinates":[[[35.836788,46.673253],[35.836866,46.673623],[35.837488,46.673613],[35.838045,46.673603],[35.838072,46.673283],[35.837488,46.67327],[35.836788,46.673253]]]}},{"type":"Feature","properties":{"cadnum":"2324581401:04:037:0004"},"geometry":{"type":"Polygon","coordinates":[[[35.829961,46.680116],[35.830025,46.680427],[35.830972,46.680336],[35.830898,46.680035],[35.829961,46.680116]]]}},{"type":"Feature","properties":{"cadnum":"2324581401:04:029:0002"},"geometry":{"type":"Polygon","coordinates":[[[35.828652,46.682528],[35.828699,46.682687],[35.830337,46.682502],[35.830289,46.682343],[35.828652,46.682528]]]}},{"type":"Feature","properties":{"cadnum":"2324581401:04:030:0005"},"geometry":{"type":"Polygon","coordinates":[[[35.830623,46.6825],[35.830772,46.683144],[35.831243,46.683087],[35.831154,46.682693],[35.831098,46.682448],[35.830623,46.6825]]]}},{"type":"Feature","properties":{"cadnum":"2324581401:04:030:0002"},"geometry":{"type":"Polygon","coordinates":[[[35.830151,46.68095],[35.830258,46.681394],[35.830909,46.681342],[35.830801,46.680899],[35.830151,46.68095]]]}},{"type":"Feature","properties":{"cadnum":"2324581401:04:036:0002"},"geometry":{"type":"Polygon","coordinates":[[[35.82808,46.680593],[35.828087,46.680763],[35.82926,46.680949],[35.829261,46.680949],[35.829872,46.680962],[35.829797,46.680513],[35.82808,46.680593]]]}},{"type":"Feature","properties":{"cadnum":"2324581401:04:036:0012"},"geometry":{"type":"Polygon","coordinates":[[[35.828322,46.680007],[35.828369,46.680224],[35.829224,46.680168],[35.829733,46.680123],[35.829686,46.679913],[35.829097,46.679963],[35.828322,46.680007]]]}},{"type":"Feature","properties":{"cadnum":"2324581401:04:029:0003"},"geometry":{"type":"Polygon","coordinates":[[[35.828579,46.682],[35.828586,46.68217],[35.830189,46.681989],[35.830131,46.681796],[35.828579,46.682]]]}},{"type":"Feature","properties":{"cadnum":"2324581401:04:029:0004"},"geometry":{"type":"Polygon","coordinates":[[[35.826486,46.682709],[35.826503,46.68289],[35.82708,46.682865],[35.828194,46.682804],[35.828194,46.682803],[35.828178,46.682642],[35.827032,46.682688],[35.826486,46.682709]]]}},{"type":"Feature","properties":{"cadnum":"2324581401:04:030:0004"},"geometry":{"type":"Polygon","coordinates":[[[35.831154,46.682693],[35.831243,46.683087],[35.831759,46.683025],[35.831662,46.682591],[35.83126,46.682636],[35.831273,46.682675],[35.831273,46.682676],[35.831154,46.682693]]]}},{"type":"Feature","properties":{"cadnum":"2324581401:04:057:0003"},"geometry":{"type":"Polygon","coordinates":[[[35.8559,46.674928],[35.856304,46.675099],[35.856634,46.674579],[35.856147,46.674373],[35.8559,46.674928]]]}},{"type":"Feature","properties":{"cadnum":"2324581401:04:057:0004"},"geometry":{"type":"Polygon","coordinates":[[[35.855444,46.675315],[35.855692,46.675395],[35.856147,46.674373],[35.85591,46.674269],[35.855444,46.675315]]]}},{"type":"Feature","properties":{"cadnum":"2324581401:04:055:0017"},"geometry":{"type":"Polygon","coordinates":[[[35.839646,46.67175],[35.839693,46.671927],[35.841427,46.671738],[35.841387,46.671585],[35.839646,46.67175]]]}},{"type":"Feature","properties":{"cadnum":"2324581401:04:033:0007"},"geometry":{"type":"Polygon","coordinates":[[[35.841643,46.681204],[35.841711,46.681497],[35.842363,46.681427],[35.842303,46.681157],[35.841643,46.681204]]]}},{"type":"Feature","properties":{"cadnum":"2324581401:04:033:0011"},"geometry":{"type":"Polygon","coordinates":[[[35.841419,46.680125],[35.841482,46.680387],[35.842002,46.68035],[35.841967,46.68009],[35.841419,46.680125]]]}},{"type":"Feature","properties":{"cadnum":"2324581401:02:027:0003"},"geometry":{"type":"Polygon","coordinates":[[[35.841982,46.682762],[35.841992,46.682815],[35.842083,46.682808],[35.842073,46.682755],[35.841982,46.682762]]]}},{"type":"Feature","properties":{"cadnum":"2324581401:04:026:0007"},"geometry":{"type":"Polygon","coordinates":[[[35.840874,46.682332],[35.840912,46.682546],[35.841086,46.682531],[35.841049,46.682318],[35.840874,46.682332]]]}},{"type":"Feature","properties":{"cadnum":"2324581401:04:026:0014"},"geometry":{"type":"Polygon","coordinates":[[[35.841333,46.683082],[35.841369,46.683262],[35.841615,46.683239],[35.841583,46.683078],[35.841453,46.683091],[35.841452,46.683091],[35.841452,46.68309],[35.841448,46.683071],[35.841333,46.683082]]]}},{"type":"Feature","properties":{"cadnum":"2324581401:04:033:0002"},"geometry":{"type":"Polygon","coordinates":[[[35.84155,46.680383],[35.841599,46.680692],[35.842049,46.68066],[35.842002,46.68035],[35.84155,46.680383]]]}},{"type":"Feature","properties":{"cadnum":"2324581401:04:033:0012"},"geometry":{"type":"Polygon","coordinates":[[[35.84155,46.680709],[35.841599,46.680933],[35.84289,46.680802],[35.842842,46.680579],[35.84155,46.680709]]]}},{"type":"Feature","properties":{"cadnum":"2324581401:04:032:0009"},"geometry":{"type":"Polygon","coordinates":[[[35.840176,46.68],[35.840211,46.680167],[35.840272,46.68037],[35.84101,46.680295],[35.840936,46.679904],[35.840176,46.68]]]}},{"type":"Feature","properties":{"cadnum":"2324581401:04:026:0006"},"geometry":{"type":"Polygon","coordinates":[[[35.838059,46.682486],[35.838175,46.68284],[35.838536,46.682757],[35.838415,46.682429],[35.838059,46.682486]]]}},{"type":"Feature","properties":{"cadnum":"2324581401:04:032:0002"},"geometry":{"type":"Polygon","coordinates":[[[35.839456,46.680133],[35.839548,46.680513],[35.839582,46.68051],[35.839604,46.680603],[35.840184,46.680542],[35.840068,46.680069],[35.839456,46.680133]]]}},{"type":"Feature","properties":{"cadnum":"2324581401:04:032:0008"},"geometry":{"type":"Polygon","coordinates":[[[35.839234,46.68012],[35.839354,46.680626],[35.839753,46.680582],[35.839634,46.680075],[35.839234,46.68012]]]}},{"type":"Feature","properties":{"cadnum":"2324581401:04:027:0007"},"geometry":{"type":"Polygon","coordinates":[[[35.869429,46.675212],[35.870188,46.675352],[35.870275,46.675181],[35.870384,46.674968],[35.869593,46.674845],[35.869429,46.675212]]]}},{"type":"Feature","properties":{"cadnum":"2324581401:04:031:0007"},"geometry":{"type":"Polygon","coordinates":[[[35.87077,46.670277],[35.872267,46.670373],[35.872294,46.670179],[35.870797,46.670082],[35.87077,46.670277]]]}},{"type":"Feature","properties":{"cadnum":"2324581401:04:025:0008"},"geometry":{"type":"Polygon","coordinates":[[[35.839812,46.672482],[35.839863,46.672715],[35.841086,46.6726],[35.841034,46.672362],[35.839812,46.672482]]]}},{"type":"Feature","properties":{"cadnum":"2324581401:04:050:0003"},"geometry":{"type":"Polygon","coordinates":[[[35.838717,46.67484],[35.838773,46.675111],[35.839842,46.675047],[35.839787,46.674775],[35.838717,46.67484]]]}},{"type":"Feature","properties":{"cadnum":"2324581401:04:051:0002"},"geometry":{"type":"Polygon","coordinates":[[[35.839272,46.673103],[35.839325,46.673354],[35.840473,46.673242],[35.840418,46.672991],[35.839272,46.673103]]]}},{"type":"Feature","properties":{"cadnum":"2324581401:04:050:0007"},"geometry":{"type":"Polygon","coordinates":[[[35.838601,46.674392],[35.838652,46.674655],[35.839807,46.674594],[35.839764,46.674371],[35.839356,46.67436],[35.838601,46.674392]]]}},{"type":"Feature","properties":{"cadnum":"2324581401:04:025:0009"},"geometry":{"type":"Polygon","coordinates":[[[35.839863,46.672715],[35.839914,46.67295],[35.841139,46.672835],[35.841086,46.6726],[35.839863,46.672715]]]}},{"type":"Feature","properties":{"cadnum":"2324581401:04:051:0004"},"geometry":{"type":"Polygon","coordinates":[[[35.840282,46.67485],[35.840322,46.675082],[35.841568,46.675017],[35.84155,46.674784],[35.840282,46.67485]]]}},{"type":"Feature","properties":{"cadnum":"2324581401:04:050:0002"},"geometry":{"type":"Polygon","coordinates":[[[35.838002,46.673868],[35.838047,46.674105],[35.839272,46.67401],[35.839226,46.673773],[35.838002,46.673868]]]}},{"type":"Feature","properties":{"cadnum":"2324581401:04:050:0004"},"geometry":{"type":"Polygon","coordinates":[[[35.838073,46.674879],[35.838131,46.67515],[35.838773,46.675111],[35.838717,46.67484],[35.838073,46.674879]]]}},{"type":"Feature","properties":{"cadnum":"2324581401:04:021:0008"},"geometry":{"type":"Polygon","coordinates":[[[35.849651,46.68467],[35.849714,46.685301],[35.849749,46.685656],[35.850017,46.685635],[35.84997,46.685278],[35.849955,46.68474],[35.849651,46.68467]]]}},{"type":"Feature","properties":{"cadnum":"2324581401:04:007:0002"},"geometry":{"type":"Polygon","coordinates":[[[35.848926,46.685873],[35.849034,46.686411],[35.849569,46.686361],[35.849466,46.685823],[35.848926,46.685873]]]}},{"type":"Feature","properties":{"cadnum":"2324581401:04:033:0009"},"geometry":{"type":"Polygon","coordinates":[[[35.866901,46.666074],[35.867153,46.666101],[35.867325,46.665662],[35.867081,46.665615],[35.866901,46.666074]]]}},{"type":"Feature","properties":{"cadnum":"2324581401:04:032:0010"},"geometry":{"type":"Polygon","coordinates":[[[35.86504,46.665207],[35.866232,46.665385],[35.866274,46.665254],[35.866274,46.665253],[35.865084,46.665076],[35.86504,46.665207]]]}},{"type":"Feature","properties":{"cadnum":"2324581401:04:033:0010"},"geometry":{"type":"Polygon","coordinates":[[[35.866661,46.666047],[35.866901,46.666074],[35.867081,46.665615],[35.866848,46.665569],[35.866661,46.666047]]]}},{"type":"Feature","properties":{"cadnum":"2324581401:04:032:0011"},"geometry":{"type":"Polygon","coordinates":[[[35.864997,46.665339],[35.86508,46.665352],[35.86619,46.665517],[35.866232,46.665385],[35.86504,46.665207],[35.864997,46.665339]]]}},{"type":"Feature","properties":{"cadnum":"2324581401:02:003:0047"},"geometry":{"type":"Polygon","coordinates":[[[35.86845,46.665861],[35.869075,46.665905],[35.869122,46.665682],[35.868497,46.665639],[35.86845,46.665861]]]}},{"type":"Feature","properties":{"cadnum":"2324581401:02:003:0046"},"geometry":{"type":"Polygon","coordinates":[[[35.868497,46.665639],[35.869122,46.665682],[35.869169,46.66546],[35.868545,46.665415],[35.868497,46.665639]]]}},{"type":"Feature","properties":{"cadnum":"2324581401:04:009:0003"},"geometry":{"type":"Polygon","coordinates":[[[35.830608,46.688783],[35.830642,46.689072],[35.83165,46.689015],[35.831615,46.688725],[35.830608,46.688783]]]}},{"type":"Feature","properties":{"cadnum":"2324581401:04:009:0002"},"geometry":{"type":"Polygon","coordinates":[[[35.828371,46.689292],[35.828453,46.69002],[35.829963,46.689916],[35.829911,46.689127],[35.82891,46.689235],[35.828371,46.689292]]]}},{"type":"Feature","properties":{"cadnum":"2324581401:04:002:0003"},"geometry":{"type":"Polygon","coordinates":[[[35.828404,46.690116],[35.828449,46.690538],[35.829981,46.690413],[35.829935,46.68999],[35.828404,46.690116]]]}},{"type":"Feature","properties":{"cadnum":"2324581401:04:009:0004"},"geometry":{"type":"Polygon","coordinates":[[[35.828158,46.687767],[35.828227,46.688105],[35.829028,46.688069],[35.828951,46.68768],[35.828158,46.687767]]]}},{"type":"Feature","properties":{"cadnum":"2324581401:04:030:0008"},"geometry":{"type":"Polygon","coordinates":[[[35.830675,46.687539],[35.830736,46.68794],[35.83086,46.687928],[35.831485,46.687861],[35.831429,46.687491],[35.830675,46.687539]]]}},{"type":"Feature","properties":{"cadnum":"2324581401:04:002:0010"},"geometry":{"type":"Polygon","coordinates":[[[35.830462,46.692698],[35.830481,46.692856],[35.831995,46.692718],[35.832322,46.692688],[35.832303,46.692529],[35.831823,46.692574],[35.830462,46.692698]]]}},{"type":"Feature","properties":{"cadnum":"2324581401:04:003:0003"},"geometry":{"type":"Polygon","coordinates":[[[35.832342,46.691367],[35.832377,46.691574],[35.832754,46.691552],[35.833068,46.691514],[35.833738,46.691468],[35.833704,46.691252],[35.83303,46.691305],[35.832342,46.691367]]]}},{"type":"Feature","properties":{"cadnum":"2324581401:04:002:0006"},"geometry":{"type":"Polygon","coordinates":[[[35.831418,46.692261],[35.831477,46.692605],[35.831823,46.692573],[35.831823,46.692574],[35.831884,46.692568],[35.831995,46.692558],[35.832303,46.692529],[35.832242,46.692172],[35.831884,46.692211],[35.831418,46.692261]]]}},{"type":"Feature","properties":{"cadnum":"2324581401:04:003:0002"},"geometry":{"type":"Polygon","coordinates":[[[35.832434,46.69192],[35.832476,46.692152],[35.833756,46.692078],[35.833714,46.691854],[35.832434,46.69192]]]}},{"type":"Feature","properties":{"cadnum":"2324581401:04:018:0007"},"geometry":{"type":"Polygon","coordinates":[[[35.83661,46.684874],[35.836682,46.685335],[35.836756,46.685645],[35.83709,46.685608],[35.837031,46.685225],[35.836953,46.684828],[35.83661,46.684874]]]}},{"type":"Feature","properties":{"cadnum":"2324581401:04:024:0008"},"geometry":{"type":"Polygon","coordinates":[[[35.832904,46.684456],[35.832951,46.684636],[35.833214,46.684603],[35.833775,46.684533],[35.833824,46.684528],[35.83398,46.684515],[35.834177,46.68449],[35.834173,46.684481],[35.834206,46.684478],[35.834291,46.684469],[35.834469,46.684449],[35.834506,46.684445],[35.834456,46.684251],[35.833756,46.684351],[35.832904,46.684456]]]}},{"type":"Feature","properties":{"cadnum":"2324581401:04:018:0010"},"geometry":{"type":"Polygon","coordinates":[[[35.836684,46.686439],[35.836747,46.686898],[35.83692,46.686884],[35.837355,46.686848],[35.837287,46.686353],[35.836905,46.686399],[35.836906,46.686417],[35.836851,46.686423],[35.836684,46.686439]]]}},{"type":"Feature","properties":{"cadnum":"2324581401:04:018:0006"},"geometry":{"type":"Polygon","coordinates":[[[35.835144,46.686307],[35.835195,46.686586],[35.835674,46.686537],[35.836253,46.686481],[35.836205,46.686212],[35.835144,46.686307]]]}},{"type":"Feature","properties":{"cadnum":"2324581401:04:047:0003"},"geometry":{"type":"Polygon","coordinates":[[[35.848566,46.676274],[35.848571,46.676583],[35.848851,46.676586],[35.849129,46.676285],[35.848566,46.676274]]]}},{"type":"Feature","properties":{"cadnum":"2324581401:04:002:0002"},"geometry":{"type":"Polygon","coordinates":[[[35.828613,46.692804],[35.828636,46.692843],[35.828681,46.692872],[35.830349,46.693104],[35.830368,46.692139],[35.830358,46.692113],[35.828638,46.692303],[35.828649,46.692407],[35.828613,46.692804]]]}},{"type":"Feature","properties":{"cadnum":"2324581401:04:002:0007"},"geometry":{"type":"Polygon","coordinates":[[[35.830423,46.692368],[35.830462,46.692698],[35.831477,46.692605],[35.831418,46.692261],[35.830423,46.692368]]]}}]}