{"type":"FeatureCollection","features":[{"type":"Feature","properties":{"cadnum":"2324583801:05:011:0008"},"geometry":{"type":"Polygon","coordinates":[[[35.430916,46.686033],[35.431529,46.686534],[35.432802,46.685712],[35.4327,46.685651],[35.432331,46.685891],[35.432189,46.685796],[35.43241,46.685577],[35.432062,46.685351],[35.430916,46.686033]]]}},{"type":"Feature","properties":{"cadnum":"2324583801:05:001:0004"},"geometry":{"type":"Polygon","coordinates":[[[35.436118,46.697522],[35.436315,46.697529],[35.436316,46.697529],[35.436316,46.69753],[35.436911,46.69755],[35.436928,46.697176],[35.436487,46.697164],[35.436149,46.697154],[35.436136,46.697154],[35.436118,46.697522]]]}},{"type":"Feature","properties":{"cadnum":"2324583801:05:001:0005"},"geometry":{"type":"Polygon","coordinates":[[[35.435039,46.697476],[35.436118,46.697522],[35.436136,46.697154],[35.435056,46.697084],[35.435039,46.697476]]]}},{"type":"Feature","properties":{"cadnum":"2324583801:05:008:0013"},"geometry":{"type":"Polygon","coordinates":[[[35.478015,46.659393],[35.478489,46.659719],[35.478999,46.659386],[35.478511,46.659051],[35.478015,46.659393]]]}},{"type":"Feature","properties":{"cadnum":"2324583801:05:008:0014"},"geometry":{"type":"Polygon","coordinates":[[[35.477559,46.659706],[35.478021,46.660025],[35.478489,46.659719],[35.478015,46.659393],[35.478014,46.659393],[35.477559,46.659706]]]}},{"type":"Feature","properties":{"cadnum":"2324583801:05:009:0006"},"geometry":{"type":"Polygon","coordinates":[[[35.435445,46.692011],[35.435758,46.692218],[35.436315,46.691809],[35.436316,46.691809],[35.436409,46.69174],[35.436075,46.691519],[35.435445,46.692011]]]}},{"type":"Feature","properties":{"cadnum":"2324583801:05:011:0007"},"geometry":{"type":"Polygon","coordinates":[[[35.438166,46.690735],[35.438413,46.690885],[35.438413,46.690886],[35.438566,46.690979],[35.438567,46.690979],[35.439286,46.690456],[35.438856,46.690193],[35.438799,46.690239],[35.438166,46.690735]]]}},{"type":"Feature","properties":{"cadnum":"2324583801:05:009:0004"},"geometry":{"type":"Polygon","coordinates":[[[35.438156,46.694317],[35.43837,46.694481],[35.438606,46.694364],[35.438488,46.694273],[35.438416,46.694318],[35.438299,46.694228],[35.438156,46.694317]]]}},{"type":"Feature","properties":{"cadnum":"2324583801:05:011:0002"},"geometry":{"type":"Polygon","coordinates":[[[35.439719,46.691199],[35.44015,46.69147],[35.440783,46.691003],[35.441145,46.690737],[35.441145,46.690736],[35.440694,46.690454],[35.439975,46.691003],[35.439719,46.691199]]]}},{"type":"Feature","properties":{"cadnum":"2324583801:05:006:0002"},"geometry":{"type":"Polygon","coordinates":[[[35.444354,46.696566],[35.446898,46.69666],[35.446881,46.696384],[35.444377,46.696209],[35.444354,46.696566]]]}},{"type":"Feature","properties":{"cadnum":"2324583801:05:006:0003"},"geometry":{"type":"Polygon","coordinates":[[[35.444288,46.697766],[35.444829,46.697788],[35.444986,46.697793],[35.445943,46.697819],[35.445959,46.697387],[35.445002,46.697366],[35.444602,46.697358],[35.444303,46.697354],[35.444288,46.697766]]]}},{"type":"Feature","properties":{"cadnum":"2324583801:05:003:0005"},"geometry":{"type":"Polygon","coordinates":[[[35.441711,46.69765],[35.441809,46.697652],[35.441809,46.697653],[35.441941,46.697656],[35.44198,46.697657],[35.44198,46.697656],[35.443941,46.697697],[35.443958,46.69731],[35.441809,46.697313],[35.441736,46.697313],[35.441711,46.69765]]]}},{"type":"Feature","properties":{"cadnum":"2324583801:05:003:0004"},"geometry":{"type":"Polygon","coordinates":[[[35.442266,46.696898],[35.44398,46.696866],[35.444,46.696613],[35.442447,46.696573],[35.442266,46.696898]]]}},{"type":"Feature","properties":{"cadnum":"2324583801:05:007:0002"},"geometry":{"type":"Polygon","coordinates":[[[35.44519,46.69486],[35.445789,46.694862],[35.446979,46.694869],[35.446973,46.694771],[35.446957,46.694461],[35.445925,46.694469],[35.445211,46.694458],[35.445194,46.694771],[35.44519,46.69486]]]}},{"type":"Feature","properties":{"cadnum":"2324583801:04:016:0002"},"geometry":{"type":"Polygon","coordinates":[[[35.429815,46.692295],[35.430266,46.69253],[35.430822,46.692158],[35.430853,46.692137],[35.430994,46.692043],[35.430994,46.692042],[35.431013,46.69203],[35.430905,46.691974],[35.430538,46.691782],[35.429815,46.692295]]]}},{"type":"Feature","properties":{"cadnum":"2324583801:04:016:0003"},"geometry":{"type":"Polygon","coordinates":[[[35.430538,46.691782],[35.430822,46.691931],[35.430905,46.691974],[35.430994,46.692021],[35.430994,46.69202],[35.431013,46.69203],[35.431276,46.691853],[35.431504,46.691692],[35.430983,46.69142],[35.430675,46.691685],[35.430538,46.691782]]]}},{"type":"Feature","properties":{"cadnum":"2324583801:05:015:0002"},"geometry":{"type":"Polygon","coordinates":[[[35.428317,46.691528],[35.4286,46.691574],[35.42869,46.691491],[35.429027,46.691624],[35.429614,46.691069],[35.429534,46.690973],[35.429676,46.690846],[35.429239,46.690627],[35.428973,46.690886],[35.428939,46.690919],[35.428852,46.691003],[35.428853,46.691003],[35.428317,46.691528]]]}},{"type":"Feature","properties":{"cadnum":"2324583801:05:011:0004"},"geometry":{"type":"Polygon","coordinates":[[[35.435845,46.688447],[35.436316,46.688642],[35.436487,46.688513],[35.436525,46.688484],[35.436836,46.688276],[35.436434,46.688023],[35.436133,46.688239],[35.435845,46.688447]]]}},{"type":"Feature","properties":{"cadnum":"2324583801:05:011:0009"},"geometry":{"type":"Polygon","coordinates":[[[35.432579,46.688023],[35.43381,46.68874],[35.434199,46.688358],[35.433059,46.687818],[35.432579,46.688023]]]}},{"type":"Feature","properties":{"cadnum":"2324583801:05:010:0011"},"geometry":{"type":"Polygon","coordinates":[[[35.434818,46.690088],[35.435299,46.690283],[35.43566,46.689998],[35.435161,46.689795],[35.434818,46.690088]]]}},{"type":"Feature","properties":{"cadnum":"2324583801:05:011:0005"},"geometry":{"type":"Polygon","coordinates":[[[35.435241,46.688883],[35.435729,46.689084],[35.436316,46.688642],[35.435845,46.688447],[35.435241,46.688883]]]}},{"type":"Feature","properties":{"cadnum":"2324583801:05:010:0010"},"geometry":{"type":"Polygon","coordinates":[[[35.434319,46.690511],[35.434777,46.690697],[35.435299,46.690283],[35.434818,46.690088],[35.434319,46.690511]]]}},{"type":"Feature","properties":{"cadnum":"2324583801:05:014:0002"},"geometry":{"type":"Polygon","coordinates":[[[35.441555,46.688077],[35.44198,46.68835],[35.441981,46.68835],[35.441991,46.688357],[35.442322,46.688112],[35.442494,46.688003],[35.442074,46.687721],[35.441809,46.687898],[35.441809,46.687899],[35.441705,46.687967],[35.441555,46.688077]]]}},{"type":"Feature","properties":{"cadnum":"2324583801:05:013:0005"},"geometry":{"type":"Polygon","coordinates":[[[35.43999,46.689864],[35.440407,46.690139],[35.441809,46.689103],[35.441868,46.689059],[35.44198,46.688976],[35.442131,46.688864],[35.441809,46.688676],[35.44168,46.6886],[35.43999,46.689864]]]}},{"type":"Feature","properties":{"cadnum":"2324583801:05:014:0003"},"geometry":{"type":"Polygon","coordinates":[[[35.442074,46.687721],[35.442494,46.688003],[35.442627,46.68792],[35.443226,46.687522],[35.442797,46.687239],[35.442074,46.687721]]]}},{"type":"Feature","properties":{"cadnum":"2324583801:05:011:0003"},"geometry":{"type":"Polygon","coordinates":[[[35.437599,46.689996],[35.437883,46.690174],[35.438963,46.689366],[35.438662,46.689176],[35.437599,46.689996]]]}},{"type":"Feature","properties":{"cadnum":"2324583801:05:011:0010"},"geometry":{"type":"Polygon","coordinates":[[[35.436998,46.689896],[35.437502,46.690073],[35.438496,46.689308],[35.43808,46.689046],[35.436998,46.689896]]]}},{"type":"Feature","properties":{"cadnum":"2324583801:05:011:0006"},"geometry":{"type":"Polygon","coordinates":[[[35.438856,46.690193],[35.439286,46.690456],[35.439418,46.69036],[35.439773,46.690087],[35.439324,46.689812],[35.438856,46.690193]]]}},{"type":"Feature","properties":{"cadnum":"2324583801:05:001:0002"},"geometry":{"type":"Polygon","coordinates":[[[35.434559,46.699926],[35.436315,46.699972],[35.436316,46.699972],[35.436316,46.699973],[35.436737,46.699983],[35.436773,46.699656],[35.436487,46.69965],[35.434596,46.699606],[35.434559,46.699926]]]}},{"type":"Feature","properties":{"cadnum":"2324583801:05:002:0005"},"geometry":{"type":"Polygon","coordinates":[[[35.438043,46.696822],[35.43815,46.696825],[35.439552,46.696869],[35.43958,46.696326],[35.439501,46.696325],[35.439418,46.696637],[35.439417,46.696637],[35.438317,46.696613],[35.438316,46.696613],[35.438311,46.696448],[35.438063,46.696443],[35.438043,46.696822]]]}},{"type":"Feature","properties":{"cadnum":"2324583801:05:002:0003"},"geometry":{"type":"Polygon","coordinates":[[[35.437097,46.698198],[35.437781,46.69822],[35.437816,46.697794],[35.437132,46.697767],[35.437097,46.698198]]]}},{"type":"Feature","properties":{"cadnum":"2324583801:05:003:0006"},"geometry":{"type":"Polygon","coordinates":[[[35.439313,46.69801],[35.440277,46.698113],[35.44035,46.69776],[35.439472,46.697688],[35.439326,46.697852],[35.439313,46.69801]]]}},{"type":"Feature","properties":{"cadnum":"2324583801:05:002:0002"},"geometry":{"type":"Polygon","coordinates":[[[35.437781,46.69822],[35.438508,46.698244],[35.438543,46.697822],[35.437816,46.697794],[35.437781,46.69822]]]}},{"type":"Feature","properties":{"cadnum":"2324583801:05:002:0004"},"geometry":{"type":"Polygon","coordinates":[[[35.437272,46.696802],[35.438043,46.696822],[35.438063,46.696443],[35.437692,46.696436],[35.437293,46.69641],[35.437272,46.696802]]]}},{"type":"Feature","properties":{"cadnum":"2324583801:05:003:0002"},"geometry":{"type":"Polygon","coordinates":[[[35.438984,46.698181],[35.439298,46.698184],[35.439326,46.697852],[35.439013,46.697841],[35.439012,46.697841],[35.438984,46.698181]]]}},{"type":"Feature","properties":{"cadnum":"2324583801:05:003:0007"},"geometry":{"type":"Polygon","coordinates":[[[35.440277,46.698113],[35.440674,46.698149],[35.441105,46.698163],[35.441174,46.697827],[35.44035,46.69776],[35.440277,46.698113]]]}},{"type":"Feature","properties":{"cadnum":"2324583801:05:005:0002"},"geometry":{"type":"Polygon","coordinates":[[[35.444043,46.701864],[35.445031,46.701922],[35.445057,46.701629],[35.444527,46.701589],[35.444068,46.70158],[35.444043,46.701864]]]}},{"type":"Feature","properties":{"cadnum":"2324583801:05:005:0003"},"geometry":{"type":"Polygon","coordinates":[[[35.445031,46.701922],[35.446461,46.702006],[35.446524,46.701738],[35.445057,46.701629],[35.445031,46.701922]]]}},{"type":"Feature","properties":{"cadnum":"2324583801:05:009:0007"},"geometry":{"type":"Polygon","coordinates":[[[35.435327,46.692103],[35.435673,46.692281],[35.435758,46.692218],[35.435445,46.692011],[35.435327,46.692103]]]}},{"type":"Feature","properties":{"cadnum":"2324583801:05:008:0015"},"geometry":{"type":"Polygon","coordinates":[[[35.432904,46.692977],[35.433345,46.69321],[35.433853,46.69283],[35.433387,46.692584],[35.432904,46.692977]]]}},{"type":"Feature","properties":{"cadnum":"2324583801:05:009:0005"},"geometry":{"type":"Polygon","coordinates":[[[35.435071,46.691924],[35.435327,46.692103],[35.435445,46.692011],[35.436075,46.691519],[35.435831,46.691354],[35.435071,46.691924]]]}},{"type":"Feature","properties":{"cadnum":"2324583801:05:008:0016"},"geometry":{"type":"Polygon","coordinates":[[[35.432147,46.693594],[35.432511,46.693786],[35.433214,46.693308],[35.433345,46.69321],[35.432904,46.692977],[35.432147,46.693594]]]}},{"type":"Feature","properties":{"cadnum":"2324583801:05:003:0003"},"geometry":{"type":"Polygon","coordinates":[[[35.442064,46.693554],[35.442254,46.693892],[35.442298,46.694026],[35.444239,46.694019],[35.444237,46.693724],[35.443942,46.693727],[35.443784,46.693428],[35.444215,46.693285],[35.444131,46.692861],[35.442064,46.693554]]]}},{"type":"Feature","properties":{"cadnum":"2324583801:05:002:0007"},"geometry":{"type":"Polygon","coordinates":[[[35.438382,46.700356],[35.439014,46.700393],[35.439168,46.70013],[35.43841,46.700118],[35.438382,46.700356]]]}},{"type":"Feature","properties":{"cadnum":"2324583801:05:002:0009"},"geometry":{"type":"Polygon","coordinates":[[[35.437836,46.70011],[35.439097,46.700129],[35.439131,46.699818],[35.437875,46.699768],[35.437836,46.70011]]]}},{"type":"Feature","properties":{"cadnum":"2324583801:05:002:0008"},"geometry":{"type":"Polygon","coordinates":[[[35.437004,46.700098],[35.437836,46.70011],[35.437875,46.699768],[35.437044,46.699735],[35.437004,46.700098]]]}},{"type":"Feature","properties":{"cadnum":"2324583801:05:002:0006"},"geometry":{"type":"Polygon","coordinates":[[[35.436982,46.700277],[35.438382,46.700356],[35.43841,46.700118],[35.437004,46.700098],[35.436982,46.700277]]]}}]}