{"type":"FeatureCollection","features":[{"type":"Feature","properties":{"cadnum":"2324582501:03:011:0003"},"geometry":{"type":"Polygon","coordinates":[[[35.601123,46.634123],[35.601282,46.634238],[35.601419,46.634337],[35.601458,46.634365],[35.601583,46.634455],[35.601671,46.634518],[35.601873,46.634395],[35.602081,46.634268],[35.601519,46.633884],[35.601123,46.634123]]]}},{"type":"Feature","properties":{"cadnum":"2324582501:03:010:0001"},"geometry":{"type":"Polygon","coordinates":[[[35.603683,46.634427],[35.603718,46.634455],[35.603735,46.634468],[35.603726,46.634475],[35.603881,46.634601],[35.603886,46.634597],[35.603887,46.634597],[35.603935,46.634637],[35.60396,46.634652],[35.604031,46.634672],[35.604105,46.634645],[35.604361,46.634477],[35.604314,46.634436],[35.604321,46.634432],[35.604273,46.634396],[35.604262,46.634387],[35.604255,46.634391],[35.604179,46.634331],[35.604169,46.634337],[35.604168,46.634337],[35.604135,46.634355],[35.603988,46.634245],[35.603834,46.634337],[35.603833,46.634337],[35.603683,46.634427]]]}},{"type":"Feature","properties":{"cadnum":"2324582501:03:006:0003"},"geometry":{"type":"Polygon","coordinates":[[[35.601592,46.636318],[35.602077,46.636696],[35.602553,46.636435],[35.602047,46.636044],[35.601592,46.636318]]]}},{"type":"Feature","properties":{"cadnum":"2324582501:03:014:0006"},"geometry":{"type":"Polygon","coordinates":[[[35.606626,46.634888],[35.606775,46.634991],[35.607339,46.63538],[35.607774,46.635095],[35.607188,46.634701],[35.607053,46.63461],[35.606626,46.634888]]]}},{"type":"Feature","properties":{"cadnum":"2324582501:03:014:0005"},"geometry":{"type":"Polygon","coordinates":[[[35.606105,46.634527],[35.606604,46.634872],[35.606604,46.634873],[35.606626,46.634888],[35.606775,46.634792],[35.606775,46.634791],[35.607054,46.63461],[35.606775,46.634422],[35.606729,46.634391],[35.606648,46.634337],[35.606602,46.634306],[35.606516,46.63427],[35.60641,46.634337],[35.606409,46.634337],[35.606332,46.634385],[35.60622,46.634455],[35.606221,46.634455],[35.606105,46.634527]]]}},{"type":"Feature","properties":{"cadnum":"2324582501:03:010:0003"},"geometry":{"type":"Polygon","coordinates":[[[35.605808,46.635963],[35.605957,46.636094],[35.606209,46.635982],[35.606046,46.635836],[35.605808,46.635963]]]}},{"type":"Feature","properties":{"cadnum":"2324582501:03:014:0002"},"geometry":{"type":"Polygon","coordinates":[[[35.605831,46.635445],[35.606465,46.63594],[35.606604,46.635861],[35.606617,46.635853],[35.606775,46.635762],[35.606891,46.635695],[35.606672,46.635525],[35.606315,46.635247],[35.606227,46.635176],[35.605831,46.635445]]]}},{"type":"Feature","properties":{"cadnum":"2324582501:03:011:0002"},"geometry":{"type":"Polygon","coordinates":[[[35.601671,46.634518],[35.602201,46.634898],[35.602626,46.634641],[35.602184,46.634338],[35.602081,46.634268],[35.601968,46.634337],[35.601967,46.634337],[35.601873,46.634395],[35.601774,46.634455],[35.601775,46.634455],[35.601671,46.634518]]]}},{"type":"Feature","properties":{"cadnum":"2324582501:03:014:0003"},"geometry":{"type":"Polygon","coordinates":[[[35.605328,46.635055],[35.605831,46.635445],[35.606227,46.635176],[35.605727,46.634778],[35.605328,46.635055]]]}},{"type":"Feature","properties":{"cadnum":"2324582501:03:006:0002"},"geometry":{"type":"Polygon","coordinates":[[[35.601123,46.635955],[35.601282,46.636079],[35.601282,46.636078],[35.601592,46.636318],[35.602047,46.636044],[35.601577,46.635681],[35.601123,46.635955]]]}},{"type":"Feature","properties":{"cadnum":"2324582501:03:019:0002"},"geometry":{"type":"Polygon","coordinates":[[[35.609511,46.630846],[35.609995,46.631198],[35.610445,46.630931],[35.610314,46.630822],[35.609972,46.630574],[35.60997,46.630573],[35.609785,46.630683],[35.609511,46.630846]]]}},{"type":"Feature","properties":{"cadnum":"2324582501:03:014:0007"},"geometry":{"type":"Polygon","coordinates":[[[35.608374,46.633288],[35.608776,46.633567],[35.608898,46.633652],[35.609346,46.633409],[35.609141,46.633261],[35.608834,46.633039],[35.608374,46.633288]]]}},{"type":"Feature","properties":{"cadnum":"2324582501:03:021:0005"},"geometry":{"type":"Polygon","coordinates":[[[35.610301,46.627234],[35.611233,46.627896],[35.61211,46.627372],[35.61146,46.62691],[35.611149,46.626689],[35.611003,46.626792],[35.611002,46.626792],[35.610726,46.626989],[35.610301,46.627234]]]}},{"type":"Feature","properties":{"cadnum":"2324582501:03:005:0003"},"geometry":{"type":"Polygon","coordinates":[[[35.598776,46.635691],[35.59936,46.636189],[35.599661,46.636444],[35.599881,46.636312],[35.599629,46.636075],[35.598998,46.635558],[35.598776,46.635691]]]}},{"type":"Feature","properties":{"cadnum":"2324582501:03:005:0004"},"geometry":{"type":"Polygon","coordinates":[[[35.598648,46.635583],[35.598776,46.635691],[35.598998,46.635558],[35.598891,46.635469],[35.598648,46.635583]]]}},{"type":"Feature","properties":{"cadnum":"2324582501:03:012:0007"},"geometry":{"type":"Polygon","coordinates":[[[35.604116,46.631878],[35.604536,46.632178],[35.604546,46.632171],[35.604939,46.631932],[35.605154,46.631813],[35.604722,46.631505],[35.604116,46.631878]]]}},{"type":"Feature","properties":{"cadnum":"2324582501:03:001:0002"},"geometry":{"type":"Polygon","coordinates":[[[35.593182,46.639852],[35.593218,46.639881],[35.593608,46.640177],[35.594012,46.639933],[35.59359,46.639612],[35.593584,46.639608],[35.593182,46.639852]]]}},{"type":"Feature","properties":{"cadnum":"2324582501:03:003:0002"},"geometry":{"type":"Polygon","coordinates":[[[35.595518,46.639517],[35.595592,46.639626],[35.595617,46.639647],[35.595771,46.639771],[35.595789,46.639786],[35.596366,46.640253],[35.596819,46.639983],[35.595801,46.639245],[35.595709,46.639297],[35.595561,46.639381],[35.595518,46.639517]]]}},{"type":"Feature","properties":{"cadnum":"2324582501:03:001:0001"},"geometry":{"type":"Polygon","coordinates":[[[35.592519,46.639331],[35.593182,46.639852],[35.593584,46.639608],[35.592942,46.639106],[35.592519,46.639331]]]}},{"type":"Feature","properties":{"cadnum":"2324582501:03:021:0006"},"geometry":{"type":"Polygon","coordinates":[[[35.609557,46.627574],[35.6105,46.628331],[35.611233,46.627896],[35.610301,46.627234],[35.610225,46.627327],[35.609557,46.627574]]]}},{"type":"Feature","properties":{"cadnum":"2324582501:03:021:0004"},"geometry":{"type":"Polygon","coordinates":[[[35.609051,46.627759],[35.610078,46.628585],[35.6105,46.628331],[35.609557,46.627574],[35.609453,46.627612],[35.609262,46.627661],[35.609051,46.627759]]]}}]}