{"type":"FeatureCollection","features":[{"type":"Feature","properties":{"cadnum":"2324984001:08:001:0099"},"geometry":{"type":"Polygon","coordinates":[[[36.830061,47.517242],[36.830083,47.517304],[36.830084,47.517304],[36.83016,47.517514],[36.830414,47.517462],[36.830706,47.517402],[36.83117,47.517306],[36.831156,47.517256],[36.831095,47.517031],[36.830327,47.517188],[36.830062,47.517242],[36.830061,47.517242]]]}},{"type":"Feature","properties":{"cadnum":"2324984001:08:001:0100"},"geometry":{"type":"Polygon","coordinates":[[[36.831095,47.517031],[36.831137,47.517188],[36.831156,47.517256],[36.831169,47.517304],[36.83117,47.517306],[36.83145,47.517249],[36.831579,47.517223],[36.831901,47.517157],[36.831819,47.516883],[36.831666,47.516914],[36.831095,47.517031]]]}},{"type":"Feature","properties":{"cadnum":"2324984001:08:001:0003"},"geometry":{"type":"Polygon","coordinates":[[[36.826463,47.518375],[36.826541,47.518601],[36.827146,47.518581],[36.827104,47.518363],[36.827093,47.518362],[36.827073,47.518347],[36.826463,47.518375]]]}},{"type":"Feature","properties":{"cadnum":"2324984001:08:001:0090"},"geometry":{"type":"Polygon","coordinates":[[[36.830309,47.519166],[36.830471,47.519175],[36.830482,47.519092],[36.830501,47.519093],[36.830518,47.519096],[36.830521,47.519075],[36.830504,47.519074],[36.830504,47.519072],[36.830484,47.51907],[36.83049,47.518997],[36.830325,47.518988],[36.830309,47.519166]]]}},{"type":"Feature","properties":{"cadnum":"2324984001:08:001:0089"},"geometry":{"type":"Polygon","coordinates":[[[36.84248,47.518671],[36.842634,47.518683],[36.842635,47.518674],[36.84265,47.518584],[36.842545,47.518577],[36.84254,47.518611],[36.842503,47.518609],[36.842489,47.518608],[36.84248,47.518671]]]}}]}