{"type":"FeatureCollection","features":[{"type":"Feature","properties":{"cadnum":"2324583701:04:013:0005"},"geometry":{"type":"Polygon","coordinates":[[[35.977218,47.017083],[35.977777,47.017273],[35.978399,47.016427],[35.977913,47.016267],[35.977871,47.016309],[35.977575,47.016661],[35.977218,47.017083]]]}},{"type":"Feature","properties":{"cadnum":"2324583701:04:013:0003"},"geometry":{"type":"Polygon","coordinates":[[[35.976982,47.016481],[35.977575,47.016661],[35.977871,47.016309],[35.977238,47.016115],[35.976982,47.016481]]]}},{"type":"Feature","properties":{"cadnum":"2324583701:04:009:0003"},"geometry":{"type":"Polygon","coordinates":[[[35.978024,47.018016],[35.978925,47.018318],[35.979113,47.018051],[35.978661,47.0179],[35.978179,47.01776],[35.978143,47.01782],[35.978024,47.018016]]]}},{"type":"Feature","properties":{"cadnum":"2324583701:04:013:0002"},"geometry":{"type":"Polygon","coordinates":[[[35.976687,47.016902],[35.977218,47.017083],[35.977575,47.016661],[35.976982,47.016481],[35.976687,47.016902]]]}},{"type":"Feature","properties":{"cadnum":"2324583701:04:006:0002"},"geometry":{"type":"Polygon","coordinates":[[[35.953043,47.017821],[35.953282,47.018233],[35.953542,47.018735],[35.953816,47.018634],[35.953546,47.018108],[35.953329,47.017754],[35.953046,47.01782],[35.953043,47.017821]]]}},{"type":"Feature","properties":{"cadnum":"2324583701:04:007:0004"},"geometry":{"type":"Polygon","coordinates":[[[35.957257,47.018099],[35.957376,47.018227],[35.957683,47.01822],[35.957729,47.018259],[35.958166,47.01821],[35.958216,47.018205],[35.958338,47.018191],[35.95885,47.018132],[35.958721,47.017734],[35.958375,47.01782],[35.958377,47.01782],[35.958338,47.01783],[35.957257,47.018099]]]}},{"type":"Feature","properties":{"cadnum":"2324583701:04:006:0003"},"geometry":{"type":"Polygon","coordinates":[[[35.952765,47.017901],[35.953011,47.018366],[35.953282,47.018233],[35.953043,47.017821],[35.952874,47.017861],[35.952882,47.017873],[35.952765,47.017901]]]}},{"type":"Feature","properties":{"cadnum":"2324583701:04:007:0003"},"geometry":{"type":"Polygon","coordinates":[[[35.95809,47.016549],[35.958166,47.016698],[35.958166,47.016699],[35.958273,47.016908],[35.958338,47.016886],[35.958589,47.0168],[35.958378,47.016479],[35.958178,47.016528],[35.95809,47.016549]]]}},{"type":"Feature","properties":{"cadnum":"2324583701:04:007:0002"},"geometry":{"type":"Polygon","coordinates":[[[35.963482,47.016188],[35.963659,47.016198],[35.963659,47.016199],[35.96383,47.016209],[35.963831,47.016184],[35.963831,47.016183],[35.963843,47.015955],[35.963843,47.015639],[35.963686,47.01563],[35.963492,47.015617],[35.963482,47.016188]]]}},{"type":"Feature","properties":{"cadnum":"2324583701:04:009:0007"},"geometry":{"type":"Polygon","coordinates":[[[35.972933,47.016986],[35.973303,47.01701],[35.973345,47.016677],[35.973404,47.016224],[35.973026,47.016199],[35.972972,47.016664],[35.972933,47.016986]]]}},{"type":"Feature","properties":{"cadnum":"2324583701:04:009:0008"},"geometry":{"type":"Polygon","coordinates":[[[35.97096,47.016649],[35.971494,47.016667],[35.971532,47.016491],[35.971564,47.016123],[35.971035,47.01609],[35.970992,47.016492],[35.97096,47.016649]]]}},{"type":"Feature","properties":{"cadnum":"2324583701:04:012:0006"},"geometry":{"type":"Polygon","coordinates":[[[35.972767,47.015879],[35.973036,47.015893],[35.973089,47.015439],[35.972814,47.01545],[35.972767,47.015879]]]}},{"type":"Feature","properties":{"cadnum":"2324583701:04:012:0004"},"geometry":{"type":"Polygon","coordinates":[[[35.972501,47.015863],[35.972767,47.015879],[35.972814,47.01545],[35.972533,47.01545],[35.972501,47.015863]]]}},{"type":"Feature","properties":{"cadnum":"2324583701:04:009:0005"},"geometry":{"type":"Polygon","coordinates":[[[35.972081,47.016667],[35.972625,47.016716],[35.972631,47.016664],[35.97271,47.01618],[35.972135,47.01615],[35.972099,47.016509],[35.972081,47.016667]]]}},{"type":"Feature","properties":{"cadnum":"2324583701:04:009:0006"},"geometry":{"type":"Polygon","coordinates":[[[35.972874,47.017482],[35.97324,47.017506],[35.973303,47.01701],[35.972934,47.016986],[35.972874,47.017482]]]}},{"type":"Feature","properties":{"cadnum":"2324583701:04:012:0005"},"geometry":{"type":"Polygon","coordinates":[[[35.972814,47.01545],[35.973089,47.015439],[35.973161,47.014795],[35.972851,47.014766],[35.972814,47.01545]]]}},{"type":"Feature","properties":{"cadnum":"2324583701:04:012:0002"},"geometry":{"type":"Polygon","coordinates":[[[35.973089,47.015439],[35.973376,47.015462],[35.973472,47.014837],[35.973161,47.014795],[35.973089,47.015439]]]}},{"type":"Feature","properties":{"cadnum":"2324583701:04:012:0003"},"geometry":{"type":"Polygon","coordinates":[[[35.973036,47.015893],[35.973298,47.015908],[35.973376,47.015462],[35.973089,47.015439],[35.973036,47.015893]]]}},{"type":"Feature","properties":{"cadnum":"2324583701:04:009:0009"},"geometry":{"type":"Polygon","coordinates":[[[35.970849,47.017205],[35.971375,47.017223],[35.971494,47.016667],[35.97096,47.016649],[35.970849,47.017205]]]}},{"type":"Feature","properties":{"cadnum":"2324583701:04:012:0007"},"geometry":{"type":"Polygon","coordinates":[[[35.968727,47.015642],[35.968912,47.01565],[35.969152,47.015665],[35.969152,47.015666],[35.969238,47.015671],[35.969273,47.015341],[35.96928,47.015275],[35.968959,47.01526],[35.968738,47.015249],[35.968727,47.015642]]]}},{"type":"Feature","properties":{"cadnum":"2324583701:04:009:0004"},"geometry":{"type":"Polygon","coordinates":[[[35.972021,47.017205],[35.972566,47.017255],[35.972625,47.016716],[35.972081,47.016667],[35.972021,47.017205]]]}},{"type":"Feature","properties":{"cadnum":"2324583701:04:009:0002"},"geometry":{"type":"Polygon","coordinates":[[[35.977462,47.018938],[35.978257,47.019298],[35.978308,47.019284],[35.978863,47.018405],[35.978925,47.018318],[35.978024,47.018016],[35.977462,47.018938]]]}},{"type":"Feature","properties":{"cadnum":"2324583701:04:001:0002"},"geometry":{"type":"Polygon","coordinates":[[[35.952072,47.024147],[35.952673,47.024399],[35.952673,47.0244],[35.952688,47.024405],[35.952845,47.024207],[35.952996,47.024015],[35.952845,47.023944],[35.952517,47.023789],[35.952072,47.024147]]]}},{"type":"Feature","properties":{"cadnum":"2324583701:04:003:0002"},"geometry":{"type":"Polygon","coordinates":[[[35.954599,47.02181],[35.95515,47.022713],[35.95554,47.022595],[35.954972,47.021676],[35.954599,47.02181]]]}},{"type":"Feature","properties":{"cadnum":"2324583701:04:010:0004"},"geometry":{"type":"Polygon","coordinates":[[[35.954341,47.016008],[35.954563,47.016464],[35.955088,47.016354],[35.954846,47.015876],[35.954341,47.016008]]]}},{"type":"Feature","properties":{"cadnum":"2324583701:04:010:0003"},"geometry":{"type":"Polygon","coordinates":[[[35.957186,47.015808],[35.957289,47.015983],[35.957498,47.016362],[35.957989,47.016236],[35.957777,47.015857],[35.957713,47.015736],[35.957186,47.015808]]]}},{"type":"Feature","properties":{"cadnum":"2324583701:04:010:0005"},"geometry":{"type":"Polygon","coordinates":[[[35.954563,47.016464],[35.954656,47.016691],[35.954754,47.016679],[35.95491,47.017001],[35.955363,47.016899],[35.955212,47.016595],[35.955088,47.016354],[35.954563,47.016464]]]}},{"type":"Feature","properties":{"cadnum":"2324583701:04:007:0005"},"geometry":{"type":"Polygon","coordinates":[[[35.957575,47.016673],[35.95775,47.017],[35.957905,47.017271],[35.958126,47.017223],[35.958015,47.016929],[35.957852,47.016604],[35.957575,47.016673]]]}},{"type":"Feature","properties":{"cadnum":"2324583701:04:010:0002"},"geometry":{"type":"Polygon","coordinates":[[[35.956918,47.015294],[35.957087,47.015641],[35.957186,47.015808],[35.957713,47.015736],[35.957439,47.015223],[35.956918,47.015294]]]}},{"type":"Feature","properties":{"cadnum":"2324583701:04:008:0003"},"geometry":{"type":"Polygon","coordinates":[[[35.966288,47.016954],[35.96681,47.016984],[35.966866,47.016414],[35.966358,47.016383],[35.966288,47.016954]]]}},{"type":"Feature","properties":{"cadnum":"2324583701:04:008:0004"},"geometry":{"type":"Polygon","coordinates":[[[35.966358,47.016383],[35.966866,47.016414],[35.966871,47.01635],[35.96694,47.015859],[35.966384,47.015824],[35.966366,47.016307],[35.966358,47.016383]]]}},{"type":"Feature","properties":{"cadnum":"2324583701:04:008:0002"},"geometry":{"type":"Polygon","coordinates":[[[35.965806,47.016171],[35.96637,47.016218],[35.966384,47.015824],[35.965848,47.015794],[35.965806,47.016171]]]}}]}