{"type":"FeatureCollection","features":[{"type":"Feature","properties":{"cadnum":"2324583501:03:018:0003"},"geometry":{"type":"Polygon","coordinates":[[[35.837582,46.760685],[35.837952,46.761136],[35.838442,46.760938],[35.838076,46.760486],[35.837582,46.760685]]]}},{"type":"Feature","properties":{"cadnum":"2324583501:03:018:0007"},"geometry":{"type":"Polygon","coordinates":[[[35.836895,46.759855],[35.837232,46.760258],[35.837488,46.760155],[35.83774,46.760052],[35.837393,46.759657],[35.836895,46.759855]]]}},{"type":"Feature","properties":{"cadnum":"2324583501:03:018:0004"},"geometry":{"type":"Polygon","coordinates":[[[35.838088,46.760501],[35.838442,46.760938],[35.838961,46.760728],[35.838581,46.7603],[35.838088,46.760501]]]}},{"type":"Feature","properties":{"cadnum":"2324583501:03:004:0002"},"geometry":{"type":"Polygon","coordinates":[[[35.836836,46.762472],[35.836837,46.762473],[35.836897,46.762547],[35.837135,46.76284],[35.837488,46.762704],[35.837488,46.762703],[35.837641,46.762644],[35.837502,46.762483],[35.837488,46.762466],[35.83733,46.76228],[35.836947,46.762429],[35.836946,46.762429],[35.836837,46.762472],[35.836836,46.762472]]]}},{"type":"Feature","properties":{"cadnum":"2324583501:03:025:0002"},"geometry":{"type":"Polygon","coordinates":[[[35.837085,46.761765],[35.837316,46.762037],[35.837317,46.762037],[35.837421,46.762159],[35.837488,46.762133],[35.837488,46.762132],[35.837979,46.761938],[35.837642,46.761544],[35.837321,46.761671],[35.837085,46.761765]]]}},{"type":"Feature","properties":{"cadnum":"2324583501:03:018:0002"},"geometry":{"type":"Polygon","coordinates":[[[35.839889,46.7592],[35.840602,46.760074],[35.841096,46.759877],[35.840357,46.75903],[35.839889,46.7592]]]}},{"type":"Feature","properties":{"cadnum":"2324583501:03:031:0004"},"geometry":{"type":"Polygon","coordinates":[[[35.832954,46.768565],[35.833477,46.76898],[35.833717,46.76857],[35.833443,46.768401],[35.833173,46.768191],[35.833172,46.768191],[35.832954,46.768565]]]}},{"type":"Feature","properties":{"cadnum":"2324583501:03:031:0007"},"geometry":{"type":"Polygon","coordinates":[[[35.831775,46.769607],[35.831823,46.769635],[35.831931,46.769695],[35.831995,46.769731],[35.832371,46.769942],[35.832731,46.769665],[35.832159,46.769313],[35.831879,46.769528],[35.831775,46.769607]]]}},{"type":"Feature","properties":{"cadnum":"2324583501:03:031:0003"},"geometry":{"type":"Polygon","coordinates":[[[35.832674,46.768343],[35.832954,46.768565],[35.833172,46.768191],[35.832932,46.768004],[35.832674,46.768343]]]}},{"type":"Feature","properties":{"cadnum":"2324583501:03:031:0002"},"geometry":{"type":"Polygon","coordinates":[[[35.832274,46.769384],[35.832731,46.769665],[35.833171,46.769313],[35.832747,46.769007],[35.832274,46.769384]]]}},{"type":"Feature","properties":{"cadnum":"2324583501:03:030:0002"},"geometry":{"type":"Polygon","coordinates":[[[35.832672,46.769863],[35.833067,46.770072],[35.833815,46.770468],[35.834028,46.770306],[35.833425,46.770004],[35.83286,46.769721],[35.832672,46.769863]]]}},{"type":"Feature","properties":{"cadnum":"2324583501:03:031:0006"},"geometry":{"type":"Polygon","coordinates":[[[35.831539,46.769475],[35.831775,46.769607],[35.831823,46.769571],[35.831879,46.769528],[35.831995,46.769439],[35.832159,46.769313],[35.831904,46.769155],[35.831539,46.769475]]]}},{"type":"Feature","properties":{"cadnum":"2324583501:03:031:0008"},"geometry":{"type":"Polygon","coordinates":[[[35.830411,46.770147],[35.831363,46.770715],[35.831599,46.770532],[35.830626,46.76998],[35.830626,46.769979],[35.830506,46.770072],[35.830411,46.770147]]]}},{"type":"Feature","properties":{"cadnum":"2324583501:03:005:0011"},"geometry":{"type":"Polygon","coordinates":[[[35.82559,46.764874],[35.826125,46.765222],[35.826502,46.764957],[35.826533,46.764935],[35.82633,46.764805],[35.825996,46.764589],[35.82559,46.764874]]]}},{"type":"Feature","properties":{"cadnum":"2324583501:03:005:0009"},"geometry":{"type":"Polygon","coordinates":[[[35.827669,46.763422],[35.828386,46.763911],[35.828685,46.763704],[35.827968,46.763216],[35.827669,46.763422]]]}},{"type":"Feature","properties":{"cadnum":"2324583501:03:009:0005"},"geometry":{"type":"Polygon","coordinates":[[[35.827166,46.762697],[35.827705,46.763046],[35.828113,46.762768],[35.827678,46.762478],[35.827583,46.762414],[35.827561,46.762429],[35.82756,46.762429],[35.82741,46.762531],[35.827387,46.762547],[35.827166,46.762697]]]}},{"type":"Feature","properties":{"cadnum":"2324583501:03:005:0007"},"geometry":{"type":"Polygon","coordinates":[[[35.827125,46.765912],[35.827512,46.766192],[35.827624,46.766273],[35.827627,46.766276],[35.828043,46.765989],[35.82754,46.765625],[35.827125,46.765912]]]}},{"type":"Feature","properties":{"cadnum":"2324583501:03:003:0006"},"geometry":{"type":"Polygon","coordinates":[[[35.827926,46.766443],[35.828489,46.766818],[35.82887,46.76655],[35.828401,46.766238],[35.828307,46.766175],[35.828282,46.766192],[35.828281,46.766192],[35.827926,46.766443]]]}},{"type":"Feature","properties":{"cadnum":"2324583501:03:005:0010"},"geometry":{"type":"Polygon","coordinates":[[[35.826125,46.765222],[35.82633,46.765355],[35.82633,46.765356],[35.826601,46.765531],[35.82703,46.765257],[35.826533,46.764935],[35.82633,46.765078],[35.826125,46.765222]]]}},{"type":"Feature","properties":{"cadnum":"2324583501:03:009:0002"},"geometry":{"type":"Polygon","coordinates":[[[35.825979,46.763497],[35.82633,46.763732],[35.82633,46.763733],[35.826394,46.763775],[35.826502,46.763848],[35.826502,46.763847],[35.826519,46.763859],[35.826914,46.763589],[35.826388,46.763216],[35.825979,46.763497]]]}},{"type":"Feature","properties":{"cadnum":"2324583501:03:005:0002"},"geometry":{"type":"Polygon","coordinates":[[[35.825739,46.765515],[35.826187,46.765832],[35.826502,46.765604],[35.826502,46.765603],[35.826601,46.765531],[35.82639,46.765394],[35.826148,46.765236],[35.825739,46.765515]]]}},{"type":"Feature","properties":{"cadnum":"2324583501:03:009:0008"},"geometry":{"type":"Polygon","coordinates":[[[35.826627,46.762348],[35.826932,46.762547],[35.826933,46.762547],[35.827166,46.762697],[35.82741,46.762531],[35.827583,46.762414],[35.827054,46.762062],[35.826627,46.762348]]]}},{"type":"Feature","properties":{"cadnum":"2324583501:03:009:0007"},"geometry":{"type":"Polygon","coordinates":[[[35.827922,46.7621],[35.82842,46.762429],[35.828519,46.762494],[35.828842,46.762275],[35.828599,46.762085],[35.828637,46.76205],[35.828324,46.761826],[35.827922,46.7621]]]}},{"type":"Feature","properties":{"cadnum":"2324583501:03:015:0003"},"geometry":{"type":"Polygon","coordinates":[[[35.830913,46.763199],[35.830991,46.76328],[35.831095,46.763232],[35.831088,46.763225],[35.831024,46.763159],[35.831017,46.763151],[35.830913,46.763199]]]}},{"type":"Feature","properties":{"cadnum":"2324583501:03:005:0006"},"geometry":{"type":"Polygon","coordinates":[[[35.830099,46.763874],[35.8306,46.764219],[35.831023,46.763928],[35.830533,46.763577],[35.830099,46.763874]]]}},{"type":"Feature","properties":{"cadnum":"2324583501:03:015:0002"},"geometry":{"type":"Polygon","coordinates":[[[35.831087,46.763782],[35.831143,46.763853],[35.831273,46.763806],[35.831217,46.763735],[35.831087,46.763782]]]}},{"type":"Feature","properties":{"cadnum":"2324583501:03:005:0008"},"geometry":{"type":"Polygon","coordinates":[[[35.827968,46.763216],[35.828685,46.763704],[35.828386,46.763911],[35.828674,46.764108],[35.829243,46.763716],[35.82826,46.763013],[35.827968,46.763216]]]}},{"type":"Feature","properties":{"cadnum":"2324583501:03:008:0002"},"geometry":{"type":"Polygon","coordinates":[[[35.837952,46.765385],[35.838124,46.766192],[35.838222,46.766646],[35.838737,46.766476],[35.838671,46.766192],[35.838428,46.765139],[35.838223,46.765234],[35.837952,46.765385]]]}},{"type":"Feature","properties":{"cadnum":"2324583501:03:011:0002"},"geometry":{"type":"Polygon","coordinates":[[[35.830952,46.758563],[35.831037,46.758666],[35.831036,46.758666],[35.83113,46.758779],[35.831134,46.758784],[35.831813,46.759599],[35.831823,46.75961],[35.831823,46.759611],[35.831881,46.759671],[35.831995,46.759624],[35.832287,46.759504],[35.831823,46.758917],[35.831625,46.758666],[35.831389,46.758367],[35.830952,46.758563]]]}},{"type":"Feature","properties":{"cadnum":"2324583501:03:014:0004"},"geometry":{"type":"Polygon","coordinates":[[[35.832577,46.76017],[35.832923,46.760582],[35.833457,46.76037],[35.833116,46.759956],[35.832577,46.76017]]]}},{"type":"Feature","properties":{"cadnum":"2324583501:03:018:0006"},"geometry":{"type":"Polygon","coordinates":[[[35.835498,46.759803],[35.835859,46.760258],[35.836363,46.760062],[35.835982,46.759614],[35.835498,46.759803]]]}},{"type":"Feature","properties":{"cadnum":"2324583501:03:013:0002"},"geometry":{"type":"Polygon","coordinates":[[[35.835553,46.758968],[35.835914,46.759423],[35.836411,46.759223],[35.836038,46.758774],[35.835553,46.758968]]]}},{"type":"Feature","properties":{"cadnum":"2324583501:03:018:0005"},"geometry":{"type":"Polygon","coordinates":[[[35.83652,46.759404],[35.836895,46.759855],[35.837393,46.759657],[35.837001,46.759212],[35.83652,46.759404]]]}},{"type":"Feature","properties":{"cadnum":"2324583501:03:014:0003"},"geometry":{"type":"Polygon","coordinates":[[[35.832745,46.759504],[35.833091,46.759925],[35.833591,46.759724],[35.833253,46.7593],[35.832745,46.759504]]]}},{"type":"Feature","properties":{"cadnum":"2324583501:03:014:0002"},"geometry":{"type":"Polygon","coordinates":[[[35.833091,46.759925],[35.833457,46.76037],[35.833949,46.760172],[35.833591,46.759724],[35.833091,46.759925]]]}},{"type":"Feature","properties":{"cadnum":"2324583501:03:017:0007"},"geometry":{"type":"Polygon","coordinates":[[[35.835499,46.760954],[35.836248,46.761812],[35.836772,46.761601],[35.836028,46.760744],[35.835499,46.760954]]]}},{"type":"Feature","properties":{"cadnum":"2324583501:03:013:0003"},"geometry":{"type":"Polygon","coordinates":[[[35.835243,46.758578],[35.835405,46.758784],[35.835406,46.758784],[35.835553,46.758968],[35.836038,46.758774],[35.836038,46.758773],[35.835719,46.758388],[35.835243,46.758578]]]}},{"type":"Feature","properties":{"cadnum":"2324583501:03:014:0005"},"geometry":{"type":"Polygon","coordinates":[[[35.832226,46.759754],[35.832577,46.76017],[35.833116,46.759956],[35.832753,46.759514],[35.832231,46.759722],[35.832226,46.759754]]]}},{"type":"Feature","properties":{"cadnum":"2324583501:03:013:0004"},"geometry":{"type":"Polygon","coordinates":[[[35.835051,46.759141],[35.835432,46.759603],[35.835914,46.759423],[35.835544,46.758956],[35.835051,46.759141]]]}},{"type":"Feature","properties":{"cadnum":"2324583501:03:011:0004"},"geometry":{"type":"Polygon","coordinates":[[[35.832808,46.758695],[35.832808,46.758696],[35.832871,46.758784],[35.833147,46.759169],[35.833649,46.758983],[35.833494,46.758784],[35.833289,46.758517],[35.832887,46.758666],[35.832809,46.758695],[35.832808,46.758695]]]}},{"type":"Feature","properties":{"cadnum":"2324583501:03:023:0005"},"geometry":{"type":"Polygon","coordinates":[[[35.842983,46.759422],[35.843347,46.759856],[35.843872,46.759711],[35.84347,46.759233],[35.843469,46.759233],[35.842983,46.759422]]]}},{"type":"Feature","properties":{"cadnum":"2324583501:03:023:0003"},"geometry":{"type":"Polygon","coordinates":[[[35.84444,46.75885],[35.844803,46.75927],[35.845322,46.759056],[35.845084,46.758784],[35.844957,46.758638],[35.844888,46.758666],[35.844887,46.758666],[35.84444,46.75885]]]}},{"type":"Feature","properties":{"cadnum":"2324583501:03:023:0004"},"geometry":{"type":"Polygon","coordinates":[[[35.844803,46.75927],[35.845194,46.759724],[35.845796,46.759597],[35.845322,46.759056],[35.844803,46.75927]]]}},{"type":"Feature","properties":{"cadnum":"2324583501:03:002:0006"},"geometry":{"type":"Polygon","coordinates":[[[35.819146,46.771969],[35.819607,46.772392],[35.819995,46.772214],[35.819537,46.771789],[35.819146,46.771969]]]}},{"type":"Feature","properties":{"cadnum":"2324583501:03:002:0005"},"geometry":{"type":"Polygon","coordinates":[[[35.818603,46.771471],[35.819146,46.771969],[35.819537,46.771789],[35.819,46.771289],[35.818603,46.771471]]]}},{"type":"Feature","properties":{"cadnum":"2324583501:03:002:0003"},"geometry":{"type":"Polygon","coordinates":[[[35.823474,46.769906],[35.823478,46.76991],[35.823525,46.769954],[35.823525,46.769955],[35.82386,46.770274],[35.824344,46.770061],[35.823951,46.769696],[35.823474,46.769906]]]}},{"type":"Feature","properties":{"cadnum":"2324583501:03:002:0004"},"geometry":{"type":"Polygon","coordinates":[[[35.822564,46.769685],[35.822944,46.770072],[35.822987,46.770115],[35.82321,46.770022],[35.823478,46.76991],[35.823028,46.769481],[35.822564,46.769685]]]}},{"type":"Feature","properties":{"cadnum":"2324583501:03:003:0003"},"geometry":{"type":"Polygon","coordinates":[[[35.827539,46.767255],[35.827726,46.767378],[35.827911,46.767255],[35.827724,46.767132],[35.827539,46.767255]]]}},{"type":"Feature","properties":{"cadnum":"2324583501:03:003:0009"},"geometry":{"type":"Polygon","coordinates":[[[35.827876,46.767459],[35.828181,46.767724],[35.828477,46.767715],[35.828776,46.767574],[35.828249,46.767201],[35.827876,46.767459]]]}},{"type":"Feature","properties":{"cadnum":"2324583501:03:008:0005"},"geometry":{"type":"Polygon","coordinates":[[[35.825749,46.767943],[35.826273,46.768311],[35.826502,46.768158],[35.826502,46.768157],[35.826683,46.768036],[35.82633,46.767789],[35.826159,46.767668],[35.825749,46.767943]]]}},{"type":"Feature","properties":{"cadnum":"2324583501:03:003:0004"},"geometry":{"type":"Polygon","coordinates":[[[35.827148,46.766984],[35.827494,46.767202],[35.827678,46.767066],[35.827993,46.767264],[35.827813,46.767404],[35.827876,46.767459],[35.828249,46.767201],[35.827549,46.766705],[35.827148,46.766984]]]}},{"type":"Feature","properties":{"cadnum":"2324583501:03:003:0005"},"geometry":{"type":"Polygon","coordinates":[[[35.827549,46.766705],[35.828095,46.767091],[35.828487,46.766817],[35.827926,46.766443],[35.827549,46.766705]]]}},{"type":"Feature","properties":{"cadnum":"2324583501:03:030:0004"},"geometry":{"type":"Polygon","coordinates":[[[35.83286,46.770701],[35.83352,46.771061],[35.833826,46.770798],[35.833171,46.770465],[35.83286,46.770701]]]}},{"type":"Feature","properties":{"cadnum":"2324583501:03:030:0003"},"geometry":{"type":"Polygon","coordinates":[[[35.832105,46.770289],[35.83286,46.770701],[35.833171,46.770465],[35.832392,46.770071],[35.832105,46.770289]]]}},{"type":"Feature","properties":{"cadnum":"2324583501:03:005:0005"},"geometry":{"type":"Polygon","coordinates":[[[35.825403,46.765792],[35.825827,46.766093],[35.826187,46.765832],[35.825776,46.765541],[35.825403,46.765792]]]}},{"type":"Feature","properties":{"cadnum":"2324583501:03:006:0008"},"geometry":{"type":"Polygon","coordinates":[[[35.823622,46.766231],[35.823622,46.766232],[35.823623,46.766232],[35.823738,46.76631],[35.823739,46.76631],[35.824638,46.766911],[35.824788,46.766806],[35.824842,46.766754],[35.824169,46.76631],[35.82417,46.76631],[35.823832,46.766085],[35.823679,46.766192],[35.823623,46.766231],[35.823622,46.766231]]]}},{"type":"Feature","properties":{"cadnum":"2324583501:03:006:0002"},"geometry":{"type":"Polygon","coordinates":[[[35.824805,46.766246],[35.824898,46.76631],[35.824899,46.76631],[35.825114,46.766455],[35.825361,46.766287],[35.825511,46.766187],[35.825201,46.76598],[35.824886,46.766192],[35.824808,46.766245],[35.824805,46.766246]]]}},{"type":"Feature","properties":{"cadnum":"2324583501:03:006:0003"},"geometry":{"type":"Polygon","coordinates":[[[35.824254,46.765875],[35.824805,46.766246],[35.825201,46.76598],[35.824651,46.765608],[35.824254,46.765875]]]}},{"type":"Feature","properties":{"cadnum":"2324583501:03:008:0004"},"geometry":{"type":"Polygon","coordinates":[[[35.821239,46.766041],[35.821469,46.766192],[35.821556,46.766249],[35.821648,46.76631],[35.821649,46.76631],[35.821811,46.766415],[35.822001,46.766281],[35.822209,46.766134],[35.821611,46.765741],[35.821239,46.766041]]]}},{"type":"Feature","properties":{"cadnum":"2324583501:03:009:0004"},"geometry":{"type":"Polygon","coordinates":[[[35.824636,46.763718],[35.825182,46.764073],[35.825582,46.763792],[35.825035,46.763438],[35.824636,46.763718]]]}},{"type":"Feature","properties":{"cadnum":"2324583501:03:008:0006"},"geometry":{"type":"Polygon","coordinates":[[[35.822995,46.765565],[35.823547,46.765927],[35.823943,46.765654],[35.823392,46.765292],[35.822995,46.765565]]]}},{"type":"Feature","properties":{"cadnum":"2324583501:03:008:0003"},"geometry":{"type":"Polygon","coordinates":[[[35.821811,46.766415],[35.822354,46.766772],[35.822751,46.766491],[35.822364,46.766236],[35.822209,46.766134],[35.822127,46.766192],[35.822126,46.766192],[35.822001,46.766281],[35.82196,46.76631],[35.821811,46.766415]]]}},{"type":"Feature","properties":{"cadnum":"2324583501:03:009:0003"},"geometry":{"type":"Polygon","coordinates":[[[35.825182,46.764073],[35.825727,46.764426],[35.826126,46.764145],[35.825582,46.763792],[35.825182,46.764073]]]}},{"type":"Feature","properties":{"cadnum":"2324583501:03:005:0004"},"geometry":{"type":"Polygon","coordinates":[[[35.824832,46.765389],[35.825403,46.765792],[35.825776,46.765541],[35.825205,46.765136],[35.824832,46.765389]]]}},{"type":"Feature","properties":{"cadnum":"2324583501:03:005:0003"},"geometry":{"type":"Polygon","coordinates":[[[35.825205,46.765136],[35.825739,46.765515],[35.826148,46.765236],[35.82559,46.764874],[35.825205,46.765136]]]}},{"type":"Feature","properties":{"cadnum":"2324583501:03:010:0004"},"geometry":{"type":"Polygon","coordinates":[[[35.829613,46.760724],[35.829912,46.761114],[35.830329,46.760942],[35.830018,46.760565],[35.829613,46.760724]]]}},{"type":"Feature","properties":{"cadnum":"2324583501:03:009:0006"},"geometry":{"type":"Polygon","coordinates":[[[35.82751,46.761828],[35.827922,46.7621],[35.828324,46.761826],[35.827927,46.761544],[35.82751,46.761828]]]}},{"type":"Feature","properties":{"cadnum":"2324583501:03:010:0003"},"geometry":{"type":"Polygon","coordinates":[[[35.829912,46.761114],[35.830313,46.761635],[35.830753,46.761454],[35.830329,46.760942],[35.829912,46.761114]]]}},{"type":"Feature","properties":{"cadnum":"2324583501:03:027:0003"},"geometry":{"type":"Polygon","coordinates":[[[35.834138,46.763499],[35.834374,46.763771],[35.83487,46.763538],[35.834657,46.763293],[35.834138,46.763499]]]}},{"type":"Feature","properties":{"cadnum":"2324583501:03:027:0002"},"geometry":{"type":"Polygon","coordinates":[[[35.833772,46.763079],[35.834138,46.763499],[35.834657,46.763293],[35.834292,46.762872],[35.833772,46.763079]]]}},{"type":"Feature","properties":{"cadnum":"2324583501:03:011:0003"},"geometry":{"type":"Polygon","coordinates":[[[35.832189,46.757833],[35.832808,46.758695],[35.833289,46.758517],[35.832635,46.757667],[35.832189,46.757833]]]}},{"type":"Feature","properties":{"cadnum":"2324583501:03:006:0009"},"geometry":{"type":"Polygon","coordinates":[[[35.822685,46.766944],[35.823373,46.767401],[35.823778,46.76714],[35.823093,46.766682],[35.822685,46.766944]]]}},{"type":"Feature","properties":{"cadnum":"2324583501:03:003:0008"},"geometry":{"type":"Polygon","coordinates":[[[35.82138,46.766595],[35.822015,46.767013],[35.822354,46.766772],[35.821718,46.766355],[35.82138,46.766595]]]}},{"type":"Feature","properties":{"cadnum":"2324583501:03:002:0002"},"geometry":{"type":"Polygon","coordinates":[[[35.823028,46.769481],[35.823474,46.769906],[35.823951,46.769696],[35.823498,46.769274],[35.823028,46.769481]]]}},{"type":"Feature","properties":{"cadnum":"2324583501:03:006:0011"},"geometry":{"type":"Polygon","coordinates":[[[35.822556,46.768822],[35.823044,46.769165],[35.823558,46.768925],[35.823078,46.768581],[35.822556,46.768822]]]}},{"type":"Feature","properties":{"cadnum":"2324583501:03:003:0007"},"geometry":{"type":"Polygon","coordinates":[[[35.825366,46.768205],[35.825924,46.768594],[35.826306,46.768334],[35.825749,46.767943],[35.825366,46.768205]]]}},{"type":"Feature","properties":{"cadnum":"2324583501:03:006:0007"},"geometry":{"type":"Polygon","coordinates":[[[35.823364,46.768534],[35.823849,46.768867],[35.824304,46.768575],[35.823818,46.76824],[35.823364,46.768534]]]}},{"type":"Feature","properties":{"cadnum":"2324583501:03:006:0005"},"geometry":{"type":"Polygon","coordinates":[[[35.824235,46.767937],[35.824783,46.76831],[35.825186,46.768048],[35.82464,46.767675],[35.824235,46.767937]]]}},{"type":"Feature","properties":{"cadnum":"2324583501:03:006:0010"},"geometry":{"type":"Polygon","coordinates":[[[35.822074,46.768481],[35.822556,46.768822],[35.823078,46.768581],[35.822598,46.76824],[35.822074,46.768481]]]}},{"type":"Feature","properties":{"cadnum":"2324583501:03:006:0004"},"geometry":{"type":"Polygon","coordinates":[[[35.823798,46.767639],[35.824235,46.767937],[35.82464,46.767675],[35.824202,46.767376],[35.823798,46.767639]]]}}]}