{"type":"FeatureCollection","features":[{"type":"Feature","properties":{"cadnum":"2324580801:03:008:0002"},"geometry":{"type":"Polygon","coordinates":[[[35.888784,46.900458],[35.88941,46.90047],[35.889465,46.900003],[35.888828,46.899991],[35.888784,46.900458]]]}},{"type":"Feature","properties":{"cadnum":"2324580801:03:008:0003"},"geometry":{"type":"Polygon","coordinates":[[[35.888828,46.899991],[35.889465,46.900003],[35.889606,46.898797],[35.888945,46.898789],[35.888828,46.899991]]]}},{"type":"Feature","properties":{"cadnum":"2324580801:03:007:0004"},"geometry":{"type":"Polygon","coordinates":[[[35.898822,46.900616],[35.898826,46.900971],[35.898831,46.901479],[35.89883,46.901479],[35.898838,46.902347],[35.899273,46.902337],[35.899238,46.901479],[35.899218,46.900964],[35.899215,46.900606],[35.898822,46.900616]]]}},{"type":"Feature","properties":{"cadnum":"2324580801:03:007:0002"},"geometry":{"type":"Polygon","coordinates":[[[35.897327,46.899663],[35.897741,46.899664],[35.897768,46.899664],[35.89783,46.898755],[35.89736,46.898754],[35.897327,46.899663]]]}},{"type":"Feature","properties":{"cadnum":"2324580801:03:009:0002"},"geometry":{"type":"Polygon","coordinates":[[[35.899835,46.888865],[35.89989,46.88887],[35.899886,46.888892],[35.899942,46.888895],[35.899994,46.8889],[35.900006,46.888901],[35.90001,46.888879],[35.900011,46.888879],[35.900122,46.888888],[35.900142,46.888765],[35.899856,46.888742],[35.899835,46.888865]]]}},{"type":"Feature","properties":{"cadnum":"2324580801:04:009:0009"},"geometry":{"type":"Polygon","coordinates":[[[35.899513,46.887168],[35.900115,46.887219],[35.900209,46.886527],[35.900155,46.886522],[35.899631,46.886477],[35.899612,46.886581],[35.899613,46.886581],[35.899513,46.887168]]]}},{"type":"Feature","properties":{"cadnum":"2324580801:04:009:0008"},"geometry":{"type":"Polygon","coordinates":[[[35.899631,46.886477],[35.900155,46.886522],[35.900209,46.886527],[35.900277,46.886013],[35.899721,46.885964],[35.899633,46.886464],[35.899632,46.886464],[35.899631,46.886477]]]}},{"type":"Feature","properties":{"cadnum":"2324580801:03:007:0005"},"geometry":{"type":"Polygon","coordinates":[[[35.89682,46.900351],[35.897323,46.900349],[35.897322,46.899818],[35.897327,46.899663],[35.897358,46.89883],[35.896902,46.898831],[35.896863,46.899845],[35.896841,46.900007],[35.89682,46.900351]]]}},{"type":"Feature","properties":{"cadnum":"2324580801:03:007:0003"},"geometry":{"type":"Polygon","coordinates":[[[35.897323,46.900349],[35.897745,46.90035],[35.897756,46.899829],[35.897768,46.899664],[35.897327,46.899663],[35.897322,46.899818],[35.897323,46.900349]]]}}]}