{"type":"FeatureCollection","features":[{"type":"Feature","properties":{"cadnum":"2324955101:07:002:0037"},"geometry":{"type":"Polygon","coordinates":[[[37.089677,47.372106],[37.089758,47.372149],[37.089758,47.37215],[37.090262,47.372418],[37.090263,47.372418],[37.090882,47.372746],[37.091061,47.372604],[37.090721,47.372418],[37.089871,47.371953],[37.089677,47.372106]]]}},{"type":"Feature","properties":{"cadnum":"2324955101:07:002:0008"},"geometry":{"type":"Polygon","coordinates":[[[37.089057,47.372322],[37.089057,47.372323],[37.08922,47.372418],[37.089221,47.372418],[37.089448,47.372549],[37.08972,47.372379],[37.08972,47.372378],[37.089268,47.372139],[37.089081,47.372301],[37.089079,47.372301],[37.089057,47.372322]]]}},{"type":"Feature","properties":{"cadnum":"2324955101:07:002:0038"},"geometry":{"type":"Polygon","coordinates":[[[37.089028,47.37176],[37.089677,47.372106],[37.089758,47.372042],[37.089758,47.372043],[37.089871,47.371953],[37.089213,47.371594],[37.089028,47.37176]]]}},{"type":"Feature","properties":{"cadnum":"2324955101:07:002:0009"},"geometry":{"type":"Polygon","coordinates":[[[37.104078,47.361732],[37.104495,47.361921],[37.105002,47.361449],[37.104591,47.361248],[37.104078,47.361732]]]}},{"type":"Feature","properties":{"cadnum":"2324955101:07:001:0006"},"geometry":{"type":"Polygon","coordinates":[[[37.105295,47.362531],[37.106211,47.363038],[37.106409,47.362884],[37.106469,47.362837],[37.106237,47.362713],[37.105832,47.362497],[37.1058,47.3625],[37.10563,47.362362],[37.105295,47.362531]]]}},{"type":"Feature","properties":{"cadnum":"2324955101:07:002:0010"},"geometry":{"type":"Polygon","coordinates":[[[37.102742,47.360922],[37.103189,47.36114],[37.103291,47.36119],[37.103428,47.361256],[37.103583,47.361331],[37.103583,47.361332],[37.103475,47.361459],[37.104078,47.361732],[37.10459,47.361248],[37.104591,47.361248],[37.104586,47.361246],[37.104058,47.360989],[37.102902,47.36075],[37.102742,47.360922]]]}},{"type":"Feature","properties":{"cadnum":"2324955101:07:001:0002"},"geometry":{"type":"Polygon","coordinates":[[[37.100862,47.361876],[37.102036,47.362434],[37.102215,47.362271],[37.101021,47.361715],[37.100862,47.361876]]]}},{"type":"Feature","properties":{"cadnum":"2324955101:07:001:0001"},"geometry":{"type":"Polygon","coordinates":[[[37.102036,47.362434],[37.103196,47.362987],[37.103402,47.362825],[37.102215,47.362271],[37.102036,47.362434]]]}},{"type":"Feature","properties":{"cadnum":"2324955101:07:002:0007"},"geometry":{"type":"Polygon","coordinates":[[[37.089448,47.372549],[37.089758,47.372714],[37.089758,47.372715],[37.09041,47.373061],[37.090643,47.372869],[37.089758,47.372399],[37.08972,47.372379],[37.089448,47.372549]]]}},{"type":"Feature","properties":{"cadnum":"2324955101:07:002:0021"},"geometry":{"type":"Polygon","coordinates":[[[37.08831,47.37376],[37.089419,47.373992],[37.089594,47.373803],[37.088587,47.3735],[37.08831,47.37376]]]}},{"type":"Feature","properties":{"cadnum":"2324955101:07:002:0022"},"geometry":{"type":"Polygon","coordinates":[[[37.087516,47.373595],[37.08831,47.37376],[37.088587,47.3735],[37.088013,47.373329],[37.087516,47.373595]]]}},{"type":"Feature","properties":{"cadnum":"2324955101:07:001:0009"},"geometry":{"type":"Polygon","coordinates":[[[37.094658,47.370353],[37.095251,47.370717],[37.095283,47.370737],[37.095423,47.370823],[37.095423,47.370822],[37.095665,47.370971],[37.095883,47.3708],[37.095251,47.370423],[37.094864,47.370191],[37.094658,47.370353]]]}},{"type":"Feature","properties":{"cadnum":"2324955101:07:001:0003"},"geometry":{"type":"Polygon","coordinates":[[[37.094134,47.373835],[37.094965,47.374038],[37.095067,47.373717],[37.095067,47.373716],[37.095251,47.373815],[37.095251,47.373816],[37.095711,47.374063],[37.096791,47.372918],[37.097212,47.373105],[37.098172,47.372301],[37.09901,47.3716],[37.098286,47.371107],[37.097326,47.371802],[37.097284,47.371893],[37.096784,47.372301],[37.09628,47.372714],[37.096155,47.372727],[37.095809,47.372583],[37.095251,47.373012],[37.09463,47.373488],[37.094134,47.373835]]]}},{"type":"Feature","properties":{"cadnum":"2324955101:07:002:0015"},"geometry":{"type":"Polygon","coordinates":[[[37.096606,47.367282],[37.097339,47.367655],[37.097656,47.367406],[37.096918,47.367038],[37.096606,47.367282]]]}},{"type":"Feature","properties":{"cadnum":"2324955101:07:001:0019"},"geometry":{"type":"Polygon","coordinates":[[[37.099598,47.366468],[37.100609,47.367015],[37.100744,47.366908],[37.100744,47.366909],[37.100837,47.366835],[37.099812,47.366299],[37.099598,47.366468]]]}},{"type":"Feature","properties":{"cadnum":"2324955101:07:001:0020"},"geometry":{"type":"Polygon","coordinates":[[[37.100609,47.367015],[37.100744,47.367088],[37.100744,47.367089],[37.101825,47.367673],[37.102067,47.367478],[37.100837,47.366835],[37.100609,47.367015]]]}},{"type":"Feature","properties":{"cadnum":"2324955101:07:002:0019"},"geometry":{"type":"Polygon","coordinates":[[[37.098675,47.365226],[37.099724,47.365782],[37.099933,47.365618],[37.098898,47.365051],[37.098675,47.365226]]]}},{"type":"Feature","properties":{"cadnum":"2324955101:07:002:0020"},"geometry":{"type":"Polygon","coordinates":[[[37.097594,47.364652],[37.098206,47.364977],[37.098675,47.365226],[37.098898,47.365051],[37.098728,47.364959],[37.097806,47.364455],[37.097594,47.364652]]]}},{"type":"Feature","properties":{"cadnum":"2324955101:07:002:0016"},"geometry":{"type":"Polygon","coordinates":[[[37.0954,47.36667],[37.096606,47.367282],[37.096918,47.367038],[37.095598,47.366378],[37.0954,47.36667]]]}},{"type":"Feature","properties":{"cadnum":"2324955101:07:001:0008"},"geometry":{"type":"Polygon","coordinates":[[[37.096357,47.368926],[37.096551,47.369036],[37.096596,47.369028],[37.096898,47.368944],[37.096941,47.368916],[37.096611,47.368728],[37.096357,47.368926]]]}},{"type":"Feature","properties":{"cadnum":"2324955101:07:001:0010"},"geometry":{"type":"Polygon","coordinates":[[[37.095665,47.370971],[37.096738,47.371628],[37.096953,47.371439],[37.095883,47.3708],[37.095665,47.370971]]]}},{"type":"Feature","properties":{"cadnum":"2324955101:00:007:0008"},"geometry":{"type":"Polygon","coordinates":[[[37.065601,47.426906],[37.066258,47.427303],[37.066432,47.427087],[37.065782,47.42687],[37.065601,47.426906]]]}}]}