{"type":"FeatureCollection","features":[{"type":"Feature","properties":{"cadnum":"2324583001:04:003:0003"},"geometry":{"type":"Polygon","coordinates":[[[35.425003,46.5755],[35.425501,46.575563],[35.4256,46.575575],[35.425726,46.575099],[35.425479,46.575068],[35.425129,46.575024],[35.425003,46.5755]]]}},{"type":"Feature","properties":{"cadnum":"2324583001:04:003:0004"},"geometry":{"type":"Polygon","coordinates":[[[35.424896,46.575905],[35.425329,46.57596],[35.425329,46.575961],[35.425493,46.575981],[35.4256,46.575575],[35.425329,46.575541],[35.425003,46.5755],[35.424896,46.575905]]]}},{"type":"Feature","properties":{"cadnum":"2324583001:04:004:0003"},"geometry":{"type":"Polygon","coordinates":[[[35.427845,46.576419],[35.428276,46.576485],[35.428663,46.575347],[35.428233,46.575279],[35.427845,46.576419]]]}},{"type":"Feature","properties":{"cadnum":"2324583001:04:016:0002"},"geometry":{"type":"Polygon","coordinates":[[[35.433537,46.572147],[35.43414,46.572223],[35.434286,46.571744],[35.433686,46.571664],[35.433537,46.572147]]]}},{"type":"Feature","properties":{"cadnum":"2324583001:04:017:0011"},"geometry":{"type":"Polygon","coordinates":[[[35.433605,46.570335],[35.434124,46.57041],[35.43419,46.570176],[35.434303,46.569778],[35.433786,46.569703],[35.43365,46.570176],[35.433649,46.570176],[35.433635,46.570229],[35.433616,46.570294],[35.433616,46.570295],[35.433605,46.570335]]]}},{"type":"Feature","properties":{"cadnum":"2324583001:04:017:0010"},"geometry":{"type":"Polygon","coordinates":[[[35.433451,46.57087],[35.433971,46.570955],[35.434124,46.57041],[35.433605,46.570335],[35.433451,46.57087]]]}},{"type":"Feature","properties":{"cadnum":"2324583001:04:016:0003"},"geometry":{"type":"Polygon","coordinates":[[[35.433686,46.571664],[35.434286,46.571744],[35.43443,46.571276],[35.433829,46.571195],[35.433686,46.571664]]]}},{"type":"Feature","properties":{"cadnum":"2324583001:04:005:0005"},"geometry":{"type":"Polygon","coordinates":[[[35.432618,46.574463],[35.43302,46.574522],[35.433184,46.573978],[35.433232,46.573823],[35.43283,46.573765],[35.432736,46.574071],[35.432737,46.574071],[35.432618,46.574463]]]}},{"type":"Feature","properties":{"cadnum":"2324583001:04:012:0005"},"geometry":{"type":"Polygon","coordinates":[[[35.418832,46.571138],[35.419131,46.571174],[35.419428,46.570231],[35.419131,46.570189],[35.419097,46.570294],[35.419097,46.570295],[35.418832,46.571138]]]}},{"type":"Feature","properties":{"cadnum":"2324583001:04:012:0012"},"geometry":{"type":"Polygon","coordinates":[[[35.415789,46.57087],[35.416187,46.570909],[35.416338,46.570188],[35.41594,46.570148],[35.415934,46.570176],[35.415933,46.570176],[35.415789,46.57087]]]}},{"type":"Feature","properties":{"cadnum":"2324583001:04:012:0004"},"geometry":{"type":"Polygon","coordinates":[[[35.418317,46.571075],[35.41881,46.571135],[35.418832,46.571138],[35.419131,46.570189],[35.418606,46.570117],[35.418588,46.570176],[35.418587,46.570176],[35.418577,46.570212],[35.418551,46.570294],[35.418552,46.570294],[35.418552,46.570295],[35.418416,46.570745],[35.418317,46.571075]]]}},{"type":"Feature","properties":{"cadnum":"2324583001:04:001:0002"},"geometry":{"type":"Polygon","coordinates":[[[35.414921,46.574944],[35.415524,46.574983],[35.415718,46.574307],[35.415138,46.574223],[35.414921,46.574944]]]}},{"type":"Feature","properties":{"cadnum":"2324583001:04:001:0003"},"geometry":{"type":"Polygon","coordinates":[[[35.415138,46.574223],[35.415718,46.574307],[35.415734,46.574252],[35.415812,46.573995],[35.415865,46.573823],[35.415283,46.573739],[35.415219,46.573953],[35.4152,46.574017],[35.415184,46.574071],[35.415169,46.574122],[35.415138,46.574223]]]}},{"type":"Feature","properties":{"cadnum":"2324583001:04:017:0009"},"geometry":{"type":"Polygon","coordinates":[[[35.43689,46.570772],[35.437367,46.57085],[35.437561,46.570291],[35.437549,46.570287],[35.437099,46.570168],[35.437096,46.570176],[35.437095,46.570176],[35.43689,46.570772]]]}},{"type":"Feature","properties":{"cadnum":"2324583001:04:017:0002"},"geometry":{"type":"Polygon","coordinates":[[[35.425715,46.569822],[35.42587,46.56984],[35.426139,46.568897],[35.426267,46.568669],[35.426293,46.568634],[35.426141,46.568602],[35.42613,46.568617],[35.425986,46.568871],[35.425715,46.569822]]]}},{"type":"Feature","properties":{"cadnum":"2324583001:04:014:0008"},"geometry":{"type":"Polygon","coordinates":[[[35.424963,46.572459],[35.425116,46.572479],[35.425329,46.571733],[35.425377,46.571563],[35.425378,46.571563],[35.425501,46.571456],[35.425501,46.571455],[35.425521,46.571438],[35.425534,46.571395],[35.425466,46.571252],[35.425501,46.571131],[35.425501,46.57113],[35.425739,46.570295],[35.425739,46.570294],[35.42574,46.570294],[35.42587,46.56984],[35.425715,46.569822],[35.425614,46.570176],[35.425365,46.571051],[35.424963,46.572459]]]}},{"type":"Feature","properties":{"cadnum":"2324583001:04:017:0006"},"geometry":{"type":"Polygon","coordinates":[[[35.428647,46.570224],[35.428823,46.570235],[35.429072,46.570251],[35.42913,46.569995],[35.429175,46.569887],[35.42928,46.569506],[35.428923,46.569484],[35.428805,46.569825],[35.428685,46.570092],[35.428661,46.570176],[35.428647,46.570224]]]}},{"type":"Feature","properties":{"cadnum":"2324583001:04:005:0004"},"geometry":{"type":"Polygon","coordinates":[[[35.424301,46.574675],[35.424453,46.574698],[35.42464,46.574071],[35.425116,46.572479],[35.424963,46.572459],[35.42448,46.574071],[35.424481,46.574071],[35.424301,46.574675]]]}},{"type":"Feature","properties":{"cadnum":"2324583001:04:003:0002"},"geometry":{"type":"Polygon","coordinates":[[[35.422199,46.578735],[35.422343,46.578778],[35.422992,46.577729],[35.422991,46.577729],[35.423727,46.576541],[35.423983,46.576077],[35.424146,46.575676],[35.424453,46.574698],[35.424301,46.574675],[35.423995,46.575652],[35.423834,46.576045],[35.423583,46.576499],[35.422822,46.577729],[35.422821,46.577729],[35.422199,46.578735]]]}},{"type":"Feature","properties":{"cadnum":"2324583001:04:012:0002"},"geometry":{"type":"Polygon","coordinates":[[[35.411124,46.570278],[35.41128,46.570294],[35.411827,46.570353],[35.411866,46.570176],[35.411921,46.569929],[35.411262,46.569858],[35.41121,46.570045],[35.411162,46.570176],[35.411161,46.570176],[35.41116,46.570176],[35.411124,46.570278]]]}},{"type":"Feature","properties":{"cadnum":"2324583001:04:012:0003"},"geometry":{"type":"Polygon","coordinates":[[[35.411262,46.569858],[35.411921,46.569929],[35.412055,46.56932],[35.411434,46.569254],[35.411262,46.569858]]]}},{"type":"Feature","properties":{"cadnum":"2324583001:04:012:0006"},"geometry":{"type":"Polygon","coordinates":[[[35.41193,46.569886],[35.412542,46.569968],[35.412672,46.569392],[35.412055,46.56932],[35.41193,46.569886]]]}},{"type":"Feature","properties":{"cadnum":"2324583001:04:012:0008"},"geometry":{"type":"Polygon","coordinates":[[[35.415267,46.570809],[35.415789,46.57087],[35.415897,46.570352],[35.415907,46.570306],[35.415414,46.570248],[35.415267,46.570809]]]}},{"type":"Feature","properties":{"cadnum":"2324583001:04:017:0008"},"geometry":{"type":"Polygon","coordinates":[[[35.436687,46.571354],[35.437164,46.571432],[35.437367,46.57085],[35.43689,46.570772],[35.436687,46.571354]]]}},{"type":"Feature","properties":{"cadnum":"2324583001:04:013:0004"},"geometry":{"type":"Polygon","coordinates":[[[35.423497,46.570715],[35.424035,46.570809],[35.424229,46.570258],[35.42436,46.569888],[35.423741,46.569796],[35.42364,46.570176],[35.423639,46.570176],[35.423497,46.570715]]]}},{"type":"Feature","properties":{"cadnum":"2324583001:04:013:0002"},"geometry":{"type":"Polygon","coordinates":[[[35.423023,46.570693],[35.423414,46.570743],[35.423546,46.570208],[35.423574,46.570097],[35.423546,46.570079],[35.42352,46.569769],[35.42323,46.569733],[35.423134,46.570176],[35.423113,46.570273],[35.423108,46.570294],[35.423108,46.570295],[35.423023,46.570693]]]}},{"type":"Feature","properties":{"cadnum":"2324583001:04:014:0004"},"geometry":{"type":"Polygon","coordinates":[[[35.426299,46.572187],[35.427824,46.572397],[35.427683,46.572148],[35.427282,46.57199],[35.427431,46.571471],[35.426791,46.571383],[35.426656,46.571861],[35.426655,46.571861],[35.426318,46.571879],[35.426299,46.572187]]]}},{"type":"Feature","properties":{"cadnum":"2324583001:04:006:0004"},"geometry":{"type":"Polygon","coordinates":[[[35.426725,46.573391],[35.427301,46.573477],[35.427455,46.57299],[35.426878,46.572904],[35.426725,46.573391]]]}},{"type":"Feature","properties":{"cadnum":"2324583001:04:014:0005"},"geometry":{"type":"Polygon","coordinates":[[[35.427388,46.571355],[35.427884,46.57143],[35.427985,46.571044],[35.427488,46.570968],[35.427388,46.571355]]]}},{"type":"Feature","properties":{"cadnum":"2324583001:04:014:0006"},"geometry":{"type":"Polygon","coordinates":[[[35.427488,46.570968],[35.427985,46.571044],[35.428133,46.570476],[35.427637,46.570401],[35.427488,46.570968]]]}},{"type":"Feature","properties":{"cadnum":"2324583001:04:014:0002"},"geometry":{"type":"Polygon","coordinates":[[[35.425693,46.570828],[35.42586,46.570849],[35.425792,46.570838],[35.425892,46.570768],[35.425888,46.57078],[35.425931,46.570788],[35.425943,46.570752],[35.425899,46.570745],[35.425894,46.570763],[35.425785,46.570837],[35.425694,46.570824],[35.425693,46.570828]]]}},{"type":"Feature","properties":{"cadnum":"2324583001:04:014:0007"},"geometry":{"type":"Polygon","coordinates":[[[35.426847,46.571299],[35.427338,46.571362],[35.427624,46.570351],[35.427108,46.570274],[35.426847,46.571299]]]}},{"type":"Feature","properties":{"cadnum":"2324583001:04:010:0003"},"geometry":{"type":"Polygon","coordinates":[[[35.402972,46.575553],[35.403357,46.575937],[35.40366,46.576239],[35.404214,46.576044],[35.403627,46.575337],[35.403357,46.575427],[35.403356,46.575427],[35.402972,46.575553]]]}},{"type":"Feature","properties":{"cadnum":"2324583001:04:010:0002"},"geometry":{"type":"Polygon","coordinates":[[[35.405199,46.575282],[35.405573,46.576128],[35.406349,46.575858],[35.40619,46.575077],[35.405199,46.575282]]]}},{"type":"Feature","properties":{"cadnum":"2324583001:04:009:0003"},"geometry":{"type":"Polygon","coordinates":[[[35.412794,46.571928],[35.413364,46.571937],[35.413413,46.571398],[35.412833,46.571357],[35.412799,46.571454],[35.412794,46.571928]]]}},{"type":"Feature","properties":{"cadnum":"2324583001:04:009:0004"},"geometry":{"type":"Polygon","coordinates":[[[35.412699,46.572526],[35.413231,46.573617],[35.413422,46.573557],[35.413314,46.572452],[35.412723,46.572442],[35.412699,46.572526]]]}},{"type":"Feature","properties":{"cadnum":"2324583001:04:010:0004"},"geometry":{"type":"Polygon","coordinates":[[[35.41187,46.573506],[35.412084,46.573955],[35.412654,46.573781],[35.412441,46.573331],[35.41187,46.573506]]]}},{"type":"Feature","properties":{"cadnum":"2324583001:04:010:0005"},"geometry":{"type":"Polygon","coordinates":[[[35.411583,46.572903],[35.41187,46.573506],[35.412441,46.573331],[35.412654,46.573781],[35.413218,46.573607],[35.412691,46.572537],[35.411583,46.572903]]]}},{"type":"Feature","properties":{"cadnum":"2324583001:04:009:0002"},"geometry":{"type":"Polygon","coordinates":[[[35.412723,46.572442],[35.413314,46.572452],[35.413364,46.571937],[35.412794,46.571928],[35.412787,46.572148],[35.412723,46.572442]]]}},{"type":"Feature","properties":{"cadnum":"2324583001:04:006:0003"},"geometry":{"type":"Polygon","coordinates":[[[35.423308,46.573518],[35.423862,46.573586],[35.424,46.573074],[35.423449,46.573009],[35.423308,46.573518]]]}},{"type":"Feature","properties":{"cadnum":"2324583001:04:006:0002"},"geometry":{"type":"Polygon","coordinates":[[[35.423449,46.573009],[35.424,46.573074],[35.424059,46.572852],[35.424137,46.572557],[35.423588,46.572491],[35.423507,46.572802],[35.423449,46.573009]]]}},{"type":"Feature","properties":{"cadnum":"2324583001:04:012:0010"},"geometry":{"type":"Polygon","coordinates":[[[35.421297,46.571455],[35.421908,46.571535],[35.422037,46.571066],[35.421443,46.570988],[35.421297,46.571455]]]}},{"type":"Feature","properties":{"cadnum":"2324583001:04:005:0006"},"geometry":{"type":"Polygon","coordinates":[[[35.432487,46.574894],[35.432889,46.574952],[35.43302,46.574522],[35.432618,46.574463],[35.432487,46.574894]]]}},{"type":"Feature","properties":{"cadnum":"2324583001:04:011:0003"},"geometry":{"type":"Polygon","coordinates":[[[35.407018,46.570998],[35.407256,46.572209],[35.408014,46.57202],[35.407619,46.571012],[35.407018,46.570998]]]}},{"type":"Feature","properties":{"cadnum":"2324583001:04:011:0002"},"geometry":{"type":"Polygon","coordinates":[[[35.406937,46.570446],[35.407011,46.570961],[35.407018,46.570998],[35.407619,46.571012],[35.407401,46.570456],[35.406937,46.570446]]]}}]}