{"type":"FeatureCollection","features":[{"type":"Feature","properties":{"cadnum":"2324980203:06:001:0060"},"geometry":{"type":"Polygon","coordinates":[[[37.016979,47.504046],[37.018518,47.504776],[37.018518,47.504775],[37.018519,47.504775],[37.019001,47.505004],[37.019232,47.504764],[37.018347,47.504354],[37.017216,47.50383],[37.016979,47.504046]]]}},{"type":"Feature","properties":{"cadnum":"2324980203:06:001:0101"},"geometry":{"type":"Polygon","coordinates":[[[37.003711,47.506341],[37.006723,47.50771],[37.00736,47.508011],[37.00736,47.508012],[37.010524,47.509505],[37.012853,47.506976],[37.012854,47.506976],[37.012953,47.506868],[37.013025,47.50679],[37.013025,47.506789],[37.013592,47.506173],[37.013593,47.506173],[37.014848,47.50481],[37.014872,47.504783],[37.017162,47.502462],[37.017163,47.502462],[37.017778,47.501839],[37.018347,47.501299],[37.021029,47.498751],[37.021523,47.498282],[37.019889,47.497634],[37.018799,47.498628],[37.018792,47.498635],[37.018791,47.498635],[37.018398,47.498995],[37.017881,47.499466],[37.014597,47.502462],[37.012957,47.503959],[37.013025,47.504021],[37.013063,47.504054],[37.013063,47.504055],[37.012854,47.504284],[37.011129,47.506173],[37.009859,47.507564],[37.007532,47.506487],[37.007532,47.506486],[37.006605,47.506057],[37.004768,47.505205],[37.003867,47.506173],[37.003868,47.506173],[37.003711,47.506341]]]}},{"type":"Feature","properties":{"cadnum":"2324980203:06:001:0024"},"geometry":{"type":"Polygon","coordinates":[[[37.017873,47.503234],[37.018518,47.503533],[37.018518,47.503532],[37.018519,47.503532],[37.019135,47.503817],[37.019421,47.50352],[37.018392,47.503044],[37.018187,47.502948],[37.017873,47.503234]]]}},{"type":"Feature","properties":{"cadnum":"2324980203:06:001:0021"},"geometry":{"type":"Polygon","coordinates":[[[37.017745,47.503352],[37.018518,47.50371],[37.018519,47.50371],[37.019712,47.504262],[37.019829,47.50414],[37.019135,47.503819],[37.018347,47.503454],[37.017873,47.503235],[37.017745,47.503352]]]}},{"type":"Feature","properties":{"cadnum":"2324980203:06:001:0034"},"geometry":{"type":"Polygon","coordinates":[[[37.017407,47.503658],[37.018277,47.504061],[37.018347,47.503989],[37.018454,47.503878],[37.0176,47.503482],[37.017407,47.503658]]]}},{"type":"Feature","properties":{"cadnum":"2324980203:06:001:0008"},"geometry":{"type":"Polygon","coordinates":[[[37.009438,47.511012],[37.009915,47.511264],[37.010343,47.510877],[37.009886,47.510609],[37.009438,47.511012]]]}},{"type":"Feature","properties":{"cadnum":"2324980203:06:001:0049"},"geometry":{"type":"Polygon","coordinates":[[[37.00736,47.509917],[37.007532,47.510007],[37.007733,47.510113],[37.008132,47.509767],[37.008299,47.509622],[37.007945,47.50941],[37.007533,47.509767],[37.007532,47.509767],[37.00736,47.509917]]]}},{"type":"Feature","properties":{"cadnum":"2324980203:06:001:0052"},"geometry":{"type":"Polygon","coordinates":[[[37.00708,47.509767],[37.00709,47.509772],[37.007299,47.509883],[37.00736,47.509916],[37.007398,47.509883],[37.007399,47.509883],[37.007945,47.509409],[37.008691,47.508764],[37.008356,47.508616],[37.007427,47.509454],[37.00708,47.509767]]]}},{"type":"Feature","properties":{"cadnum":"2324980203:06:001:0032"},"geometry":{"type":"Polygon","coordinates":[[[37.011311,47.510277],[37.012762,47.510789],[37.012906,47.510616],[37.012524,47.510477],[37.011403,47.510069],[37.011311,47.510277]]]}},{"type":"Feature","properties":{"cadnum":"2324980203:06:001:0045"},"geometry":{"type":"Polygon","coordinates":[[[37.011082,47.510795],[37.012522,47.511345],[37.013025,47.510804],[37.013025,47.510803],[37.013126,47.510695],[37.012906,47.510616],[37.012762,47.510789],[37.011311,47.510277],[37.011082,47.510795]]]}},{"type":"Feature","properties":{"cadnum":"2324980203:06:001:0010"},"geometry":{"type":"Polygon","coordinates":[[[37.011842,47.514034],[37.012127,47.51445],[37.013025,47.513506],[37.013025,47.513505],[37.01326,47.513258],[37.013008,47.51316],[37.0128,47.513078],[37.012282,47.513594],[37.012283,47.513594],[37.011842,47.514034]]]}},{"type":"Feature","properties":{"cadnum":"2324980203:06:001:0066"},"geometry":{"type":"Polygon","coordinates":[[[37.011403,47.510069],[37.012524,47.510477],[37.012765,47.510217],[37.011986,47.509883],[37.011688,47.509756],[37.011677,47.509767],[37.011676,47.509767],[37.011403,47.510069]]]}},{"type":"Feature","properties":{"cadnum":"2324980203:06:001:0009"},"geometry":{"type":"Polygon","coordinates":[[[37.009886,47.510608],[37.010344,47.510875],[37.010361,47.510861],[37.011185,47.510113],[37.010676,47.509893],[37.009886,47.510608]]]}},{"type":"Feature","properties":{"cadnum":"2324980203:06:001:0003"},"geometry":{"type":"Polygon","coordinates":[[[37.011688,47.509756],[37.011715,47.509767],[37.012765,47.510217],[37.012853,47.510127],[37.012854,47.510127],[37.012854,47.510128],[37.012992,47.509986],[37.012483,47.509767],[37.011904,47.509518],[37.011688,47.509756]]]}},{"type":"Feature","properties":{"cadnum":"2324980203:06:001:0029"},"geometry":{"type":"Polygon","coordinates":[[[37.011904,47.509518],[37.012753,47.509883],[37.012854,47.509926],[37.012854,47.509927],[37.012992,47.509986],[37.013025,47.51],[37.013047,47.510009],[37.013169,47.509881],[37.013287,47.509757],[37.013025,47.509642],[37.012144,47.509255],[37.011904,47.509518]]]}},{"type":"Feature","properties":{"cadnum":"2324980203:06:001:0056"},"geometry":{"type":"Polygon","coordinates":[[[37.010356,47.510881],[37.010869,47.511117],[37.011133,47.510522],[37.011314,47.510169],[37.011197,47.510119],[37.010356,47.510881]]]}},{"type":"Feature","properties":{"cadnum":"2324980203:06:001:0063"},"geometry":{"type":"Polygon","coordinates":[[[37.019359,47.505368],[37.021158,47.506057],[37.021305,47.506113],[37.021461,47.506173],[37.021513,47.506193],[37.021643,47.506057],[37.021866,47.505825],[37.019732,47.504973],[37.019359,47.505368]]]}},{"type":"Feature","properties":{"cadnum":"2324980203:06:001:0062"},"geometry":{"type":"Polygon","coordinates":[[[37.016949,47.508789],[37.018332,47.509394],[37.018347,47.509383],[37.018441,47.509311],[37.018518,47.509252],[37.018518,47.509251],[37.018713,47.509102],[37.018393,47.508953],[37.017286,47.508432],[37.016949,47.508789]]]}},{"type":"Feature","properties":{"cadnum":"2324980203:06:001:0015"},"geometry":{"type":"Polygon","coordinates":[[[37.017843,47.506974],[37.018321,47.507173],[37.018518,47.507257],[37.018519,47.507257],[37.019921,47.507855],[37.020062,47.507741],[37.01996,47.507642],[37.018434,47.506999],[37.017994,47.506813],[37.017843,47.506974]]]}},{"type":"Feature","properties":{"cadnum":"2324980203:06:001:0058"},"geometry":{"type":"Polygon","coordinates":[[[37.017718,47.507783],[37.018518,47.508161],[37.018518,47.50816],[37.018519,47.50816],[37.019284,47.508521],[37.019921,47.507855],[37.018347,47.507184],[37.018321,47.507173],[37.018194,47.50732],[37.018166,47.50731],[37.017718,47.507783]]]}},{"type":"Feature","properties":{"cadnum":"2324980203:06:001:0042"},"geometry":{"type":"Polygon","coordinates":[[[37.016988,47.507878],[37.018347,47.508518],[37.018995,47.508822],[37.019284,47.508521],[37.018347,47.50808],[37.017718,47.507783],[37.017275,47.507575],[37.016988,47.507878]]]}},{"type":"Feature","properties":{"cadnum":"2324980203:00:000:0000"},"geometry":{"type":"Polygon","coordinates":[[[37.099864,47.455145],[37.100358,47.455598],[37.100369,47.455594],[37.100479,47.455694],[37.100695,47.455587],[37.100585,47.455487],[37.100463,47.455483],[37.100102,47.455028],[37.099864,47.455145]]]}},{"type":"Feature","properties":{"cadnum":"2324980203:06:001:0076"},"geometry":{"type":"Polygon","coordinates":[[[37.013367,47.514978],[37.01374,47.515151],[37.015117,47.514103],[37.014538,47.513846],[37.013367,47.514978]]]}},{"type":"Feature","properties":{"cadnum":"2324980203:06:001:0059"},"geometry":{"type":"Polygon","coordinates":[[[37.012524,47.514626],[37.012854,47.514745],[37.012925,47.51477],[37.013025,47.514673],[37.014094,47.513639],[37.013828,47.513515],[37.01369,47.513451],[37.013664,47.513478],[37.013595,47.513546],[37.013548,47.513594],[37.013549,47.513594],[37.012975,47.514172],[37.012524,47.514626]]]}},{"type":"Feature","properties":{"cadnum":"2324980203:06:001:0012"},"geometry":{"type":"Polygon","coordinates":[[[37.023915,47.501116],[37.024012,47.501155],[37.025021,47.501557],[37.025547,47.500971],[37.024441,47.500558],[37.023915,47.501116]]]}},{"type":"Feature","properties":{"cadnum":"2324980203:06:001:0002"},"geometry":{"type":"Polygon","coordinates":[[[37.019673,47.501598],[37.021064,47.502205],[37.021537,47.501733],[37.020176,47.501143],[37.019673,47.501598]]]}},{"type":"Feature","properties":{"cadnum":"2324980203:06:001:0016"},"geometry":{"type":"Polygon","coordinates":[[[37.020176,47.501143],[37.021961,47.501911],[37.022157,47.501707],[37.020368,47.500968],[37.020176,47.501143]]]}},{"type":"Feature","properties":{"cadnum":"2324980203:06:001:0039"},"geometry":{"type":"Polygon","coordinates":[[[37.021647,47.499804],[37.023298,47.500512],[37.023687,47.500105],[37.022076,47.499416],[37.021647,47.499804]]]}},{"type":"Feature","properties":{"cadnum":"2324980203:06:001:0025"},"geometry":{"type":"Polygon","coordinates":[[[37.019389,47.501857],[37.020525,47.502346],[37.020676,47.502411],[37.020794,47.502462],[37.020795,47.502462],[37.021248,47.502657],[37.021497,47.502396],[37.019673,47.501598],[37.019389,47.501857]]]}},{"type":"Feature","properties":{"cadnum":"2324980203:06:001:0011"},"geometry":{"type":"Polygon","coordinates":[[[37.020369,47.500967],[37.022157,47.501706],[37.022345,47.50151],[37.020557,47.500796],[37.020369,47.500967]]]}},{"type":"Feature","properties":{"cadnum":"2324980203:06:001:0017"},"geometry":{"type":"Polygon","coordinates":[[[37.023279,47.501218],[37.02384,47.501461],[37.023953,47.50151],[37.024012,47.501535],[37.024743,47.501851],[37.025013,47.501555],[37.023914,47.501115],[37.023808,47.501076],[37.02367,47.501244],[37.023373,47.501119],[37.023279,47.501218]]]}},{"type":"Feature","properties":{"cadnum":"2324980203:06:001:0048"},"geometry":{"type":"Polygon","coordinates":[[[37.006796,47.509618],[37.00708,47.509767],[37.00736,47.509515],[37.007427,47.509454],[37.007532,47.50936],[37.007532,47.509359],[37.008356,47.508616],[37.008055,47.508451],[37.007532,47.508936],[37.006796,47.509618]]]}},{"type":"Feature","properties":{"cadnum":"2324980203:06:001:0075"},"geometry":{"type":"Polygon","coordinates":[[[37.006375,47.509395],[37.006796,47.509618],[37.00736,47.509095],[37.008055,47.508451],[37.007653,47.508208],[37.007427,47.508418],[37.006375,47.509395]]]}},{"type":"Feature","properties":{"cadnum":"2324980203:06:001:0068"},"geometry":{"type":"Polygon","coordinates":[[[37.003756,47.507519],[37.004355,47.507836],[37.004669,47.507508],[37.00507,47.507087],[37.004653,47.506936],[37.004485,47.506934],[37.004291,47.506968],[37.003756,47.507519]]]}},{"type":"Feature","properties":{"cadnum":"2324980203:06:001:0077"},"geometry":{"type":"Polygon","coordinates":[[[37.00404,47.508166],[37.004343,47.508325],[37.004749,47.507901],[37.004967,47.507673],[37.004669,47.507508],[37.004355,47.507836],[37.00404,47.508166]]]}},{"type":"Feature","properties":{"cadnum":"2324980203:06:001:0078"},"geometry":{"type":"Polygon","coordinates":[[[37.004669,47.507508],[37.004967,47.507673],[37.005389,47.507232],[37.00507,47.507087],[37.004669,47.507508]]]}},{"type":"Feature","properties":{"cadnum":"2324980203:06:001:0070"},"geometry":{"type":"Polygon","coordinates":[[[37.005216,47.508154],[37.005689,47.508398],[37.006435,47.507628],[37.005907,47.507441],[37.005216,47.508154]]]}},{"type":"Feature","properties":{"cadnum":"2324980203:06:001:0074"},"geometry":{"type":"Polygon","coordinates":[[[37.013723,47.50921],[37.014608,47.509625],[37.01483,47.509392],[37.013939,47.508976],[37.013723,47.50921]]]}},{"type":"Feature","properties":{"cadnum":"2324980203:06:001:0040"},"geometry":{"type":"Polygon","coordinates":[[[37.015278,47.509688],[37.015472,47.509767],[37.015471,47.509767],[37.015721,47.50987],[37.015724,47.509871],[37.016177,47.509391],[37.015738,47.509201],[37.015278,47.509688]]]}},{"type":"Feature","properties":{"cadnum":"2324980203:06:001:0041"},"geometry":{"type":"Polygon","coordinates":[[[37.015724,47.509871],[37.015754,47.509883],[37.015755,47.509883],[37.017295,47.510516],[37.017775,47.510058],[37.017763,47.50996],[37.017671,47.509899],[37.017573,47.509855],[37.016378,47.509321],[37.016284,47.509437],[37.016284,47.509438],[37.016177,47.509391],[37.015821,47.509767],[37.01582,47.509767],[37.015724,47.509871]]]}},{"type":"Feature","properties":{"cadnum":"2324980203:06:001:0073"},"geometry":{"type":"Polygon","coordinates":[[[37.012646,47.508706],[37.012854,47.508803],[37.012896,47.508823],[37.013025,47.508884],[37.013723,47.50921],[37.013939,47.508976],[37.012858,47.508473],[37.012646,47.508706]]]}},{"type":"Feature","properties":{"cadnum":"2324980203:06:001:0004"},"geometry":{"type":"Polygon","coordinates":[[[37.014208,47.506989],[37.016292,47.507841],[37.016626,47.507493],[37.014558,47.506604],[37.014208,47.506989]]]}},{"type":"Feature","properties":{"cadnum":"2324980203:06:001:0057"},"geometry":{"type":"Polygon","coordinates":[[[37.017275,47.507575],[37.017718,47.507783],[37.018166,47.50731],[37.017706,47.507118],[37.017275,47.507575]]]}},{"type":"Feature","properties":{"cadnum":"2324980203:06:001:0001"},"geometry":{"type":"Polygon","coordinates":[[[37.019732,47.504973],[37.021866,47.505825],[37.022087,47.505594],[37.019983,47.504708],[37.019732,47.504973]]]}},{"type":"Feature","properties":{"cadnum":"2324980203:06:001:0023"},"geometry":{"type":"Polygon","coordinates":[[[37.022133,47.504739],[37.022687,47.504968],[37.022809,47.50484],[37.022237,47.504599],[37.022133,47.504739]]]}},{"type":"Feature","properties":{"cadnum":"2324980203:06:001:0064"},"geometry":{"type":"Polygon","coordinates":[[[37.021663,47.504357],[37.022237,47.504599],[37.022809,47.50484],[37.023037,47.504602],[37.021878,47.50413],[37.021663,47.504357]]]}},{"type":"Feature","properties":{"cadnum":"2324980203:06:001:0020"},"geometry":{"type":"Polygon","coordinates":[[[37.022027,47.504889],[37.022551,47.505109],[37.022687,47.504968],[37.022133,47.504739],[37.022027,47.504889]]]}},{"type":"Feature","properties":{"cadnum":"2324980203:06:001:0036"},"geometry":{"type":"Polygon","coordinates":[[[37.021469,47.504953],[37.022346,47.505323],[37.022551,47.505109],[37.022027,47.504889],[37.021671,47.504739],[37.021469,47.504953]]]}},{"type":"Feature","properties":{"cadnum":"2324980203:06:001:0022"},"geometry":{"type":"Polygon","coordinates":[[[37.019135,47.503819],[37.019829,47.50414],[37.020114,47.503842],[37.019421,47.503521],[37.019135,47.503819]]]}},{"type":"Feature","properties":{"cadnum":"2324980203:06:001:0013"},"geometry":{"type":"Polygon","coordinates":[[[37.024042,47.500411],[37.024395,47.500542],[37.02508,47.499815],[37.024834,47.499717],[37.024448,47.500102],[37.024447,47.500102],[37.024364,47.500069],[37.024042,47.500411]]]}},{"type":"Feature","properties":{"cadnum":"2324980203:06:001:0014"},"geometry":{"type":"Polygon","coordinates":[[[37.024395,47.500542],[37.024441,47.500558],[37.025547,47.500971],[37.026101,47.500364],[37.026105,47.50029],[37.026077,47.500233],[37.025996,47.500177],[37.02508,47.499815],[37.024395,47.500542]]]}},{"type":"Feature","properties":{"cadnum":"2324980203:06:001:0050"},"geometry":{"type":"Polygon","coordinates":[[[37.007945,47.50941],[37.008299,47.509622],[37.009052,47.508971],[37.008689,47.508765],[37.007945,47.50941]]]}},{"type":"Feature","properties":{"cadnum":"2324980203:06:001:0031"},"geometry":{"type":"Polygon","coordinates":[[[37.015044,47.511437],[37.016036,47.511912],[37.016236,47.511703],[37.015241,47.511226],[37.015044,47.511437]]]}},{"type":"Feature","properties":{"cadnum":"2324980203:06:001:0033"},"geometry":{"type":"Polygon","coordinates":[[[37.014215,47.512723],[37.01525,47.513179],[37.015344,47.513004],[37.014342,47.512564],[37.014215,47.512723]]]}}]}