{"type":"FeatureCollection","features":[{"type":"Feature","properties":{"cadnum":"2324580303:02:001:0130"},"geometry":{"type":"Polygon","coordinates":[[[35.505743,46.503309],[35.507898,46.504187],[35.512496,46.506058],[35.512757,46.506165],[35.512952,46.50594],[35.51322,46.505633],[35.51322,46.505634],[35.513952,46.504792],[35.513392,46.504564],[35.513391,46.504564],[35.507898,46.502329],[35.507898,46.502328],[35.507774,46.502278],[35.507774,46.502277],[35.50693,46.501934],[35.506736,46.502159],[35.505743,46.503309]],[[35.511061,46.505226],[35.511091,46.505107],[35.511092,46.505107],[35.51131,46.505024],[35.511539,46.505107],[35.511565,46.505267],[35.511407,46.505354],[35.511191,46.505314],[35.511191,46.505313],[35.511061,46.505226]]]}}]}