{"type":"FeatureCollection","features":[{"type":"Feature","properties":{"cadnum":"2324955000:02:001:0028"},"geometry":{"type":"Polygon","coordinates":[[[37.096988,47.426379],[37.098045,47.42744],[37.100744,47.425402],[37.100886,47.425295],[37.100916,47.425272],[37.102126,47.424358],[37.10251,47.424067],[37.102178,47.423733],[37.101454,47.423006],[37.100915,47.423413],[37.099509,47.424474],[37.096988,47.426379]]]}},{"type":"Feature","properties":{"cadnum":"2324955000:03:005:0017"},"geometry":{"type":"Polygon","coordinates":[[[34.111735,47.359394],[34.112463,47.359133],[34.11393,47.358605],[34.114399,47.357535],[34.1144,47.357535],[34.115431,47.355191],[34.113745,47.354822],[34.112603,47.357419],[34.112602,47.357419],[34.111735,47.359394]]]}},{"type":"Feature","properties":{"cadnum":"2324955000:03:004:0007"},"geometry":{"type":"Polygon","coordinates":[[[37.073065,47.371199],[37.073278,47.371235],[37.073377,47.371252],[37.07345,47.371264],[37.074327,47.371412],[37.076227,47.368697],[37.076228,47.368697],[37.077998,47.366169],[37.076729,47.366013],[37.074831,47.368697],[37.074832,47.368697],[37.074832,47.368698],[37.073278,47.370897],[37.073065,47.371199]]]}},{"type":"Feature","properties":{"cadnum":"2324955000:03:004:0006"},"geometry":{"type":"Polygon","coordinates":[[[37.07179,47.371018],[37.073065,47.371199],[37.07345,47.370655],[37.07345,47.370654],[37.074915,47.368581],[37.074914,47.368581],[37.076729,47.366013],[37.075446,47.365842],[37.073511,47.368581],[37.07351,47.368581],[37.073351,47.368808],[37.07179,47.371018]]]}},{"type":"Feature","properties":{"cadnum":"2324955000:02:001:0046"},"geometry":{"type":"Polygon","coordinates":[[[37.093427,47.414666],[37.093657,47.414901],[37.094239,47.415497],[37.095251,47.415027],[37.095411,47.414952],[37.095423,47.414947],[37.099162,47.413207],[37.099161,47.413207],[37.100337,47.412661],[37.099548,47.411819],[37.096312,47.413323],[37.096313,47.413323],[37.096313,47.413324],[37.095339,47.413777],[37.093427,47.414666]]]}},{"type":"Feature","properties":{"cadnum":"2324955000:03:002:0018"},"geometry":{"type":"Polygon","coordinates":[[[37.117708,47.385104],[37.119483,47.387296],[37.119484,47.387296],[37.121159,47.389362],[37.121741,47.39008],[37.122717,47.389491],[37.122717,47.389492],[37.122881,47.389393],[37.121177,47.387296],[37.118845,47.384425],[37.117708,47.385104]]]}},{"type":"Feature","properties":{"cadnum":"2324955000:03:005:0027"},"geometry":{"type":"Polygon","coordinates":[[[37.114322,47.35494],[37.115349,47.35518],[37.115985,47.353814],[37.115986,47.353814],[37.117224,47.351163],[37.117272,47.351059],[37.117395,47.350795],[37.117395,47.350794],[37.117722,47.350092],[37.117723,47.350092],[37.118368,47.348711],[37.11734,47.348474],[37.116584,47.350092],[37.116585,47.350092],[37.114902,47.353697],[37.114901,47.353697],[37.114322,47.35494]]]}},{"type":"Feature","properties":{"cadnum":"2324955000:03:004:0051"},"geometry":{"type":"Polygon","coordinates":[[[37.088331,47.364454],[37.089589,47.364633],[37.089758,47.364431],[37.091539,47.362293],[37.090595,47.363085],[37.089758,47.36298],[37.089658,47.362968],[37.089658,47.362967],[37.089758,47.362937],[37.089758,47.362938],[37.09067,47.362663],[37.092031,47.361421],[37.091516,47.361143],[37.091222,47.360984],[37.091092,47.36114],[37.091091,47.36114],[37.089758,47.362741],[37.089758,47.362742],[37.088331,47.364454]]]}},{"type":"Feature","properties":{"cadnum":"2324955000:06:003:0004"},"geometry":{"type":"Polygon","coordinates":[[[37.070142,47.389091],[37.070526,47.389279],[37.070636,47.389081],[37.070748,47.388977],[37.071023,47.388795],[37.070691,47.388868],[37.07048,47.388762],[37.070142,47.389091]]]}},{"type":"Feature","properties":{"cadnum":"2324955000:01:002:0022"},"geometry":{"type":"Polygon","coordinates":[[[37.04868,47.425822],[37.049651,47.42662],[37.051477,47.425536],[37.053461,47.424358],[37.056271,47.422691],[37.055305,47.421892],[37.051306,47.424264],[37.051148,47.424358],[37.050992,47.42445],[37.050952,47.424474],[37.04868,47.425822]]]}},{"type":"Feature","properties":{"cadnum":"2324955000:03:004:0035"},"geometry":{"type":"Polygon","coordinates":[[[37.082124,47.363155],[37.083959,47.363718],[37.084265,47.363352],[37.085303,47.362105],[37.086009,47.361256],[37.08601,47.361256],[37.08662,47.360525],[37.08455,47.359872],[37.084436,47.360026],[37.083613,47.36114],[37.082124,47.363155]]]}},{"type":"Feature","properties":{"cadnum":"2324955000:03:004:0050"},"geometry":{"type":"Polygon","coordinates":[[[37.086028,47.367217],[37.087286,47.367397],[37.089303,47.364977],[37.089589,47.364634],[37.088331,47.364454],[37.087894,47.364977],[37.087895,47.364977],[37.086028,47.367217]]]}},{"type":"Feature","properties":{"cadnum":"2324955000:06:002:0017"},"geometry":{"type":"Polygon","coordinates":[[[37.069884,47.394256],[37.069943,47.394383],[37.069981,47.394376],[37.06999,47.394395],[37.070462,47.394673],[37.070784,47.394421],[37.070714,47.394372],[37.070439,47.394135],[37.07019,47.394046],[37.069966,47.394019],[37.069912,47.394228],[37.069922,47.394249],[37.069884,47.394256]]]}},{"type":"Feature","properties":{"cadnum":"2324955000:01:002:0009"},"geometry":{"type":"Polygon","coordinates":[[[37.044262,47.407851],[37.045984,47.409522],[37.045984,47.409521],[37.046071,47.409606],[37.046072,47.409606],[37.047671,47.411156],[37.04916,47.410306],[37.048318,47.40949],[37.048317,47.40949],[37.045984,47.407227],[37.045835,47.407083],[37.044262,47.407851]]]}},{"type":"Feature","properties":{"cadnum":"2324955000:03:003:0016"},"geometry":{"type":"Polygon","coordinates":[[[37.10389,47.375564],[37.106237,47.375883],[37.106256,47.375885],[37.106409,47.375529],[37.107558,47.37285],[37.106409,47.372739],[37.105378,47.372639],[37.104933,47.373515],[37.10389,47.375564]]]}},{"type":"Feature","properties":{"cadnum":"2324955000:02:002:0056"},"geometry":{"type":"Polygon","coordinates":[[[37.101277,47.394707],[37.101301,47.394734],[37.101302,47.394734],[37.104585,47.398336],[37.104603,47.398355],[37.104691,47.398452],[37.105169,47.398975],[37.106409,47.398892],[37.106409,47.398891],[37.106743,47.398868],[37.10652,47.398607],[37.106271,47.398336],[37.10627,47.398336],[37.106237,47.398301],[37.102937,47.394734],[37.102938,47.394734],[37.102828,47.394615],[37.102782,47.394618],[37.102781,47.394618],[37.101277,47.394707]]]}},{"type":"Feature","properties":{"cadnum":"2324955000:02:002:0034"},"geometry":{"type":"Polygon","coordinates":[[[34.10255,47.414577],[34.105094,47.416924],[34.105187,47.417011],[34.10522,47.41704],[34.1059,47.417667],[34.10623,47.417663],[34.106086,47.417041],[34.106086,47.41704],[34.105252,47.413393],[34.105002,47.413491],[34.103546,47.413963],[34.10255,47.414577]]]}},{"type":"Feature","properties":{"cadnum":"2324955000:03:002:0027"},"geometry":{"type":"Polygon","coordinates":[[[37.126303,47.387292],[37.126306,47.387296],[37.126307,47.387296],[37.128382,47.389839],[37.129246,47.390899],[37.129245,47.390899],[37.131266,47.393374],[37.132563,47.393337],[37.130669,47.391015],[37.13067,47.391015],[37.128266,47.388067],[37.127544,47.38718],[37.127543,47.38718],[37.127194,47.38675],[37.126487,47.38718],[37.126303,47.387292]]]}},{"type":"Feature","properties":{"cadnum":"2324955000:03:002:0025"},"geometry":{"type":"Polygon","coordinates":[[[37.124259,47.388531],[37.126191,47.390899],[37.12619,47.390899],[37.12821,47.393372],[37.12821,47.393373],[37.128281,47.393459],[37.128382,47.393456],[37.129853,47.393415],[37.12821,47.391402],[37.1278,47.390899],[37.127799,47.390899],[37.125335,47.387878],[37.124259,47.388531]]]}},{"type":"Feature","properties":{"cadnum":"2324955000:06:006:0007"},"geometry":{"type":"Polygon","coordinates":[[[37.064505,47.376072],[37.064534,47.37608],[37.064541,47.376081],[37.064627,47.376092],[37.064665,47.376103],[37.064788,47.376138],[37.064789,47.376138],[37.06489,47.376166],[37.064929,47.376095],[37.065067,47.375912],[37.065079,47.375865],[37.065275,47.375636],[37.065477,47.37569],[37.065558,47.375712],[37.065618,47.375727],[37.065696,47.375748],[37.065733,47.375758],[37.065708,47.375801],[37.065751,47.375813],[37.065736,47.375839],[37.06577,47.375849],[37.065787,47.375822],[37.065827,47.375832],[37.065858,47.375785],[37.065924,47.375684],[37.066063,47.375502],[37.066113,47.375403],[37.065916,47.375358],[37.065916,47.375357],[37.065959,47.375269],[37.06508,47.375045],[37.064846,47.374959],[37.06488,47.37488],[37.064768,47.374852],[37.064718,47.374839],[37.064665,47.374968],[37.064782,47.375037],[37.064783,47.375037],[37.064719,47.375407],[37.06472,47.375407],[37.064777,47.375409],[37.064827,47.375411],[37.064824,47.375432],[37.065041,47.375527],[37.065053,47.375532],[37.065029,47.375553],[37.065017,47.375564],[37.064969,47.375664],[37.06491,47.375786],[37.064883,47.375822],[37.064883,47.375823],[37.06475,47.375782],[37.064682,47.375761],[37.064628,47.37584],[37.064624,47.375841],[37.064587,47.375955],[37.06454,47.376021],[37.064505,47.376072]]]}},{"type":"Feature","properties":{"cadnum":"2324955000:06:007:0001"},"geometry":{"type":"Polygon","coordinates":[[[37.065216,47.425113],[37.065867,47.425329],[37.066042,47.425113],[37.065391,47.424897],[37.065216,47.425113]]]}},{"type":"Feature","properties":{"cadnum":"2324955000:00:002:0103"},"geometry":{"type":"Polygon","coordinates":[[[37.065205,47.424752],[37.065857,47.424969],[37.066031,47.424753],[37.065381,47.424537],[37.065205,47.424752]]]}},{"type":"Feature","properties":{"cadnum":"2324955000:03:002:0017"},"geometry":{"type":"Polygon","coordinates":[[[37.117803,47.377561],[37.119605,47.379741],[37.119604,47.379741],[37.121897,47.382514],[37.122889,47.381914],[37.122889,47.381913],[37.123133,47.381765],[37.122889,47.381466],[37.121486,47.379741],[37.121485,47.379741],[37.119876,47.377761],[37.117803,47.377561]]]}},{"type":"Feature","properties":{"cadnum":"2324955000:06:003:0008"},"geometry":{"type":"Polygon","coordinates":[[[37.079476,47.391878],[37.079844,47.392],[37.079938,47.391857],[37.079606,47.391745],[37.079476,47.391878]]]}},{"type":"Feature","properties":{"cadnum":"2324955000:06:003:0007"},"geometry":{"type":"Polygon","coordinates":[[[37.079201,47.392243],[37.079596,47.392369],[37.079669,47.392288],[37.079844,47.392],[37.079476,47.391878],[37.079383,47.391981],[37.079201,47.392243]]]}}]}