{"type":"FeatureCollection","features":[{"type":"Feature","properties":{"cadnum":"2324580908:06:015:0002"},"geometry":{"type":"Polygon","coordinates":[[[35.941516,46.763974],[35.941681,46.764287],[35.941687,46.764286],[35.941734,46.764275],[35.941858,46.764249],[35.941858,46.764248],[35.94194,46.764231],[35.941984,46.764314],[35.942446,46.76421],[35.942236,46.763815],[35.941858,46.763899],[35.941516,46.763974]]]}},{"type":"Feature","properties":{"cadnum":"2324580908:06:013:0003"},"geometry":{"type":"Polygon","coordinates":[[[35.937339,46.765751],[35.937398,46.765941],[35.93806,46.765789],[35.937966,46.765607],[35.937339,46.765751]]]}},{"type":"Feature","properties":{"cadnum":"2324580908:06:013:0002"},"geometry":{"type":"Polygon","coordinates":[[[35.937966,46.765607],[35.93806,46.765789],[35.93951,46.765455],[35.939416,46.765274],[35.937966,46.765607]]]}},{"type":"Feature","properties":{"cadnum":"2324580908:06:002:0013"},"geometry":{"type":"Polygon","coordinates":[[[35.948765,46.774568],[35.949119,46.774892],[35.949839,46.774722],[35.949481,46.774395],[35.948765,46.774568]]]}},{"type":"Feature","properties":{"cadnum":"2324580908:06:002:0014"},"geometry":{"type":"Polygon","coordinates":[[[35.947984,46.775045],[35.948076,46.775138],[35.949119,46.774892],[35.948765,46.774568],[35.948149,46.774718],[35.948254,46.774902],[35.947984,46.775045]]]}},{"type":"Feature","properties":{"cadnum":"2324580908:06:022:0002"},"geometry":{"type":"Polygon","coordinates":[[[35.940248,46.759737],[35.940439,46.76012],[35.941858,46.759786],[35.941858,46.759785],[35.941987,46.759755],[35.941795,46.759373],[35.940248,46.759737]]]}},{"type":"Feature","properties":{"cadnum":"2324580908:06:026:0002"},"geometry":{"type":"Polygon","coordinates":[[[35.926993,46.756451],[35.927432,46.75679],[35.92766,46.756654],[35.92944,46.755594],[35.928911,46.755309],[35.926993,46.756451]]]}},{"type":"Feature","properties":{"cadnum":"2324580908:06:017:0003"},"geometry":{"type":"Polygon","coordinates":[[[35.943363,46.763585],[35.943592,46.763977],[35.944284,46.763807],[35.944038,46.763419],[35.943363,46.763585]]]}},{"type":"Feature","properties":{"cadnum":"2324580908:05:017:0005"},"geometry":{"type":"Polygon","coordinates":[[[35.943962,46.764635],[35.944173,46.765006],[35.944899,46.764843],[35.944705,46.76445],[35.943962,46.764635]]]}},{"type":"Feature","properties":{"cadnum":"2324580908:06:017:0002"},"geometry":{"type":"Polygon","coordinates":[[[35.942707,46.763747],[35.942937,46.764139],[35.943592,46.763977],[35.943363,46.763585],[35.942707,46.763747]]]}},{"type":"Feature","properties":{"cadnum":"2324580908:05:017:0004"},"geometry":{"type":"Polygon","coordinates":[[[35.943253,46.764812],[35.943454,46.765168],[35.944173,46.765006],[35.943962,46.764635],[35.943253,46.764812]]]}},{"type":"Feature","properties":{"cadnum":"2324580908:06:009:0003"},"geometry":{"type":"Polygon","coordinates":[[[35.943606,46.769102],[35.943808,46.769448],[35.944563,46.769236],[35.944358,46.768885],[35.943606,46.769102]]]}},{"type":"Feature","properties":{"cadnum":"2324580908:06:009:0007"},"geometry":{"type":"Polygon","coordinates":[[[35.943803,46.768285],[35.943961,46.768563],[35.944877,46.768318],[35.944718,46.768038],[35.943803,46.768285]]]}},{"type":"Feature","properties":{"cadnum":"2324580908:06:009:0002"},"geometry":{"type":"Polygon","coordinates":[[[35.944358,46.768885],[35.944563,46.769236],[35.945282,46.769034],[35.945069,46.76868],[35.944358,46.768885]]]}}]}