{"type":"FeatureCollection","features":[{"type":"Feature","properties":{"cadnum":"2324584601:04:007:0003"},"geometry":{"type":"Polygon","coordinates":[[[35.999765,46.927238],[35.999805,46.927359],[35.999912,46.927745],[35.99994,46.927845],[35.99994,46.927846],[36.000428,46.927646],[36.000259,46.927148],[35.999765,46.927238]]]}},{"type":"Feature","properties":{"cadnum":"2324584601:04:007:0004"},"geometry":{"type":"Polygon","coordinates":[[[35.998138,46.927578],[35.998172,46.927745],[35.998171,46.927745],[35.99819,46.927837],[35.998195,46.927862],[35.998196,46.927862],[35.998281,46.928277],[35.99871,46.928205],[35.998618,46.927862],[35.998524,46.927513],[35.998138,46.927578]]]}},{"type":"Feature","properties":{"cadnum":"2324584601:04:009:0007"},"geometry":{"type":"Polygon","coordinates":[[[35.993,46.927229],[35.993126,46.927862],[35.993127,46.927862],[35.993233,46.928392],[35.993354,46.928416],[35.99324,46.927862],[35.993205,46.927687],[35.993177,46.927564],[35.993147,46.927426],[35.993147,46.927396],[35.993148,46.927396],[35.99396,46.927348],[35.993917,46.927134],[35.993,46.927229]]]}},{"type":"Feature","properties":{"cadnum":"2324584601:04:009:0002"},"geometry":{"type":"Polygon","coordinates":[[[35.991424,46.926512],[35.991471,46.926508],[35.99148,46.926558],[35.991481,46.926558],[35.991564,46.926549],[35.991556,46.926513],[35.991613,46.926508],[35.991608,46.926483],[35.991632,46.92648],[35.991621,46.926413],[35.991456,46.926429],[35.99147,46.926503],[35.991424,46.926508],[35.991424,46.926512]]]}},{"type":"Feature","properties":{"cadnum":"2324584601:04:010:0007"},"geometry":{"type":"Polygon","coordinates":[[[35.989866,46.927314],[35.989957,46.927548],[35.990735,46.927498],[35.990729,46.927425],[35.99073,46.927425],[35.991297,46.927397],[35.991297,46.927396],[35.991336,46.927394],[35.991306,46.927238],[35.991205,46.927243],[35.991118,46.927248],[35.991104,46.927237],[35.991088,46.927249],[35.989866,46.927314]]]}},{"type":"Feature","properties":{"cadnum":"2324584601:04:009:0008"},"geometry":{"type":"Polygon","coordinates":[[[35.993177,46.927564],[35.993205,46.927687],[35.994021,46.927641],[35.993988,46.927481],[35.993177,46.927564]]]}},{"type":"Feature","properties":{"cadnum":"2324584601:04:009:0006"},"geometry":{"type":"Polygon","coordinates":[[[35.992371,46.926289],[35.992547,46.927226],[35.992781,46.927202],[35.992607,46.926265],[35.992371,46.926289]]]}},{"type":"Feature","properties":{"cadnum":"2324584601:04:006:0004"},"geometry":{"type":"Polygon","coordinates":[[[35.890212,46.939918],[35.890275,46.940839],[35.890592,46.94078],[35.890529,46.939859],[35.890212,46.939918]]]}},{"type":"Feature","properties":{"cadnum":"2324584601:04:009:0009"},"geometry":{"type":"Polygon","coordinates":[[[35.993728,46.928343],[35.993799,46.928707],[35.994228,46.928664],[35.994156,46.928304],[35.993728,46.928343]]]}},{"type":"Feature","properties":{"cadnum":"2324584601:04:006:0006"},"geometry":{"type":"Polygon","coordinates":[[[36.007036,46.924972],[36.007241,46.9255],[36.007244,46.925499],[36.007604,46.925388],[36.007605,46.925388],[36.007702,46.925358],[36.007572,46.924806],[36.007036,46.924972]]]}},{"type":"Feature","properties":{"cadnum":"2324584601:04:014:0002"},"geometry":{"type":"Polygon","coordinates":[[[36.01131,46.917212],[36.012046,46.919845],[36.012407,46.919796],[36.012001,46.918512],[36.011526,46.917171],[36.01131,46.917212]]]}},{"type":"Feature","properties":{"cadnum":"2324584601:04:014:0003"},"geometry":{"type":"Polygon","coordinates":[[[36.010894,46.917275],[36.011578,46.919895],[36.011596,46.919773],[36.011907,46.919861],[36.012046,46.919845],[36.01131,46.917212],[36.010894,46.917275]]]}},{"type":"Feature","properties":{"cadnum":"2324584601:04:010:0004"},"geometry":{"type":"Polygon","coordinates":[[[35.98846,46.928648],[35.98855,46.929163],[35.989108,46.929118],[35.989034,46.928601],[35.98846,46.928648]]]}},{"type":"Feature","properties":{"cadnum":"2324584601:04:010:0006"},"geometry":{"type":"Polygon","coordinates":[[[35.988982,46.928235],[35.989061,46.92879],[35.98995,46.928721],[35.989914,46.928495],[35.989442,46.92854],[35.989414,46.928234],[35.988982,46.928235]]]}},{"type":"Feature","properties":{"cadnum":"2324584601:04:010:0005"},"geometry":{"type":"Polygon","coordinates":[[[35.989061,46.92879],[35.989108,46.929118],[35.990003,46.929048],[35.98995,46.928721],[35.989061,46.92879]]]}},{"type":"Feature","properties":{"cadnum":"2324584601:04:011:0003"},"geometry":{"type":"Polygon","coordinates":[[[35.982559,46.930103],[35.983032,46.930513],[35.98396,46.931547],[35.984837,46.931073],[35.983588,46.930212],[35.983117,46.929802],[35.982559,46.930103]]]}},{"type":"Feature","properties":{"cadnum":"2324584601:04:006:0007"},"geometry":{"type":"Polygon","coordinates":[[[36.006837,46.924461],[36.007036,46.924972],[36.007572,46.924806],[36.007469,46.924372],[36.006837,46.924461]]]}},{"type":"Feature","properties":{"cadnum":"2324584601:04:005:0002"},"geometry":{"type":"Polygon","coordinates":[[[36.00639,46.927042],[36.006608,46.927357],[36.006905,46.927262],[36.006689,46.926947],[36.00639,46.927042]]]}},{"type":"Feature","properties":{"cadnum":"2324584601:04:010:0003"},"geometry":{"type":"Polygon","coordinates":[[[36.021111,46.921676],[36.021246,46.922052],[36.021293,46.922197],[36.02185,46.922133],[36.021822,46.921958],[36.021741,46.921964],[36.021634,46.921596],[36.021111,46.921676]]]}},{"type":"Feature","properties":{"cadnum":"2324584601:04:010:0002"},"geometry":{"type":"Polygon","coordinates":[[[36.02065,46.922122],[36.020938,46.923253],[36.021997,46.923066],[36.02185,46.922133],[36.021293,46.922197],[36.021246,46.922052],[36.02065,46.922122]]]}},{"type":"Feature","properties":{"cadnum":"2324584601:04:011:0004"},"geometry":{"type":"Polygon","coordinates":[[[36.02194,46.92178],[36.022227,46.923035],[36.02261,46.922989],[36.022268,46.921762],[36.02194,46.92178]]]}},{"type":"Feature","properties":{"cadnum":"2324584601:04:011:0006"},"geometry":{"type":"Polygon","coordinates":[[[35.978729,46.931551],[35.978753,46.931613],[35.978754,46.931613],[35.97904,46.93233],[35.979309,46.932287],[35.979309,46.932286],[35.979081,46.931713],[35.979463,46.931652],[35.979428,46.931567],[35.97938,46.931443],[35.97906,46.931496],[35.979059,46.931496],[35.97873,46.931551],[35.978729,46.931551]]]}},{"type":"Feature","properties":{"cadnum":"2324584601:04:011:0005"},"geometry":{"type":"Polygon","coordinates":[[[35.97856,46.931123],[35.978729,46.931551],[35.97938,46.931443],[35.979211,46.931018],[35.97856,46.931123]]]}},{"type":"Feature","properties":{"cadnum":"2324584601:04:010:0014"},"geometry":{"type":"Polygon","coordinates":[[[35.875684,46.94563],[35.875769,46.94597],[35.875769,46.945971],[35.875786,46.946041],[35.87594,46.946012],[35.876467,46.945913],[35.876375,46.9455],[35.875816,46.945605],[35.875684,46.94563]]]}},{"type":"Feature","properties":{"cadnum":"2324584601:04:007:0005"},"geometry":{"type":"Polygon","coordinates":[[[35.998106,46.92742],[35.998138,46.927578],[35.998524,46.927513],[35.998494,46.927401],[35.998106,46.92742]]]}},{"type":"Feature","properties":{"cadnum":"2324584601:04:007:0002"},"geometry":{"type":"Polygon","coordinates":[[[35.999606,46.926767],[35.999765,46.927238],[36.000259,46.927148],[36.0001,46.926677],[35.999606,46.926767]]]}}]}