{"type":"FeatureCollection","features":[{"type":"Feature","properties":{"cadnum":"2324555104:10:002:0006"},"geometry":{"type":"Polygon","coordinates":[[[35.557337,46.788591],[35.557468,46.788763],[35.557467,46.788763],[35.557636,46.788985],[35.558018,46.788763],[35.559075,46.788154],[35.558707,46.787772],[35.557337,46.788591]]]}},{"type":"Feature","properties":{"cadnum":"2324555104:10:002:0007"},"geometry":{"type":"Polygon","coordinates":[[[35.556811,46.788871],[35.556818,46.788881],[35.556819,46.788881],[35.55712,46.789278],[35.557165,46.789252],[35.557165,46.789253],[35.557549,46.789038],[35.557636,46.788985],[35.557557,46.788881],[35.557337,46.788591],[35.557244,46.788646],[35.557018,46.788763],[35.556811,46.788871]]]}},{"type":"Feature","properties":{"cadnum":"2324555104:10:008:0001"},"geometry":{"type":"Polygon","coordinates":[[[35.549719,46.783641],[35.550057,46.784268],[35.551641,46.783368],[35.551596,46.783324],[35.551389,46.783125],[35.551256,46.783195],[35.551192,46.782857],[35.549719,46.783641]]]}},{"type":"Feature","properties":{"cadnum":"2324555104:10:006:0010"},"geometry":{"type":"Polygon","coordinates":[[[35.555795,46.783753],[35.55602,46.784151],[35.557165,46.783519],[35.557224,46.783486],[35.557337,46.783425],[35.557554,46.783306],[35.557272,46.782921],[35.555795,46.783753]]]}},{"type":"Feature","properties":{"cadnum":"2324555104:10:006:0009"},"geometry":{"type":"Polygon","coordinates":[[[35.557272,46.782921],[35.557554,46.783306],[35.558096,46.783011],[35.557808,46.782619],[35.557272,46.782921]]]}},{"type":"Feature","properties":{"cadnum":"2324555104:10:004:0006"},"geometry":{"type":"Polygon","coordinates":[[[35.558343,46.784909],[35.558412,46.785002],[35.558417,46.785009],[35.558501,46.78512],[35.558502,46.78512],[35.558525,46.78515],[35.558702,46.785055],[35.559397,46.784684],[35.559214,46.784444],[35.558343,46.784909]]]}},{"type":"Feature","properties":{"cadnum":"2324555104:10:008:0013"},"geometry":{"type":"Polygon","coordinates":[[[35.550136,46.775697],[35.55021,46.776113],[35.550855,46.77573],[35.550781,46.775321],[35.550136,46.775697]]]}},{"type":"Feature","properties":{"cadnum":"2324555104:10:008:0014"},"geometry":{"type":"Polygon","coordinates":[[[35.548249,46.776797],[35.548342,46.777224],[35.55021,46.776113],[35.550136,46.775697],[35.548249,46.776797]]]}},{"type":"Feature","properties":{"cadnum":"2324555104:10:010:0009"},"geometry":{"type":"Polygon","coordinates":[[[35.550972,46.775196],[35.551028,46.775557],[35.551703,46.775196],[35.551435,46.774944],[35.550972,46.775196]]]}},{"type":"Feature","properties":{"cadnum":"2324555104:10:007:0003"},"geometry":{"type":"Polygon","coordinates":[[[35.553099,46.786399],[35.553277,46.786619],[35.554184,46.786087],[35.554007,46.785866],[35.553099,46.786399]]]}},{"type":"Feature","properties":{"cadnum":"2324555104:10:003:0003"},"geometry":{"type":"Polygon","coordinates":[[[35.553917,46.787107],[35.554122,46.787385],[35.554597,46.787121],[35.554889,46.786957],[35.554693,46.786701],[35.554282,46.786903],[35.553963,46.787082],[35.553917,46.787107]]]}},{"type":"Feature","properties":{"cadnum":"2324555104:10:003:0002"},"geometry":{"type":"Polygon","coordinates":[[[35.553662,46.78671],[35.553963,46.787082],[35.554282,46.786903],[35.554693,46.786701],[35.55453,46.786491],[35.554134,46.786695],[35.553984,46.786523],[35.553662,46.78671]]]}},{"type":"Feature","properties":{"cadnum":"2324555104:10:002:0004"},"geometry":{"type":"Polygon","coordinates":[[[35.556603,46.787742],[35.556943,46.78819],[35.557165,46.788058],[35.558363,46.787347],[35.557972,46.786924],[35.557337,46.787304],[35.556603,46.787742]]]}},{"type":"Feature","properties":{"cadnum":"2324555104:10:004:0007"},"geometry":{"type":"Polygon","coordinates":[[[35.55484,46.78629],[35.554982,46.786475],[35.555363,46.786278],[35.556068,46.785899],[35.555898,46.785715],[35.55518,46.786097],[35.55484,46.78629]]]}},{"type":"Feature","properties":{"cadnum":"2324555104:10:002:0005"},"geometry":{"type":"Polygon","coordinates":[[[35.55615,46.788013],[35.556487,46.788459],[35.556943,46.78819],[35.556603,46.787742],[35.55615,46.788013]]]}},{"type":"Feature","properties":{"cadnum":"2324555104:10:007:0002"},"geometry":{"type":"Polygon","coordinates":[[[35.552084,46.786996],[35.552261,46.787216],[35.553277,46.786619],[35.553099,46.786399],[35.552084,46.786996]]]}},{"type":"Feature","properties":{"cadnum":"2324555104:10:009:0011"},"geometry":{"type":"Polygon","coordinates":[[[35.555422,46.780574],[35.555626,46.780885],[35.556607,46.780328],[35.556538,46.779941],[35.555422,46.780574]]]}},{"type":"Feature","properties":{"cadnum":"2324555104:10:009:0007"},"geometry":{"type":"Polygon","coordinates":[[[35.552811,46.781545],[35.552898,46.782005],[35.55368,46.781731],[35.55359,46.781256],[35.553313,46.781358],[35.553314,46.781358],[35.552811,46.781545]]]}},{"type":"Feature","properties":{"cadnum":"2324555104:10:009:0015"},"geometry":{"type":"Polygon","coordinates":[[[35.555062,46.778943],[35.555473,46.779271],[35.556696,46.778585],[35.556271,46.778245],[35.555062,46.778943]]]}},{"type":"Feature","properties":{"cadnum":"2324555104:10:009:0014"},"geometry":{"type":"Polygon","coordinates":[[[35.556271,46.778245],[35.556696,46.778585],[35.557034,46.778395],[35.556934,46.77786],[35.556271,46.778245]]]}},{"type":"Feature","properties":{"cadnum":"2324555104:10:009:0010"},"geometry":{"type":"Polygon","coordinates":[[[35.556538,46.779941],[35.556607,46.780328],[35.557165,46.78001],[35.557165,46.780011],[35.557298,46.779935],[35.557228,46.77955],[35.556538,46.779941]]]}},{"type":"Feature","properties":{"cadnum":"2324555104:10:011:0014"},"geometry":{"type":"Polygon","coordinates":[[[35.556947,46.77562],[35.557024,46.77611],[35.557337,46.775951],[35.557466,46.775885],[35.557636,46.775798],[35.557507,46.775381],[35.557496,46.775386],[35.557165,46.775527],[35.556947,46.77562]]]}},{"type":"Feature","properties":{"cadnum":"2324555104:10:011:0013"},"geometry":{"type":"Polygon","coordinates":[[[35.556894,46.775419],[35.556947,46.77562],[35.557337,46.775455],[35.557337,46.775454],[35.557496,46.775386],[35.558209,46.775061],[35.558163,46.774843],[35.557368,46.775208],[35.557206,46.775285],[35.557,46.775383],[35.556894,46.775419]]]}},{"type":"Feature","properties":{"cadnum":"2324555104:10:001:0002"},"geometry":{"type":"Polygon","coordinates":[[[35.555663,46.789549],[35.555863,46.789787],[35.556697,46.789307],[35.556497,46.789069],[35.555663,46.789549]]]}},{"type":"Feature","properties":{"cadnum":"2324555104:10:009:0013"},"geometry":{"type":"Polygon","coordinates":[[[35.552471,46.782468],[35.552589,46.782927],[35.552882,46.782743],[35.553259,46.782517],[35.553022,46.782197],[35.552967,46.78223],[35.552471,46.782468]]]}},{"type":"Feature","properties":{"cadnum":"2324555104:10:006:0008"},"geometry":{"type":"Polygon","coordinates":[[[35.555799,46.781943],[35.555931,46.78215],[35.556594,46.781778],[35.556993,46.781569],[35.556811,46.781376],[35.556394,46.781605],[35.555799,46.781943]]]}},{"type":"Feature","properties":{"cadnum":"2324555104:10:009:0006"},"geometry":{"type":"Polygon","coordinates":[[[35.552204,46.78177],[35.552289,46.782217],[35.552898,46.782005],[35.552811,46.781545],[35.552204,46.78177]]]}},{"type":"Feature","properties":{"cadnum":"2324555104:10:009:0012"},"geometry":{"type":"Polygon","coordinates":[[[35.553022,46.782197],[35.553259,46.782517],[35.553462,46.782394],[35.553226,46.782075],[35.553022,46.782197]]]}},{"type":"Feature","properties":{"cadnum":"2324555104:10:010:0007"},"geometry":{"type":"Polygon","coordinates":[[[35.555719,46.775358],[35.555894,46.77571],[35.556035,46.77564],[35.556495,46.775441],[35.556413,46.774996],[35.556033,46.775198],[35.555719,46.775358]]]}},{"type":"Feature","properties":{"cadnum":"2324555104:10:010:0008"},"geometry":{"type":"Polygon","coordinates":[[[35.555512,46.775098],[35.555663,46.775387],[35.556033,46.775198],[35.556413,46.774996],[35.55635,46.774663],[35.5559,46.774892],[35.555512,46.775098]]]}},{"type":"Feature","properties":{"cadnum":"2324555104:10:010:0006"},"geometry":{"type":"Polygon","coordinates":[[[35.556076,46.777114],[35.556381,46.777486],[35.556438,46.777451],[35.556819,46.777243],[35.55672,46.776751],[35.556076,46.777114]]]}},{"type":"Feature","properties":{"cadnum":"2324555104:10:011:0016"},"geometry":{"type":"Polygon","coordinates":[[[35.557649,46.779397],[35.557698,46.779635],[35.558793,46.778983],[35.558745,46.778744],[35.557649,46.779397]]]}},{"type":"Feature","properties":{"cadnum":"2324555104:10:011:0015"},"geometry":{"type":"Polygon","coordinates":[[[35.557551,46.778951],[35.557652,46.779396],[35.558251,46.779034],[35.558119,46.778609],[35.557551,46.778951]]]}}]}