{"type":"FeatureCollection","features":[{"type":"Feature","properties":{"cadnum":"2324583901:04:004:0006"},"geometry":{"type":"Polygon","coordinates":[[[35.690161,46.598021],[35.690175,46.598068],[35.690208,46.598188],[35.690219,46.598227],[35.690236,46.598286],[35.690393,46.598846],[35.690549,46.598825],[35.690315,46.598001],[35.690161,46.598021]]]}},{"type":"Feature","properties":{"cadnum":"2324583901:04:010:0011"},"geometry":{"type":"Polygon","coordinates":[[[35.689323,46.595906],[35.689478,46.596604],[35.689478,46.596605],[35.689477,46.596605],[35.689491,46.596661],[35.689491,46.596664],[35.6895,46.596703],[35.689766,46.596664],[35.689803,46.596658],[35.689732,46.595845],[35.689323,46.595906]]]}},{"type":"Feature","properties":{"cadnum":"2324583901:04:004:0007"},"geometry":{"type":"Polygon","coordinates":[[[35.692041,46.597687],[35.692243,46.598196],[35.692811,46.598141],[35.692583,46.597635],[35.692041,46.597687]]]}},{"type":"Feature","properties":{"cadnum":"2324583901:04:004:0008"},"geometry":{"type":"Polygon","coordinates":[[[35.692243,46.598196],[35.692509,46.59887],[35.693114,46.598811],[35.692811,46.598141],[35.692243,46.598196]]]}},{"type":"Feature","properties":{"cadnum":"2324583901:04:010:0014"},"geometry":{"type":"Polygon","coordinates":[[[35.693348,46.596913],[35.693447,46.597396],[35.694037,46.597313],[35.693938,46.59683],[35.693348,46.596913]]]}},{"type":"Feature","properties":{"cadnum":"2324583901:04:004:0015"},"geometry":{"type":"Polygon","coordinates":[[[35.692926,46.597806],[35.693189,46.598809],[35.693911,46.598729],[35.693572,46.597735],[35.692926,46.597806]]]}},{"type":"Feature","properties":{"cadnum":"2324583901:04:010:0015"},"geometry":{"type":"Polygon","coordinates":[[[35.693248,46.596429],[35.693284,46.596604],[35.693284,46.596605],[35.693283,46.596605],[35.693296,46.596664],[35.693307,46.596723],[35.693308,46.596723],[35.693348,46.596913],[35.693938,46.59683],[35.693898,46.596639],[35.693838,46.596347],[35.693248,46.596429]]]}},{"type":"Feature","properties":{"cadnum":"2324583901:04:010:0012"},"geometry":{"type":"Polygon","coordinates":[[[35.6895,46.596703],[35.689504,46.596723],[35.689524,46.596808],[35.689815,46.596785],[35.689803,46.596658],[35.689766,46.596664],[35.6895,46.596703]]]}},{"type":"Feature","properties":{"cadnum":"2324583901:04:010:0018"},"geometry":{"type":"Polygon","coordinates":[[[35.691166,46.596758],[35.691351,46.597611],[35.691686,46.597581],[35.691477,46.596735],[35.691166,46.596758]]]}},{"type":"Feature","properties":{"cadnum":"2324583901:04:010:0019"},"geometry":{"type":"Polygon","coordinates":[[[35.691954,46.596709],[35.692139,46.597526],[35.69235,46.597509],[35.692165,46.596681],[35.691954,46.596709]]]}},{"type":"Feature","properties":{"cadnum":"2324583901:04:010:0006"},"geometry":{"type":"Polygon","coordinates":[[[35.691396,46.595643],[35.691482,46.595926],[35.691665,46.596604],[35.691665,46.596605],[35.691678,46.596653],[35.69169,46.596723],[35.691694,46.596743],[35.692252,46.59667],[35.692256,46.596669],[35.691988,46.595572],[35.691396,46.595643]]]}},{"type":"Feature","properties":{"cadnum":"2324583901:04:010:0017"},"geometry":{"type":"Polygon","coordinates":[[[35.689873,46.596651],[35.689884,46.596723],[35.689909,46.596884],[35.690503,46.59683],[35.690448,46.596605],[35.690326,46.596101],[35.690051,46.596124],[35.690106,46.596304],[35.690073,46.596315],[35.690146,46.596601],[35.690126,46.596605],[35.690125,46.596605],[35.689874,46.59665],[35.689873,46.596651]]]}},{"type":"Feature","properties":{"cadnum":"2324583901:04:010:0007"},"geometry":{"type":"Polygon","coordinates":[[[35.689024,46.595949],[35.689052,46.596086],[35.689059,46.596604],[35.689059,46.596605],[35.68906,46.596673],[35.689173,46.59667],[35.689391,46.596664],[35.689491,46.596661],[35.689377,46.596149],[35.689323,46.595906],[35.689024,46.595949]]]}},{"type":"Feature","properties":{"cadnum":"2324583901:04:007:0012"},"geometry":{"type":"Polygon","coordinates":[[[35.705808,46.594957],[35.706073,46.595597],[35.706409,46.595525],[35.706143,46.594883],[35.705808,46.594957]]]}},{"type":"Feature","properties":{"cadnum":"2324583901:04:007:0013"},"geometry":{"type":"Polygon","coordinates":[[[35.705271,46.595302],[35.705451,46.595734],[35.70548,46.595727],[35.705481,46.595727],[35.705481,46.595728],[35.705639,46.595693],[35.705652,46.59569],[35.705949,46.595625],[35.705769,46.595192],[35.705481,46.595255],[35.705271,46.595302]]]}},{"type":"Feature","properties":{"cadnum":"2324583901:04:007:0014"},"geometry":{"type":"Polygon","coordinates":[[[35.705487,46.59582],[35.705652,46.59622],[35.705666,46.596253],[35.706163,46.596144],[35.705985,46.595712],[35.705487,46.59582]]]}},{"type":"Feature","properties":{"cadnum":"2324583901:04:007:0017"},"geometry":{"type":"Polygon","coordinates":[[[35.705364,46.594735],[35.705464,46.594911],[35.70548,46.594907],[35.705481,46.594907],[35.705636,46.594865],[35.705652,46.594861],[35.705813,46.594818],[35.705707,46.594643],[35.705556,46.594684],[35.705364,46.594735]]]}},{"type":"Feature","properties":{"cadnum":"2324583901:04:007:0018"},"geometry":{"type":"Polygon","coordinates":[[[35.705066,46.594216],[35.705275,46.594582],[35.705621,46.594503],[35.7054,46.594139],[35.705066,46.594216]]]}},{"type":"Feature","properties":{"cadnum":"2324583901:04:007:0015"},"geometry":{"type":"Polygon","coordinates":[[[35.705666,46.596253],[35.705812,46.596604],[35.705812,46.596605],[35.70581,46.596605],[35.705845,46.596686],[35.706343,46.596577],[35.706163,46.596144],[35.705666,46.596253]]]}},{"type":"Feature","properties":{"cadnum":"2324583901:04:007:0016"},"geometry":{"type":"Polygon","coordinates":[[[35.706108,46.595684],[35.706441,46.596486],[35.706776,46.596412],[35.706445,46.59561],[35.706108,46.595684]]]}},{"type":"Feature","properties":{"cadnum":"2324583901:04:007:0031"},"geometry":{"type":"Polygon","coordinates":[[[35.706095,46.596631],[35.706095,46.596632],[35.706136,46.596723],[35.706137,46.596723],[35.706213,46.596888],[35.706461,46.596834],[35.706373,46.596644],[35.706343,46.596577],[35.706217,46.596605],[35.706216,46.596605],[35.706215,46.596605],[35.706096,46.596631],[35.706095,46.596631]]]}},{"type":"Feature","properties":{"cadnum":"2324583901:04:007:0030"},"geometry":{"type":"Polygon","coordinates":[[[35.705845,46.596686],[35.705861,46.596723],[35.705862,46.596723],[35.705963,46.596943],[35.706213,46.596888],[35.706095,46.596632],[35.706095,46.596631],[35.705947,46.596664],[35.705845,46.596686]]]}},{"type":"Feature","properties":{"cadnum":"2324583901:04:003:0005"},"geometry":{"type":"Polygon","coordinates":[[[35.684085,46.602437],[35.684421,46.602695],[35.684778,46.602543],[35.684381,46.602249],[35.684085,46.602437]]]}},{"type":"Feature","properties":{"cadnum":"2324583901:04:003:0016"},"geometry":{"type":"Polygon","coordinates":[[[35.684409,46.601239],[35.68471,46.60148],[35.684927,46.601639],[35.685314,46.601376],[35.684798,46.600975],[35.684409,46.601239]]]}},{"type":"Feature","properties":{"cadnum":"2324583901:04:003:0009"},"geometry":{"type":"Polygon","coordinates":[[[35.684798,46.600975],[35.685318,46.601379],[35.685715,46.60112],[35.685461,46.600925],[35.685191,46.600719],[35.684798,46.600975]]]}},{"type":"Feature","properties":{"cadnum":"2324583901:04:004:0016"},"geometry":{"type":"Polygon","coordinates":[[[35.685579,46.600467],[35.685617,46.600497],[35.685618,46.600497],[35.685868,46.600689],[35.685868,46.60069],[35.686422,46.6011],[35.686893,46.600834],[35.686442,46.600497],[35.686194,46.600311],[35.686014,46.60018],[35.685919,46.600242],[35.685766,46.600339],[35.685708,46.600379],[35.685707,46.600379],[35.685579,46.600467]]]}},{"type":"Feature","properties":{"cadnum":"2324583901:04:003:0015"},"geometry":{"type":"Polygon","coordinates":[[[35.684927,46.601639],[35.685553,46.602097],[35.685947,46.601868],[35.685314,46.601376],[35.684927,46.601639]]]}},{"type":"Feature","properties":{"cadnum":"2324583901:04:003:0010"},"geometry":{"type":"Polygon","coordinates":[[[35.685318,46.601379],[35.685947,46.601868],[35.686277,46.601547],[35.685715,46.60112],[35.685318,46.601379]]]}},{"type":"Feature","properties":{"cadnum":"2324583901:04:003:0006"},"geometry":{"type":"Polygon","coordinates":[[[35.683366,46.601889],[35.683508,46.601998],[35.683673,46.602123],[35.68368,46.602129],[35.684085,46.602437],[35.684381,46.602249],[35.683651,46.601707],[35.683366,46.601889]]]}},{"type":"Feature","properties":{"cadnum":"2324583901:04:024:0043"},"geometry":{"type":"Polygon","coordinates":[[[35.688844,46.566409],[35.688845,46.56641],[35.688955,46.566518],[35.688956,46.566518],[35.689173,46.566728],[35.689351,46.566901],[35.689578,46.566788],[35.689163,46.5664],[35.68906,46.566303],[35.688844,46.566409]]]}},{"type":"Feature","properties":{"cadnum":"2324583901:04:031:0007"},"geometry":{"type":"Polygon","coordinates":[[[35.671372,46.598965],[35.671434,46.599024],[35.672009,46.599572],[35.672424,46.599942],[35.672521,46.599885],[35.672522,46.599885],[35.672522,46.599886],[35.67266,46.599805],[35.672693,46.599786],[35.672693,46.599785],[35.672841,46.599699],[35.672579,46.599484],[35.672459,46.599371],[35.671862,46.598816],[35.671807,46.598766],[35.671372,46.598965]]]}},{"type":"Feature","properties":{"cadnum":"2324583901:04:031:0010"},"geometry":{"type":"Polygon","coordinates":[[[35.670955,46.599211],[35.671496,46.599701],[35.671923,46.59949],[35.671434,46.599024],[35.671402,46.598993],[35.670955,46.599211]]]}},{"type":"Feature","properties":{"cadnum":"2324583901:04:031:0011"},"geometry":{"type":"Polygon","coordinates":[[[35.671496,46.599701],[35.671986,46.600146],[35.672416,46.599935],[35.672009,46.599572],[35.671923,46.59949],[35.671496,46.599701]]]}},{"type":"Feature","properties":{"cadnum":"2324583901:04:034:0004"},"geometry":{"type":"Polygon","coordinates":[[[35.685466,46.593087],[35.685868,46.593545],[35.68633,46.593341],[35.685927,46.592883],[35.685781,46.592948],[35.685466,46.593087]]]}},{"type":"Feature","properties":{"cadnum":"2324583901:04:011:0012"},"geometry":{"type":"Polygon","coordinates":[[[35.687439,46.596474],[35.687471,46.596604],[35.687471,46.596605],[35.68749,46.596681],[35.6875,46.596723],[35.687501,46.596723],[35.687529,46.596834],[35.687645,46.597083],[35.688015,46.596998],[35.687878,46.596703],[35.687797,46.596528],[35.687659,46.596269],[35.687439,46.596474]]]}},{"type":"Feature","properties":{"cadnum":"2324583901:04:027:0002"},"geometry":{"type":"Polygon","coordinates":[[[35.68622,46.593568],[35.686289,46.593647],[35.686562,46.593944],[35.686857,46.593819],[35.686902,46.593873],[35.68714,46.593775],[35.686748,46.593343],[35.686552,46.593428],[35.68622,46.593568]]]}},{"type":"Feature","properties":{"cadnum":"2324583901:04:034:0011"},"geometry":{"type":"Polygon","coordinates":[[[35.684853,46.592728],[35.684946,46.59283],[35.685047,46.59294],[35.685054,46.592948],[35.685258,46.593169],[35.685686,46.592972],[35.685557,46.59283],[35.685285,46.592529],[35.684853,46.592728]]]}},{"type":"Feature","properties":{"cadnum":"2324583901:04:018:0014"},"geometry":{"type":"Polygon","coordinates":[[[35.687008,46.595718],[35.687498,46.596135],[35.687909,46.59595],[35.687722,46.595741],[35.68747,46.595481],[35.687008,46.595718]]]}},{"type":"Feature","properties":{"cadnum":"2324583901:04:028:0002"},"geometry":{"type":"Polygon","coordinates":[[[35.684663,46.594257],[35.685041,46.594611],[35.684915,46.594675],[35.685149,46.594895],[35.685844,46.595544],[35.686118,46.595374],[35.685422,46.594726],[35.68483,46.594173],[35.684663,46.594257]]]}},{"type":"Feature","properties":{"cadnum":"2324583901:04:034:0002"},"geometry":{"type":"Polygon","coordinates":[[[35.684232,46.592706],[35.684452,46.592948],[35.684453,46.592948],[35.68483,46.59336],[35.685254,46.593165],[35.685054,46.592948],[35.684853,46.592728],[35.684656,46.592512],[35.684232,46.592706]]]}},{"type":"Feature","properties":{"cadnum":"2324583901:04:034:0009"},"geometry":{"type":"Polygon","coordinates":[[[35.685137,46.592367],[35.685557,46.59283],[35.685593,46.592869],[35.685664,46.592948],[35.685665,46.592948],[35.685686,46.592971],[35.685846,46.592893],[35.68609,46.592774],[35.685471,46.59219],[35.685137,46.592367]]]}},{"type":"Feature","properties":{"cadnum":"2324583901:04:018:0011"},"geometry":{"type":"Polygon","coordinates":[[[35.687488,46.595501],[35.687722,46.595741],[35.687909,46.59595],[35.688148,46.595897],[35.688455,46.595851],[35.688466,46.595849],[35.688188,46.595557],[35.688026,46.595384],[35.688023,46.59538],[35.687488,46.595501]]]}},{"type":"Feature","properties":{"cadnum":"2324583901:04:034:0010"},"geometry":{"type":"Polygon","coordinates":[[[35.685258,46.593169],[35.685701,46.593653],[35.686123,46.593458],[35.685906,46.593212],[35.685686,46.592972],[35.685258,46.593169]]]}},{"type":"Feature","properties":{"cadnum":"2324583901:03:027:0002"},"geometry":{"type":"Polygon","coordinates":[[[35.686748,46.593343],[35.68714,46.593775],[35.687417,46.593659],[35.687059,46.59321],[35.686748,46.593343]]]}},{"type":"Feature","properties":{"cadnum":"2324583901:04:018:0010"},"geometry":{"type":"Polygon","coordinates":[[[35.686595,46.59604],[35.687034,46.596411],[35.687498,46.596135],[35.687061,46.595763],[35.686595,46.59604]]]}},{"type":"Feature","properties":{"cadnum":"2324583901:04:034:0007"},"geometry":{"type":"Polygon","coordinates":[[[35.685926,46.591959],[35.686794,46.592793],[35.686753,46.592814],[35.68677,46.59283],[35.686769,46.59283],[35.687003,46.593048],[35.687205,46.592959],[35.687131,46.59288],[35.686971,46.59271],[35.686995,46.592703],[35.686047,46.591908],[35.685926,46.591959]]]}},{"type":"Feature","properties":{"cadnum":"2324583901:04:034:0005"},"geometry":{"type":"Polygon","coordinates":[[[35.68495,46.592501],[35.685343,46.592948],[35.685466,46.593087],[35.685927,46.592883],[35.685411,46.592297],[35.68495,46.592501]]]}},{"type":"Feature","properties":{"cadnum":"2324583901:04:018:0012"},"geometry":{"type":"Polygon","coordinates":[[[35.687048,46.59505],[35.687122,46.595126],[35.687488,46.595501],[35.688023,46.59538],[35.687598,46.594937],[35.687048,46.59505]]]}},{"type":"Feature","properties":{"cadnum":"2324583901:04:018:0009"},"geometry":{"type":"Polygon","coordinates":[[[35.686095,46.595615],[35.686595,46.59604],[35.687061,46.595763],[35.686543,46.595325],[35.686095,46.595615]]]}},{"type":"Feature","properties":{"cadnum":"2324583901:04:018:0013"},"geometry":{"type":"Polygon","coordinates":[[[35.686615,46.595385],[35.687008,46.595718],[35.68747,46.595481],[35.687122,46.595126],[35.686615,46.595385]]]}},{"type":"Feature","properties":{"cadnum":"2324583901:04:034:0008"},"geometry":{"type":"Polygon","coordinates":[[[35.685686,46.592971],[35.685906,46.593212],[35.686123,46.593458],[35.686541,46.593253],[35.686322,46.592993],[35.686202,46.592881],[35.68609,46.592774],[35.685974,46.59283],[35.685846,46.592893],[35.685733,46.592948],[35.685686,46.592971]]]}},{"type":"Feature","properties":{"cadnum":"2324583901:04:034:0003"},"geometry":{"type":"Polygon","coordinates":[[[35.68483,46.59336],[35.685277,46.593847],[35.685701,46.593653],[35.685254,46.593165],[35.68483,46.59336]]]}},{"type":"Feature","properties":{"cadnum":"2324583901:04:033:0003"},"geometry":{"type":"Polygon","coordinates":[[[35.683018,46.59428],[35.68343,46.594716],[35.68368,46.594598],[35.683906,46.594491],[35.68363,46.594225],[35.683462,46.594064],[35.683018,46.59428]]]}},{"type":"Feature","properties":{"cadnum":"2324583901:04:007:0005"},"geometry":{"type":"Polygon","coordinates":[[[35.704508,46.596157],[35.704725,46.596604],[35.704725,46.596605],[35.704724,46.596605],[35.705035,46.597244],[35.705522,46.597144],[35.705318,46.596723],[35.704996,46.596056],[35.704508,46.596157]]]}},{"type":"Feature","properties":{"cadnum":"2324583901:04:006:0007"},"geometry":{"type":"Polygon","coordinates":[[[35.700343,46.596811],[35.700647,46.597842],[35.700893,46.597811],[35.700602,46.596778],[35.700343,46.596811]]]}},{"type":"Feature","properties":{"cadnum":"2324583901:04:007:0023"},"geometry":{"type":"Polygon","coordinates":[[[35.703236,46.596321],[35.703293,46.596604],[35.703293,46.596605],[35.703304,46.596655],[35.703317,46.596723],[35.703318,46.596723],[35.703462,46.597425],[35.704031,46.597293],[35.703808,46.596605],[35.703685,46.596219],[35.703236,46.596321]]]}},{"type":"Feature","properties":{"cadnum":"2324583901:04:006:0010"},"geometry":{"type":"Polygon","coordinates":[[[35.702875,46.597149],[35.702959,46.597551],[35.703367,46.597452],[35.703287,46.597074],[35.702875,46.597149]]]}},{"type":"Feature","properties":{"cadnum":"2324583901:04:006:0011"},"geometry":{"type":"Polygon","coordinates":[[[35.70273,46.596478],[35.702757,46.596604],[35.702757,46.596605],[35.702775,46.596691],[35.702782,46.596723],[35.702875,46.597149],[35.703287,46.597074],[35.703187,46.596605],[35.703142,46.596386],[35.702825,46.596444],[35.702832,46.59646],[35.70273,46.596478]]]}},{"type":"Feature","properties":{"cadnum":"2324583901:04:024:0058"},"geometry":{"type":"Polygon","coordinates":[[[35.701306,46.590409],[35.701443,46.590557],[35.702027,46.590321],[35.701872,46.59018],[35.701306,46.590409]]]}},{"type":"Feature","properties":{"cadnum":"2324583901:04:022:0008"},"geometry":{"type":"Polygon","coordinates":[[[35.702993,46.591725],[35.703312,46.592233],[35.703547,46.592169],[35.703221,46.59165],[35.702993,46.591725]]]}},{"type":"Feature","properties":{"cadnum":"2324583901:04:022:0012"},"geometry":{"type":"Polygon","coordinates":[[[35.703029,46.592985],[35.703411,46.593966],[35.704046,46.593879],[35.703743,46.592871],[35.703743,46.59287],[35.703258,46.592948],[35.703029,46.592985]]]}},{"type":"Feature","properties":{"cadnum":"2324583901:04:020:0008"},"geometry":{"type":"Polygon","coordinates":[[[35.700913,46.59098],[35.701503,46.591634],[35.701825,46.591488],[35.701228,46.590837],[35.700913,46.59098]]]}},{"type":"Feature","properties":{"cadnum":"2324583901:04:021:0012"},"geometry":{"type":"Polygon","coordinates":[[[35.702291,46.592918],[35.702299,46.592948],[35.702301,46.592948],[35.702499,46.593582],[35.703097,46.593513],[35.702832,46.592841],[35.702814,46.592795],[35.702666,46.59283],[35.702291,46.592918]]]}},{"type":"Feature","properties":{"cadnum":"2324583901:04:021:0004"},"geometry":{"type":"Polygon","coordinates":[[[35.699403,46.592794],[35.699435,46.59283],[35.699501,46.592902],[35.699544,46.592948],[35.699853,46.593282],[35.699987,46.593219],[35.700091,46.593169],[35.700159,46.593137],[35.700284,46.593077],[35.700036,46.59283],[35.700035,46.59283],[35.699805,46.592601],[35.699403,46.592794]]]}},{"type":"Feature","properties":{"cadnum":"2324583901:04:025:0015"},"geometry":{"type":"Polygon","coordinates":[[[35.700146,46.591547],[35.700296,46.591696],[35.700627,46.592044],[35.701042,46.591851],[35.700549,46.591359],[35.700146,46.591547]]]}},{"type":"Feature","properties":{"cadnum":"2324583901:04:022:0010"},"geometry":{"type":"Polygon","coordinates":[[[35.70346,46.591895],[35.703637,46.592173],[35.70415,46.592029],[35.703981,46.591752],[35.70346,46.591895]]]}},{"type":"Feature","properties":{"cadnum":"2324583901:04:025:0016"},"geometry":{"type":"Polygon","coordinates":[[[35.69946,46.590868],[35.699987,46.59139],[35.700146,46.591547],[35.700159,46.591542],[35.700159,46.591541],[35.700549,46.591359],[35.699987,46.590796],[35.699888,46.590696],[35.69946,46.590868]]]}},{"type":"Feature","properties":{"cadnum":"2324583901:04:025:0019"},"geometry":{"type":"Polygon","coordinates":[[[35.701603,46.590709],[35.701905,46.590992],[35.70245,46.590713],[35.702148,46.59043],[35.701603,46.590709]]]}},{"type":"Feature","properties":{"cadnum":"2324583901:04:024:0055"},"geometry":{"type":"Polygon","coordinates":[[[35.700144,46.59009],[35.700414,46.590389],[35.700594,46.590318],[35.700303,46.590019],[35.700144,46.59009]]]}},{"type":"Feature","properties":{"cadnum":"2324583901:04:024:0048"},"geometry":{"type":"Polygon","coordinates":[[[35.700917,46.589731],[35.701217,46.590032],[35.701379,46.589962],[35.701075,46.589657],[35.700917,46.589731]]]}},{"type":"Feature","properties":{"cadnum":"2324583901:04:024:0047"},"geometry":{"type":"Polygon","coordinates":[[[35.700557,46.589466],[35.700563,46.589471],[35.700799,46.589699],[35.701009,46.5896],[35.700771,46.589366],[35.700557,46.589466]]]}},{"type":"Feature","properties":{"cadnum":"2324583901:04:020:0002"},"geometry":{"type":"Polygon","coordinates":[[[35.700449,46.590465],[35.700913,46.59098],[35.701228,46.590837],[35.70076,46.590324],[35.700449,46.590465]]]}},{"type":"Feature","properties":{"cadnum":"2324583901:04:024:0029"},"geometry":{"type":"Polygon","coordinates":[[[35.701058,46.590165],[35.701215,46.590309],[35.701766,46.590085],[35.701601,46.589935],[35.701058,46.590165]]]}},{"type":"Feature","properties":{"cadnum":"2324583901:04:024:0034"},"geometry":{"type":"Polygon","coordinates":[[[35.699695,46.58988],[35.699696,46.589882],[35.699928,46.59011],[35.699987,46.590082],[35.699987,46.590083],[35.700143,46.590009],[35.69991,46.589778],[35.699695,46.58988]]]}},{"type":"Feature","properties":{"cadnum":"2324583901:04:024:0039"},"geometry":{"type":"Polygon","coordinates":[[[35.701075,46.589657],[35.701379,46.589962],[35.70155,46.589888],[35.701221,46.589588],[35.701075,46.589657]]]}},{"type":"Feature","properties":{"cadnum":"2324583901:04:024:0020"},"geometry":{"type":"Polygon","coordinates":[[[35.700437,46.589948],[35.700746,46.590237],[35.700594,46.589884],[35.700886,46.590175],[35.701054,46.590103],[35.700756,46.589806],[35.700903,46.590157],[35.700594,46.589868],[35.700437,46.589948]]]}},{"type":"Feature","properties":{"cadnum":"2324583901:04:024:0022"},"geometry":{"type":"Polygon","coordinates":[[[35.699679,46.589552],[35.699908,46.589777],[35.699987,46.589739],[35.699987,46.58974],[35.700119,46.589677],[35.699892,46.589451],[35.699679,46.589552]]]}},{"type":"Feature","properties":{"cadnum":"2324583901:04:025:0022"},"geometry":{"type":"Polygon","coordinates":[[[35.701443,46.590557],[35.701547,46.59067],[35.702147,46.590429],[35.702027,46.590321],[35.701443,46.590557]]]}},{"type":"Feature","properties":{"cadnum":"2324583901:04:024:0042"},"geometry":{"type":"Polygon","coordinates":[[[35.700533,46.589132],[35.700573,46.589173],[35.700574,46.589173],[35.700769,46.589366],[35.700983,46.589575],[35.70109,46.589522],[35.700641,46.589082],[35.700572,46.589114],[35.700533,46.589132]]]}},{"type":"Feature","properties":{"cadnum":"2324583901:04:024:0023"},"geometry":{"type":"Polygon","coordinates":[[[35.69986,46.588994],[35.69992,46.589055],[35.699919,46.589055],[35.700124,46.589261],[35.700159,46.589244],[35.700312,46.58917],[35.700311,46.58917],[35.700048,46.588905],[35.69986,46.588994]]]}},{"type":"Feature","properties":{"cadnum":"2324583901:04:024:0021"},"geometry":{"type":"Polygon","coordinates":[[[35.700356,46.589581],[35.700583,46.589801],[35.700799,46.589699],[35.700572,46.58948],[35.700356,46.589581]]]}},{"type":"Feature","properties":{"cadnum":"2324583901:04:022:0007"},"geometry":{"type":"Polygon","coordinates":[[[35.702283,46.591476],[35.702582,46.591994],[35.702844,46.591873],[35.702544,46.591356],[35.702283,46.591476]]]}},{"type":"Feature","properties":{"cadnum":"2324583901:04:012:0006"},"geometry":{"type":"Polygon","coordinates":[[[35.683401,46.598776],[35.68344,46.598803],[35.683465,46.598808],[35.683472,46.598801],[35.683508,46.598828],[35.683508,46.598829],[35.683535,46.598848],[35.68368,46.598752],[35.68368,46.598751],[35.6837,46.598738],[35.683714,46.598729],[35.683709,46.598725],[35.68365,46.598683],[35.683596,46.598643],[35.683401,46.598776]]]}},{"type":"Feature","properties":{"cadnum":"2324583901:04:029:0015"},"geometry":{"type":"Polygon","coordinates":[[[35.680736,46.59817],[35.680828,46.59826],[35.681126,46.598534],[35.681634,46.598224],[35.681388,46.597992],[35.681286,46.597889],[35.680736,46.59817]]]}},{"type":"Feature","properties":{"cadnum":"2324583901:04:029:0006"},"geometry":{"type":"Polygon","coordinates":[[[35.678473,46.599382],[35.678924,46.599821],[35.679338,46.599574],[35.678888,46.599134],[35.678473,46.599382]]]}},{"type":"Feature","properties":{"cadnum":"2324583901:04:029:0007"},"geometry":{"type":"Polygon","coordinates":[[[35.677944,46.598866],[35.678015,46.598935],[35.678015,46.598936],[35.678473,46.599382],[35.678888,46.599134],[35.678358,46.598619],[35.678114,46.598765],[35.677944,46.598866]]]}},{"type":"Feature","properties":{"cadnum":"2324583901:03:017:0004"},"geometry":{"type":"Polygon","coordinates":[[[35.682018,46.598928],[35.682397,46.599202],[35.682958,46.598835],[35.682577,46.59856],[35.682018,46.598928]]]}},{"type":"Feature","properties":{"cadnum":"2324583901:04:029:0011"},"geometry":{"type":"Polygon","coordinates":[[[35.680299,46.596391],[35.680616,46.596723],[35.680617,46.596723],[35.681145,46.597272],[35.681577,46.597073],[35.681129,46.596605],[35.680729,46.596186],[35.680299,46.596391]]]}},{"type":"Feature","properties":{"cadnum":"2324583901:03:017:0003"},"geometry":{"type":"Polygon","coordinates":[[[35.681912,46.59885],[35.682018,46.598927],[35.682577,46.598559],[35.682471,46.598483],[35.681912,46.59885]]]}},{"type":"Feature","properties":{"cadnum":"2324583901:04:029:0014"},"geometry":{"type":"Polygon","coordinates":[[[35.680376,46.597826],[35.680736,46.59817],[35.681286,46.597889],[35.680937,46.597539],[35.680376,46.597826]]]}},{"type":"Feature","properties":{"cadnum":"2324583901:04:029:0013"},"geometry":{"type":"Polygon","coordinates":[[[35.68083,46.597431],[35.681059,46.597662],[35.681366,46.597474],[35.68115,46.597275],[35.68083,46.597431]]]}},{"type":"Feature","properties":{"cadnum":"2324583901:04:028:0004"},"geometry":{"type":"Polygon","coordinates":[[[35.682026,46.5966],[35.68203,46.596604],[35.68203,46.596605],[35.682084,46.596659],[35.682145,46.596723],[35.682146,46.596723],[35.682356,46.596936],[35.682687,46.596734],[35.682614,46.596664],[35.682364,46.596424],[35.682026,46.5966]]]}},{"type":"Feature","properties":{"cadnum":"2324583901:04:029:0012"},"geometry":{"type":"Polygon","coordinates":[[[35.681059,46.597662],[35.681388,46.597992],[35.681634,46.598224],[35.681974,46.598016],[35.68176,46.597839],[35.681366,46.597474],[35.681059,46.597662]]]}},{"type":"Feature","properties":{"cadnum":"2324583901:04:028:0005"},"geometry":{"type":"Polygon","coordinates":[[[35.682356,46.596936],[35.682699,46.597285],[35.682884,46.597474],[35.683236,46.59726],[35.683177,46.597204],[35.683009,46.597042],[35.682687,46.596734],[35.682356,46.596936]]]}},{"type":"Feature","properties":{"cadnum":"2324583901:04:004:0011"},"geometry":{"type":"Polygon","coordinates":[[[35.682077,46.564433],[35.682243,46.564595],[35.68368,46.563889],[35.683932,46.563765],[35.683764,46.563604],[35.683508,46.563731],[35.682077,46.564433]]]}},{"type":"Feature","properties":{"cadnum":"2324583901:04:011:0010"},"geometry":{"type":"Polygon","coordinates":[[[35.684504,46.598078],[35.685415,46.598811],[35.685821,46.598556],[35.684911,46.597824],[35.684504,46.598078]]]}},{"type":"Feature","properties":{"cadnum":"2324583901:04:004:0014"},"geometry":{"type":"Polygon","coordinates":[[[35.686965,46.599495],[35.687868,46.600121],[35.688034,46.600013],[35.687133,46.599387],[35.686965,46.599495]]]}},{"type":"Feature","properties":{"cadnum":"2324583901:04:011:0009"},"geometry":{"type":"Polygon","coordinates":[[[35.686028,46.598528],[35.687023,46.599167],[35.687248,46.599017],[35.686253,46.598378],[35.686028,46.598528]]]}},{"type":"Feature","properties":{"cadnum":"2324583901:04:011:0014"},"geometry":{"type":"Polygon","coordinates":[[[35.686205,46.597094],[35.686281,46.597181],[35.686529,46.597576],[35.686937,46.597334],[35.686824,46.59711],[35.686686,46.59681],[35.686205,46.597094]]]}},{"type":"Feature","properties":{"cadnum":"2324583901:04:011:0008"},"geometry":{"type":"Polygon","coordinates":[[[35.685947,46.598476],[35.686028,46.598528],[35.686253,46.598378],[35.686173,46.598326],[35.685947,46.598476]]]}},{"type":"Feature","properties":{"cadnum":"2324583901:04:011:0007"},"geometry":{"type":"Polygon","coordinates":[[[35.688301,46.597351],[35.688361,46.597686],[35.688556,46.59767],[35.688498,46.597352],[35.688654,46.597339],[35.688651,46.597321],[35.688301,46.597351]]]}},{"type":"Feature","properties":{"cadnum":"2324583901:04:011:0002"},"geometry":{"type":"Polygon","coordinates":[[[35.688483,46.597178],[35.688485,46.597245],[35.688556,46.597245],[35.688556,46.597237],[35.688603,46.597237],[35.6886,46.597178],[35.688483,46.597178]]]}},{"type":"Feature","properties":{"cadnum":"2324583901:04:004:0012"},"geometry":{"type":"Polygon","coordinates":[[[35.687133,46.599387],[35.688034,46.600013],[35.688277,46.599856],[35.687376,46.599231],[35.687133,46.599387]]]}},{"type":"Feature","properties":{"cadnum":"2324583901:04:011:0013"},"geometry":{"type":"Polygon","coordinates":[[[35.6872,46.597816],[35.687511,46.59811],[35.687901,46.597932],[35.687919,46.597509],[35.6872,46.597816]]]}},{"type":"Feature","properties":{"cadnum":"2324583901:04:007:0004"},"geometry":{"type":"Polygon","coordinates":[[[35.704605,46.594904],[35.704991,46.595839],[35.705279,46.595773],[35.704892,46.59484],[35.704758,46.59487],[35.704605,46.594904]]]}},{"type":"Feature","properties":{"cadnum":"2324583901:04:008:0015"},"geometry":{"type":"Polygon","coordinates":[[[35.70039,46.59547],[35.7004,46.595524],[35.700516,46.596058],[35.701105,46.59599],[35.700966,46.595384],[35.700468,46.595456],[35.70039,46.59547]]]}},{"type":"Feature","properties":{"cadnum":"2324583901:04:007:0026"},"geometry":{"type":"Polygon","coordinates":[[[35.703561,46.594074],[35.703905,46.595045],[35.70419,46.594997],[35.703847,46.594026],[35.703561,46.594074]]]}},{"type":"Feature","properties":{"cadnum":"2324583901:04:007:0032"},"geometry":{"type":"Polygon","coordinates":[[[35.704133,46.593974],[35.704472,46.594934],[35.704758,46.59487],[35.704421,46.593922],[35.704133,46.593974]]]}},{"type":"Feature","properties":{"cadnum":"2324583901:04:007:0010"},"geometry":{"type":"Polygon","coordinates":[[[35.704954,46.594032],[35.705066,46.594216],[35.7054,46.594139],[35.705287,46.593954],[35.704954,46.594032]]]}},{"type":"Feature","properties":{"cadnum":"2324583901:04:007:0020"},"geometry":{"type":"Polygon","coordinates":[[[35.702152,46.595567],[35.702393,46.596393],[35.702747,46.596346],[35.702482,46.595524],[35.702152,46.595567]]]}},{"type":"Feature","properties":{"cadnum":"2324583901:04:007:0022"},"geometry":{"type":"Polygon","coordinates":[[[35.702789,46.595253],[35.70316,46.596262],[35.703406,46.596204],[35.703048,46.595224],[35.702973,46.595232],[35.702789,46.595253]]]}},{"type":"Feature","properties":{"cadnum":"2324583901:04:007:0011"},"geometry":{"type":"Polygon","coordinates":[[[35.703292,46.594185],[35.703586,46.595163],[35.703873,46.595123],[35.703579,46.594144],[35.703292,46.594185]]]}},{"type":"Feature","properties":{"cadnum":"2324583901:04:007:0009"},"geometry":{"type":"Polygon","coordinates":[[[35.704841,46.593846],[35.704954,46.594032],[35.705287,46.593954],[35.705175,46.593769],[35.704841,46.593846]]]}},{"type":"Feature","properties":{"cadnum":"2324583901:04:021:0011"},"geometry":{"type":"Polygon","coordinates":[[[35.702499,46.593582],[35.702644,46.594043],[35.703276,46.593968],[35.703097,46.593513],[35.702499,46.593582]]]}},{"type":"Feature","properties":{"cadnum":"2324583901:04:008:0010"},"geometry":{"type":"Polygon","coordinates":[[[35.699851,46.595594],[35.699959,46.596092],[35.699987,46.596089],[35.700508,46.596023],[35.7004,46.595524],[35.700135,46.595558],[35.699851,46.595594]]]}},{"type":"Feature","properties":{"cadnum":"2324583901:04:007:0033"},"geometry":{"type":"Polygon","coordinates":[[[35.704421,46.593922],[35.704758,46.59487],[35.704892,46.59484],[35.705065,46.594801],[35.705085,46.594797],[35.704675,46.593877],[35.704421,46.593922]]]}},{"type":"Feature","properties":{"cadnum":"2324583901:04:007:0021"},"geometry":{"type":"Polygon","coordinates":[[[35.702042,46.595335],[35.702118,46.595599],[35.702456,46.595548],[35.702376,46.595298],[35.702042,46.595335]]]}},{"type":"Feature","properties":{"cadnum":"2324583901:04:007:0003"},"geometry":{"type":"Polygon","coordinates":[[[35.701579,46.594324],[35.701672,46.594652],[35.702544,46.594555],[35.702447,46.594229],[35.701579,46.594324]]]}},{"type":"Feature","properties":{"cadnum":"2324583901:04:007:0008"},"geometry":{"type":"Polygon","coordinates":[[[35.702733,46.594196],[35.703012,46.595176],[35.7033,46.595137],[35.703021,46.594157],[35.702733,46.594196]]]}},{"type":"Feature","properties":{"cadnum":"2324583901:04:008:0009"},"geometry":{"type":"Polygon","coordinates":[[[35.699959,46.596092],[35.699987,46.59622],[35.70001,46.596323],[35.700075,46.596612],[35.700159,46.596602],[35.700159,46.596601],[35.700627,46.596543],[35.700579,46.596351],[35.700508,46.596023],[35.700159,46.596068],[35.700159,46.596067],[35.699959,46.596092]]]}},{"type":"Feature","properties":{"cadnum":"2324583901:04:021:0005"},"geometry":{"type":"Polygon","coordinates":[[[35.69995,46.593258],[35.699987,46.593307],[35.700022,46.593353],[35.700159,46.593333],[35.700159,46.593332],[35.700564,46.59327],[35.700372,46.593042],[35.700089,46.593187],[35.69995,46.593258]]]}},{"type":"Feature","properties":{"cadnum":"2324583901:04:007:0029"},"geometry":{"type":"Polygon","coordinates":[[[35.703847,46.594026],[35.70419,46.594997],[35.704472,46.594934],[35.704133,46.593974],[35.703847,46.594026]]]}},{"type":"Feature","properties":{"cadnum":"2324583901:04:007:0019"},"geometry":{"type":"Polygon","coordinates":[[[35.702447,46.594229],[35.702726,46.595179],[35.702745,46.595239],[35.703021,46.595208],[35.703012,46.595176],[35.702733,46.594196],[35.702447,46.594229]]]}},{"type":"Feature","properties":{"cadnum":"2324583901:04:007:0027"},"geometry":{"type":"Polygon","coordinates":[[[35.704892,46.59484],[35.705279,46.595773],[35.705451,46.595734],[35.705271,46.595302],[35.705065,46.594801],[35.704892,46.59484]]]}},{"type":"Feature","properties":{"cadnum":"2324583901:04:007:0028"},"geometry":{"type":"Polygon","coordinates":[[[35.70137,46.595407],[35.701562,46.59617],[35.701628,46.596431],[35.701642,46.596493],[35.702194,46.596419],[35.70186,46.595332],[35.70137,46.595407]]]}},{"type":"Feature","properties":{"cadnum":"2324583901:04:014:0006"},"geometry":{"type":"Polygon","coordinates":[[[35.677688,46.602435],[35.678015,46.602701],[35.678099,46.602769],[35.678186,46.60284],[35.678187,46.60284],[35.678197,46.602848],[35.678624,46.602604],[35.678091,46.602202],[35.677688,46.602435]]]}},{"type":"Feature","properties":{"cadnum":"2324583901:04:002:0002"},"geometry":{"type":"Polygon","coordinates":[[[35.679357,46.6045],[35.679526,46.604693],[35.680305,46.604207],[35.680043,46.603981],[35.679765,46.604153],[35.679377,46.604395],[35.679357,46.6045]]]}},{"type":"Feature","properties":{"cadnum":"2324583901:04:003:0003"},"geometry":{"type":"Polygon","coordinates":[[[35.681692,46.602935],[35.681996,46.603169],[35.682674,46.60275],[35.682404,46.602494],[35.681692,46.602935]]]}},{"type":"Feature","properties":{"cadnum":"2324583901:04:002:0003"},"geometry":{"type":"Polygon","coordinates":[[[35.679526,46.604693],[35.679941,46.605165],[35.680933,46.604747],[35.680306,46.604208],[35.680305,46.604207],[35.680202,46.604271],[35.680203,46.604271],[35.679526,46.604693]]]}},{"type":"Feature","properties":{"cadnum":"2324583901:04:014:0005"},"geometry":{"type":"Polygon","coordinates":[[[35.678197,46.602848],[35.678606,46.603181],[35.679051,46.602926],[35.678624,46.602604],[35.678197,46.602848]]]}},{"type":"Feature","properties":{"cadnum":"2324583901:03:015:0005"},"geometry":{"type":"Polygon","coordinates":[[[35.677325,46.601599],[35.67756,46.601796],[35.677862,46.602037],[35.678015,46.601936],[35.678255,46.601778],[35.678106,46.601675],[35.677669,46.601371],[35.677325,46.601599]]]}},{"type":"Feature","properties":{"cadnum":"2324583901:04:032:0004"},"geometry":{"type":"Polygon","coordinates":[[[35.676534,46.596588],[35.676551,46.596604],[35.676551,46.596605],[35.67655,46.596605],[35.676644,46.596698],[35.676668,46.596723],[35.676994,46.597048],[35.677481,46.596809],[35.677305,46.596641],[35.677008,46.596357],[35.676534,46.596588]]]}},{"type":"Feature","properties":{"cadnum":"2324583901:04:031:0004"},"geometry":{"type":"Polygon","coordinates":[[[35.673633,46.597894],[35.673735,46.598002],[35.673965,46.597898],[35.673864,46.597791],[35.673633,46.597894]]]}},{"type":"Feature","properties":{"cadnum":"2324583901:04:031:0005"},"geometry":{"type":"Polygon","coordinates":[[[35.673222,46.598871],[35.673411,46.599039],[35.67371,46.599311],[35.674146,46.599112],[35.674005,46.598977],[35.673676,46.598665],[35.673222,46.598871]]]}},{"type":"Feature","properties":{"cadnum":"2324583901:04:029:0009"},"geometry":{"type":"Polygon","coordinates":[[[35.676629,46.598681],[35.677154,46.599173],[35.677673,46.59893],[35.677148,46.598438],[35.676629,46.598681]]]}},{"type":"Feature","properties":{"cadnum":"2324583901:04:031:0003"},"geometry":{"type":"Polygon","coordinates":[[[35.673735,46.598002],[35.674583,46.598899],[35.674814,46.598797],[35.673965,46.597898],[35.673735,46.598002]]]}},{"type":"Feature","properties":{"cadnum":"2324583901:04:030:0005"},"geometry":{"type":"Polygon","coordinates":[[[35.675151,46.600595],[35.67578,46.601179],[35.676232,46.600936],[35.675758,46.600497],[35.675602,46.600352],[35.675552,46.600379],[35.675551,46.600379],[35.675151,46.600595]]]}},{"type":"Feature","properties":{"cadnum":"2324583901:04:031:0006"},"geometry":{"type":"Polygon","coordinates":[[[35.67266,46.598375],[35.672762,46.598465],[35.673222,46.598871],[35.673676,46.598665],[35.673228,46.59824],[35.67314,46.598155],[35.67266,46.598375]]]}},{"type":"Feature","properties":{"cadnum":"2324583901:04:029:0010"},"geometry":{"type":"Polygon","coordinates":[[[35.676227,46.598303],[35.676629,46.598681],[35.677148,46.598438],[35.676746,46.598061],[35.676227,46.598303]]]}},{"type":"Feature","properties":{"cadnum":"2324583901:04:032:0005"},"geometry":{"type":"Polygon","coordinates":[[[35.676994,46.597048],[35.677474,46.597533],[35.677822,46.597368],[35.677748,46.597305],[35.677718,46.597302],[35.677558,46.597164],[35.677689,46.597087],[35.677655,46.597055],[35.677702,46.597025],[35.677551,46.596876],[35.677481,46.596809],[35.676994,46.597048]]]}},{"type":"Feature","properties":{"cadnum":"2324583901:04:030:0008"},"geometry":{"type":"Polygon","coordinates":[[[35.675493,46.600253],[35.675602,46.600352],[35.675631,46.600379],[35.67563,46.600379],[35.676278,46.600979],[35.676766,46.600669],[35.676502,46.60041],[35.676073,46.599985],[35.675493,46.600253]]]}},{"type":"Feature","properties":{"cadnum":"2324583901:04:033:0004"},"geometry":{"type":"Polygon","coordinates":[[[35.682431,46.593657],[35.683018,46.59428],[35.683462,46.594064],[35.682836,46.593462],[35.682431,46.593657]]]}},{"type":"Feature","properties":{"cadnum":"2324583901:04:032:0011"},"geometry":{"type":"Polygon","coordinates":[[[35.679237,46.595314],[35.679723,46.595779],[35.680166,46.595575],[35.679662,46.595081],[35.679237,46.595314]]]}},{"type":"Feature","properties":{"cadnum":"2324583901:04:032:0010"},"geometry":{"type":"Polygon","coordinates":[[[35.679723,46.595779],[35.679884,46.595932],[35.680199,46.596232],[35.680629,46.596035],[35.680354,46.59576],[35.680166,46.595575],[35.679723,46.595779]]]}},{"type":"Feature","properties":{"cadnum":"2324583901:04:005:0006"},"geometry":{"type":"Polygon","coordinates":[[[35.699263,46.590085],[35.699495,46.590314],[35.69971,46.590213],[35.699478,46.589984],[35.699263,46.590085]]]}},{"type":"Feature","properties":{"cadnum":"2324583901:04:025:0035"},"geometry":{"type":"Polygon","coordinates":[[[35.696872,46.591999],[35.69765,46.59284],[35.698055,46.592644],[35.698068,46.592638],[35.697414,46.591981],[35.697256,46.591823],[35.69723,46.591835],[35.696872,46.591999]]]}},{"type":"Feature","properties":{"cadnum":"2324583901:04:024:0038"},"geometry":{"type":"Polygon","coordinates":[[[35.698606,46.59082],[35.698843,46.591057],[35.699049,46.590969],[35.698805,46.590726],[35.698606,46.59082]]]}},{"type":"Feature","properties":{"cadnum":"2324583901:04:024:0067"},"geometry":{"type":"Polygon","coordinates":[[[35.699054,46.590189],[35.699281,46.590415],[35.699495,46.590314],[35.699266,46.590088],[35.699054,46.590189]]]}},{"type":"Feature","properties":{"cadnum":"2324583901:04:024:0052"},"geometry":{"type":"Polygon","coordinates":[[[35.698805,46.590726],[35.699049,46.590969],[35.699248,46.590883],[35.698999,46.590634],[35.698805,46.590726]]]}},{"type":"Feature","properties":{"cadnum":"2324583901:04:024:0028"},"geometry":{"type":"Polygon","coordinates":[[[35.696627,46.591027],[35.696845,46.591249],[35.697033,46.591162],[35.697062,46.591147],[35.696844,46.590926],[35.696627,46.591027]]]}},{"type":"Feature","properties":{"cadnum":"2324583901:04:024:0062"},"geometry":{"type":"Polygon","coordinates":[[[35.698206,46.59059],[35.698433,46.590815],[35.698546,46.590762],[35.698645,46.590715],[35.69842,46.59049],[35.698206,46.59059]]]}},{"type":"Feature","properties":{"cadnum":"2324583901:04:024:0027"},"geometry":{"type":"Polygon","coordinates":[[[35.699247,46.589755],[35.699479,46.589984],[35.699696,46.589882],[35.699463,46.589651],[35.699247,46.589755]]]}},{"type":"Feature","properties":{"cadnum":"2324583901:04:024:0040"},"geometry":{"type":"Polygon","coordinates":[[[35.697241,46.591446],[35.697447,46.591656],[35.697681,46.591558],[35.697458,46.591341],[35.697241,46.591446]]]}},{"type":"Feature","properties":{"cadnum":"2324583901:04:024:0036"},"geometry":{"type":"Polygon","coordinates":[[[35.698402,46.590916],[35.698634,46.591148],[35.698843,46.591057],[35.698606,46.59082],[35.698402,46.590916]]]}},{"type":"Feature","properties":{"cadnum":"2324583901:04:024:0018"},"geometry":{"type":"Polygon","coordinates":[[[35.698404,46.590164],[35.69863,46.59039],[35.698501,46.590173],[35.698728,46.590391],[35.69894,46.590287],[35.698712,46.590068],[35.69884,46.590288],[35.69884,46.590289],[35.698613,46.590062],[35.698404,46.590164]]]}},{"type":"Feature","properties":{"cadnum":"2324583901:04:024:0054"},"geometry":{"type":"Polygon","coordinates":[[[35.698396,46.589701],[35.698668,46.589964],[35.698846,46.589876],[35.698574,46.589614],[35.698396,46.589701]]]}},{"type":"Feature","properties":{"cadnum":"2324583901:04:006:0008"},"geometry":{"type":"Polygon","coordinates":[[[35.697281,46.590695],[35.697298,46.590713],[35.697514,46.590939],[35.697728,46.59116],[35.697917,46.591071],[35.697728,46.590837],[35.697514,46.590609],[35.697501,46.590595],[35.697281,46.590695]]]}},{"type":"Feature","properties":{"cadnum":"2324583901:04:024:0014"},"geometry":{"type":"Polygon","coordinates":[[[35.698827,46.58996],[35.699054,46.590189],[35.699263,46.590085],[35.699033,46.589859],[35.698827,46.58996]]]}},{"type":"Feature","properties":{"cadnum":"2324583901:04:024:0032"},"geometry":{"type":"Polygon","coordinates":[[[35.699033,46.589859],[35.699263,46.590085],[35.699478,46.589984],[35.699247,46.589755],[35.699033,46.589859]]]}},{"type":"Feature","properties":{"cadnum":"2324583901:04:024:0053"},"geometry":{"type":"Polygon","coordinates":[[[35.696767,46.591672],[35.696959,46.591867],[35.697447,46.591656],[35.697241,46.591446],[35.696767,46.591672]]]}},{"type":"Feature","properties":{"cadnum":"2324583901:04:024:0013"},"geometry":{"type":"Polygon","coordinates":[[[35.698841,46.590288],[35.699067,46.590516],[35.699281,46.590415],[35.699054,46.590188],[35.698841,46.590288]]]}},{"type":"Feature","properties":{"cadnum":"2324583901:04:024:0066"},"geometry":{"type":"Polygon","coordinates":[[[35.699316,46.589257],[35.699588,46.58952],[35.699766,46.589433],[35.699494,46.58917],[35.699316,46.589257]]]}},{"type":"Feature","properties":{"cadnum":"2324583901:04:024:0031"},"geometry":{"type":"Polygon","coordinates":[[[35.697686,46.590051],[35.697958,46.590314],[35.698135,46.590226],[35.697863,46.589964],[35.697686,46.590051]]]}},{"type":"Feature","properties":{"cadnum":"2324583901:04:024:0033"},"geometry":{"type":"Polygon","coordinates":[[[35.695805,46.590944],[35.696067,46.591205],[35.69624,46.591123],[35.695978,46.590862],[35.695805,46.590944]]]}},{"type":"Feature","properties":{"cadnum":"2324583901:04:024:0012"},"geometry":{"type":"Polygon","coordinates":[[[35.698613,46.590062],[35.698841,46.590288],[35.699054,46.590188],[35.698825,46.58996],[35.698613,46.590062]]]}},{"type":"Feature","properties":{"cadnum":"2324583901:04:024:0017"},"geometry":{"type":"Polygon","coordinates":[[[35.699479,46.589984],[35.69971,46.590213],[35.699928,46.59011],[35.699696,46.589882],[35.699479,46.589984]]]}},{"type":"Feature","properties":{"cadnum":"2324583901:04:024:0024"},"geometry":{"type":"Polygon","coordinates":[[[35.696192,46.591232],[35.696411,46.591453],[35.696601,46.591364],[35.696628,46.591351],[35.696409,46.59113],[35.696192,46.591232]]]}},{"type":"Feature","properties":{"cadnum":"2324583901:04:024:0063"},"geometry":{"type":"Polygon","coordinates":[[[35.696498,46.590616],[35.696762,46.590877],[35.697124,46.590705],[35.696868,46.590442],[35.696498,46.590616]]]}},{"type":"Feature","properties":{"cadnum":"2324583901:04:024:0026"},"geometry":{"type":"Polygon","coordinates":[[[35.697567,46.590563],[35.697771,46.590805],[35.698194,46.590596],[35.697978,46.590367],[35.697567,46.590563]]]}},{"type":"Feature","properties":{"cadnum":"2324583901:04:024:0030"},"geometry":{"type":"Polygon","coordinates":[[[35.698041,46.589876],[35.698314,46.590139],[35.698491,46.590051],[35.698218,46.589789],[35.698041,46.589876]]]}},{"type":"Feature","properties":{"cadnum":"2324583901:04:024:0045"},"geometry":{"type":"Polygon","coordinates":[[[35.69706,46.590824],[35.69728,46.591045],[35.697463,46.590959],[35.697497,46.590943],[35.697277,46.590721],[35.69706,46.590824]]]}},{"type":"Feature","properties":{"cadnum":"2324583901:04:024:0049"},"geometry":{"type":"Polygon","coordinates":[[[35.69946,46.5904],[35.699753,46.590699],[35.69991,46.590632],[35.699629,46.590322],[35.69946,46.5904]]]}},{"type":"Feature","properties":{"cadnum":"2324583901:04:024:0016"},"geometry":{"type":"Polygon","coordinates":[[[35.699138,46.589343],[35.699411,46.589605],[35.699588,46.58952],[35.699316,46.589257],[35.699138,46.589343]]]}},{"type":"Feature","properties":{"cadnum":"2324583901:04:024:0059"},"geometry":{"type":"Polygon","coordinates":[[[35.695457,46.591108],[35.695721,46.591369],[35.696067,46.591205],[35.695805,46.590944],[35.695457,46.591108]]]}},{"type":"Feature","properties":{"cadnum":"2324583901:04:024:0064"},"geometry":{"type":"Polygon","coordinates":[[[35.696151,46.59078],[35.696415,46.591041],[35.696588,46.590959],[35.696325,46.590698],[35.696151,46.59078]]]}},{"type":"Feature","properties":{"cadnum":"2324583901:04:025:0020"},"geometry":{"type":"Polygon","coordinates":[[[35.696817,46.591262],[35.697037,46.591484],[35.697252,46.591382],[35.697033,46.591162],[35.696845,46.591249],[35.696817,46.591262]]]}},{"type":"Feature","properties":{"cadnum":"2324583901:04:024:0004"},"geometry":{"type":"Polygon","coordinates":[[[35.699463,46.589651],[35.699696,46.589882],[35.69991,46.589778],[35.699676,46.589548],[35.699463,46.589651]]]}},{"type":"Feature","properties":{"cadnum":"2324583901:04:025:0007"},"geometry":{"type":"Polygon","coordinates":[[[35.695106,46.59227],[35.695252,46.592874],[35.695716,46.592792],[35.695574,46.592187],[35.695106,46.59227]]]}},{"type":"Feature","properties":{"cadnum":"2324583901:04:024:0056"},"geometry":{"type":"Polygon","coordinates":[[[35.695008,46.592065],[35.695172,46.592235],[35.695467,46.592156],[35.695281,46.591965],[35.695264,46.591946],[35.695008,46.592065]]]}},{"type":"Feature","properties":{"cadnum":"2324583901:04:025:0024"},"geometry":{"type":"Polygon","coordinates":[[[35.695524,46.591868],[35.695733,46.592085],[35.695964,46.591999],[35.695803,46.591824],[35.695745,46.591762],[35.695524,46.591868]]]}},{"type":"Feature","properties":{"cadnum":"2324583901:04:024:0037"},"geometry":{"type":"Polygon","coordinates":[[[35.696171,46.591567],[35.696391,46.591789],[35.696606,46.591688],[35.696385,46.591465],[35.696193,46.591555],[35.696171,46.591567]]]}},{"type":"Feature","properties":{"cadnum":"2324583901:04:024:0044"},"geometry":{"type":"Polygon","coordinates":[[[35.694534,46.592008],[35.694666,46.592143],[35.694698,46.592176],[35.694986,46.592044],[35.694824,46.591875],[35.694534,46.592008]]]}},{"type":"Feature","properties":{"cadnum":"2324583901:04:024:0041"},"geometry":{"type":"Polygon","coordinates":[[[35.695803,46.591824],[35.695964,46.591999],[35.696181,46.591902],[35.696023,46.591726],[35.695803,46.591824]]]}},{"type":"Feature","properties":{"cadnum":"2324583901:04:025:0023"},"geometry":{"type":"Polygon","coordinates":[[[35.69508,46.591756],[35.695281,46.591965],[35.695515,46.591858],[35.695314,46.591648],[35.69508,46.591756]]]}},{"type":"Feature","properties":{"cadnum":"2324583901:04:025:0028"},"geometry":{"type":"Polygon","coordinates":[[[35.698068,46.592638],[35.698259,46.59283],[35.698316,46.592887],[35.698377,46.592948],[35.698387,46.592958],[35.698526,46.593097],[35.69856,46.593078],[35.698602,46.593056],[35.698957,46.59286],[35.69885,46.592764],[35.69852,46.592455],[35.698493,46.592427],[35.698098,46.592623],[35.698068,46.592638]]]}},{"type":"Feature","properties":{"cadnum":"2324583901:04:024:0035"},"geometry":{"type":"Polygon","coordinates":[[[35.694824,46.591875],[35.695008,46.592065],[35.695264,46.591946],[35.69508,46.591756],[35.694824,46.591875]]]}},{"type":"Feature","properties":{"cadnum":"2324583901:04:024:0057"},"geometry":{"type":"Polygon","coordinates":[[[35.695281,46.591965],[35.695467,46.592156],[35.695733,46.592085],[35.695524,46.591868],[35.695515,46.591858],[35.695281,46.591965]]]}},{"type":"Feature","properties":{"cadnum":"2324583901:04:024:0015"},"geometry":{"type":"Polygon","coordinates":[[[35.696385,46.591465],[35.696606,46.591688],[35.696822,46.591587],[35.696601,46.591364],[35.696411,46.591453],[35.696385,46.591465]]]}},{"type":"Feature","properties":{"cadnum":"2324583901:04:025:0034"},"geometry":{"type":"Polygon","coordinates":[[[35.69765,46.59284],[35.697748,46.592948],[35.697749,46.592948],[35.697811,46.593015],[35.698103,46.593315],[35.698526,46.593097],[35.698387,46.592958],[35.698316,46.592887],[35.698068,46.592638],[35.698055,46.592644],[35.697671,46.59283],[35.69767,46.59283],[35.69765,46.59284]]]}},{"type":"Feature","properties":{"cadnum":"2324583901:04:025:0029"},"geometry":{"type":"Polygon","coordinates":[[[35.697414,46.591981],[35.698068,46.592638],[35.698098,46.592623],[35.698493,46.592427],[35.697836,46.591781],[35.697433,46.591972],[35.697414,46.591981]]]}},{"type":"Feature","properties":{"cadnum":"2324583901:04:025:0021"},"geometry":{"type":"Polygon","coordinates":[[[35.694576,46.592612],[35.694795,46.59283],[35.695748,46.593776],[35.696279,46.593711],[35.69552,46.592948],[35.695118,46.592543],[35.694576,46.592612]]]}},{"type":"Feature","properties":{"cadnum":"2324583901:04:025:0011"},"geometry":{"type":"Polygon","coordinates":[[[35.69518,46.592301],[35.695684,46.59283],[35.695753,46.592902],[35.695796,46.592948],[35.695797,46.592948],[35.695953,46.593112],[35.696518,46.593704],[35.696952,46.593643],[35.696392,46.59305],[35.696183,46.59283],[35.695607,46.592221],[35.69518,46.592301]]]}},{"type":"Feature","properties":{"cadnum":"2324583901:04:025:0008"},"geometry":{"type":"Polygon","coordinates":[[[35.695252,46.592874],[35.695269,46.592948],[35.69527,46.592948],[35.69546,46.593729],[35.695917,46.593648],[35.695752,46.592948],[35.695716,46.592792],[35.695502,46.59283],[35.695501,46.59283],[35.695254,46.592874],[35.695252,46.592874]]]}},{"type":"Feature","properties":{"cadnum":"2324583901:04:006:0009"},"geometry":{"type":"Polygon","coordinates":[[[35.694698,46.592176],[35.694843,46.592324],[35.695172,46.592235],[35.695008,46.592065],[35.694986,46.592044],[35.694698,46.592176]]]}},{"type":"Feature","properties":{"cadnum":"2324583901:04:025:0014"},"geometry":{"type":"Polygon","coordinates":[[[35.695846,46.592165],[35.696501,46.592827],[35.696503,46.59283],[35.696502,46.59283],[35.696575,46.59291],[35.696609,46.592948],[35.69661,46.592948],[35.696735,46.593085],[35.697234,46.592989],[35.697185,46.59294],[35.696325,46.592073],[35.695846,46.592165]]]}},{"type":"Feature","properties":{"cadnum":"2324583901:04:015:0002"},"geometry":{"type":"Polygon","coordinates":[[[35.674435,46.602355],[35.674883,46.602736],[35.675496,46.602534],[35.675068,46.602147],[35.674435,46.602355]]]}},{"type":"Feature","properties":{"cadnum":"2324583901:04:030:0006"},"geometry":{"type":"Polygon","coordinates":[[[35.67578,46.601179],[35.676218,46.601584],[35.676474,46.601467],[35.676668,46.601342],[35.676232,46.600936],[35.67578,46.601179]]]}},{"type":"Feature","properties":{"cadnum":"2324583901:04:030:0007"},"geometry":{"type":"Polygon","coordinates":[[[35.676278,46.600979],[35.676668,46.601342],[35.677143,46.601041],[35.676766,46.600669],[35.676278,46.600979]]]}},{"type":"Feature","properties":{"cadnum":"2324583901:03:015:0004"},"geometry":{"type":"Polygon","coordinates":[[[35.676978,46.601306],[35.677325,46.601599],[35.677669,46.601371],[35.677293,46.60111],[35.676978,46.601306]]]}},{"type":"Feature","properties":{"cadnum":"2324583901:04:015:0003"},"geometry":{"type":"Polygon","coordinates":[[[35.674883,46.602736],[35.675295,46.603086],[35.67589,46.60289],[35.675496,46.602534],[35.674883,46.602736]]]}},{"type":"Feature","properties":{"cadnum":"2324583901:04:001:0003"},"geometry":{"type":"Polygon","coordinates":[[[35.675487,46.60425],[35.675507,46.604271],[35.675864,46.604638],[35.676442,46.604456],[35.676226,46.604233],[35.676066,46.604067],[35.675794,46.604153],[35.675487,46.60425]]]}},{"type":"Feature","properties":{"cadnum":"2324583901:04:008:0014"},"geometry":{"type":"Polygon","coordinates":[[[35.698189,46.59583],[35.698244,46.596077],[35.698805,46.596026],[35.698782,46.595758],[35.698189,46.59583]]]}},{"type":"Feature","properties":{"cadnum":"2324583901:04:008:0012"},"geometry":{"type":"Polygon","coordinates":[[[35.698106,46.595282],[35.69818,46.595786],[35.698189,46.59583],[35.698782,46.595758],[35.698778,46.595723],[35.698684,46.59521],[35.698106,46.595282]]]}},{"type":"Feature","properties":{"cadnum":"2324583901:04:021:0003"},"geometry":{"type":"Polygon","coordinates":[[[35.698771,46.593538],[35.699008,46.594136],[35.699805,46.594034],[35.699612,46.593411],[35.698873,46.593512],[35.698771,46.593538]]]}},{"type":"Feature","properties":{"cadnum":"2324583901:04:008:0005"},"geometry":{"type":"Polygon","coordinates":[[[35.698244,46.596077],[35.698291,46.596288],[35.698292,46.596295],[35.698846,46.596224],[35.698805,46.596026],[35.698244,46.596077]]]}},{"type":"Feature","properties":{"cadnum":"2324583901:04:008:0003"},"geometry":{"type":"Polygon","coordinates":[[[35.697598,46.595851],[35.697733,46.59635],[35.698291,46.596288],[35.69818,46.595786],[35.697598,46.595851]]]}},{"type":"Feature","properties":{"cadnum":"2324583901:04:008:0020"},"geometry":{"type":"Polygon","coordinates":[[[35.69924,46.595212],[35.699337,46.595644],[35.699844,46.595564],[35.699753,46.595147],[35.69924,46.595212]]]}},{"type":"Feature","properties":{"cadnum":"2324583901:04:008:0004"},"geometry":{"type":"Polygon","coordinates":[[[35.697733,46.59635],[35.697835,46.596723],[35.697877,46.596873],[35.698409,46.596814],[35.698377,46.596674],[35.698291,46.596288],[35.697733,46.59635]]]}},{"type":"Feature","properties":{"cadnum":"2324583901:04:008:0008"},"geometry":{"type":"Polygon","coordinates":[[[35.698839,46.596191],[35.698949,46.596723],[35.69895,46.596723],[35.698955,46.596744],[35.699468,46.596682],[35.699479,46.596681],[35.69935,46.596129],[35.698839,46.596191]]]}},{"type":"Feature","properties":{"cadnum":"2324583901:04:008:0019"},"geometry":{"type":"Polygon","coordinates":[[[35.699117,46.594656],[35.69924,46.595212],[35.699753,46.595147],[35.699631,46.59459],[35.699117,46.594656]]]}},{"type":"Feature","properties":{"cadnum":"2324583901:04:020:0004"},"geometry":{"type":"Polygon","coordinates":[[[35.694353,46.594741],[35.69442,46.59507],[35.694494,46.595061],[35.694494,46.595062],[35.694944,46.595007],[35.694875,46.594678],[35.694666,46.594703],[35.694353,46.594741]]]}},{"type":"Feature","properties":{"cadnum":"2324583901:04:020:0006"},"geometry":{"type":"Polygon","coordinates":[[[35.694889,46.594507],[35.695031,46.595008],[35.695595,46.594937],[35.695453,46.594435],[35.694889,46.594507]]]}},{"type":"Feature","properties":{"cadnum":"2324583901:04:008:0006"},"geometry":{"type":"Polygon","coordinates":[[[35.698292,46.596295],[35.698361,46.596604],[35.698361,46.596605],[35.698376,46.596673],[35.698387,46.596723],[35.698388,46.596723],[35.698409,46.596814],[35.698955,46.596744],[35.698925,46.596605],[35.698846,46.596224],[35.698292,46.596295]]]}},{"type":"Feature","properties":{"cadnum":"2324583901:04:025:0013"},"geometry":{"type":"Polygon","coordinates":[[[35.696735,46.593085],[35.697195,46.59359],[35.697675,46.593498],[35.697315,46.59307],[35.697234,46.592989],[35.696735,46.593085]]]}},{"type":"Feature","properties":{"cadnum":"2324583901:04:007:0007"},"geometry":{"type":"Polygon","coordinates":[[[35.697399,46.595243],[35.697567,46.595854],[35.697598,46.595851],[35.69818,46.595786],[35.698088,46.595165],[35.697399,46.595243]]]}},{"type":"Feature","properties":{"cadnum":"2324583901:04:007:0006"},"geometry":{"type":"Polygon","coordinates":[[[35.69729,46.594845],[35.697399,46.595243],[35.698088,46.595165],[35.698086,46.595139],[35.698009,46.594782],[35.698,46.59475],[35.69729,46.594845]]]}},{"type":"Feature","properties":{"cadnum":"2324583901:04:025:0009"},"geometry":{"type":"Polygon","coordinates":[[[35.69546,46.593729],[35.695511,46.593941],[35.695982,46.593921],[35.695917,46.593648],[35.69546,46.593729]]]}},{"type":"Feature","properties":{"cadnum":"2324583901:04:008:0013"},"geometry":{"type":"Polygon","coordinates":[[[35.698009,46.594782],[35.698086,46.595139],[35.698106,46.595282],[35.698684,46.59521],[35.698652,46.595035],[35.698582,46.594712],[35.698023,46.594781],[35.698009,46.594782]]]}},{"type":"Feature","properties":{"cadnum":"2324583901:04:021:0002"},"geometry":{"type":"Polygon","coordinates":[[[35.699008,46.594136],[35.699143,46.594489],[35.699934,46.594388],[35.699805,46.594034],[35.699008,46.594136]]]}},{"type":"Feature","properties":{"cadnum":"2324583901:04:008:0007"},"geometry":{"type":"Polygon","coordinates":[[[35.698778,46.595723],[35.698805,46.596026],[35.698839,46.596191],[35.69935,46.596129],[35.699242,46.595659],[35.698778,46.595723]]]}},{"type":"Feature","properties":{"cadnum":"2324583901:04:020:0005"},"geometry":{"type":"Polygon","coordinates":[[[35.694463,46.594138],[35.694618,46.594709],[35.694666,46.594703],[35.694848,46.594681],[35.694698,46.594107],[35.694561,46.594125],[35.694463,46.594138]]]}},{"type":"Feature","properties":{"cadnum":"2324583901:04:020:0007"},"geometry":{"type":"Polygon","coordinates":[[[35.694764,46.594066],[35.694889,46.594507],[35.695453,46.594435],[35.695328,46.593994],[35.694764,46.594066]]]}},{"type":"Feature","properties":{"cadnum":"2324583901:04:024:0051"},"geometry":{"type":"Polygon","coordinates":[[[35.693896,46.591847],[35.694163,46.592106],[35.694336,46.592025],[35.694069,46.591765],[35.693896,46.591847]]]}},{"type":"Feature","properties":{"cadnum":"2324583901:04:024:0046"},"geometry":{"type":"Polygon","coordinates":[[[35.693118,46.592184],[35.6934,46.592536],[35.693604,46.592475],[35.693307,46.592107],[35.693118,46.592184]]]}},{"type":"Feature","properties":{"cadnum":"2324583901:04:024:0061"},"geometry":{"type":"Polygon","coordinates":[[[35.693307,46.592107],[35.693604,46.592475],[35.693805,46.592412],[35.69373,46.592312],[35.693498,46.592033],[35.693307,46.592107]]]}},{"type":"Feature","properties":{"cadnum":"2324583901:04:001:0002"},"geometry":{"type":"Polygon","coordinates":[[[35.675864,46.604638],[35.67624,46.605027],[35.676818,46.604845],[35.676442,46.604456],[35.675864,46.604638]]]}},{"type":"Feature","properties":{"cadnum":"2324583901:04:005:0003"},"geometry":{"type":"Polygon","coordinates":[[[35.69565,46.597985],[35.695873,46.598608],[35.696328,46.598542],[35.696277,46.598378],[35.696136,46.597923],[35.69565,46.597985]]]}},{"type":"Feature","properties":{"cadnum":"2324583901:04:005:0004"},"geometry":{"type":"Polygon","coordinates":[[[35.69612,46.597871],[35.696277,46.598378],[35.696801,46.598315],[35.696663,46.597804],[35.69612,46.597871]]]}},{"type":"Feature","properties":{"cadnum":"2324583901:04:005:0002"},"geometry":{"type":"Polygon","coordinates":[[[35.695441,46.597427],[35.695528,46.597727],[35.695566,46.597722],[35.69565,46.597985],[35.696136,46.597923],[35.69612,46.597871],[35.696062,46.597685],[35.695956,46.597367],[35.695441,46.597427]]]}},{"type":"Feature","properties":{"cadnum":"2324583901:04:005:0005"},"geometry":{"type":"Polygon","coordinates":[[[35.695956,46.597367],[35.696062,46.597685],[35.69612,46.597871],[35.696663,46.597804],[35.696605,46.597591],[35.696543,46.597296],[35.695956,46.597367]]]}},{"type":"Feature","properties":{"cadnum":"2324583901:04:025:0017"},"geometry":{"type":"Polygon","coordinates":[[[35.690413,46.593293],[35.690767,46.593772],[35.691179,46.59372],[35.690751,46.593217],[35.690413,46.593293]]]}},{"type":"Feature","properties":{"cadnum":"2324583901:04:019:0003"},"geometry":{"type":"Polygon","coordinates":[[[35.689708,46.594812],[35.689939,46.595414],[35.690063,46.595641],[35.690389,46.595598],[35.690272,46.595322],[35.690101,46.594761],[35.689708,46.594812]]]}},{"type":"Feature","properties":{"cadnum":"2324583901:04:010:0020"},"geometry":{"type":"Polygon","coordinates":[[[35.69264,46.59608],[35.692716,46.596468],[35.693251,46.596386],[35.693161,46.596],[35.69264,46.59608]]]}},{"type":"Feature","properties":{"cadnum":"2324583901:04:010:0013"},"geometry":{"type":"Polygon","coordinates":[[[35.691988,46.595572],[35.692119,46.596108],[35.692634,46.596049],[35.692591,46.595829],[35.692544,46.595508],[35.691988,46.595572]]]}},{"type":"Feature","properties":{"cadnum":"2324583901:04:010:0016"},"geometry":{"type":"Polygon","coordinates":[[[35.692544,46.595508],[35.692591,46.595829],[35.692634,46.596049],[35.692639,46.59608],[35.69264,46.59608],[35.693161,46.596],[35.693032,46.595449],[35.692544,46.595508]]]}},{"type":"Feature","properties":{"cadnum":"2324583901:04:025:0026"},"geometry":{"type":"Polygon","coordinates":[[[35.691445,46.593229],[35.691875,46.593737],[35.69242,46.593678],[35.691998,46.593168],[35.691445,46.593229]]]}},{"type":"Feature","properties":{"cadnum":"2324583901:04:025:0025"},"geometry":{"type":"Polygon","coordinates":[[[35.691875,46.593737],[35.692296,46.594234],[35.692833,46.594175],[35.69242,46.593678],[35.691875,46.593737]]]}},{"type":"Feature","properties":{"cadnum":"2324583901:04:019:0005"},"geometry":{"type":"Polygon","coordinates":[[[35.690639,46.595075],[35.69066,46.595634],[35.691182,46.595581],[35.69116,46.595021],[35.690639,46.595075]]]}},{"type":"Feature","properties":{"cadnum":"2324583901:04:025:0018"},"geometry":{"type":"Polygon","coordinates":[[[35.690767,46.593772],[35.691217,46.594379],[35.691689,46.594319],[35.691179,46.59372],[35.690767,46.593772]]]}},{"type":"Feature","properties":{"cadnum":"2324583901:04:010:0010"},"geometry":{"type":"Polygon","coordinates":[[[35.692119,46.596108],[35.692229,46.596559],[35.692723,46.596505],[35.692634,46.596049],[35.692119,46.596108]]]}},{"type":"Feature","properties":{"cadnum":"2324583901:04:019:0004"},"geometry":{"type":"Polygon","coordinates":[[[35.690616,46.594515],[35.690637,46.595075],[35.69116,46.595021],[35.691137,46.594461],[35.690616,46.594515]]]}}]}