{"type":"FeatureCollection","features":[{"type":"Feature","properties":{"cadnum":"2324981205:06:001:0068"},"geometry":{"type":"Polygon","coordinates":[[[37.168453,47.453976],[37.168501,47.454135],[37.168792,47.454094],[37.170122,47.453885],[37.172155,47.453588],[37.172155,47.453589],[37.173479,47.453395],[37.17443,47.453282],[37.174823,47.453243],[37.17513,47.453241],[37.175881,47.453247],[37.177026,47.45325],[37.177549,47.453224],[37.177648,47.45321],[37.177649,47.45321],[37.177724,47.453198],[37.17782,47.453184],[37.178106,47.453142],[37.179226,47.452989],[37.180502,47.45281],[37.181377,47.452664],[37.18179,47.452545],[37.182354,47.452354],[37.182564,47.452269],[37.182611,47.45225],[37.18293,47.45206],[37.183139,47.451897],[37.183142,47.451895],[37.183142,47.451896],[37.183252,47.451841],[37.183313,47.45181],[37.183437,47.451749],[37.183897,47.45156],[37.184286,47.451433],[37.184673,47.451335],[37.185994,47.451004],[37.18749,47.450677],[37.188807,47.450394],[37.188807,47.450392],[37.190103,47.450114],[37.190461,47.450037],[37.190594,47.449985],[37.190677,47.449893],[37.190697,47.4498],[37.190602,47.44955],[37.189744,47.44778],[37.189661,47.447609],[37.189394,47.447058],[37.189253,47.446767],[37.188638,47.445494],[37.18842,47.445564],[37.188635,47.446007],[37.188635,47.446008],[37.188946,47.446652],[37.189167,47.447108],[37.189437,47.447666],[37.18952,47.447837],[37.190373,47.449597],[37.190455,47.449809],[37.190449,47.449836],[37.190423,47.449864],[37.190364,47.449888],[37.190032,47.449969],[37.189237,47.450169],[37.188635,47.450299],[37.18832,47.450367],[37.188317,47.450367],[37.18785,47.450467],[37.187778,47.450483],[37.187433,47.450557],[37.185934,47.450885],[37.184609,47.451217],[37.184213,47.451317],[37.183808,47.451449],[37.183333,47.451644],[37.183184,47.451719],[37.183013,47.451803],[37.182798,47.451971],[37.182651,47.452059],[37.182501,47.452148],[37.182442,47.452171],[37.182266,47.452243],[37.181712,47.452431],[37.181318,47.452544],[37.18045,47.452671],[37.179179,47.452831],[37.178058,47.452983],[37.17782,47.453019],[37.17782,47.453018],[37.177514,47.453064],[37.17702,47.453088],[37.175884,47.453085],[37.17513,47.453079],[37.174803,47.453082],[37.174392,47.453123],[37.173433,47.453236],[37.172155,47.453423],[37.17007,47.453727],[37.168741,47.453936],[37.168453,47.453976]]]}},{"type":"Feature","properties":{"cadnum":"2324981205:06:001:0067"},"geometry":{"type":"Polygon","coordinates":[[[37.18398,47.450115],[37.184197,47.450483],[37.184198,47.450483],[37.184233,47.450543],[37.184676,47.450427],[37.184452,47.450042],[37.18398,47.450115]]]}},{"type":"Feature","properties":{"cadnum":"2324981205:06:001:0066"},"geometry":{"type":"Polygon","coordinates":[[[37.184233,47.450543],[37.184451,47.450907],[37.184585,47.451123],[37.184587,47.451127],[37.185027,47.451012],[37.185025,47.451008],[37.184857,47.450736],[37.184676,47.450427],[37.184233,47.450543]]]}},{"type":"Feature","properties":{"cadnum":"2324981205:06:001:0070"},"geometry":{"type":"Polygon","coordinates":[[[37.170132,47.45241],[37.170546,47.453652],[37.17075,47.453611],[37.170344,47.452398],[37.170132,47.45241]]]}},{"type":"Feature","properties":{"cadnum":"2324981205:06:001:0069"},"geometry":{"type":"Polygon","coordinates":[[[37.170344,47.452398],[37.17075,47.453611],[37.170952,47.45357],[37.170555,47.452394],[37.170344,47.452398]]]}}]}