{"type":"FeatureCollection","features":[{"type":"Feature","properties":{"cadnum":"2324984003:09:002:0041"},"geometry":{"type":"Polygon","coordinates":[[[36.846126,47.551121],[36.846188,47.551183],[36.846208,47.551174],[36.846233,47.551199],[36.846258,47.551188],[36.846234,47.551165],[36.846234,47.551164],[36.846335,47.551117],[36.846302,47.551085],[36.846337,47.551069],[36.846306,47.551038],[36.846126,47.551121]]]}},{"type":"Feature","properties":{"cadnum":"2324984003:09:002:0042"},"geometry":{"type":"Polygon","coordinates":[[[36.848702,47.546016],[36.848857,47.546048],[36.848873,47.546038],[36.848901,47.54597],[36.848882,47.545962],[36.848741,47.545934],[36.848702,47.546016]]]}}]}