{"type":"FeatureCollection","features":[{"type":"Feature","properties":{"cadnum":"2324583003:05:004:0004"},"geometry":{"type":"Polygon","coordinates":[[[35.426597,46.541921],[35.426957,46.542242],[35.428915,46.541209],[35.428532,46.54089],[35.426597,46.541921]]]}},{"type":"Feature","properties":{"cadnum":"2324583003:05:002:0003"},"geometry":{"type":"Polygon","coordinates":[[[35.423275,46.543585],[35.423424,46.543735],[35.423484,46.543796],[35.423542,46.543854],[35.423639,46.54395],[35.424066,46.543735],[35.425329,46.5431],[35.425426,46.543051],[35.425501,46.543013],[35.42565,46.542938],[35.425329,46.542646],[35.425247,46.542571],[35.425238,46.542577],[35.423275,46.543585]]]}},{"type":"Feature","properties":{"cadnum":"2324583003:05:004:0005"},"geometry":{"type":"Polygon","coordinates":[[[35.426024,46.542224],[35.426385,46.542545],[35.426957,46.542242],[35.426597,46.541921],[35.426265,46.542096],[35.426024,46.542224]]]}},{"type":"Feature","properties":{"cadnum":"2324583003:05:002:0002"},"geometry":{"type":"Polygon","coordinates":[[[35.424146,46.54371],[35.424175,46.543735],[35.424175,46.543736],[35.424303,46.543854],[35.424304,46.543854],[35.424681,46.544197],[35.425501,46.543826],[35.425501,46.543825],[35.425699,46.543735],[35.426803,46.543236],[35.426267,46.542748],[35.425329,46.543174],[35.424146,46.54371]]]}},{"type":"Feature","properties":{"cadnum":"2324583003:05:002:0004"},"geometry":{"type":"Polygon","coordinates":[[[35.425247,46.542571],[35.425501,46.542803],[35.425501,46.542802],[35.42565,46.542938],[35.426157,46.542682],[35.425741,46.542304],[35.425329,46.542527],[35.425247,46.542571]]]}},{"type":"Feature","properties":{"cadnum":"2324583003:05:001:0002"},"geometry":{"type":"Polygon","coordinates":[[[35.426976,46.546722],[35.427251,46.546973],[35.429595,46.545708],[35.429322,46.545456],[35.426976,46.546722]]]}},{"type":"Feature","properties":{"cadnum":"2324583003:05:001:0003"},"geometry":{"type":"Polygon","coordinates":[[[35.426688,46.546451],[35.426976,46.546722],[35.429322,46.545456],[35.429013,46.545196],[35.426688,46.546451]]]}},{"type":"Feature","properties":{"cadnum":"2324583003:05:004:0002"},"geometry":{"type":"Polygon","coordinates":[[[35.431015,46.546629],[35.431317,46.546888],[35.43184,46.546612],[35.432247,46.546958],[35.434087,46.545989],[35.43332,46.545375],[35.431015,46.546629]]]}},{"type":"Feature","properties":{"cadnum":"2324583003:05:004:0003"},"geometry":{"type":"Polygon","coordinates":[[[35.431317,46.546888],[35.431724,46.547234],[35.432247,46.546958],[35.43184,46.546612],[35.431317,46.546888]]]}}]}