{"type":"FeatureCollection","features":[{"type":"Feature","properties":{"cadnum":"2324580901:06:005:0012"},"geometry":{"type":"Polygon","coordinates":[[[35.947241,46.773158],[35.947351,46.773265],[35.947352,46.773265],[35.94755,46.773457],[35.948352,46.773282],[35.948041,46.772981],[35.947241,46.773158]]]}},{"type":"Feature","properties":{"cadnum":"2324580901:06:005:0011"},"geometry":{"type":"Polygon","coordinates":[[[35.946733,46.773271],[35.946985,46.77358],[35.947351,46.773501],[35.947351,46.7735],[35.947352,46.7735],[35.94755,46.773457],[35.947241,46.773158],[35.946733,46.773271]]]}},{"type":"Feature","properties":{"cadnum":"2324580901:06:013:0005"},"geometry":{"type":"Polygon","coordinates":[[[35.904975,46.740057],[35.905176,46.740165],[35.905383,46.739984],[35.905187,46.739879],[35.905182,46.739876],[35.90508,46.739964],[35.905081,46.739964],[35.905081,46.739965],[35.904975,46.740057]]]}},{"type":"Feature","properties":{"cadnum":"2324580901:06:013:0004"},"geometry":{"type":"Polygon","coordinates":[[[35.905182,46.739876],[35.905187,46.739879],[35.905347,46.739964],[35.905383,46.739984],[35.905522,46.739862],[35.906422,46.739072],[35.906222,46.738965],[35.905215,46.739847],[35.905183,46.739875],[35.905182,46.739876]]]}},{"type":"Feature","properties":{"cadnum":"2324580901:05:014:0003"},"geometry":{"type":"Polygon","coordinates":[[[35.911209,46.738842],[35.911256,46.738867],[35.911386,46.738747],[35.911339,46.738723],[35.911209,46.738842]]]}},{"type":"Feature","properties":{"cadnum":"2324580901:05:014:0004"},"geometry":{"type":"Polygon","coordinates":[[[35.911256,46.738867],[35.91274,46.739649],[35.912886,46.739519],[35.911386,46.738747],[35.911256,46.738867]]]}},{"type":"Feature","properties":{"cadnum":"2324580901:06:012:0003"},"geometry":{"type":"Polygon","coordinates":[[[35.909323,46.737626],[35.909369,46.737653],[35.909762,46.737327],[35.909713,46.737303],[35.909323,46.737626]]]}},{"type":"Feature","properties":{"cadnum":"2324580901:06:012:0004"},"geometry":{"type":"Polygon","coordinates":[[[35.908649,46.737837],[35.908728,46.737878],[35.908728,46.737879],[35.909514,46.73829],[35.9097,46.738121],[35.909298,46.737906],[35.908846,46.737659],[35.908649,46.737837]]]}},{"type":"Feature","properties":{"cadnum":"2324580901:06:014:0003"},"geometry":{"type":"Polygon","coordinates":[[[35.910303,46.739448],[35.910541,46.739574],[35.910678,46.73945],[35.910442,46.739326],[35.910303,46.739448]]]}},{"type":"Feature","properties":{"cadnum":"2324580901:06:012:0002"},"geometry":{"type":"Polygon","coordinates":[[[35.909369,46.737653],[35.909889,46.73795],[35.910305,46.737606],[35.909762,46.737327],[35.909369,46.737653]]]}},{"type":"Feature","properties":{"cadnum":"2324580901:06:012:0005"},"geometry":{"type":"Polygon","coordinates":[[[35.909176,46.738846],[35.90967,46.739016],[35.909868,46.738849],[35.910081,46.73861],[35.909676,46.738377],[35.909176,46.738846]]]}},{"type":"Feature","properties":{"cadnum":"2324580901:05:014:0002"},"geometry":{"type":"Polygon","coordinates":[[[35.910911,46.739058],[35.91167,46.739483],[35.912461,46.739906],[35.912562,46.739811],[35.911815,46.739367],[35.91106,46.738946],[35.910911,46.739058]]]}},{"type":"Feature","properties":{"cadnum":"2324580901:06:014:0002"},"geometry":{"type":"Polygon","coordinates":[[[35.909438,46.74022],[35.90967,46.740343],[35.910015,46.740053],[35.910112,46.739964],[35.910541,46.739574],[35.910303,46.739448],[35.909858,46.739847],[35.909857,46.739847],[35.90978,46.739916],[35.909725,46.739964],[35.909725,46.739965],[35.909438,46.74022]]]}},{"type":"Feature","properties":{"cadnum":"2324580901:05:030:0003"},"geometry":{"type":"Polygon","coordinates":[[[35.924826,46.750541],[35.925202,46.750829],[35.925207,46.750825],[35.925207,46.750826],[35.925894,46.750273],[35.925518,46.749984],[35.925207,46.750235],[35.924826,46.750541]]]}},{"type":"Feature","properties":{"cadnum":"2324580901:05:023:0002"},"geometry":{"type":"Polygon","coordinates":[[[35.92116,46.748237],[35.921465,46.748392],[35.921899,46.748006],[35.921577,46.747848],[35.92116,46.748237]]]}},{"type":"Feature","properties":{"cadnum":"2324580901:05:023:0003"},"geometry":{"type":"Polygon","coordinates":[[[35.921577,46.747848],[35.921899,46.748006],[35.922166,46.747769],[35.922532,46.747409],[35.922214,46.747254],[35.922084,46.747375],[35.922037,46.747419],[35.921958,46.747493],[35.921577,46.747848]]]}},{"type":"Feature","properties":{"cadnum":"2324580901:05:003:0002"},"geometry":{"type":"Polygon","coordinates":[[[35.898818,46.733105],[35.899584,46.733552],[35.900652,46.732601],[35.900025,46.732317],[35.899791,46.73221],[35.899675,46.732317],[35.899674,46.732317],[35.898818,46.733105]]]}},{"type":"Feature","properties":{"cadnum":"2324580901:05:025:0002"},"geometry":{"type":"Polygon","coordinates":[[[35.921014,46.74231],[35.921424,46.742533],[35.921988,46.742022],[35.921559,46.741824],[35.921014,46.74231]]]}},{"type":"Feature","properties":{"cadnum":"2324580901:05:025:0003"},"geometry":{"type":"Polygon","coordinates":[[[35.920509,46.742742],[35.920937,46.742973],[35.921424,46.742533],[35.921014,46.74231],[35.920849,46.742457],[35.920509,46.742742]]]}},{"type":"Feature","properties":{"cadnum":"2324580901:06:018:0002"},"geometry":{"type":"Polygon","coordinates":[[[35.94595,46.769604],[35.946021,46.769723],[35.94718,46.769467],[35.94718,46.769468],[35.948015,46.769282],[35.947853,46.769017],[35.947679,46.769055],[35.94777,46.769204],[35.947218,46.769326],[35.94595,46.769604]]]}},{"type":"Feature","properties":{"cadnum":"2324580901:05:009:0005"},"geometry":{"type":"Polygon","coordinates":[[[35.904199,46.7364],[35.904474,46.736533],[35.904775,46.736272],[35.904533,46.736114],[35.904432,46.7362],[35.904433,46.7362],[35.904199,46.7364]]]}},{"type":"Feature","properties":{"cadnum":"2324580901:05:009:0004"},"geometry":{"type":"Polygon","coordinates":[[[35.905644,46.736289],[35.905893,46.736429],[35.906302,46.736089],[35.906428,46.735986],[35.906758,46.735695],[35.906542,46.735572],[35.906137,46.735884],[35.905895,46.736082],[35.905876,46.736098],[35.905752,46.7362],[35.905644,46.736289]]]}},{"type":"Feature","properties":{"cadnum":"2324580901:05:009:0003"},"geometry":{"type":"Polygon","coordinates":[[[35.904846,46.736317],[35.905549,46.736714],[35.905893,46.736429],[35.905644,46.736289],[35.90549,46.7362],[35.905184,46.736022],[35.905116,46.736082],[35.905115,46.736082],[35.904846,46.736317]]]}},{"type":"Feature","properties":{"cadnum":"2324580901:05:023:0005"},"geometry":{"type":"Polygon","coordinates":[[[35.91664,46.745867],[35.916867,46.745988],[35.916974,46.745887],[35.916749,46.745768],[35.91664,46.745867]]]}},{"type":"Feature","properties":{"cadnum":"2324580901:05:018:0004"},"geometry":{"type":"Polygon","coordinates":[[[35.916632,46.745554],[35.916865,46.745663],[35.917698,46.74491],[35.917427,46.744772],[35.916632,46.745554]]]}},{"type":"Feature","properties":{"cadnum":"2324580901:05:023:0006"},"geometry":{"type":"Polygon","coordinates":[[[35.918979,46.747028],[35.919151,46.747131],[35.919714,46.746595],[35.919792,46.746521],[35.919886,46.746431],[35.920171,46.746159],[35.920036,46.746091],[35.919886,46.746224],[35.918979,46.747028]]]}},{"type":"Feature","properties":{"cadnum":"2324580901:05:018:0005"},"geometry":{"type":"Polygon","coordinates":[[[35.91631,46.745871],[35.916517,46.745978],[35.916865,46.745663],[35.916632,46.745554],[35.91631,46.745871]]]}},{"type":"Feature","properties":{"cadnum":"2324580901:05:023:0004"},"geometry":{"type":"Polygon","coordinates":[[[35.916749,46.745768],[35.916974,46.745887],[35.917559,46.745338],[35.917916,46.745025],[35.917698,46.744911],[35.916865,46.745663],[35.916749,46.745768]]]}},{"type":"Feature","properties":{"cadnum":"2324580901:05:016:0032"},"geometry":{"type":"Polygon","coordinates":[[[35.914751,46.739747],[35.914972,46.73987],[35.915865,46.739055],[35.915637,46.738928],[35.914751,46.739747]]]}},{"type":"Feature","properties":{"cadnum":"2324580901:05:016:0002"},"geometry":{"type":"Polygon","coordinates":[[[35.915637,46.738928],[35.915865,46.739055],[35.916202,46.738747],[35.915967,46.738623],[35.915637,46.738928]]]}},{"type":"Feature","properties":{"cadnum":"2324580901:06:026:0003"},"geometry":{"type":"Polygon","coordinates":[[[35.927881,46.757432],[35.9281,46.757609],[35.929318,46.756846],[35.929103,46.756673],[35.927881,46.757432]]]}},{"type":"Feature","properties":{"cadnum":"2324580901:06:026:0004"},"geometry":{"type":"Polygon","coordinates":[[[35.929103,46.756673],[35.929318,46.756846],[35.929987,46.756427],[35.930289,46.75625],[35.93007,46.756073],[35.929103,46.756673]]]}},{"type":"Feature","properties":{"cadnum":"2324580901:05:009:0006"},"geometry":{"type":"Polygon","coordinates":[[[35.903399,46.737084],[35.903662,46.737212],[35.904014,46.736932],[35.904474,46.736533],[35.904199,46.7364],[35.903399,46.737084]]]}},{"type":"Feature","properties":{"cadnum":"2324580901:05:012:0002"},"geometry":{"type":"Polygon","coordinates":[[[35.907633,46.739278],[35.908139,46.739509],[35.908568,46.739125],[35.908061,46.738893],[35.907633,46.739278]]]}},{"type":"Feature","properties":{"cadnum":"2324580901:05:012:0003"},"geometry":{"type":"Polygon","coordinates":[[[35.908061,46.738893],[35.908568,46.739125],[35.908742,46.73897],[35.908274,46.7387],[35.908061,46.738893]]]}},{"type":"Feature","properties":{"cadnum":"2324580901:06:019:0002"},"geometry":{"type":"Polygon","coordinates":[[[35.914256,46.741915],[35.91436,46.741968],[35.914392,46.741938],[35.914393,46.741938],[35.914674,46.74168],[35.914569,46.741626],[35.914256,46.741915]]]}},{"type":"Feature","properties":{"cadnum":"2324580901:06:018:0003"},"geometry":{"type":"Polygon","coordinates":[[[35.91424,46.742437],[35.914254,46.742446],[35.91434,46.742487],[35.914356,46.742495],[35.914392,46.742461],[35.914393,46.742461],[35.914992,46.741884],[35.914875,46.741826],[35.91424,46.742437]]]}},{"type":"Feature","properties":{"cadnum":"2324580901:05:017:0003"},"geometry":{"type":"Polygon","coordinates":[[[35.911543,46.741269],[35.911779,46.741394],[35.911945,46.741245],[35.911712,46.74112],[35.911543,46.741269]]]}},{"type":"Feature","properties":{"cadnum":"2324580901:05:017:0002"},"geometry":{"type":"Polygon","coordinates":[[[35.911712,46.74112],[35.912232,46.7414],[35.912432,46.741252],[35.911905,46.74095],[35.911712,46.74112]]]}},{"type":"Feature","properties":{"cadnum":"2324580901:05:030:0004"},"geometry":{"type":"Polygon","coordinates":[[[35.925518,46.749984],[35.925894,46.750273],[35.926391,46.749872],[35.926016,46.749583],[35.925518,46.749984]]]}}]}