{"type":"FeatureCollection","features":[{"type":"Feature","properties":{"cadnum":"2324582201:05:013:0006"},"geometry":{"type":"Polygon","coordinates":[[[35.868839,46.810173],[35.869093,46.810308],[35.869853,46.809776],[35.869648,46.809604],[35.868839,46.810173]]]}},{"type":"Feature","properties":{"cadnum":"2324582201:05:013:0005"},"geometry":{"type":"Polygon","coordinates":[[[35.867959,46.81079],[35.868248,46.810945],[35.869032,46.810351],[35.869093,46.810308],[35.868839,46.810173],[35.867959,46.81079]]]}},{"type":"Feature","properties":{"cadnum":"2324582201:05:011:0004"},"geometry":{"type":"Polygon","coordinates":[[[35.867023,46.81147],[35.867419,46.811686],[35.867853,46.811405],[35.867679,46.811306],[35.867903,46.811119],[35.867651,46.810981],[35.867312,46.811253],[35.867215,46.811325],[35.867118,46.811399],[35.86706,46.811443],[35.867023,46.81147]]]}},{"type":"Feature","properties":{"cadnum":"2324582201:05:011:0002"},"geometry":{"type":"Polygon","coordinates":[[[35.867857,46.811228],[35.868016,46.811311],[35.868084,46.811249],[35.867926,46.811167],[35.867857,46.811228]]]}},{"type":"Feature","properties":{"cadnum":"2324582201:05:003:0003"},"geometry":{"type":"Polygon","coordinates":[[[35.879265,46.819567],[35.880159,46.820224],[35.880406,46.820064],[35.879485,46.819415],[35.879265,46.819567]]]}},{"type":"Feature","properties":{"cadnum":"2324582201:05:003:0004"},"geometry":{"type":"Polygon","coordinates":[[[35.880159,46.820224],[35.880733,46.820646],[35.880994,46.820477],[35.880406,46.820064],[35.880159,46.820224]]]}},{"type":"Feature","properties":{"cadnum":"2324582201:05:028:0007"},"geometry":{"type":"Polygon","coordinates":[[[35.878747,46.822682],[35.878787,46.82272],[35.878788,46.82272],[35.878973,46.822896],[35.879277,46.822778],[35.879217,46.82272],[35.879042,46.822553],[35.878929,46.822603],[35.878928,46.822603],[35.878747,46.822682]]]}},{"type":"Feature","properties":{"cadnum":"2324582201:05:004:0002"},"geometry":{"type":"Polygon","coordinates":[[[35.860962,46.807333],[35.861012,46.807371],[35.861069,46.807337],[35.861018,46.807298],[35.860962,46.807333]]]}},{"type":"Feature","properties":{"cadnum":"2324582201:05:020:0002"},"geometry":{"type":"Polygon","coordinates":[[[35.873125,46.817387],[35.873365,46.817576],[35.874229,46.817061],[35.873977,46.816862],[35.873125,46.817387]]]}},{"type":"Feature","properties":{"cadnum":"2324582201:05:020:0006"},"geometry":{"type":"Polygon","coordinates":[[[35.874292,46.817023],[35.874504,46.817227],[35.874948,46.81697],[35.874731,46.816762],[35.874292,46.817023]]]}},{"type":"Feature","properties":{"cadnum":"2324582201:05:020:0009"},"geometry":{"type":"Polygon","coordinates":[[[35.871512,46.81535],[35.87187,46.815616],[35.872453,46.815222],[35.872359,46.815154],[35.872097,46.814959],[35.871908,46.815085],[35.871815,46.815147],[35.871732,46.815202],[35.871512,46.81535]]]}},{"type":"Feature","properties":{"cadnum":"2324582201:05:020:0007"},"geometry":{"type":"Polygon","coordinates":[[[35.873365,46.817576],[35.873585,46.817757],[35.874504,46.817227],[35.874292,46.817023],[35.874229,46.817061],[35.873365,46.817576]]]}},{"type":"Feature","properties":{"cadnum":"2324582201:05:020:0005"},"geometry":{"type":"Polygon","coordinates":[[[35.872824,46.817138],[35.873125,46.817387],[35.873785,46.81698],[35.873508,46.81671],[35.872824,46.817138]]]}},{"type":"Feature","properties":{"cadnum":"2324582201:05:024:0002"},"geometry":{"type":"Polygon","coordinates":[[[35.873733,46.818485],[35.874212,46.818883],[35.874643,46.818653],[35.874181,46.81823],[35.873733,46.818485]]]}},{"type":"Feature","properties":{"cadnum":"2324582201:05:020:0003"},"geometry":{"type":"Polygon","coordinates":[[[35.873977,46.816862],[35.874229,46.817061],[35.874731,46.816762],[35.874492,46.816543],[35.873977,46.816862]]]}},{"type":"Feature","properties":{"cadnum":"2324582201:05:020:0008"},"geometry":{"type":"Polygon","coordinates":[[[35.870927,46.815742],[35.871285,46.816004],[35.871618,46.815785],[35.87187,46.815616],[35.871512,46.81535],[35.870927,46.815742]]]}},{"type":"Feature","properties":{"cadnum":"2324582201:05:024:0003"},"geometry":{"type":"Polygon","coordinates":[[[35.874212,46.818883],[35.874213,46.818885],[35.874306,46.818961],[35.875093,46.819615],[35.875472,46.819411],[35.87498,46.818962],[35.87498,46.818961],[35.874643,46.818653],[35.874286,46.818844],[35.874285,46.818844],[35.874213,46.818883],[35.874212,46.818883]]]}},{"type":"Feature","properties":{"cadnum":"2324582201:05:020:0004"},"geometry":{"type":"Polygon","coordinates":[[[35.873508,46.81671],[35.873785,46.81698],[35.873977,46.816862],[35.874449,46.81657],[35.874169,46.816297],[35.873508,46.81671]]]}},{"type":"Feature","properties":{"cadnum":"2324582201:05:022:0002"},"geometry":{"type":"Polygon","coordinates":[[[35.846451,46.81475],[35.846479,46.815202],[35.84648,46.815202],[35.8465,46.815514],[35.848303,46.815459],[35.848441,46.815455],[35.848475,46.815454],[35.848812,46.815443],[35.848796,46.815202],[35.848763,46.81468],[35.848475,46.814689],[35.846451,46.81475]]]}},{"type":"Feature","properties":{"cadnum":"2324582201:05:021:0005"},"geometry":{"type":"Polygon","coordinates":[[[35.877713,46.812365],[35.878133,46.812706],[35.878628,46.812387],[35.878167,46.812062],[35.877713,46.812365]]]}},{"type":"Feature","properties":{"cadnum":"2324582201:05:021:0006"},"geometry":{"type":"Polygon","coordinates":[[[35.876583,46.813122],[35.876982,46.813446],[35.878133,46.812706],[35.877713,46.812365],[35.876583,46.813122]]]}},{"type":"Feature","properties":{"cadnum":"2324582201:05:026:0002"},"geometry":{"type":"Polygon","coordinates":[[[35.884668,46.815579],[35.884725,46.815613],[35.884776,46.815574],[35.884719,46.81554],[35.884668,46.815579]]]}},{"type":"Feature","properties":{"cadnum":"2324582201:05:025:0004"},"geometry":{"type":"Polygon","coordinates":[[[35.880792,46.81648],[35.881262,46.816789],[35.881354,46.81685],[35.881433,46.816809],[35.881433,46.816808],[35.881434,46.816808],[35.88171,46.816664],[35.881434,46.816485],[35.881433,46.816485],[35.881151,46.816302],[35.880914,46.816416],[35.880792,46.81648]]]}},{"type":"Feature","properties":{"cadnum":"2324582201:05:025:0003"},"geometry":{"type":"Polygon","coordinates":[[[35.881354,46.81685],[35.882069,46.817321],[35.882391,46.817106],[35.88171,46.816664],[35.881354,46.81685]]]}},{"type":"Feature","properties":{"cadnum":"2324582201:05:028:0006"},"geometry":{"type":"Polygon","coordinates":[[[35.877725,46.823126],[35.877908,46.823309],[35.878973,46.822896],[35.878747,46.822682],[35.877725,46.823126]]]}},{"type":"Feature","properties":{"cadnum":"2324582201:05:028:0002"},"geometry":{"type":"Polygon","coordinates":[[[35.879667,46.823899],[35.879918,46.824155],[35.879982,46.824127],[35.87973,46.823869],[35.879667,46.823899]]]}},{"type":"Feature","properties":{"cadnum":"2324582201:05:028:0003"},"geometry":{"type":"Polygon","coordinates":[[[35.878851,46.824293],[35.879079,46.824527],[35.879918,46.824155],[35.879667,46.823899],[35.878851,46.824293]]]}},{"type":"Feature","properties":{"cadnum":"2324582201:05:015:0005"},"geometry":{"type":"Polygon","coordinates":[[[35.872044,46.808564],[35.872377,46.808823],[35.872979,46.808441],[35.872652,46.808157],[35.872044,46.808564]]]}},{"type":"Feature","properties":{"cadnum":"2324582201:05:015:0004"},"geometry":{"type":"Polygon","coordinates":[[[35.871418,46.808983],[35.871736,46.809231],[35.872377,46.808823],[35.872044,46.808564],[35.871418,46.808983]]]}},{"type":"Feature","properties":{"cadnum":"2324582201:05:021:0004"},"geometry":{"type":"Polygon","coordinates":[[[35.87472,46.811652],[35.875014,46.811797],[35.875238,46.811639],[35.875559,46.811435],[35.875559,46.811434],[35.875314,46.811266],[35.875222,46.811325],[35.875221,46.811325],[35.875157,46.811367],[35.87504,46.811443],[35.875041,46.811443],[35.87472,46.811652]]]}},{"type":"Feature","properties":{"cadnum":"2324582201:05:015:0002"},"geometry":{"type":"Polygon","coordinates":[[[35.872486,46.809871],[35.872829,46.810117],[35.873447,46.809678],[35.873124,46.809446],[35.872486,46.809871]]]}},{"type":"Feature","properties":{"cadnum":"2324582201:05:015:0003"},"geometry":{"type":"Polygon","coordinates":[[[35.873124,46.809446],[35.873447,46.809678],[35.874107,46.809208],[35.873805,46.808991],[35.873124,46.809446]]]}},{"type":"Feature","properties":{"cadnum":"2324582201:05:016:0004"},"geometry":{"type":"Polygon","coordinates":[[[35.875439,46.809754],[35.875688,46.809927],[35.87594,46.809771],[35.876577,46.809377],[35.876321,46.809199],[35.875769,46.809547],[35.875439,46.809754]]]}},{"type":"Feature","properties":{"cadnum":"2324582201:05:008:0002"},"geometry":{"type":"Polygon","coordinates":[[[35.869935,46.805941],[35.870275,46.80618],[35.870275,46.806181],[35.870306,46.806202],[35.870447,46.806099],[35.870447,46.806098],[35.870647,46.805951],[35.870281,46.805704],[35.869935,46.805941]]]}},{"type":"Feature","properties":{"cadnum":"2324582201:05:025:0008"},"geometry":{"type":"Polygon","coordinates":[[[35.879969,46.817721],[35.880487,46.818063],[35.880914,46.817776],[35.880397,46.817433],[35.879969,46.817721]]]}},{"type":"Feature","properties":{"cadnum":"2324582201:05:022:0003"},"geometry":{"type":"Polygon","coordinates":[[[35.876501,46.810317],[35.876551,46.810356],[35.876607,46.810322],[35.876557,46.810283],[35.876501,46.810317]]]}},{"type":"Feature","properties":{"cadnum":"2324582201:05:016:0005"},"geometry":{"type":"Polygon","coordinates":[[[35.876321,46.809199],[35.876577,46.809377],[35.877289,46.808937],[35.877071,46.808726],[35.876321,46.809199]]]}},{"type":"Feature","properties":{"cadnum":"2324582201:05:022:0009"},"geometry":{"type":"Polygon","coordinates":[[[35.877158,46.809997],[35.877444,46.810221],[35.878399,46.809592],[35.878153,46.8094],[35.877158,46.809997]]]}},{"type":"Feature","properties":{"cadnum":"2324582201:05:022:0008"},"geometry":{"type":"Polygon","coordinates":[[[35.876446,46.810442],[35.876764,46.810668],[35.877444,46.810221],[35.877158,46.809997],[35.876733,46.810252],[35.876446,46.810442]]]}},{"type":"Feature","properties":{"cadnum":"2324582201:05:002:0002"},"geometry":{"type":"Polygon","coordinates":[[[35.858813,46.81446],[35.859289,46.814701],[35.859425,46.814769],[35.859461,46.814735],[35.859461,46.814734],[35.860079,46.81414],[35.859468,46.81383],[35.859289,46.814002],[35.858813,46.81446]]]}},{"type":"Feature","properties":{"cadnum":"2324582201:05:010:0003"},"geometry":{"type":"Polygon","coordinates":[[[35.864385,46.816168],[35.864782,46.816366],[35.864782,46.816367],[35.864833,46.816392],[35.864954,46.816284],[35.865296,46.81598],[35.864856,46.81574],[35.864385,46.816168]]]}},{"type":"Feature","properties":{"cadnum":"2324582201:05:010:0004"},"geometry":{"type":"Polygon","coordinates":[[[35.864856,46.81574],[35.864954,46.815794],[35.864954,46.815793],[35.865296,46.81598],[35.86576,46.815568],[35.865315,46.815324],[35.864856,46.81574]]]}},{"type":"Feature","properties":{"cadnum":"2324582201:05:022:0007"},"geometry":{"type":"Polygon","coordinates":[[[35.859973,46.815198],[35.859981,46.815202],[35.859982,46.815202],[35.860527,46.815482],[35.860889,46.815141],[35.860323,46.814851],[35.860087,46.815085],[35.860086,46.815085],[35.859973,46.815198]]]}},{"type":"Feature","properties":{"cadnum":"2324582201:05:016:0002"},"geometry":{"type":"Polygon","coordinates":[[[35.872101,46.807457],[35.87215,46.807497],[35.872207,46.807463],[35.872157,46.807423],[35.872101,46.807457]]]}},{"type":"Feature","properties":{"cadnum":"2324582201:05:011:0003"},"geometry":{"type":"Polygon","coordinates":[[[35.866841,46.811606],[35.866954,46.811986],[35.867419,46.811686],[35.867023,46.81147],[35.866841,46.811606]]]}},{"type":"Feature","properties":{"cadnum":"2324582201:05:004:0005"},"geometry":{"type":"Polygon","coordinates":[[[35.86361,46.809716],[35.863877,46.809921],[35.864648,46.809326],[35.864369,46.809168],[35.86361,46.809716]]]}},{"type":"Feature","properties":{"cadnum":"2324582201:05:004:0006"},"geometry":{"type":"Polygon","coordinates":[[[35.862855,46.810263],[35.863145,46.810486],[35.863877,46.809921],[35.86361,46.809716],[35.862855,46.810263]]]}},{"type":"Feature","properties":{"cadnum":"2324582201:05:021:0002"},"geometry":{"type":"Polygon","coordinates":[[[35.873871,46.813572],[35.874155,46.813783],[35.874875,46.813283],[35.87459,46.813073],[35.873871,46.813572]]]}},{"type":"Feature","properties":{"cadnum":"2324582201:05:013:0002"},"geometry":{"type":"Polygon","coordinates":[[[35.872924,46.813145],[35.872975,46.813174],[35.873031,46.813131],[35.872982,46.813101],[35.87295,46.813124],[35.872924,46.813145]]]}},{"type":"Feature","properties":{"cadnum":"2324582201:05:003:0006"},"geometry":{"type":"Polygon","coordinates":[[[35.861745,46.814295],[35.862311,46.814608],[35.863044,46.813879],[35.862517,46.813587],[35.861745,46.814295]]]}},{"type":"Feature","properties":{"cadnum":"2324582201:05:022:0006"},"geometry":{"type":"Polygon","coordinates":[[[35.860323,46.814851],[35.860889,46.815141],[35.861247,46.814802],[35.860661,46.814516],[35.860323,46.814851]]]}},{"type":"Feature","properties":{"cadnum":"2324582201:05:003:0005"},"geometry":{"type":"Polygon","coordinates":[[[35.861385,46.814625],[35.861814,46.814839],[35.861986,46.814932],[35.862311,46.814608],[35.861745,46.814295],[35.861385,46.814625]]]}}]}