{"type":"FeatureCollection","features":[{"type":"Feature","properties":{"cadnum":"2324980201:05:002:0025"},"geometry":{"type":"Polygon","coordinates":[[[37.107808,47.455538],[37.107989,47.455713],[37.10893,47.45519],[37.108714,47.455023],[37.108613,47.45508],[37.108742,47.455182],[37.108642,47.45524],[37.108511,47.455138],[37.107808,47.455538]]]}},{"type":"Feature","properties":{"cadnum":"2324980201:05:002:0003"},"geometry":{"type":"Polygon","coordinates":[[[37.109148,47.455216],[37.109298,47.455341],[37.109793,47.455051],[37.109642,47.454935],[37.109148,47.455216]]]}},{"type":"Feature","properties":{"cadnum":"2324980201:05:002:0022"},"geometry":{"type":"Polygon","coordinates":[[[37.105633,47.455279],[37.106237,47.455784],[37.106237,47.455785],[37.10631,47.455845],[37.106409,47.455802],[37.106814,47.455628],[37.106409,47.455289],[37.10609,47.455022],[37.105633,47.455279]]]}},{"type":"Feature","properties":{"cadnum":"2324980201:05:002:0013"},"geometry":{"type":"Polygon","coordinates":[[[37.106182,47.456948],[37.106237,47.457],[37.106357,47.457113],[37.106409,47.457086],[37.107188,47.45669],[37.107006,47.456503],[37.106344,47.456861],[37.106182,47.456948]]]}},{"type":"Feature","properties":{"cadnum":"2324980201:05:001:0006"},"geometry":{"type":"Polygon","coordinates":[[[37.111676,47.457815],[37.111731,47.457865],[37.112592,47.458635],[37.112773,47.458535],[37.112072,47.457912],[37.112072,47.457911],[37.112073,47.457911],[37.111854,47.457717],[37.111712,47.457795],[37.11171,47.457795],[37.111676,47.457815]]]}},{"type":"Feature","properties":{"cadnum":"2324980201:05:001:0021"},"geometry":{"type":"Polygon","coordinates":[[[37.111594,47.457863],[37.111647,47.457911],[37.111649,47.457911],[37.111649,47.457912],[37.111731,47.457985],[37.111883,47.458121],[37.111902,47.458138],[37.11251,47.45868],[37.112592,47.458635],[37.111902,47.458019],[37.111902,47.458018],[37.111783,47.457912],[37.111783,47.457911],[37.111676,47.457815],[37.11161,47.457853],[37.111594,47.457863]]]}},{"type":"Feature","properties":{"cadnum":"2324980201:05:002:0024"},"geometry":{"type":"Polygon","coordinates":[[[37.105741,47.456859],[37.105889,47.457107],[37.106182,47.456948],[37.106237,47.456918],[37.106237,47.456919],[37.106344,47.456861],[37.106409,47.456826],[37.107006,47.456503],[37.107188,47.45669],[37.108187,47.456172],[37.107608,47.455639],[37.107479,47.455526],[37.107356,47.455419],[37.107057,47.455599],[37.106884,47.455626],[37.106361,47.455855],[37.106409,47.455901],[37.106827,47.456296],[37.106827,47.456297],[37.106352,47.456543],[37.105741,47.456859]]]}},{"type":"Feature","properties":{"cadnum":"2324980201:05:002:0001"},"geometry":{"type":"Polygon","coordinates":[[[37.105358,47.456282],[37.105741,47.456859],[37.106237,47.456602],[37.106352,47.456543],[37.106409,47.456513],[37.106827,47.456296],[37.106361,47.455855],[37.105358,47.456282]]]}},{"type":"Feature","properties":{"cadnum":"2324980201:05:001:0026"},"geometry":{"type":"Polygon","coordinates":[[[37.121325,47.454063],[37.121344,47.454081],[37.121354,47.454091],[37.121464,47.454197],[37.121465,47.454197],[37.121597,47.454323],[37.122062,47.454102],[37.121954,47.453961],[37.121801,47.45403],[37.121639,47.453924],[37.121325,47.454063]]]}},{"type":"Feature","properties":{"cadnum":"2324980201:05:001:0076"},"geometry":{"type":"Polygon","coordinates":[[[37.115739,47.453169],[37.116273,47.453608],[37.116762,47.45333],[37.117025,47.45358],[37.117025,47.453581],[37.116553,47.453831],[37.117011,47.454197],[37.117193,47.454343],[37.117224,47.454328],[37.117297,47.45429],[37.117395,47.45424],[37.117395,47.454239],[37.117685,47.45409],[37.117233,47.453689],[37.116383,47.452935],[37.115739,47.453169]]]}},{"type":"Feature","properties":{"cadnum":"2324980201:05:001:0049"},"geometry":{"type":"Polygon","coordinates":[[[37.121875,47.453775],[37.122016,47.453989],[37.122147,47.453973],[37.122257,47.454081],[37.122359,47.454181],[37.12236,47.454182],[37.122466,47.454142],[37.122466,47.454141],[37.122032,47.453723],[37.121875,47.453775]]]}},{"type":"Feature","properties":{"cadnum":"2324980201:05:001:0010"},"geometry":{"type":"Polygon","coordinates":[[[37.121155,47.454141],[37.121216,47.454197],[37.121217,47.454197],[37.12144,47.454398],[37.121597,47.454323],[37.121354,47.454091],[37.121325,47.454063],[37.121285,47.454081],[37.121155,47.454141]]]}},{"type":"Feature","properties":{"cadnum":"2324980201:05:001:0028"},"geometry":{"type":"Polygon","coordinates":[[[37.121028,47.455053],[37.121105,47.455124],[37.121817,47.454781],[37.121737,47.454696],[37.121028,47.455053]]]}},{"type":"Feature","properties":{"cadnum":"2324980201:05:001:0051"},"geometry":{"type":"Polygon","coordinates":[[[37.12159,47.45558],[37.121826,47.455794],[37.122889,47.455362],[37.122889,47.455361],[37.12293,47.455344],[37.122905,47.454952],[37.122767,47.454785],[37.121828,47.455223],[37.121985,47.455383],[37.12159,47.45558]]]}},{"type":"Feature","properties":{"cadnum":"2324980201:05:001:0022"},"geometry":{"type":"Polygon","coordinates":[[[37.118126,47.455746],[37.119074,47.456501],[37.119227,47.456415],[37.118264,47.455649],[37.118126,47.455746]]]}},{"type":"Feature","properties":{"cadnum":"2324980201:05:001:0014"},"geometry":{"type":"Polygon","coordinates":[[[37.12144,47.454398],[37.121574,47.454533],[37.122219,47.454224],[37.12211,47.454139],[37.122062,47.454102],[37.121861,47.454197],[37.121862,47.454197],[37.121597,47.454323],[37.12144,47.454398]]]}},{"type":"Feature","properties":{"cadnum":"2324980201:05:001:0023"},"geometry":{"type":"Polygon","coordinates":[[[37.118679,47.455353],[37.119662,47.456138],[37.119831,47.456006],[37.1189,47.455204],[37.118679,47.455353]]]}},{"type":"Feature","properties":{"cadnum":"2324980201:05:001:0004"},"geometry":{"type":"Polygon","coordinates":[[[37.118264,47.455649],[37.119227,47.456415],[37.119441,47.456294],[37.11846,47.455515],[37.118264,47.455649]]]}},{"type":"Feature","properties":{"cadnum":"2324980201:05:001:0034"},"geometry":{"type":"Polygon","coordinates":[[[37.119479,47.455194],[37.120047,47.455693],[37.120382,47.455546],[37.119789,47.455035],[37.119479,47.455194]]]}},{"type":"Feature","properties":{"cadnum":"2324980201:05:001:0017"},"geometry":{"type":"Polygon","coordinates":[[[37.11846,47.455515],[37.119441,47.456294],[37.119618,47.456193],[37.118621,47.455403],[37.11846,47.455515]]]}},{"type":"Feature","properties":{"cadnum":"2324980201:05:001:0053"},"geometry":{"type":"Polygon","coordinates":[[[37.120035,47.454783],[37.120417,47.455109],[37.120709,47.454929],[37.120332,47.454595],[37.120035,47.454783]]]}},{"type":"Feature","properties":{"cadnum":"2324980201:05:002:0027"},"geometry":{"type":"Polygon","coordinates":[[[37.111037,47.449505],[37.111706,47.450076],[37.111784,47.450019],[37.111136,47.449454],[37.111037,47.449505]]]}},{"type":"Feature","properties":{"cadnum":"2324980201:05:002:0030"},"geometry":{"type":"Polygon","coordinates":[[[37.111348,47.449638],[37.111731,47.449972],[37.111731,47.449973],[37.111784,47.450019],[37.111892,47.449939],[37.111488,47.449568],[37.111348,47.449638]]]}},{"type":"Feature","properties":{"cadnum":"2324980201:05:002:0029"},"geometry":{"type":"Polygon","coordinates":[[[37.110204,47.450154],[37.110439,47.450366],[37.110439,47.450367],[37.111069,47.450935],[37.111336,47.450798],[37.110863,47.450367],[37.110862,47.450367],[37.110459,47.449998],[37.110204,47.450154]]]}},{"type":"Feature","properties":{"cadnum":"2324980201:05:001:0027"},"geometry":{"type":"Polygon","coordinates":[[[37.11124,47.458054],[37.111731,47.458482],[37.111731,47.458483],[37.112165,47.458862],[37.112373,47.458735],[37.111843,47.458274],[37.11146,47.457939],[37.11124,47.458054]]]}},{"type":"Feature","properties":{"cadnum":"2324980201:05:001:0019"},"geometry":{"type":"Polygon","coordinates":[[[37.11125,47.459379],[37.111731,47.459787],[37.111731,47.459788],[37.111887,47.45992],[37.111902,47.459933],[37.111902,47.459934],[37.112168,47.460159],[37.113782,47.459263],[37.112907,47.45846],[37.112773,47.458535],[37.112592,47.458635],[37.11251,47.45868],[37.111845,47.459049],[37.11125,47.459379]]]}},{"type":"Feature","properties":{"cadnum":"2324980201:05:001:0015"},"geometry":{"type":"Polygon","coordinates":[[[37.108802,47.459331],[37.109404,47.459385],[37.110096,47.459927],[37.110466,47.459727],[37.109482,47.458967],[37.108802,47.459331]]]}},{"type":"Feature","properties":{"cadnum":"2324980201:05:001:0195"},"geometry":{"type":"Polygon","coordinates":[[[37.113821,47.457437],[37.114243,47.457795],[37.114242,47.457795],[37.114348,47.457885],[37.114379,47.457911],[37.114379,47.457912],[37.115192,47.458601],[37.115467,47.458465],[37.114688,47.457795],[37.114687,47.457795],[37.114069,47.457263],[37.113821,47.457437]]]}},{"type":"Feature","properties":{"cadnum":"2324980201:05:001:0194"},"geometry":{"type":"Polygon","coordinates":[[[37.113039,47.456789],[37.11334,47.457029],[37.113821,47.457437],[37.114069,47.457263],[37.113623,47.45688],[37.113285,47.456617],[37.113039,47.456789]]]}},{"type":"Feature","properties":{"cadnum":"2324980201:05:001:0038"},"geometry":{"type":"Polygon","coordinates":[[[37.111898,47.456334],[37.112177,47.456567],[37.112775,47.456239],[37.112507,47.456015],[37.111898,47.456334]]]}},{"type":"Feature","properties":{"cadnum":"2324980201:05:001:0056"},"geometry":{"type":"Polygon","coordinates":[[[37.114945,47.455095],[37.115168,47.455271],[37.115695,47.455006],[37.11544,47.454821],[37.114945,47.455095]]]}},{"type":"Feature","properties":{"cadnum":"2324980201:05:001:0039"},"geometry":{"type":"Polygon","coordinates":[[[37.114411,47.454671],[37.114715,47.454914],[37.115181,47.454633],[37.114853,47.454399],[37.114411,47.454671]]]}},{"type":"Feature","properties":{"cadnum":"2324980201:05:001:0007"},"geometry":{"type":"Polygon","coordinates":[[[37.111854,47.457716],[37.111943,47.457795],[37.111942,47.457795],[37.112047,47.457888],[37.112073,47.457911],[37.112073,47.457912],[37.112773,47.458535],[37.112907,47.45846],[37.11229,47.457912],[37.11229,47.457911],[37.112291,47.457911],[37.111988,47.457641],[37.111854,47.457716]]]}},{"type":"Feature","properties":{"cadnum":"2324980201:05:001:0050"},"geometry":{"type":"Polygon","coordinates":[[[37.114715,47.454914],[37.114945,47.455095],[37.11544,47.454821],[37.115181,47.454633],[37.114715,47.454914]]]}},{"type":"Feature","properties":{"cadnum":"2324980201:05:002:0014"},"geometry":{"type":"Polygon","coordinates":[[[37.109052,47.450745],[37.10996,47.451495],[37.110216,47.451358],[37.109303,47.450611],[37.109052,47.450745]]]}},{"type":"Feature","properties":{"cadnum":"2324980201:05:002:0021"},"geometry":{"type":"Polygon","coordinates":[[[37.108897,47.451006],[37.109724,47.451675],[37.109991,47.451521],[37.10996,47.451495],[37.109178,47.450849],[37.108897,47.451006]]]}},{"type":"Feature","properties":{"cadnum":"2324980201:05:001:0009"},"geometry":{"type":"Polygon","coordinates":[[[37.122644,47.453471],[37.122717,47.453672],[37.122717,47.453673],[37.122787,47.453866],[37.122706,47.453887],[37.122717,47.453907],[37.122717,47.453908],[37.12281,47.454081],[37.122809,47.454081],[37.122869,47.454192],[37.12287,47.454194],[37.122889,47.454118],[37.122974,47.453773],[37.122887,47.45328],[37.122644,47.453471]]]}},{"type":"Feature","properties":{"cadnum":"2324980201:05:002:0041"},"geometry":{"type":"Polygon","coordinates":[[[37.117252,47.44907],[37.117395,47.449203],[37.117396,47.449203],[37.117606,47.449397],[37.118026,47.449186],[37.117854,47.449028],[37.1177,47.449113],[37.117582,47.449005],[37.117582,47.449004],[37.117736,47.448919],[37.117657,47.448847],[37.117252,47.44907]]]}},{"type":"Feature","properties":{"cadnum":"2324980201:05:001:0031"},"geometry":{"type":"Polygon","coordinates":[[[37.121187,47.453562],[37.121315,47.453702],[37.121388,47.453676],[37.12142,47.453713],[37.121313,47.453749],[37.121487,47.453941],[37.121601,47.453904],[37.121274,47.453519],[37.121187,47.453562]]]}},{"type":"Feature","properties":{"cadnum":"2324980201:05:001:0029"},"geometry":{"type":"Polygon","coordinates":[[[37.122316,47.453639],[37.122544,47.453929],[37.122706,47.453887],[37.122533,47.453548],[37.122316,47.453639]]]}},{"type":"Feature","properties":{"cadnum":"2324980201:05:001:0048"},"geometry":{"type":"Polygon","coordinates":[[[37.122115,47.452482],[37.122506,47.452772],[37.122744,47.452649],[37.122404,47.452343],[37.122379,47.452355],[37.122115,47.452482]]]}},{"type":"Feature","properties":{"cadnum":"2324980201:05:001:0052"},"geometry":{"type":"Polygon","coordinates":[[[37.121775,47.452164],[37.122115,47.452482],[37.122379,47.452355],[37.122231,47.452215],[37.122132,47.452265],[37.122013,47.452157],[37.122116,47.452105],[37.122038,47.452032],[37.121775,47.452164]]]}},{"type":"Feature","properties":{"cadnum":"2324980201:05:001:0003"},"geometry":{"type":"Polygon","coordinates":[[[37.120412,47.453353],[37.120634,47.45354],[37.120814,47.45366],[37.121082,47.453506],[37.120696,47.453199],[37.120412,47.453353]]]}},{"type":"Feature","properties":{"cadnum":"2324980201:05:001:0117"},"geometry":{"type":"Polygon","coordinates":[[[37.122167,47.451051],[37.122439,47.451313],[37.122666,47.451186],[37.122717,47.451158],[37.122977,47.451014],[37.122826,47.4509],[37.122667,47.450778],[37.12237,47.450941],[37.122167,47.451051]]]}},{"type":"Feature","properties":{"cadnum":"2324980201:05:001:0018"},"geometry":{"type":"Polygon","coordinates":[[[37.117949,47.453293],[37.118073,47.453396],[37.118893,47.453001],[37.118786,47.452893],[37.117949,47.453293]]]}},{"type":"Feature","properties":{"cadnum":"2324980201:05:001:0035"},"geometry":{"type":"Polygon","coordinates":[[[37.119046,47.450952],[37.119136,47.451037],[37.119783,47.45072],[37.119682,47.450629],[37.119046,47.450952]]]}},{"type":"Feature","properties":{"cadnum":"2324980201:05:001:0024"},"geometry":{"type":"Polygon","coordinates":[[[37.117627,47.453013],[37.117731,47.453109],[37.118581,47.45268],[37.118468,47.45258],[37.118443,47.452594],[37.117627,47.453013]]]}},{"type":"Feature","properties":{"cadnum":"2324980201:05:001:0016"},"geometry":{"type":"Polygon","coordinates":[[[37.11829,47.452283],[37.118572,47.452518],[37.119077,47.452242],[37.118794,47.452001],[37.118429,47.452208],[37.11829,47.452283]]]}},{"type":"Feature","properties":{"cadnum":"2324980201:05:001:0025"},"geometry":{"type":"Polygon","coordinates":[[[37.120889,47.453713],[37.121226,47.45405],[37.121487,47.453941],[37.121313,47.453749],[37.121156,47.453579],[37.120889,47.453713]]]}},{"type":"Feature","properties":{"cadnum":"2324980201:05:001:0032"},"geometry":{"type":"Polygon","coordinates":[[[37.122404,47.452342],[37.122576,47.452499],[37.122717,47.452428],[37.122717,47.452429],[37.122737,47.452418],[37.122855,47.452526],[37.122695,47.452607],[37.122717,47.452626],[37.122744,47.452649],[37.122889,47.452577],[37.122889,47.452576],[37.12308,47.45248],[37.122887,47.452135],[37.122616,47.452239],[37.122404,47.452342]]]}},{"type":"Feature","properties":{"cadnum":"2324980201:05:001:0012"},"geometry":{"type":"Polygon","coordinates":[[[37.117731,47.453109],[37.117862,47.45322],[37.118684,47.452801],[37.118582,47.45268],[37.117731,47.453109]]]}},{"type":"Feature","properties":{"cadnum":"2324980201:05:001:0011"},"geometry":{"type":"Polygon","coordinates":[[[37.118572,47.452518],[37.118695,47.45262],[37.119186,47.452335],[37.119077,47.452242],[37.118572,47.452518]]]}},{"type":"Feature","properties":{"cadnum":"2324980201:05:002:0196"},"geometry":{"type":"Polygon","coordinates":[[[37.099878,47.455595],[37.100371,47.456048],[37.100382,47.456043],[37.100492,47.456144],[37.100708,47.456037],[37.100598,47.455936],[37.100476,47.455933],[37.100117,47.455478],[37.099878,47.455595]]]}},{"type":"Feature","properties":{"cadnum":"2324980201:05:001:0037"},"geometry":{"type":"Polygon","coordinates":[[[37.122493,47.449401],[37.122563,47.449475],[37.122717,47.449415],[37.122717,47.449416],[37.122858,47.449361],[37.122839,47.449267],[37.122493,47.449401]]]}},{"type":"Feature","properties":{"cadnum":"2324980201:05:001:0020"},"geometry":{"type":"Polygon","coordinates":[[[37.122646,47.449563],[37.122717,47.449655],[37.122745,47.449691],[37.122889,47.449648],[37.122923,47.449637],[37.122871,47.449462],[37.122646,47.449563]]]}},{"type":"Feature","properties":{"cadnum":"2324980201:05:001:0040"},"geometry":{"type":"Polygon","coordinates":[[[37.122427,47.449333],[37.122493,47.449401],[37.122717,47.449314],[37.122717,47.449315],[37.122839,47.449267],[37.12282,47.44914],[37.122427,47.449333]]]}},{"type":"Feature","properties":{"cadnum":"2324980201:05:002:0002"},"geometry":{"type":"Polygon","coordinates":[[[37.121,47.445808],[37.121788,47.446645],[37.121963,47.446565],[37.121267,47.44584],[37.121172,47.445742],[37.121,47.445808]]]}},{"type":"Feature","properties":{"cadnum":"2324980201:05:002:0010"},"geometry":{"type":"Polygon","coordinates":[[[37.119646,47.446427],[37.119854,47.446652],[37.119859,47.446658],[37.119961,47.446768],[37.120422,47.447267],[37.120646,47.447164],[37.120272,47.446768],[37.11988,47.446353],[37.119646,47.446427]]]}},{"type":"Feature","properties":{"cadnum":"2324980201:05:002:0008"},"geometry":{"type":"Polygon","coordinates":[[[37.12044,47.446078],[37.121023,47.446652],[37.121131,47.446758],[37.121141,47.446768],[37.121259,47.446884],[37.121446,47.446799],[37.121398,47.446753],[37.120615,47.445996],[37.12044,47.446078]]]}},{"type":"Feature","properties":{"cadnum":"2324980201:05:002:0011"},"geometry":{"type":"Polygon","coordinates":[[[37.118935,47.446711],[37.11899,47.446768],[37.118991,47.446768],[37.119766,47.447566],[37.119985,47.447466],[37.119324,47.446768],[37.119207,47.446644],[37.119174,47.446652],[37.118935,47.446711]]]}},{"type":"Feature","properties":{"cadnum":"2324980201:05:002:0020"},"geometry":{"type":"Polygon","coordinates":[[[37.120811,47.445905],[37.121565,47.446652],[37.121629,47.446715],[37.121813,47.446631],[37.121004,47.445815],[37.120811,47.445905]]]}},{"type":"Feature","properties":{"cadnum":"2324980201:05:002:0019"},"geometry":{"type":"Polygon","coordinates":[[[37.120615,47.445996],[37.121293,47.446652],[37.121398,47.446753],[37.121413,47.446768],[37.121446,47.446799],[37.121629,47.446715],[37.120811,47.445905],[37.120615,47.445996]]]}},{"type":"Feature","properties":{"cadnum":"2324980201:05:002:0009"},"geometry":{"type":"Polygon","coordinates":[[[37.120259,47.446162],[37.120858,47.446768],[37.120859,47.446768],[37.121063,47.446974],[37.121259,47.446884],[37.121131,47.446758],[37.12044,47.446078],[37.120259,47.446162]]]}},{"type":"Feature","properties":{"cadnum":"2324980201:05:002:0038"},"geometry":{"type":"Polygon","coordinates":[[[37.121959,47.446718],[37.122009,47.446768],[37.122217,47.446975],[37.122349,47.447148],[37.122411,47.447141],[37.122268,47.446674],[37.122242,47.446588],[37.122104,47.446652],[37.122103,47.446652],[37.121959,47.446718]]]}},{"type":"Feature","properties":{"cadnum":"2324980201:05:002:0026"},"geometry":{"type":"Polygon","coordinates":[[[37.119207,47.446644],[37.119215,47.446652],[37.119214,47.446652],[37.119458,47.446908],[37.119689,47.446819],[37.11964,47.446768],[37.119422,47.446538],[37.119207,47.446644]]]}},{"type":"Feature","properties":{"cadnum":"2324980201:05:001:0196"},"geometry":{"type":"Polygon","coordinates":[[[37.115397,47.453737],[37.115676,47.453962],[37.116164,47.453688],[37.115883,47.453461],[37.115397,47.453737]]]}},{"type":"Feature","properties":{"cadnum":"2324980201:05:002:0045"},"geometry":{"type":"Polygon","coordinates":[[[37.113132,47.45121],[37.113467,47.451479],[37.113886,47.451265],[37.113565,47.450982],[37.113132,47.45121]]]}},{"type":"Feature","properties":{"cadnum":"2324980201:05:002:0039"},"geometry":{"type":"Polygon","coordinates":[[[37.113522,47.452443],[37.113656,47.452572],[37.114185,47.452248],[37.114048,47.45215],[37.113813,47.452287],[37.113714,47.452379],[37.113632,47.452423],[37.113522,47.452443]]]}},{"type":"Feature","properties":{"cadnum":"2324980201:05:002:0028"},"geometry":{"type":"Polygon","coordinates":[[[37.113117,47.452408],[37.113202,47.452472],[37.113892,47.452029],[37.113843,47.451988],[37.113117,47.452408]]]}},{"type":"Feature","properties":{"cadnum":"2324980201:05:002:0004"},"geometry":{"type":"Polygon","coordinates":[[[37.105317,47.45544],[37.105906,47.456018],[37.10631,47.455845],[37.105633,47.455279],[37.105317,47.45544]]]}},{"type":"Feature","properties":{"cadnum":"2324980201:05:002:0016"},"geometry":{"type":"Polygon","coordinates":[[[37.120896,47.448475],[37.12101,47.448571],[37.12137,47.448404],[37.121251,47.44831],[37.120896,47.448475]]]}},{"type":"Feature","properties":{"cadnum":"2324980201:05:002:0190"},"geometry":{"type":"Polygon","coordinates":[[[37.121749,47.448883],[37.121845,47.448999],[37.122311,47.448799],[37.122217,47.448671],[37.121749,47.448883]]]}},{"type":"Feature","properties":{"cadnum":"2324980201:05:001:0058"},"geometry":{"type":"Polygon","coordinates":[[[37.120323,47.450161],[37.120515,47.450325],[37.120585,47.450294],[37.12061,47.450289],[37.120658,47.450278],[37.120684,47.450272],[37.120809,47.450212],[37.121023,47.450073],[37.120909,47.449991],[37.120851,47.450028],[37.120822,47.449999],[37.120752,47.45003],[37.120444,47.450095],[37.120323,47.450161]]]}},{"type":"Feature","properties":{"cadnum":"2324980201:05:002:0006"},"geometry":{"type":"Polygon","coordinates":[[[37.118027,47.448644],[37.1184,47.448996],[37.118559,47.448916],[37.118181,47.448559],[37.118027,47.448644]]]}},{"type":"Feature","properties":{"cadnum":"2324980201:05:001:0041"},"geometry":{"type":"Polygon","coordinates":[[[37.121509,47.449679],[37.12179,47.449906],[37.121907,47.449846],[37.122073,47.449968],[37.122222,47.449841],[37.121845,47.449508],[37.121509,47.449679]]]}},{"type":"Feature","properties":{"cadnum":"2324980201:05:001:0033"},"geometry":{"type":"Polygon","coordinates":[[[37.120945,47.44997],[37.121248,47.450272],[37.121558,47.450175],[37.121442,47.450057],[37.121314,47.450122],[37.121203,47.450009],[37.12133,47.449946],[37.12122,47.449833],[37.120945,47.44997]]]}},{"type":"Feature","properties":{"cadnum":"2324980201:05:002:0007"},"geometry":{"type":"Polygon","coordinates":[[[37.118676,47.44683],[37.119545,47.447668],[37.119766,47.447566],[37.118935,47.446711],[37.118676,47.44683]]]}},{"type":"Feature","properties":{"cadnum":"2324980201:05:002:0042"},"geometry":{"type":"Polygon","coordinates":[[[37.121585,47.446889],[37.121983,47.447282],[37.122172,47.447198],[37.121773,47.446802],[37.121585,47.446889]]]}},{"type":"Feature","properties":{"cadnum":"2324980201:05:002:0031"},"geometry":{"type":"Polygon","coordinates":[[[37.118687,47.447444],[37.119109,47.447871],[37.119332,47.447776],[37.118897,47.447344],[37.118687,47.447444]]]}},{"type":"Feature","properties":{"cadnum":"2324980201:05:002:0017"},"geometry":{"type":"Polygon","coordinates":[[[37.121641,47.447481],[37.121986,47.447839],[37.122182,47.447757],[37.121821,47.447391],[37.121641,47.447481]]]}},{"type":"Feature","properties":{"cadnum":"2324980201:05:001:0036"},"geometry":{"type":"Polygon","coordinates":[[[37.12179,47.449906],[37.122104,47.450158],[37.122384,47.449976],[37.122222,47.449841],[37.122073,47.449968],[37.121907,47.449846],[37.12179,47.449906]]]}},{"type":"Feature","properties":{"cadnum":"2324980201:05:002:0015"},"geometry":{"type":"Polygon","coordinates":[[[37.121412,47.446968],[37.121809,47.44736],[37.121983,47.447282],[37.121585,47.446889],[37.121412,47.446968]]]}},{"type":"Feature","properties":{"cadnum":"2324980201:05:002:0023"},"geometry":{"type":"Polygon","coordinates":[[[37.121294,47.447655],[37.121612,47.447995],[37.121792,47.44792],[37.121462,47.447572],[37.121294,47.447655]]]}},{"type":"Feature","properties":{"cadnum":"2324980201:05:002:0018"},"geometry":{"type":"Polygon","coordinates":[[[37.1186,47.449429],[37.118791,47.449597],[37.11939,47.449291],[37.119207,47.449121],[37.1186,47.449429]]]}},{"type":"Feature","properties":{"cadnum":"2324980201:05:001:0192"},"geometry":{"type":"Polygon","coordinates":[[[37.121649,47.449023],[37.121794,47.449153],[37.122446,47.448832],[37.122366,47.448704],[37.121826,47.448942],[37.121649,47.449023]]]}},{"type":"Feature","properties":{"cadnum":"2324980201:05:002:0037"},"geometry":{"type":"Polygon","coordinates":[[[37.121458,47.44822],[37.121924,47.448731],[37.122088,47.448653],[37.121627,47.448149],[37.121458,47.44822]]]}},{"type":"Feature","properties":{"cadnum":"2324980201:05:002:0012"},"geometry":{"type":"Polygon","coordinates":[[[37.119347,47.447934],[37.119701,47.44829],[37.119791,47.448245],[37.119726,47.448187],[37.119726,47.448186],[37.119819,47.448144],[37.11952,47.447854],[37.119347,47.447934]]]}}]}