{"type":"FeatureCollection","features":[{"type":"Feature","properties":{"cadnum":"2325281204:01:001:0024"},"geometry":{"type":"Polygon","coordinates":[[[35.671555,47.300278],[35.672312,47.300339],[35.6724,47.299959],[35.67162,47.299896],[35.671555,47.300278]]]}},{"type":"Feature","properties":{"cadnum":"2325281204:01:001:0023"},"geometry":{"type":"Polygon","coordinates":[[[35.670786,47.300215],[35.671555,47.300278],[35.67162,47.299896],[35.670852,47.299834],[35.670786,47.300215]]]}},{"type":"Feature","properties":{"cadnum":"2325281204:01:001:0016"},"geometry":{"type":"Polygon","coordinates":[[[35.674854,47.297677],[35.675625,47.29773],[35.675699,47.297335],[35.674925,47.29731],[35.674854,47.297677]]]}},{"type":"Feature","properties":{"cadnum":"2325281204:01:001:0033"},"geometry":{"type":"Polygon","coordinates":[[[35.672817,47.29602],[35.673947,47.296111],[35.673983,47.295904],[35.672853,47.295812],[35.672817,47.29602]]]}},{"type":"Feature","properties":{"cadnum":"2325281204:01:001:0020"},"geometry":{"type":"Polygon","coordinates":[[[35.677449,47.298252],[35.677988,47.298302],[35.678059,47.297846],[35.678072,47.297761],[35.677506,47.297727],[35.67748,47.297962],[35.677449,47.298252]]]}},{"type":"Feature","properties":{"cadnum":"2325281204:01:001:0017"},"geometry":{"type":"Polygon","coordinates":[[[35.67399,47.297616],[35.674854,47.297677],[35.674925,47.29731],[35.674036,47.297282],[35.67399,47.297616]]]}},{"type":"Feature","properties":{"cadnum":"2325281204:01:001:0021"},"geometry":{"type":"Polygon","coordinates":[[[35.677506,47.297727],[35.678015,47.297758],[35.678015,47.297759],[35.678072,47.297761],[35.678186,47.297046],[35.678216,47.296861],[35.678015,47.29685],[35.677606,47.296826],[35.677506,47.297727]]]}},{"type":"Feature","properties":{"cadnum":"2325281204:01:001:0032"},"geometry":{"type":"Polygon","coordinates":[[[35.671404,47.295905],[35.672521,47.295996],[35.672522,47.295996],[35.672817,47.29602],[35.672853,47.295812],[35.672693,47.295799],[35.671441,47.295698],[35.671404,47.295905]]]}},{"type":"Feature","properties":{"cadnum":"2325281204:01:001:0008"},"geometry":{"type":"Polygon","coordinates":[[[35.669284,47.294862],[35.670407,47.294954],[35.67047,47.294596],[35.669347,47.294504],[35.669284,47.294862]]]}},{"type":"Feature","properties":{"cadnum":"2325281204:01:001:0007"},"geometry":{"type":"Polygon","coordinates":[[[35.670407,47.294954],[35.671226,47.295021],[35.67129,47.294663],[35.67047,47.294596],[35.670407,47.294954]]]}},{"type":"Feature","properties":{"cadnum":"2325281204:01:001:0083"},"geometry":{"type":"Polygon","coordinates":[[[35.673856,47.299066],[35.674647,47.299104],[35.674687,47.298728],[35.673908,47.298688],[35.673856,47.299066]]]}},{"type":"Feature","properties":{"cadnum":"2325281204:01:001:0015"},"geometry":{"type":"Polygon","coordinates":[[[35.673635,47.298669],[35.674449,47.298713],[35.674502,47.298338],[35.674501,47.298338],[35.674502,47.298323],[35.673686,47.298273],[35.673635,47.298669]]]}},{"type":"Feature","properties":{"cadnum":"2325281204:01:001:0046"},"geometry":{"type":"Polygon","coordinates":[[[35.67734,47.29936],[35.677462,47.29937],[35.677488,47.299243],[35.678015,47.299305],[35.678015,47.299306],[35.678815,47.299399],[35.678885,47.299257],[35.678253,47.299216],[35.678015,47.2992],[35.678015,47.299201],[35.677376,47.299158],[35.67734,47.29936]]]}},{"type":"Feature","properties":{"cadnum":"2325281204:01:001:0014"},"geometry":{"type":"Polygon","coordinates":[[[35.674449,47.298713],[35.675245,47.298756],[35.675291,47.298387],[35.674502,47.298338],[35.674449,47.298713]]]}},{"type":"Feature","properties":{"cadnum":"2325281204:01:001:0084"},"geometry":{"type":"Polygon","coordinates":[[[35.674647,47.299104],[35.675441,47.299142],[35.675473,47.298768],[35.674687,47.298728],[35.674647,47.299104]]]}},{"type":"Feature","properties":{"cadnum":"2325281204:01:001:0081"},"geometry":{"type":"Polygon","coordinates":[[[35.675711,47.299052],[35.67635,47.299035],[35.676395,47.298892],[35.678015,47.298963],[35.678177,47.29897],[35.678186,47.29897],[35.67881,47.298996],[35.678862,47.298815],[35.678015,47.298787],[35.678015,47.298788],[35.67737,47.298765],[35.676918,47.298746],[35.675759,47.298702],[35.675711,47.299052]]]}},{"type":"Feature","properties":{"cadnum":"2325281204:01:001:0047"},"geometry":{"type":"Polygon","coordinates":[[[35.675794,47.299233],[35.67734,47.29936],[35.677376,47.299158],[35.67583,47.299056],[35.675794,47.299233]]]}},{"type":"Feature","properties":{"cadnum":"2325281204:01:001:0042"},"geometry":{"type":"Polygon","coordinates":[[[35.672974,47.301148],[35.673377,47.300972],[35.673467,47.30048],[35.673446,47.300467],[35.673129,47.300446],[35.672974,47.301148]]]}},{"type":"Feature","properties":{"cadnum":"2325281204:01:001:0040"},"geometry":{"type":"Polygon","coordinates":[[[35.680197,47.298157],[35.680755,47.298201],[35.680811,47.297846],[35.68094,47.297045],[35.680421,47.297026],[35.680257,47.297846],[35.680243,47.29792],[35.680234,47.297962],[35.680197,47.298157]]]}},{"type":"Feature","properties":{"cadnum":"2325281204:01:001:0063"},"geometry":{"type":"Polygon","coordinates":[[[35.682416,47.298118],[35.682761,47.298142],[35.682782,47.297962],[35.682832,47.297549],[35.682711,47.297541],[35.68276,47.297137],[35.682534,47.297122],[35.682434,47.297962],[35.682435,47.297962],[35.682416,47.298118]]]}},{"type":"Feature","properties":{"cadnum":"2325281204:01:001:0005"},"geometry":{"type":"Polygon","coordinates":[[[35.675027,47.292055],[35.676404,47.292171],[35.676438,47.291951],[35.675059,47.291848],[35.675027,47.292055]]]}},{"type":"Feature","properties":{"cadnum":"2325281204:01:001:0037"},"geometry":{"type":"Polygon","coordinates":[[[35.676939,47.291714],[35.678015,47.291806],[35.678464,47.291845],[35.678503,47.291653],[35.678015,47.291612],[35.676971,47.291523],[35.676939,47.291714]]]}},{"type":"Feature","properties":{"cadnum":"2325281204:01:001:0029"},"geometry":{"type":"Polygon","coordinates":[[[35.677033,47.291162],[35.678186,47.291268],[35.678186,47.291267],[35.678187,47.291267],[35.678697,47.291313],[35.678722,47.291138],[35.678187,47.291089],[35.678186,47.291089],[35.677065,47.290985],[35.677033,47.291162]]]}},{"type":"Feature","properties":{"cadnum":"2325281204:01:001:0006"},"geometry":{"type":"Polygon","coordinates":[[[35.674004,47.291967],[35.675027,47.292055],[35.675059,47.291848],[35.674033,47.291772],[35.674004,47.291967]]]}},{"type":"Feature","properties":{"cadnum":"2325281204:01:001:0066"},"geometry":{"type":"Polygon","coordinates":[[[35.631936,47.302297],[35.632526,47.302317],[35.632925,47.302331],[35.633778,47.302341],[35.633831,47.302045],[35.633726,47.302037],[35.633738,47.301965],[35.633844,47.301974],[35.63388,47.301771],[35.6339,47.301628],[35.633917,47.301508],[35.632227,47.301441],[35.632069,47.301437],[35.632048,47.301571],[35.632047,47.301571],[35.631936,47.302297]]]}},{"type":"Feature","properties":{"cadnum":"2325281204:01:001:0065"},"geometry":{"type":"Polygon","coordinates":[[[35.631592,47.302285],[35.631936,47.302297],[35.632029,47.301688],[35.63203,47.301688],[35.632069,47.301437],[35.631724,47.301426],[35.631702,47.301571],[35.631701,47.301571],[35.631592,47.302285]]]}},{"type":"Feature","properties":{"cadnum":"2325281204:01:001:0034"},"geometry":{"type":"Polygon","coordinates":[[[35.689052,47.30038],[35.689173,47.300393],[35.689351,47.300413],[35.689546,47.299428],[35.689238,47.299405],[35.689193,47.299699],[35.689052,47.30038]]]}},{"type":"Feature","properties":{"cadnum":"2325281204:01:001:0035"},"geometry":{"type":"Polygon","coordinates":[[[35.688996,47.300654],[35.689001,47.300655],[35.689092,47.300663],[35.689173,47.30067],[35.689299,47.30068],[35.689351,47.300413],[35.689052,47.30038],[35.688996,47.300654]]]}},{"type":"Feature","properties":{"cadnum":"2325281204:01:001:0036"},"geometry":{"type":"Polygon","coordinates":[[[35.682399,47.298276],[35.682557,47.298287],[35.682498,47.298611],[35.682703,47.298625],[35.682761,47.298142],[35.682416,47.298118],[35.682399,47.298276]]]}},{"type":"Feature","properties":{"cadnum":"2325281204:01:001:0039"},"geometry":{"type":"Polygon","coordinates":[[[35.68015,47.298472],[35.680516,47.298501],[35.68058,47.298506],[35.680702,47.298504],[35.680755,47.298201],[35.680197,47.298157],[35.68015,47.298472]]]}},{"type":"Feature","properties":{"cadnum":"2325281204:01:001:0027"},"geometry":{"type":"Polygon","coordinates":[[[35.681675,47.299675],[35.681681,47.299899],[35.682165,47.299928],[35.682175,47.300021],[35.682477,47.300002],[35.682919,47.299925],[35.682914,47.299756],[35.681675,47.299675]]]}},{"type":"Feature","properties":{"cadnum":"2325281204:01:001:0028"},"geometry":{"type":"Polygon","coordinates":[[[35.680633,47.299837],[35.681681,47.299899],[35.681675,47.299675],[35.680657,47.299609],[35.680633,47.299837]]]}},{"type":"Feature","properties":{"cadnum":"2325281204:01:001:0082"},"geometry":{"type":"Polygon","coordinates":[[[35.670218,47.291938],[35.671834,47.292063],[35.671887,47.291698],[35.670295,47.291572],[35.670218,47.291938]]]}},{"type":"Feature","properties":{"cadnum":"2325281204:01:001:0013"},"geometry":{"type":"Polygon","coordinates":[[[35.686335,47.301116],[35.686631,47.301144],[35.68681,47.300258],[35.686513,47.300231],[35.686335,47.301116]]]}},{"type":"Feature","properties":{"cadnum":"2325281204:01:001:0012"},"geometry":{"type":"Polygon","coordinates":[[[35.686513,47.300229],[35.686646,47.300242],[35.68681,47.300258],[35.687006,47.299272],[35.686709,47.299245],[35.686513,47.300229]]]}},{"type":"Feature","properties":{"cadnum":"2325281204:01:001:0073"},"geometry":{"type":"Polygon","coordinates":[[[35.68398,47.299975],[35.684659,47.300043],[35.684748,47.29952],[35.684086,47.299454],[35.68398,47.299975]]]}},{"type":"Feature","properties":{"cadnum":"2325281204:01:001:0074"},"geometry":{"type":"Polygon","coordinates":[[[35.684086,47.299454],[35.684748,47.29952],[35.684825,47.299075],[35.684176,47.29901],[35.684086,47.299454]]]}},{"type":"Feature","properties":{"cadnum":"2325281204:01:001:0038"},"geometry":{"type":"Polygon","coordinates":[[[35.678464,47.291845],[35.678657,47.291862],[35.678684,47.291668],[35.678503,47.291653],[35.678464,47.291845]]]}}]}