{"type":"FeatureCollection","features":[{"type":"Feature","properties":{"cadnum":"2325283203:01:001:0021"},"geometry":{"type":"Polygon","coordinates":[[[35.837896,47.44514],[35.838494,47.445228],[35.838497,47.445229],[35.838692,47.444759],[35.8383,47.444705],[35.838089,47.444673],[35.837896,47.44514]]]}},{"type":"Feature","properties":{"cadnum":"2325283203:01:001:0001"},"geometry":{"type":"Polygon","coordinates":[[[35.839211,47.44482],[35.839292,47.444835],[35.839339,47.444844],[35.839363,47.444788],[35.839317,47.444779],[35.839296,47.444825],[35.839216,47.44481],[35.839211,47.44482]]]}},{"type":"Feature","properties":{"cadnum":"2325283203:01:001:0017"},"geometry":{"type":"Polygon","coordinates":[[[35.836717,47.446576],[35.83731,47.446681],[35.837488,47.446247],[35.837518,47.446175],[35.837386,47.446153],[35.836903,47.446071],[35.836832,47.446265],[35.836717,47.446576]]]}},{"type":"Feature","properties":{"cadnum":"2325283203:01:001:0016"},"geometry":{"type":"Polygon","coordinates":[[[35.83731,47.446681],[35.837316,47.446682],[35.837317,47.446682],[35.837317,47.446683],[35.837856,47.446778],[35.837905,47.44666],[35.838068,47.446268],[35.837518,47.446175],[35.837317,47.446665],[35.83731,47.446681]]]}},{"type":"Feature","properties":{"cadnum":"2325283203:01:001:0011"},"geometry":{"type":"Polygon","coordinates":[[[35.8391,47.4449],[35.839205,47.44492],[35.839222,47.444879],[35.839316,47.444897],[35.839339,47.444844],[35.839139,47.444806],[35.8391,47.4449]]]}},{"type":"Feature","properties":{"cadnum":"2325283203:01:001:0022"},"geometry":{"type":"Polygon","coordinates":[[[35.837346,47.445058],[35.837488,47.44508],[35.837488,47.445079],[35.837896,47.44514],[35.838089,47.444673],[35.83754,47.444586],[35.837346,47.445058]]]}},{"type":"Feature","properties":{"cadnum":"2325283203:01:001:0012"},"geometry":{"type":"Polygon","coordinates":[[[35.838151,47.443378],[35.839233,47.443557],[35.839335,47.443252],[35.838219,47.443162],[35.838151,47.443378]]]}},{"type":"Feature","properties":{"cadnum":"2325283203:01:001:0014"},"geometry":{"type":"Polygon","coordinates":[[[35.836759,47.44092],[35.837316,47.440985],[35.837316,47.440986],[35.837317,47.440986],[35.837735,47.441035],[35.838235,47.439222],[35.838312,47.438946],[35.837704,47.438888],[35.837385,47.438856],[35.837212,47.438839],[35.837128,47.439221],[35.837128,47.439222],[35.837127,47.439222],[35.83712,47.439256],[35.837102,47.439338],[35.836759,47.44092]]]}},{"type":"Feature","properties":{"cadnum":"2325283203:01:001:0018"},"geometry":{"type":"Polygon","coordinates":[[[35.824729,47.447773],[35.82633,47.448052],[35.826437,47.44807],[35.826498,47.447866],[35.825994,47.447708],[35.824783,47.447432],[35.824729,47.447773]]]}},{"type":"Feature","properties":{"cadnum":"2325283203:01:001:0002"},"geometry":{"type":"Polygon","coordinates":[[[35.827949,47.454711],[35.828302,47.454967],[35.828933,47.454595],[35.828602,47.454326],[35.827949,47.454711]]]}},{"type":"Feature","properties":{"cadnum":"2325283203:01:001:0006"},"geometry":{"type":"Polygon","coordinates":[[[35.834334,47.450729],[35.834835,47.451028],[35.835262,47.45068],[35.834749,47.450391],[35.834748,47.45039],[35.834634,47.450483],[35.834635,47.450483],[35.834334,47.450729]]]}},{"type":"Feature","properties":{"cadnum":"2325283203:01:001:0007"},"geometry":{"type":"Polygon","coordinates":[[[35.834835,47.451028],[35.835325,47.451319],[35.835762,47.450962],[35.835262,47.45068],[35.834835,47.451028]]]}}]}