{"type":"FeatureCollection","features":[{"type":"Feature","properties":{"cadnum":"2325580501:02:004:0090"},"geometry":{"type":"Polygon","coordinates":[[[36.05037,47.101065],[36.051722,47.100885],[36.051722,47.100884],[36.057043,47.100169],[36.057184,47.10015],[36.057163,47.100104],[36.057043,47.099839],[36.055622,47.096699],[36.05155,47.09651],[36.050752,47.096473],[36.050445,47.100148],[36.050446,47.100148],[36.05037,47.101065]]]}},{"type":"Feature","properties":{"cadnum":"2325580501:04:023:0022"},"geometry":{"type":"Polygon","coordinates":[[[36.075313,47.048974],[36.079187,47.049401],[36.079188,47.049401],[36.079301,47.049413],[36.079694,47.047655],[36.079949,47.046517],[36.079187,47.046434],[36.079187,47.046433],[36.075961,47.046077],[36.075607,47.047655],[36.075313,47.048974]]]}},{"type":"Feature","properties":{"cadnum":"2325580501:04:023:0021"},"geometry":{"type":"Polygon","coordinates":[[[36.074665,47.051869],[36.078655,47.05231],[36.078831,47.051515],[36.078832,47.051515],[36.079016,47.050693],[36.07908,47.050406],[36.079187,47.049925],[36.079187,47.049924],[36.079301,47.049413],[36.079016,47.049382],[36.075313,47.048974],[36.074771,47.051398],[36.07477,47.051398],[36.074665,47.051869]]]}},{"type":"Feature","properties":{"cadnum":"2325580501:03:007:0002"},"geometry":{"type":"Polygon","coordinates":[[[36.001507,47.064447],[36.002111,47.064551],[36.002152,47.064557],[36.002283,47.06458],[36.005467,47.065119],[36.005704,47.062625],[36.005703,47.062625],[36.005948,47.060066],[36.004045,47.060748],[36.002283,47.060051],[36.002283,47.06005],[36.001959,47.059922],[36.001689,47.062625],[36.001688,47.062625],[36.001507,47.064447]]]}},{"type":"Feature","properties":{"cadnum":"2325580501:01:005:0037"},"geometry":{"type":"Polygon","coordinates":[[[36.054995,47.102741],[36.055081,47.103109],[36.055176,47.103516],[36.055262,47.103887],[36.055263,47.103887],[36.055381,47.104394],[36.055697,47.104387],[36.055593,47.103887],[36.055431,47.103088],[36.055348,47.102705],[36.054995,47.102741]]]}},{"type":"Feature","properties":{"cadnum":"2325580501:01:005:0022"},"geometry":{"type":"Polygon","coordinates":[[[36.051381,47.106685],[36.051459,47.106983],[36.05155,47.107345],[36.05155,47.107346],[36.05157,47.107425],[36.051722,47.107406],[36.051959,47.107375],[36.05177,47.106636],[36.051656,47.10665],[36.051381,47.106685]]]}},{"type":"Feature","properties":{"cadnum":"2325580501:04:023:0023"},"geometry":{"type":"Polygon","coordinates":[[[36.06949,47.057405],[36.070843,47.057613],[36.071377,47.055141],[36.071377,47.05514],[36.072159,47.051515],[36.07216,47.051515],[36.072993,47.047655],[36.07324,47.046516],[36.072568,47.04676],[36.072348,47.047772],[36.071562,47.051398],[36.071561,47.051398],[36.070724,47.055257],[36.070724,47.055258],[36.070274,47.057332],[36.070024,47.057303],[36.070474,47.055258],[36.070474,47.055257],[36.071327,47.051398],[36.071326,47.051398],[36.072153,47.047655],[36.072152,47.047655],[36.072324,47.046884],[36.071827,47.047136],[36.071709,47.047655],[36.071708,47.047655],[36.07083,47.051515],[36.069978,47.055257],[36.069978,47.055258],[36.06949,47.057405]]]}},{"type":"Feature","properties":{"cadnum":"2325580501:04:023:0024"},"geometry":{"type":"Polygon","coordinates":[[[36.073367,47.057674],[36.073694,47.057709],[36.073694,47.057708],[36.077362,47.058091],[36.078007,47.055206],[36.078004,47.055206],[36.074017,47.054766],[36.073934,47.05514],[36.073934,47.055141],[36.073933,47.055141],[36.073535,47.056921],[36.073367,47.057674]]]}},{"type":"Feature","properties":{"cadnum":"2325580501:02:002:0090"},"geometry":{"type":"Polygon","coordinates":[[[36.020713,47.096139],[36.020917,47.096292],[36.020916,47.096292],[36.024084,47.098647],[36.024163,47.098706],[36.024256,47.098716],[36.029749,47.099308],[36.029749,47.099307],[36.033162,47.099675],[36.033314,47.097498],[36.029577,47.097095],[36.029577,47.097096],[36.024256,47.096522],[36.02321,47.096409],[36.020713,47.096139]]]}},{"type":"Feature","properties":{"cadnum":"2325580501:01:004:0050"},"geometry":{"type":"Polygon","coordinates":[[[36.041427,47.107601],[36.041434,47.107626],[36.041584,47.108164],[36.041765,47.10882],[36.042204,47.10876],[36.042086,47.108354],[36.042019,47.108103],[36.041866,47.107539],[36.041663,47.107568],[36.041427,47.107601]]]}},{"type":"Feature","properties":{"cadnum":"2325580501:04:023:0020"},"geometry":{"type":"Polygon","coordinates":[[[36.074017,47.054766],[36.077417,47.05514],[36.077417,47.055141],[36.078005,47.055205],[36.078007,47.055205],[36.078655,47.05231],[36.074665,47.051869],[36.074017,47.054766]]]}},{"type":"Feature","properties":{"cadnum":"2325580501:02:001:0012"},"geometry":{"type":"Polygon","coordinates":[[[36.047347,47.103248],[36.047378,47.103353],[36.047598,47.103325],[36.047568,47.103219],[36.047415,47.103239],[36.047347,47.103248]]]}},{"type":"Feature","properties":{"cadnum":"2325580501:02:001:0015"},"geometry":{"type":"Polygon","coordinates":[[[36.048606,47.101276],[36.048821,47.102296],[36.048923,47.102778],[36.049006,47.103174],[36.049336,47.103129],[36.049314,47.103047],[36.049242,47.102752],[36.048903,47.101272],[36.048606,47.101276]]]}},{"type":"Feature","properties":{"cadnum":"2325580501:01:004:0035"},"geometry":{"type":"Polygon","coordinates":[[[36.039485,47.105984],[36.039703,47.106376],[36.039847,47.106333],[36.040455,47.10615],[36.040254,47.105837],[36.039928,47.105927],[36.039912,47.105902],[36.0398,47.105936],[36.039814,47.105956],[36.039666,47.105997],[36.039621,47.10594],[36.039485,47.105984]]]}}]}