{"type":"FeatureCollection","features":[{"type":"Feature","properties":{"cadnum":"2325282802:01:001:0003"},"geometry":{"type":"Polygon","coordinates":[[[35.737006,47.189527],[35.737053,47.189816],[35.737068,47.189901],[35.737749,47.189871],[35.737731,47.189699],[35.737713,47.189497],[35.737006,47.189527]]]}},{"type":"Feature","properties":{"cadnum":"2325282802:01:001:0010"},"geometry":{"type":"Polygon","coordinates":[[[35.742246,47.189032],[35.742255,47.189175],[35.742264,47.189402],[35.742757,47.189395],[35.742781,47.189395],[35.742761,47.189026],[35.742246,47.189032]]]}},{"type":"Feature","properties":{"cadnum":"2325282802:01:001:0015"},"geometry":{"type":"Polygon","coordinates":[[[35.731604,47.107146],[35.731682,47.107626],[35.731702,47.107743],[35.731793,47.108147],[35.731872,47.10857],[35.732316,47.108524],[35.732328,47.108508],[35.732287,47.108207],[35.732181,47.107509],[35.73218,47.107509],[35.73212,47.107109],[35.731604,47.107146]]]}},{"type":"Feature","properties":{"cadnum":"2325282802:01:001:0005"},"geometry":{"type":"Polygon","coordinates":[[[35.735313,47.188556],[35.735336,47.188779],[35.73587,47.188789],[35.735865,47.188573],[35.735313,47.188556]]]}},{"type":"Feature","properties":{"cadnum":"2325282802:01:001:0004"},"geometry":{"type":"Polygon","coordinates":[[[35.735865,47.188573],[35.73587,47.188789],[35.736774,47.188806],[35.736767,47.188602],[35.735865,47.188573]]]}},{"type":"Feature","properties":{"cadnum":"2325282802:01:001:0002"},"geometry":{"type":"Polygon","coordinates":[[[35.726958,47.193649],[35.727329,47.193657],[35.727338,47.193549],[35.727363,47.193258],[35.726995,47.193248],[35.726977,47.193432],[35.726975,47.193459],[35.726966,47.193549],[35.726967,47.193549],[35.726958,47.193649]]]}},{"type":"Feature","properties":{"cadnum":"2325282802:01:001:0001"},"geometry":{"type":"Polygon","coordinates":[[[35.726995,47.193248],[35.727363,47.193258],[35.727434,47.192456],[35.727066,47.192446],[35.726995,47.193248]]]}},{"type":"Feature","properties":{"cadnum":"2325282802:01:001:0023"},"geometry":{"type":"Polygon","coordinates":[[[35.741178,47.191555],[35.741192,47.191753],[35.741556,47.19174],[35.741543,47.191542],[35.741178,47.191555]]]}}]}