{"type":"FeatureCollection","features":[{"type":"Feature","properties":{"cadnum":"2325282001:01:001:0041"},"geometry":{"type":"Polygon","coordinates":[[[35.500859,47.286407],[35.501005,47.286564],[35.502405,47.285925],[35.502667,47.285805],[35.502525,47.285672],[35.502405,47.285724],[35.500859,47.286407]]]}},{"type":"Feature","properties":{"cadnum":"2325282001:01:001:0031"},"geometry":{"type":"Polygon","coordinates":[[[35.499903,47.285448],[35.50006,47.285607],[35.501709,47.284861],[35.501564,47.28471],[35.499903,47.285448]]]}},{"type":"Feature","properties":{"cadnum":"2325282001:01:001:0040"},"geometry":{"type":"Polygon","coordinates":[[[35.499563,47.286979],[35.499726,47.287143],[35.500231,47.286917],[35.500553,47.28677],[35.501005,47.286564],[35.500859,47.286407],[35.500266,47.286669],[35.500265,47.286669],[35.499563,47.286979]]]}},{"type":"Feature","properties":{"cadnum":"2325282001:01:001:0047"},"geometry":{"type":"Polygon","coordinates":[[[35.496534,47.28179],[35.496912,47.282187],[35.497743,47.283059],[35.497745,47.283059],[35.498016,47.283343],[35.498689,47.283086],[35.498572,47.282964],[35.4972,47.281528],[35.496744,47.281708],[35.496534,47.28179]]]}},{"type":"Feature","properties":{"cadnum":"2325282001:01:001:0025"},"geometry":{"type":"Polygon","coordinates":[[[35.498638,47.286009],[35.498796,47.286179],[35.50006,47.285607],[35.499903,47.285448],[35.498638,47.286009]]]}},{"type":"Feature","properties":{"cadnum":"2325282001:01:001:0018"},"geometry":{"type":"Polygon","coordinates":[[[35.501118,47.284174],[35.502233,47.285304],[35.502234,47.285304],[35.503581,47.286668],[35.503581,47.286669],[35.506669,47.289792],[35.507898,47.28929],[35.51037,47.288279],[35.508471,47.287915],[35.507898,47.287265],[35.507898,47.287264],[35.507387,47.286683],[35.50731,47.286595],[35.507727,47.286419],[35.50864,47.286033],[35.509253,47.286668],[35.509253,47.286669],[35.51015,47.287596],[35.510261,47.287688],[35.511274,47.288361],[35.512437,47.287786],[35.511566,47.286785],[35.510732,47.285825],[35.510174,47.285178],[35.509683,47.285079],[35.507727,47.283162],[35.507622,47.283059],[35.506506,47.281964],[35.504716,47.282744],[35.504217,47.282942],[35.504216,47.282942],[35.502309,47.283701],[35.501118,47.284174]]]}},{"type":"Feature","properties":{"cadnum":"2325282001:01:001:0027"},"geometry":{"type":"Polygon","coordinates":[[[35.506626,47.296423],[35.50682,47.296621],[35.507727,47.296207],[35.507889,47.296132],[35.507705,47.295946],[35.506626,47.296423]]]}},{"type":"Feature","properties":{"cadnum":"2325282001:01:001:0021"},"geometry":{"type":"Polygon","coordinates":[[[35.508183,47.296182],[35.50833,47.296332],[35.509733,47.295741],[35.509593,47.295589],[35.508183,47.296182]]]}},{"type":"Feature","properties":{"cadnum":"2325282001:01:001:0056"},"geometry":{"type":"Polygon","coordinates":[[[35.508007,47.295989],[35.508057,47.296044],[35.508086,47.296076],[35.508133,47.296129],[35.508203,47.296101],[35.508256,47.296079],[35.508314,47.296055],[35.508189,47.295915],[35.508007,47.295989]]]}},{"type":"Feature","properties":{"cadnum":"2325282001:01:001:0023"},"geometry":{"type":"Polygon","coordinates":[[[35.50758,47.297678],[35.507727,47.29783],[35.50774,47.297844],[35.507898,47.297773],[35.507898,47.297772],[35.508991,47.297277],[35.50883,47.297113],[35.507787,47.297585],[35.50758,47.297678]]]}},{"type":"Feature","properties":{"cadnum":"2325282001:01:001:0054"},"geometry":{"type":"Polygon","coordinates":[[[35.507638,47.29789],[35.507704,47.297962],[35.507705,47.297962],[35.507727,47.297986],[35.507727,47.297987],[35.507788,47.298053],[35.507898,47.298004],[35.508108,47.29791],[35.508702,47.297645],[35.508671,47.297615],[35.509068,47.29743],[35.50912,47.297408],[35.508991,47.297277],[35.508923,47.297308],[35.507735,47.297846],[35.507733,47.297846],[35.507638,47.29789]]]}},{"type":"Feature","properties":{"cadnum":"2325282001:01:001:0052"},"geometry":{"type":"Polygon","coordinates":[[[35.507403,47.297512],[35.507562,47.297678],[35.507727,47.297605],[35.507887,47.297533],[35.507898,47.297529],[35.507898,47.297528],[35.508777,47.297137],[35.508829,47.297112],[35.508675,47.296946],[35.508604,47.296982],[35.507898,47.297294],[35.507403,47.297512]]]}},{"type":"Feature","properties":{"cadnum":"2325282001:01:001:0022"},"geometry":{"type":"Polygon","coordinates":[[[35.509593,47.295589],[35.509733,47.295741],[35.51127,47.295095],[35.511129,47.294943],[35.509593,47.295589]]]}},{"type":"Feature","properties":{"cadnum":"2325282001:01:001:0033"},"geometry":{"type":"Polygon","coordinates":[[[35.508172,47.298334],[35.508329,47.298498],[35.509613,47.29793],[35.509614,47.29793],[35.509613,47.297929],[35.509457,47.297769],[35.509015,47.297962],[35.509016,47.297962],[35.509016,47.297963],[35.508172,47.298334]]]}},{"type":"Feature","properties":{"cadnum":"2325282001:01:001:0094"},"geometry":{"type":"Polygon","coordinates":[[[35.513625,47.304123],[35.51376,47.304274],[35.515132,47.303667],[35.514985,47.30351],[35.513625,47.304123]]]}},{"type":"Feature","properties":{"cadnum":"2325282001:01:001:0095"},"geometry":{"type":"Polygon","coordinates":[[[35.512266,47.304735],[35.512402,47.304874],[35.513391,47.304438],[35.513391,47.304437],[35.513392,47.304437],[35.51376,47.304274],[35.513625,47.304123],[35.513238,47.304298],[35.512266,47.304735]]]}},{"type":"Feature","properties":{"cadnum":"2325282001:01:001:0085"},"geometry":{"type":"Polygon","coordinates":[[[35.51319,47.290233],[35.51322,47.290266],[35.513434,47.290511],[35.513435,47.290511],[35.513909,47.291049],[35.514499,47.290846],[35.514471,47.29081],[35.514958,47.290625],[35.5151,47.290797],[35.5151,47.290798],[35.514612,47.290984],[35.514525,47.290876],[35.513936,47.291078],[35.514306,47.291498],[35.515527,47.29103],[35.514908,47.290395],[35.514344,47.289812],[35.513392,47.29016],[35.513391,47.29016],[35.51319,47.290233]]]}},{"type":"Feature","properties":{"cadnum":"2325282001:01:001:0035"},"geometry":{"type":"Polygon","coordinates":[[[35.505362,47.297288],[35.50682,47.296621],[35.506626,47.296423],[35.50558,47.296886],[35.505362,47.297288]]]}},{"type":"Feature","properties":{"cadnum":"2325282001:01:001:0024"},"geometry":{"type":"Polygon","coordinates":[[[35.506077,47.298357],[35.506238,47.298523],[35.507477,47.297962],[35.50774,47.297844],[35.50758,47.297678],[35.507208,47.297846],[35.506077,47.298357]]]}},{"type":"Feature","properties":{"cadnum":"2325282001:01:001:0100"},"geometry":{"type":"Polygon","coordinates":[[[35.502402,47.29422],[35.502419,47.294237],[35.502542,47.294367],[35.502854,47.294229],[35.503729,47.293845],[35.503585,47.293695],[35.502626,47.29412],[35.502625,47.29412],[35.502402,47.29422]]]}},{"type":"Feature","properties":{"cadnum":"2325282001:01:001:0055"},"geometry":{"type":"Polygon","coordinates":[[[35.506113,47.29858],[35.506258,47.298738],[35.507788,47.298053],[35.507638,47.29789],[35.507477,47.297962],[35.506113,47.29858]]]}},{"type":"Feature","properties":{"cadnum":"2325282001:01:001:0053"},"geometry":{"type":"Polygon","coordinates":[[[35.505794,47.298222],[35.505947,47.298396],[35.507184,47.297846],[35.507183,47.297846],[35.507562,47.297678],[35.507403,47.297512],[35.506646,47.297846],[35.506604,47.297864],[35.506382,47.297962],[35.506382,47.297963],[35.506381,47.297963],[35.505794,47.298222]]]}},{"type":"Feature","properties":{"cadnum":"2325282001:01:001:0029"},"geometry":{"type":"Polygon","coordinates":[[[35.513118,47.301092],[35.51322,47.301195],[35.51322,47.301196],[35.513272,47.301248],[35.513391,47.301196],[35.513391,47.301195],[35.513392,47.301195],[35.514603,47.300652],[35.514446,47.3005],[35.513392,47.300971],[35.513391,47.300971],[35.513391,47.30097],[35.513118,47.301092]]]}},{"type":"Feature","properties":{"cadnum":"2325282001:01:001:0059"},"geometry":{"type":"Polygon","coordinates":[[[35.507951,47.300717],[35.508108,47.300881],[35.509893,47.300095],[35.509734,47.299931],[35.507951,47.300717]]]}},{"type":"Feature","properties":{"cadnum":"2325282001:01:001:0034"},"geometry":{"type":"Polygon","coordinates":[[[35.506703,47.298979],[35.506859,47.299147],[35.507898,47.298689],[35.508329,47.298498],[35.508172,47.298334],[35.507727,47.29853],[35.507727,47.298531],[35.506703,47.298979]]]}},{"type":"Feature","properties":{"cadnum":"2325282001:01:001:0058"},"geometry":{"type":"Polygon","coordinates":[[[35.509734,47.299931],[35.509893,47.300095],[35.511165,47.299535],[35.511006,47.299371],[35.509734,47.299931]]]}},{"type":"Feature","properties":{"cadnum":"2325282001:01:001:0082"},"geometry":{"type":"Polygon","coordinates":[[[35.502989,47.290901],[35.503143,47.291067],[35.503347,47.290976],[35.504423,47.290508],[35.504424,47.290508],[35.504425,47.290507],[35.504424,47.290505],[35.504271,47.290341],[35.504148,47.290395],[35.504147,47.290395],[35.50407,47.290428],[35.50388,47.290511],[35.503881,47.290511],[35.502989,47.290901]]]}},{"type":"Feature","properties":{"cadnum":"2325282001:01:001:0026"},"geometry":{"type":"Polygon","coordinates":[[[35.502256,47.290053],[35.502405,47.290208],[35.502412,47.290215],[35.503703,47.28964],[35.503564,47.289475],[35.502256,47.290053]]]}},{"type":"Feature","properties":{"cadnum":"2325282001:01:001:0043"},"geometry":{"type":"Polygon","coordinates":[[[35.502848,47.290748],[35.502989,47.290901],[35.504073,47.290427],[35.504327,47.290316],[35.504186,47.290152],[35.50364,47.290395],[35.503445,47.290482],[35.503379,47.290511],[35.502848,47.290748]]]}},{"type":"Feature","properties":{"cadnum":"2325282001:01:001:0019"},"geometry":{"type":"Polygon","coordinates":[[[35.501127,47.288602],[35.501283,47.288768],[35.502016,47.288447],[35.502115,47.288553],[35.502233,47.288501],[35.502233,47.288502],[35.502234,47.288502],[35.502273,47.288484],[35.502405,47.288427],[35.502405,47.288426],[35.502453,47.288405],[35.502281,47.288221],[35.502204,47.288139],[35.501127,47.288602]]]}},{"type":"Feature","properties":{"cadnum":"2325282001:01:001:0020"},"geometry":{"type":"Polygon","coordinates":[[[35.502204,47.288139],[35.502233,47.28817],[35.502234,47.28817],[35.502281,47.288221],[35.502405,47.288354],[35.502453,47.288405],[35.503874,47.287786],[35.503631,47.287526],[35.50239,47.288059],[35.502204,47.288139]]]}},{"type":"Feature","properties":{"cadnum":"2325282001:01:001:0037"},"geometry":{"type":"Polygon","coordinates":[[[35.503564,47.289475],[35.503703,47.28964],[35.505463,47.288857],[35.505311,47.288704],[35.503564,47.289475]]]}},{"type":"Feature","properties":{"cadnum":"2325282001:01:001:0083"},"geometry":{"type":"Polygon","coordinates":[[[35.504271,47.290341],[35.50432,47.290394],[35.504321,47.290394],[35.504321,47.290395],[35.50432,47.290395],[35.504424,47.290505],[35.504425,47.290507],[35.506086,47.289786],[35.505928,47.289616],[35.504327,47.290316],[35.504271,47.290341]]]}},{"type":"Feature","properties":{"cadnum":"2325282001:01:001:0087"},"geometry":{"type":"Polygon","coordinates":[[[35.499633,47.28053],[35.501092,47.282065],[35.50192,47.281716],[35.500455,47.280176],[35.499633,47.28053]]]}},{"type":"Feature","properties":{"cadnum":"2325282001:01:001:0086"},"geometry":{"type":"Polygon","coordinates":[[[35.499355,47.28065],[35.500819,47.282181],[35.501092,47.282065],[35.499633,47.28053],[35.499355,47.28065]]]}},{"type":"Feature","properties":{"cadnum":"2325282001:01:001:0005"},"geometry":{"type":"Polygon","coordinates":[[[35.508846,47.292301],[35.508989,47.292463],[35.510496,47.291846],[35.510353,47.291684],[35.508846,47.292301]]]}},{"type":"Feature","properties":{"cadnum":"2325282001:01:001:0004"},"geometry":{"type":"Polygon","coordinates":[[[35.510353,47.291684],[35.510496,47.291846],[35.511845,47.291295],[35.511702,47.291133],[35.510353,47.291684]]]}},{"type":"Feature","properties":{"cadnum":"2325282001:01:001:0044"},"geometry":{"type":"Polygon","coordinates":[[[35.49662,47.288323],[35.49674,47.288441],[35.49674,47.288442],[35.496747,47.288448],[35.496912,47.288366],[35.496998,47.288323],[35.498942,47.287473],[35.4988,47.287328],[35.497997,47.287695],[35.49684,47.288223],[35.49662,47.288323]]]}},{"type":"Feature","properties":{"cadnum":"2325282001:01:001:0028"},"geometry":{"type":"Polygon","coordinates":[[[35.514446,47.3005],[35.514603,47.300652],[35.516327,47.299878],[35.516184,47.299725],[35.514446,47.3005]]]}},{"type":"Feature","properties":{"cadnum":"2325282001:01:001:0099"},"geometry":{"type":"Polygon","coordinates":[[[35.503585,47.293695],[35.503729,47.293845],[35.505112,47.293236],[35.504965,47.293083],[35.503585,47.293695]]]}},{"type":"Feature","properties":{"cadnum":"2325282001:01:001:0088"},"geometry":{"type":"Polygon","coordinates":[[[35.505558,47.293226],[35.505728,47.293408],[35.506199,47.293194],[35.506022,47.293015],[35.505558,47.293226]]]}},{"type":"Feature","properties":{"cadnum":"2325282001:01:001:0006"},"geometry":{"type":"Polygon","coordinates":[[[35.497839,47.287528],[35.497997,47.287695],[35.499244,47.287125],[35.499086,47.286959],[35.497839,47.287528]]]}},{"type":"Feature","properties":{"cadnum":"2325282001:01:001:0036"},"geometry":{"type":"Polygon","coordinates":[[[35.494092,47.284976],[35.495429,47.286343],[35.496042,47.286092],[35.494714,47.284714],[35.494092,47.284976]]]}}]}