{"type":"FeatureCollection","features":[{"type":"Feature","properties":{"cadnum":"2325587901:02:001:0013"},"geometry":{"type":"Polygon","coordinates":[[[35.950641,47.137995],[35.950964,47.137992],[35.950997,47.137528],[35.951011,47.137315],[35.950664,47.137311],[35.95066,47.137411],[35.950658,47.137473],[35.950656,47.137528],[35.950641,47.137995]]]}},{"type":"Feature","properties":{"cadnum":"2325587901:01:006:0007"},"geometry":{"type":"Polygon","coordinates":[[[35.937945,47.132153],[35.939619,47.132176],[35.940741,47.132314],[35.941858,47.132557],[35.943431,47.132898],[35.943607,47.130398],[35.941687,47.130299],[35.938107,47.130112],[35.937945,47.132153]]]}},{"type":"Feature","properties":{"cadnum":"2325587901:01:006:0005"},"geometry":{"type":"Polygon","coordinates":[[[35.943684,47.132906],[35.94718,47.133409],[35.947218,47.133414],[35.947351,47.133433],[35.947352,47.133433],[35.947967,47.133521],[35.950314,47.133729],[35.950415,47.131789],[35.94718,47.131586],[35.943791,47.131372],[35.943684,47.132906]]]}},{"type":"Feature","properties":{"cadnum":"2325587901:02:001:0011"},"geometry":{"type":"Polygon","coordinates":[[[35.950664,47.137311],[35.951011,47.137315],[35.951069,47.136503],[35.950692,47.136488],[35.950664,47.137311]]]}}]}