{"type":"FeatureCollection","features":[{"type":"Feature","properties":{"cadnum":"2325282003:01:001:0008"},"geometry":{"type":"Polygon","coordinates":[[[35.495106,47.280303],[35.496499,47.281773],[35.49674,47.281678],[35.496869,47.281626],[35.496912,47.281609],[35.497136,47.28152],[35.49674,47.2811],[35.495726,47.280021],[35.495106,47.280303]]]}},{"type":"Feature","properties":{"cadnum":"2325282003:01:001:0009"},"geometry":{"type":"Polygon","coordinates":[[[35.495726,47.280021],[35.496912,47.281283],[35.496912,47.281282],[35.497136,47.28152],[35.497768,47.281282],[35.496811,47.280264],[35.496318,47.279738],[35.495726,47.280021]]]}},{"type":"Feature","properties":{"cadnum":"2325282003:01:001:0011"},"geometry":{"type":"Polygon","coordinates":[[[35.496809,47.279513],[35.496912,47.279623],[35.498281,47.28108],[35.498788,47.28088],[35.497301,47.279288],[35.496809,47.279513]]]}},{"type":"Feature","properties":{"cadnum":"2325282003:01:001:0010"},"geometry":{"type":"Polygon","coordinates":[[[35.496318,47.279738],[35.49674,47.280188],[35.496811,47.280264],[35.496912,47.280371],[35.497768,47.281282],[35.498281,47.28108],[35.496809,47.279513],[35.496318,47.279738]]]}},{"type":"Feature","properties":{"cadnum":"2325282003:01:001:0003"},"geometry":{"type":"Polygon","coordinates":[[[35.498725,47.275492],[35.498726,47.275492],[35.498846,47.275605],[35.498847,47.275605],[35.49892,47.275674],[35.499292,47.275489],[35.499988,47.275145],[35.499794,47.274963],[35.498731,47.275489],[35.498725,47.275491],[35.498725,47.275492]]]}},{"type":"Feature","properties":{"cadnum":"2325282003:01:001:0004"},"geometry":{"type":"Polygon","coordinates":[[[35.497442,47.276126],[35.497636,47.276308],[35.49892,47.275674],[35.498726,47.275492],[35.498725,47.275492],[35.498495,47.275605],[35.498495,47.275606],[35.497442,47.276126]]]}},{"type":"Feature","properties":{"cadnum":"2325282003:01:001:0012"},"geometry":{"type":"Polygon","coordinates":[[[35.496589,47.269471],[35.49674,47.269631],[35.496767,47.26966],[35.496912,47.269593],[35.496912,47.269592],[35.497577,47.269284],[35.497407,47.269119],[35.496811,47.269376],[35.496589,47.269471]]]}},{"type":"Feature","properties":{"cadnum":"2325282003:01:001:0030"},"geometry":{"type":"Polygon","coordinates":[[[35.548559,47.300628],[35.548735,47.300797],[35.549957,47.300272],[35.549801,47.300096],[35.548559,47.300628]]]}},{"type":"Feature","properties":{"cadnum":"2325282003:01:001:0015"},"geometry":{"type":"Polygon","coordinates":[[[35.493605,47.269863],[35.493805,47.270057],[35.494411,47.269792],[35.494861,47.26959],[35.494679,47.269397],[35.493605,47.269863]]]}},{"type":"Feature","properties":{"cadnum":"2325282003:01:001:0016"},"geometry":{"type":"Polygon","coordinates":[[[35.492332,47.270414],[35.492564,47.270603],[35.493805,47.270057],[35.493605,47.269863],[35.492332,47.270414]]]}},{"type":"Feature","properties":{"cadnum":"2325282003:01:001:0031"},"geometry":{"type":"Polygon","coordinates":[[[35.501964,47.281102],[35.502233,47.281384],[35.502234,47.281384],[35.502234,47.281385],[35.502346,47.281502],[35.502405,47.281478],[35.504108,47.280781],[35.504322,47.280479],[35.50441,47.28011],[35.502234,47.280993],[35.502233,47.280993],[35.501964,47.281102]]]}},{"type":"Feature","properties":{"cadnum":"2325282003:01:001:0005"},"geometry":{"type":"Polygon","coordinates":[[[35.498418,47.273112],[35.498438,47.273136],[35.498507,47.273108],[35.498507,47.273109],[35.498556,47.273166],[35.498649,47.273129],[35.498599,47.273072],[35.49858,47.273079],[35.498516,47.273005],[35.498444,47.273034],[35.498486,47.273086],[35.498418,47.273112]]]}},{"type":"Feature","properties":{"cadnum":"2325282003:01:001:0002"},"geometry":{"type":"Polygon","coordinates":[[[35.500469,47.273562],[35.500652,47.273755],[35.501948,47.273181],[35.501765,47.272988],[35.500469,47.273562]]]}},{"type":"Feature","properties":{"cadnum":"2325282003:01:001:0001"},"geometry":{"type":"Polygon","coordinates":[[[35.499382,47.274042],[35.499566,47.274234],[35.500652,47.273755],[35.500469,47.273565],[35.499382,47.274042]]]}}]}