{"type":"FeatureCollection","features":[{"type":"Feature","properties":{"cadnum":"2325586802:01:014:0010"},"geometry":{"type":"Polygon","coordinates":[[[36.086158,47.12103],[36.086275,47.121327],[36.08675,47.122579],[36.086828,47.122783],[36.086999,47.12312],[36.087933,47.122889],[36.088421,47.122662],[36.088783,47.122504],[36.088784,47.122504],[36.089551,47.122283],[36.089908,47.12222],[36.090002,47.122204],[36.090067,47.122192],[36.090174,47.122173],[36.090174,47.122172],[36.09028,47.122153],[36.090486,47.12209],[36.090787,47.121993],[36.091268,47.121874],[36.092059,47.121724],[36.092255,47.121711],[36.09238,47.121686],[36.092671,47.121552],[36.093421,47.121281],[36.093268,47.121087],[36.092608,47.120245],[36.092451,47.120046],[36.091909,47.12021],[36.091636,47.12019],[36.091253,47.120165],[36.090671,47.120268],[36.090296,47.120404],[36.09006,47.120433],[36.089707,47.120476],[36.089378,47.120539],[36.088886,47.120596],[36.088437,47.120805],[36.087973,47.120741],[36.087481,47.120937],[36.087195,47.120882],[36.086329,47.120969],[36.08622,47.120994],[36.086158,47.12103]]]}},{"type":"Feature","properties":{"cadnum":"2325586802:01:003:0015"},"geometry":{"type":"Polygon","coordinates":[[[36.124851,47.114564],[36.125233,47.114567],[36.125236,47.114221],[36.124857,47.114223],[36.124851,47.114564]]]}},{"type":"Feature","properties":{"cadnum":"2325586802:01:003:0017"},"geometry":{"type":"Polygon","coordinates":[[[36.124857,47.114223],[36.125236,47.114221],[36.125241,47.113434],[36.124871,47.113426],[36.124857,47.114223]]]}},{"type":"Feature","properties":{"cadnum":"2325586802:02:004:0011"},"geometry":{"type":"Polygon","coordinates":[[[36.120284,47.112232],[36.120678,47.112235],[36.120724,47.11125],[36.120295,47.111257],[36.120294,47.111365],[36.120284,47.112232]]]}},{"type":"Feature","properties":{"cadnum":"2325586802:02:003:0017"},"geometry":{"type":"Polygon","coordinates":[[[36.110168,47.112774],[36.110198,47.112857],[36.11047,47.113506],[36.11088,47.113403],[36.11058,47.112675],[36.110168,47.112774]]]}},{"type":"Feature","properties":{"cadnum":"2325586802:02:003:0016"},"geometry":{"type":"Polygon","coordinates":[[[36.11047,47.113506],[36.110579,47.113767],[36.110601,47.113804],[36.110609,47.113821],[36.110622,47.11385],[36.110646,47.113898],[36.110659,47.11393],[36.110668,47.11394],[36.110681,47.113973],[36.110682,47.113975],[36.110674,47.113976],[36.110695,47.114028],[36.110707,47.11406],[36.110745,47.114152],[36.111157,47.114057],[36.111069,47.113834],[36.111031,47.11373],[36.110992,47.113622],[36.110973,47.113625],[36.11088,47.113403],[36.11047,47.113506]]]}},{"type":"Feature","properties":{"cadnum":"2325586802:02:004:0015"},"geometry":{"type":"Polygon","coordinates":[[[36.117681,47.112725],[36.11781,47.112746],[36.117839,47.112658],[36.117712,47.112637],[36.117681,47.112725]]]}},{"type":"Feature","properties":{"cadnum":"2325586802:02:004:0009"},"geometry":{"type":"Polygon","coordinates":[[[36.120275,47.11302],[36.120642,47.113001],[36.120678,47.112235],[36.120284,47.112232],[36.120275,47.11302]]]}}]}