{"type":"FeatureCollection","features":[{"type":"Feature","properties":{"cadnum":"2325283601:01:001:0021"},"geometry":{"type":"Polygon","coordinates":[[[35.86338,47.249208],[35.863549,47.249234],[35.863624,47.249247],[35.863756,47.249269],[35.864453,47.249393],[35.864454,47.249393],[35.864454,47.249394],[35.864453,47.249394],[35.864452,47.249394],[35.864954,47.249484],[35.866236,47.249713],[35.866543,47.249769],[35.867115,47.249875],[35.867785,47.249999],[35.868481,47.250112],[35.868889,47.25017],[35.870275,47.250335],[35.870363,47.250345],[35.870447,47.250354],[35.870974,47.250409],[35.871517,47.250468],[35.872722,47.250597],[35.873414,47.25067],[35.874131,47.250712],[35.874242,47.250705],[35.874487,47.250688],[35.874694,47.250659],[35.874886,47.250633],[35.875769,47.250485],[35.875769,47.250486],[35.875841,47.250473],[35.87594,47.250457],[35.876332,47.250391],[35.878209,47.25008],[35.881243,47.249578],[35.881262,47.249575],[35.881262,47.249576],[35.881356,47.24956],[35.881433,47.249547],[35.881434,47.249547],[35.882107,47.249435],[35.882107,47.249433],[35.882104,47.24927],[35.881355,47.249394],[35.881354,47.249394],[35.8807,47.249502],[35.880649,47.24951],[35.878153,47.249923],[35.876276,47.250235],[35.875769,47.250319],[35.875769,47.25032],[35.874834,47.250474],[35.87445,47.250528],[35.874221,47.250544],[35.874131,47.250549],[35.873442,47.250509],[35.872759,47.250437],[35.871555,47.250308],[35.871012,47.250249],[35.870402,47.250185],[35.868933,47.250011],[35.868533,47.249954],[35.867843,47.249842],[35.867176,47.249719],[35.866605,47.249612],[35.865384,47.249394],[35.865383,47.249394],[35.864782,47.249286],[35.863815,47.249112],[35.86364,47.249082],[35.863604,47.249076],[35.863448,47.249053],[35.863448,47.249055],[35.86338,47.249208]]]}},{"type":"Feature","properties":{"cadnum":"2325283601:01:001:0017"},"geometry":{"type":"Polygon","coordinates":[[[35.863467,47.250262],[35.864419,47.249994],[35.864467,47.249791],[35.86362,47.249659],[35.863467,47.250262]]]}},{"type":"Feature","properties":{"cadnum":"2325283601:01:001:0013"},"geometry":{"type":"Polygon","coordinates":[[[35.86362,47.249659],[35.864467,47.249791],[35.864545,47.249461],[35.864543,47.249461],[35.863709,47.249311],[35.863657,47.24951],[35.863658,47.24951],[35.86362,47.249659]]]}},{"type":"Feature","properties":{"cadnum":"2325283601:01:001:0023"},"geometry":{"type":"Polygon","coordinates":[[[35.884371,47.256494],[35.884513,47.256684],[35.88486,47.256563],[35.884718,47.256374],[35.884371,47.256494]]]}},{"type":"Feature","properties":{"cadnum":"2325283601:01:001:0020"},"geometry":{"type":"Polygon","coordinates":[[[35.90403,47.254037],[35.904075,47.254515],[35.904492,47.254507],[35.904466,47.253977],[35.904074,47.253986],[35.90403,47.254037]]]}},{"type":"Feature","properties":{"cadnum":"2325283601:01:001:0019"},"geometry":{"type":"Polygon","coordinates":[[[35.904075,47.254515],[35.904148,47.255263],[35.90453,47.255242],[35.904492,47.254507],[35.904075,47.254515]]]}},{"type":"Feature","properties":{"cadnum":"2325283601:01:001:0022"},"geometry":{"type":"Polygon","coordinates":[[[35.897796,47.249668],[35.897913,47.249686],[35.897913,47.249685],[35.898773,47.249814],[35.902636,47.25041],[35.903406,47.250522],[35.906819,47.251019],[35.907415,47.2511],[35.908728,47.251293],[35.911863,47.251751],[35.913063,47.251934],[35.914221,47.252109],[35.916557,47.25246],[35.917131,47.252526],[35.91741,47.252534],[35.917863,47.25251],[35.918284,47.252438],[35.91846,47.252394],[35.918491,47.252215],[35.918215,47.252282],[35.917824,47.252349],[35.917406,47.252372],[35.917156,47.252365],[35.916603,47.2523],[35.914221,47.251943],[35.913114,47.251776],[35.911914,47.251594],[35.908728,47.251128],[35.907463,47.250942],[35.906868,47.250861],[35.903234,47.250331],[35.902687,47.250251],[35.898825,47.249656],[35.897928,47.249522],[35.897796,47.249668]]]}},{"type":"Feature","properties":{"cadnum":"2325283601:01:001:0146"},"geometry":{"type":"Polygon","coordinates":[[[35.878124,47.258349],[35.878244,47.25886],[35.878806,47.258797],[35.878684,47.258278],[35.878124,47.258349]]]}},{"type":"Feature","properties":{"cadnum":"2325283601:01:001:0033"},"geometry":{"type":"Polygon","coordinates":[[[35.899188,47.255776],[35.899408,47.255797],[35.899459,47.255622],[35.89952,47.255419],[35.899526,47.255395],[35.899288,47.255368],[35.899188,47.255776]]]}},{"type":"Feature","properties":{"cadnum":"2325283601:01:001:0007"},"geometry":{"type":"Polygon","coordinates":[[[35.915396,47.251671],[35.916713,47.251869],[35.916907,47.250241],[35.915642,47.250051],[35.915396,47.251671]]]}},{"type":"Feature","properties":{"cadnum":"2325283601:01:001:0003"},"geometry":{"type":"Polygon","coordinates":[[[35.959234,47.342381],[35.959354,47.34251],[35.959538,47.342459],[35.959495,47.342388],[35.959556,47.342371],[35.959491,47.342309],[35.959234,47.342381]]]}},{"type":"Feature","properties":{"cadnum":"2325283601:01:001:0015"},"geometry":{"type":"Polygon","coordinates":[[[35.896216,47.255152],[35.896462,47.255187],[35.896518,47.255005],[35.896273,47.254969],[35.896216,47.255152]]]}},{"type":"Feature","properties":{"cadnum":"2325283601:01:001:0009"},"geometry":{"type":"Polygon","coordinates":[[[35.826674,47.246296],[35.827186,47.246315],[35.827206,47.245781],[35.827217,47.245498],[35.826706,47.24548],[35.826699,47.245665],[35.826698,47.245689],[35.826695,47.245781],[35.826684,47.246151],[35.826674,47.246296]]]}},{"type":"Feature","properties":{"cadnum":"2325283601:01:001:0008"},"geometry":{"type":"Polygon","coordinates":[[[35.826627,47.246856],[35.827159,47.246874],[35.827187,47.246705],[35.827168,47.246663],[35.827184,47.246542],[35.827186,47.246315],[35.826674,47.246296],[35.826627,47.246856]]]}},{"type":"Feature","properties":{"cadnum":"2325283601:01:001:0145"},"geometry":{"type":"Polygon","coordinates":[[[35.868347,47.251664],[35.868619,47.251751],[35.868759,47.250478],[35.868806,47.250204],[35.868482,47.250169],[35.868465,47.250303],[35.868456,47.250409],[35.868347,47.251664]]]}},{"type":"Feature","properties":{"cadnum":"2325283601:01:001:0014"},"geometry":{"type":"Polygon","coordinates":[[[35.908131,47.251567],[35.908277,47.251588],[35.908347,47.251377],[35.908199,47.251355],[35.908131,47.251567]]]}}]}