{"type":"FeatureCollection","features":[{"type":"Feature","properties":{"cadnum":"2325281201:01:001:0050"},"geometry":{"type":"Polygon","coordinates":[[[35.624899,47.299995],[35.626413,47.300092],[35.626967,47.300112],[35.626994,47.299953],[35.626429,47.299927],[35.624981,47.299861],[35.624899,47.299995]]]}},{"type":"Feature","properties":{"cadnum":"2325281201:01:001:0049"},"geometry":{"type":"Polygon","coordinates":[[[35.626967,47.300112],[35.628,47.300152],[35.628576,47.300176],[35.628628,47.300178],[35.628748,47.300183],[35.628901,47.30019],[35.628905,47.30004],[35.628576,47.300025],[35.626994,47.299953],[35.626967,47.300112]]]}},{"type":"Feature","properties":{"cadnum":"2325281201:01:001:0060"},"geometry":{"type":"Polygon","coordinates":[[[35.624981,47.299861],[35.626429,47.299927],[35.626994,47.299953],[35.627092,47.299958],[35.62711,47.299776],[35.625096,47.299642],[35.624981,47.299861]]]}},{"type":"Feature","properties":{"cadnum":"2325281201:01:001:0059"},"geometry":{"type":"Polygon","coordinates":[[[35.627092,47.299958],[35.628748,47.300033],[35.628905,47.30004],[35.62892,47.299895],[35.628748,47.299884],[35.62711,47.299776],[35.627092,47.299958]]]}},{"type":"Feature","properties":{"cadnum":"2325281201:01:001:0042"},"geometry":{"type":"Polygon","coordinates":[[[35.626536,47.301263],[35.627081,47.301295],[35.628293,47.301374],[35.628533,47.301244],[35.627427,47.301156],[35.626559,47.301096],[35.626536,47.301263]]]}},{"type":"Feature","properties":{"cadnum":"2325281201:01:001:0028"},"geometry":{"type":"Polygon","coordinates":[[[35.624801,47.300031],[35.624911,47.30017],[35.627397,47.300309],[35.62731,47.300132],[35.624801,47.300031]]]}},{"type":"Feature","properties":{"cadnum":"2325281201:01:001:0045"},"geometry":{"type":"Polygon","coordinates":[[[35.624195,47.300933],[35.624279,47.30113],[35.626536,47.301263],[35.626559,47.301096],[35.624195,47.300933]]]}},{"type":"Feature","properties":{"cadnum":"2325281201:02:001:0001"},"geometry":{"type":"Polygon","coordinates":[[[35.62609,47.302549],[35.626113,47.302571],[35.626252,47.302701],[35.626276,47.302723],[35.628549,47.301598],[35.62855,47.301597],[35.628576,47.301584],[35.628576,47.301585],[35.628686,47.301529],[35.628748,47.301499],[35.629321,47.301214],[35.629354,47.301197],[35.630383,47.300684],[35.630621,47.300558],[35.63114,47.300285],[35.631324,47.300175],[35.631339,47.300187],[35.631371,47.300212],[35.631485,47.300145],[35.632321,47.299641],[35.632995,47.299224],[35.632932,47.299178],[35.632754,47.29905],[35.632681,47.298997],[35.632015,47.299409],[35.631212,47.299891],[35.631258,47.299927],[35.630938,47.300119],[35.630192,47.300512],[35.629448,47.300885],[35.629113,47.301054],[35.628999,47.301112],[35.62887,47.301177],[35.628698,47.301258],[35.628362,47.301424],[35.627828,47.301688],[35.627829,47.301688],[35.62609,47.302549]]]}},{"type":"Feature","properties":{"cadnum":"2325281201:01:001:0027"},"geometry":{"type":"Polygon","coordinates":[[[35.62731,47.300132],[35.627397,47.300309],[35.628748,47.300385],[35.629003,47.300399],[35.628899,47.300195],[35.628576,47.300182],[35.628576,47.300183],[35.62731,47.300132]]]}},{"type":"Feature","properties":{"cadnum":"2325281201:01:001:0043"},"geometry":{"type":"Polygon","coordinates":[[[35.628559,47.31425],[35.628576,47.314251],[35.628576,47.314252],[35.629797,47.314318],[35.629881,47.314103],[35.62861,47.314001],[35.628559,47.31425]]]}},{"type":"Feature","properties":{"cadnum":"2325281201:01:001:0044"},"geometry":{"type":"Polygon","coordinates":[[[35.627427,47.314188],[35.628559,47.31425],[35.62861,47.314001],[35.628203,47.313968],[35.627544,47.313906],[35.627427,47.314188]]]}},{"type":"Feature","properties":{"cadnum":"2325281201:01:010:0136"},"geometry":{"type":"Polygon","coordinates":[[[35.626479,47.315436],[35.626732,47.315473],[35.626842,47.315195],[35.626605,47.315148],[35.626479,47.315436]]]}},{"type":"Feature","properties":{"cadnum":"2325281201:01:001:0055"},"geometry":{"type":"Polygon","coordinates":[[[35.626017,47.313531],[35.626054,47.313539],[35.627285,47.313869],[35.627321,47.313692],[35.626991,47.31361],[35.626962,47.313546],[35.626765,47.313478],[35.626764,47.313478],[35.626832,47.313273],[35.626831,47.313273],[35.626212,47.313112],[35.626017,47.313531]]]}},{"type":"Feature","properties":{"cadnum":"2325281201:01:001:0034"},"geometry":{"type":"Polygon","coordinates":[[[35.625902,47.315784],[35.626583,47.315865],[35.626735,47.315473],[35.626007,47.315367],[35.625902,47.315784]]]}},{"type":"Feature","properties":{"cadnum":"2325281201:01:001:0143"},"geometry":{"type":"Polygon","coordinates":[[[35.624965,47.314672],[35.625182,47.314727],[35.626264,47.314983],[35.62635,47.314778],[35.625912,47.314679],[35.625618,47.314601],[35.62562,47.314589],[35.62543,47.314552],[35.625257,47.314508],[35.625053,47.314459],[35.624965,47.314672]]]}},{"type":"Feature","properties":{"cadnum":"2325281201:01:001:0048"},"geometry":{"type":"Polygon","coordinates":[[[35.625689,47.312715],[35.625806,47.312745],[35.625846,47.312755],[35.626089,47.312804],[35.626135,47.312813],[35.626327,47.312848],[35.62644,47.31261],[35.626326,47.312585],[35.626207,47.312488],[35.626212,47.312475],[35.626203,47.312459],[35.626174,47.312448],[35.625984,47.312413],[35.625971,47.312411],[35.625883,47.312393],[35.625843,47.312396],[35.625814,47.312426],[35.625792,47.312477],[35.625751,47.312574],[35.625743,47.312593],[35.625704,47.31268],[35.625698,47.312693],[35.625689,47.312715]]]}},{"type":"Feature","properties":{"cadnum":"2325281201:01:001:0070"},"geometry":{"type":"Polygon","coordinates":[[[35.622926,47.315029],[35.623083,47.315059],[35.623132,47.315069],[35.623255,47.315092],[35.624212,47.315274],[35.624294,47.315082],[35.623255,47.314845],[35.623029,47.314793],[35.622926,47.315029]]]}},{"type":"Feature","properties":{"cadnum":"2325281201:01:001:0054"},"geometry":{"type":"Polygon","coordinates":[[[35.625391,47.313388],[35.626017,47.313531],[35.626212,47.313112],[35.625588,47.31295],[35.625391,47.313388]]]}},{"type":"Feature","properties":{"cadnum":"2325281201:01:001:0074"},"geometry":{"type":"Polygon","coordinates":[[[35.622297,47.316095],[35.623011,47.316122],[35.623083,47.31612],[35.623083,47.316121],[35.623915,47.316091],[35.623925,47.315989],[35.623634,47.315969],[35.623117,47.315915],[35.622494,47.315849],[35.622488,47.315935],[35.622313,47.315924],[35.622297,47.316095]]]}},{"type":"Feature","properties":{"cadnum":"2325281201:01:001:0141"},"geometry":{"type":"Polygon","coordinates":[[[35.627204,47.314756],[35.628005,47.314823],[35.628576,47.314864],[35.629459,47.314926],[35.629555,47.314618],[35.628748,47.31457],[35.627878,47.314518],[35.627316,47.314468],[35.627204,47.314756]]]}},{"type":"Feature","properties":{"cadnum":"2325281201:01:001:0035"},"geometry":{"type":"Polygon","coordinates":[[[35.625516,47.315738],[35.625902,47.315784],[35.626007,47.315367],[35.625871,47.315346],[35.625626,47.315307],[35.625516,47.315738]]]}},{"type":"Feature","properties":{"cadnum":"2325281201:01:001:0036"},"geometry":{"type":"Polygon","coordinates":[[[35.627668,47.313595],[35.628576,47.313667],[35.628748,47.313681],[35.628811,47.313394],[35.628748,47.313388],[35.62836,47.313354],[35.62778,47.313349],[35.627668,47.313595]]]}},{"type":"Feature","properties":{"cadnum":"2325281201:01:001:0137"},"geometry":{"type":"Polygon","coordinates":[[[35.621521,47.322399],[35.621603,47.322607],[35.622256,47.322503],[35.622584,47.322469],[35.623091,47.322381],[35.623012,47.322208],[35.622785,47.322244],[35.621521,47.322399]]]}},{"type":"Feature","properties":{"cadnum":"2325281201:01:001:0077"},"geometry":{"type":"Polygon","coordinates":[[[35.622064,47.323669],[35.622167,47.323874],[35.623083,47.323641],[35.623092,47.323639],[35.623255,47.323597],[35.623626,47.323502],[35.623547,47.323345],[35.623083,47.323446],[35.623083,47.323447],[35.622064,47.323669]]]}},{"type":"Feature","properties":{"cadnum":"2325281201:01:001:0076"},"geometry":{"type":"Polygon","coordinates":[[[35.620004,47.324121],[35.620139,47.32439],[35.621903,47.323941],[35.622167,47.323874],[35.622064,47.323669],[35.620401,47.324034],[35.620004,47.324121]]]}},{"type":"Feature","properties":{"cadnum":"2325281201:01:001:0046"},"geometry":{"type":"Polygon","coordinates":[[[35.627754,47.307746],[35.628576,47.307895],[35.629156,47.308],[35.629248,47.307794],[35.628709,47.307706],[35.627832,47.307561],[35.627754,47.307746]]]}},{"type":"Feature","properties":{"cadnum":"2325281201:01:001:0038"},"geometry":{"type":"Polygon","coordinates":[[[35.625993,47.306367],[35.62788,47.306713],[35.627939,47.306561],[35.626048,47.306224],[35.625993,47.306367]]]}},{"type":"Feature","properties":{"cadnum":"2325281201:01:001:0039"},"geometry":{"type":"Polygon","coordinates":[[[35.625439,47.306265],[35.625993,47.306367],[35.626048,47.306224],[35.625497,47.306126],[35.625439,47.306265]]]}},{"type":"Feature","properties":{"cadnum":"2325281201:01:001:0066"},"geometry":{"type":"Polygon","coordinates":[[[35.621726,47.314801],[35.622926,47.315029],[35.623029,47.314793],[35.621847,47.314524],[35.621726,47.314801]]]}},{"type":"Feature","properties":{"cadnum":"2325281201:01:001:0078"},"geometry":{"type":"Polygon","coordinates":[[[35.621332,47.316033],[35.621603,47.316068],[35.622297,47.316095],[35.622313,47.315924],[35.621745,47.31589],[35.621434,47.315865],[35.621332,47.316033]]]}},{"type":"Feature","properties":{"cadnum":"2325281201:01:001:0032"},"geometry":{"type":"Polygon","coordinates":[[[35.621084,47.317652],[35.621096,47.317795],[35.623083,47.318081],[35.624218,47.318243],[35.624167,47.318012],[35.623255,47.317905],[35.621084,47.317652]]]}},{"type":"Feature","properties":{"cadnum":"2325281201:01:001:0030"},"geometry":{"type":"Polygon","coordinates":[[[35.622236,47.319785],[35.62238,47.320075],[35.623083,47.320183],[35.623173,47.320197],[35.623255,47.320209],[35.623913,47.32031],[35.623914,47.32031],[35.624713,47.320433],[35.624659,47.320194],[35.624635,47.320085],[35.623083,47.319892],[35.622236,47.319785]]]}},{"type":"Feature","properties":{"cadnum":"2325281201:01:001:0016"},"geometry":{"type":"Polygon","coordinates":[[[35.629062,47.313569],[35.629235,47.313589],[35.629365,47.313604],[35.629817,47.313656],[35.629947,47.313671],[35.62999,47.313676],[35.630007,47.313618],[35.630034,47.31353],[35.630037,47.313522],[35.63005,47.313476],[35.630085,47.313366],[35.630148,47.313178],[35.630215,47.312976],[35.63003,47.312954],[35.629661,47.312905],[35.629614,47.312899],[35.629484,47.312882],[35.629337,47.312863],[35.629271,47.312855],[35.629243,47.312948],[35.629115,47.313322],[35.629081,47.313425],[35.629062,47.313569]]]}},{"type":"Feature","properties":{"cadnum":"2325281201:01:001:0017"},"geometry":{"type":"Polygon","coordinates":[[[35.630493,47.313087],[35.630572,47.313287],[35.631202,47.313406],[35.631185,47.313495],[35.631668,47.313545],[35.631818,47.312816],[35.631855,47.312637],[35.631869,47.312567],[35.632259,47.312595],[35.632421,47.312011],[35.631224,47.311944],[35.631177,47.312116],[35.63111,47.312157],[35.631009,47.312153],[35.630844,47.312146],[35.630576,47.312862],[35.630577,47.312862],[35.630493,47.313087]]]}},{"type":"Feature","properties":{"cadnum":"2325281201:01:001:0026"},"geometry":{"type":"Polygon","coordinates":[[[35.629491,47.292763],[35.632664,47.29276],[35.632664,47.292607],[35.629491,47.29261],[35.629491,47.292763]]]}},{"type":"Feature","properties":{"cadnum":"2325281201:01:001:0056"},"geometry":{"type":"Polygon","coordinates":[[[35.629232,47.292768],[35.629235,47.292872],[35.632468,47.292868],[35.632465,47.292764],[35.629232,47.292768]]]}},{"type":"Feature","properties":{"cadnum":"2325281201:01:001:0018"},"geometry":{"type":"Polygon","coordinates":[[[35.628162,47.310599],[35.628576,47.310698],[35.628576,47.310699],[35.628588,47.310701],[35.628603,47.310691],[35.628634,47.31066],[35.628654,47.310625],[35.628748,47.310413],[35.628784,47.310331],[35.628748,47.310321],[35.62835,47.310211],[35.62833,47.310254],[35.628162,47.310599]]]}},{"type":"Feature","properties":{"cadnum":"2325281201:01:001:0047"},"geometry":{"type":"Polygon","coordinates":[[[35.629156,47.308],[35.629634,47.308087],[35.629715,47.307871],[35.629248,47.307794],[35.629156,47.308]]]}},{"type":"Feature","properties":{"cadnum":"2325281201:01:001:0015"},"geometry":{"type":"Polygon","coordinates":[[[35.629085,47.31959],[35.629844,47.319652],[35.629822,47.319952],[35.630624,47.319979],[35.630876,47.318297],[35.629095,47.31815],[35.62909,47.318924],[35.629086,47.319428],[35.629085,47.31959]]]}},{"type":"Feature","properties":{"cadnum":"2325281201:01:001:0139"},"geometry":{"type":"Polygon","coordinates":[[[35.623616,47.325095],[35.623679,47.325343],[35.624923,47.325249],[35.624683,47.325005],[35.623616,47.325095]]]}},{"type":"Feature","properties":{"cadnum":"2325281201:01:001:0134"},"geometry":{"type":"Polygon","coordinates":[[[35.631723,47.299579],[35.633357,47.298573],[35.631802,47.298511],[35.631723,47.299579]]]}},{"type":"Feature","properties":{"cadnum":"2325281201:01:001:0115"},"geometry":{"type":"Polygon","coordinates":[[[35.629618,47.301088],[35.629869,47.301282],[35.630772,47.301399],[35.631367,47.301462],[35.631403,47.301298],[35.630752,47.301255],[35.630597,47.30088],[35.630587,47.300821],[35.63042,47.30078],[35.630318,47.300743],[35.629618,47.301088]]]}},{"type":"Feature","properties":{"cadnum":"2325281201:01:001:0057"},"geometry":{"type":"Polygon","coordinates":[[[35.630243,47.311555],[35.630385,47.311574],[35.630434,47.311412],[35.63029,47.311393],[35.630243,47.311555]]]}},{"type":"Feature","properties":{"cadnum":"2325281201:01:001:0014"},"geometry":{"type":"Polygon","coordinates":[[[35.62883,47.312234],[35.629325,47.312282],[35.629327,47.312273],[35.629341,47.31221],[35.629342,47.312201],[35.628847,47.312153],[35.62883,47.312234]]]}},{"type":"Feature","properties":{"cadnum":"2325281201:01:001:0058"},"geometry":{"type":"Polygon","coordinates":[[[35.630451,47.311583],[35.630552,47.31169],[35.63073,47.311713],[35.630748,47.311672],[35.63073,47.311622],[35.630777,47.311461],[35.630498,47.311422],[35.630451,47.311583]]]}},{"type":"Feature","properties":{"cadnum":"2325281201:01:001:0024"},"geometry":{"type":"Polygon","coordinates":[[[35.62516,47.321053],[35.62519,47.321202],[35.626522,47.321225],[35.626522,47.321109],[35.62516,47.321053]]]}},{"type":"Feature","properties":{"cadnum":"2325281201:01:001:0031"},"geometry":{"type":"Polygon","coordinates":[[[35.626522,47.321225],[35.626904,47.321233],[35.626882,47.321124],[35.626522,47.321109],[35.626522,47.321225]]]}},{"type":"Feature","properties":{"cadnum":"2325281201:01:001:0073"},"geometry":{"type":"Polygon","coordinates":[[[35.625378,47.321959],[35.625478,47.322346],[35.626307,47.322371],[35.626217,47.322034],[35.625378,47.321959]]]}},{"type":"Feature","properties":{"cadnum":"2325281201:01:001:0052"},"geometry":{"type":"Polygon","coordinates":[[[35.623202,47.322073],[35.623286,47.322263],[35.623708,47.322182],[35.62398,47.322155],[35.623951,47.321995],[35.623943,47.321955],[35.623636,47.321995],[35.623202,47.322073]]]}},{"type":"Feature","properties":{"cadnum":"2325281201:01:001:0029"},"geometry":{"type":"Polygon","coordinates":[[[35.625127,47.320875],[35.625165,47.321054],[35.626881,47.321121],[35.62684,47.32099],[35.625127,47.320875]]]}},{"type":"Feature","properties":{"cadnum":"2325281201:01:001:0072"},"geometry":{"type":"Polygon","coordinates":[[[35.626217,47.322034],[35.626307,47.322371],[35.627321,47.322402],[35.627207,47.322122],[35.626217,47.322034]]]}},{"type":"Feature","properties":{"cadnum":"2325281201:01:001:0053"},"geometry":{"type":"Polygon","coordinates":[[[35.620268,47.324888],[35.620291,47.325099],[35.621542,47.324872],[35.621485,47.324735],[35.62147,47.324703],[35.620268,47.324888]]]}},{"type":"Feature","properties":{"cadnum":"2325281201:01:001:0067"},"geometry":{"type":"Polygon","coordinates":[[[35.622261,47.327551],[35.622396,47.327675],[35.623043,47.327462],[35.622917,47.327333],[35.622261,47.327551]]]}},{"type":"Feature","properties":{"cadnum":"2325281201:01:001:0111"},"geometry":{"type":"Polygon","coordinates":[[[35.617507,47.318917],[35.617622,47.318995],[35.617762,47.319064],[35.617833,47.319099],[35.618637,47.318416],[35.618592,47.318269],[35.618525,47.318084],[35.617762,47.318709],[35.617507,47.318917]]]}},{"type":"Feature","properties":{"cadnum":"2325281201:01:001:0130"},"geometry":{"type":"Polygon","coordinates":[[[35.624989,47.329694],[35.625107,47.329855],[35.626412,47.329431],[35.62629,47.329268],[35.624989,47.329694]]]}},{"type":"Feature","properties":{"cadnum":"2325281201:01:001:0041"},"geometry":{"type":"Polygon","coordinates":[[[35.626453,47.32994],[35.626649,47.330314],[35.627552,47.330058],[35.6273,47.3297],[35.626453,47.32994]]]}},{"type":"Feature","properties":{"cadnum":"2325281201:01:001:0131"},"geometry":{"type":"Polygon","coordinates":[[[35.62629,47.329268],[35.626412,47.329431],[35.627171,47.329188],[35.627857,47.32896],[35.627741,47.328793],[35.627658,47.328821],[35.62629,47.329268]]]}},{"type":"Feature","properties":{"cadnum":"2325281201:01:001:0040"},"geometry":{"type":"Polygon","coordinates":[[[35.6273,47.3297],[35.627552,47.330058],[35.628037,47.32992],[35.627911,47.329741],[35.628328,47.329623],[35.628201,47.329444],[35.6273,47.3297]]]}},{"type":"Feature","properties":{"cadnum":"2325281201:01:001:0112"},"geometry":{"type":"Polygon","coordinates":[[[35.618138,47.319245],[35.618565,47.319543],[35.618892,47.319804],[35.618946,47.319779],[35.618801,47.319565],[35.61871,47.319381],[35.618703,47.319286],[35.618761,47.318904],[35.618714,47.318747],[35.618138,47.319245]]]}},{"type":"Feature","properties":{"cadnum":"2325281201:01:001:0075"},"geometry":{"type":"Polygon","coordinates":[[[35.620212,47.319289],[35.62031,47.319431],[35.620713,47.319252],[35.620693,47.31922],[35.620986,47.319108],[35.621451,47.318939],[35.621324,47.318755],[35.620827,47.318914],[35.620316,47.319061],[35.620424,47.319204],[35.620212,47.319289]]]}},{"type":"Feature","properties":{"cadnum":"2325281201:01:001:0051"},"geometry":{"type":"Polygon","coordinates":[[[35.62111,47.318099],[35.621451,47.3186],[35.621863,47.318673],[35.622005,47.318232],[35.62111,47.318099]]]}},{"type":"Feature","properties":{"cadnum":"2325281201:01:001:0061"},"geometry":{"type":"Polygon","coordinates":[[[35.621863,47.318673],[35.622403,47.318769],[35.6225,47.318387],[35.622527,47.318309],[35.622005,47.318232],[35.621863,47.318673]]]}},{"type":"Feature","properties":{"cadnum":"2325281201:01:001:0123"},"geometry":{"type":"Polygon","coordinates":[[[35.619135,47.319714],[35.619261,47.319893],[35.62031,47.319431],[35.620212,47.319289],[35.619135,47.319714]]]}}]}