{"type":"FeatureCollection","features":[{"type":"Feature","properties":{"cadnum":"2325280803:01:001:0006"},"geometry":{"type":"Polygon","coordinates":[[[35.577664,47.182365],[35.577703,47.182463],[35.578525,47.182333],[35.578528,47.182333],[35.578526,47.182291],[35.578525,47.182256],[35.577786,47.182349],[35.577664,47.182365]]]}},{"type":"Feature","properties":{"cadnum":"2325280803:01:001:0005"},"geometry":{"type":"Polygon","coordinates":[[[35.577551,47.182201],[35.577575,47.182232],[35.577575,47.182233],[35.577574,47.182233],[35.577654,47.182338],[35.577655,47.182338],[35.578522,47.182229],[35.578493,47.181985],[35.577551,47.182201]]]}},{"type":"Feature","properties":{"cadnum":"2325280803:01:001:0007"},"geometry":{"type":"Polygon","coordinates":[[[35.570571,47.169895],[35.570645,47.170055],[35.571088,47.171026],[35.571091,47.171031],[35.57109,47.171031],[35.571468,47.17175],[35.572148,47.172394],[35.572521,47.172746],[35.573645,47.173814],[35.573664,47.173833],[35.573816,47.173977],[35.574083,47.174231],[35.574641,47.174765],[35.574701,47.174822],[35.574763,47.174882],[35.575867,47.175935],[35.577223,47.177236],[35.577929,47.177948],[35.578165,47.178237],[35.578166,47.178237],[35.578326,47.178499],[35.578325,47.178499],[35.578638,47.179007],[35.578965,47.179806],[35.579037,47.180215],[35.579135,47.181697],[35.579138,47.181751],[35.579138,47.181752],[35.579159,47.182191],[35.579165,47.182253],[35.579309,47.18225],[35.579309,47.182249],[35.57931,47.182249],[35.579323,47.182249],[35.579318,47.182186],[35.579293,47.181693],[35.579195,47.180207],[35.57912,47.179785],[35.578786,47.178971],[35.578512,47.178524],[35.578309,47.17819],[35.578064,47.177891],[35.577353,47.177174],[35.575997,47.175873],[35.574837,47.174765],[35.574212,47.174168],[35.573739,47.173719],[35.57265,47.172682],[35.572275,47.172331],[35.571609,47.171699],[35.571319,47.171148],[35.571319,47.171147],[35.571239,47.170992],[35.570796,47.170023],[35.570724,47.169866],[35.570571,47.169895]]]}}]}