{"type":"FeatureCollection","features":[{"type":"Feature","properties":{"cadnum":"2325282401:01:001:0024"},"geometry":{"type":"Polygon","coordinates":[[[35.793322,47.335107],[35.793371,47.33511],[35.793638,47.335125],[35.793795,47.333853],[35.793478,47.333834],[35.793322,47.335107]]]}},{"type":"Feature","properties":{"cadnum":"2325282401:01:001:0023"},"geometry":{"type":"Polygon","coordinates":[[[35.788763,47.33499],[35.789424,47.335008],[35.789381,47.333843],[35.788833,47.333797],[35.788789,47.334541],[35.788763,47.33499]]]}},{"type":"Feature","properties":{"cadnum":"2325282401:01:002:0035"},"geometry":{"type":"Polygon","coordinates":[[[35.789896,47.334224],[35.789876,47.334501],[35.789935,47.334902],[35.79033,47.33492],[35.790338,47.334505],[35.790354,47.334245],[35.789896,47.334224]]]}},{"type":"Feature","properties":{"cadnum":"2325282401:01:002:0036"},"geometry":{"type":"Polygon","coordinates":[[[35.794668,47.336848],[35.795155,47.336905],[35.795867,47.336989],[35.79593,47.336713],[35.795227,47.336625],[35.794731,47.336563],[35.794668,47.336848]]]}},{"type":"Feature","properties":{"cadnum":"2325282401:01:002:0011"},"geometry":{"type":"Polygon","coordinates":[[[35.794641,47.337314],[35.794644,47.33756],[35.795846,47.337559],[35.795843,47.33731],[35.794641,47.337314]]]}},{"type":"Feature","properties":{"cadnum":"2325282401:01:002:0008"},"geometry":{"type":"Polygon","coordinates":[[[35.794635,47.337071],[35.794641,47.337314],[35.795892,47.33731],[35.795886,47.337078],[35.794635,47.337071]]]}},{"type":"Feature","properties":{"cadnum":"2325282401:01:002:0006"},"geometry":{"type":"Polygon","coordinates":[[[35.794639,47.337801],[35.795911,47.337786],[35.795914,47.337559],[35.794644,47.33756],[35.794639,47.337801]]]}},{"type":"Feature","properties":{"cadnum":"2325282401:01:001:0019"},"geometry":{"type":"Polygon","coordinates":[[[35.796204,47.350006],[35.796209,47.350092],[35.79621,47.350092],[35.796233,47.350424],[35.796943,47.350401],[35.796913,47.349982],[35.796204,47.350006]]]}},{"type":"Feature","properties":{"cadnum":"2325282401:01:001:0047"},"geometry":{"type":"Polygon","coordinates":[[[35.794808,47.350366],[35.795285,47.350458],[35.795738,47.350473],[35.795742,47.350135],[35.794812,47.350104],[35.794808,47.350366]]]}},{"type":"Feature","properties":{"cadnum":"2325282401:01:001:0020"},"geometry":{"type":"Polygon","coordinates":[[[35.795793,47.350019],[35.795794,47.350034],[35.795796,47.350058],[35.795797,47.350092],[35.795798,47.350092],[35.795823,47.350437],[35.796233,47.350424],[35.796204,47.350006],[35.795793,47.350019]]]}},{"type":"Feature","properties":{"cadnum":"2325282401:01:001:0013"},"geometry":{"type":"Polygon","coordinates":[[[35.794719,47.350068],[35.795796,47.350058],[35.795794,47.350034],[35.795793,47.350019],[35.79578,47.349821],[35.794724,47.349834],[35.794721,47.349976],[35.79472,47.349976],[35.794719,47.350068]]]}},{"type":"Feature","properties":{"cadnum":"2325282401:01:001:0036"},"geometry":{"type":"Polygon","coordinates":[[[35.786282,47.346198],[35.78629,47.34637],[35.786291,47.34637],[35.786294,47.346435],[35.786819,47.346437],[35.787572,47.346429],[35.787567,47.346337],[35.78756,47.346206],[35.786282,47.346198]]]}},{"type":"Feature","properties":{"cadnum":"2325282401:01:001:0030"},"geometry":{"type":"Polygon","coordinates":[[[35.787761,47.346204],[35.787765,47.34637],[35.787766,47.34637],[35.787768,47.346447],[35.787878,47.346443],[35.787938,47.346441],[35.78805,47.346437],[35.78805,47.346436],[35.788333,47.346425],[35.788849,47.346406],[35.788848,47.346396],[35.788843,47.346298],[35.788838,47.346193],[35.78805,47.346201],[35.787761,47.346204]]]}},{"type":"Feature","properties":{"cadnum":"2325282401:01:001:0004"},"geometry":{"type":"Polygon","coordinates":[[[35.790555,47.351091],[35.790843,47.351116],[35.791028,47.350151],[35.79071,47.350123],[35.790555,47.351091]]]}},{"type":"Feature","properties":{"cadnum":"2325282401:01:001:0121"},"geometry":{"type":"Polygon","coordinates":[[[35.789426,47.342983],[35.789435,47.343177],[35.789439,47.343263],[35.790009,47.343255],[35.790206,47.343252],[35.790197,47.343171],[35.790154,47.342793],[35.789685,47.342803],[35.78969,47.342981],[35.789426,47.342983]]]}},{"type":"Feature","properties":{"cadnum":"2325282401:01:001:0122"},"geometry":{"type":"Polygon","coordinates":[[[35.789423,47.342648],[35.789424,47.342648],[35.789422,47.342882],[35.789426,47.342983],[35.78969,47.342981],[35.789685,47.342803],[35.790154,47.342793],[35.790131,47.342603],[35.790106,47.342369],[35.790096,47.342258],[35.789625,47.342271],[35.789625,47.342326],[35.789567,47.342326],[35.789566,47.342326],[35.789565,47.342272],[35.789428,47.342273],[35.789425,47.342532],[35.789424,47.342532],[35.789424,47.342555],[35.789423,47.342648]]]}},{"type":"Feature","properties":{"cadnum":"2325282401:01:001:0005"},"geometry":{"type":"Polygon","coordinates":[[[35.790367,47.343695],[35.790415,47.344387],[35.791274,47.344359],[35.791225,47.343668],[35.790367,47.343695]]]}},{"type":"Feature","properties":{"cadnum":"2325282401:01:001:0008"},"geometry":{"type":"Polygon","coordinates":[[[35.78875,47.344423],[35.788775,47.344733],[35.789159,47.344717],[35.789143,47.344412],[35.78875,47.344423]]]}},{"type":"Feature","properties":{"cadnum":"2325282401:01:001:0007"},"geometry":{"type":"Polygon","coordinates":[[[35.789143,47.344412],[35.789159,47.344717],[35.789566,47.3447],[35.789623,47.344699],[35.790142,47.34469],[35.790127,47.344384],[35.789143,47.344412]]]}},{"type":"Feature","properties":{"cadnum":"2325282401:01:001:0006"},"geometry":{"type":"Polygon","coordinates":[[[35.788798,47.344992],[35.788802,47.345037],[35.788814,47.345201],[35.790171,47.345154],[35.790157,47.344946],[35.788798,47.344992]]]}},{"type":"Feature","properties":{"cadnum":"2325282401:01:001:0021"},"geometry":{"type":"Polygon","coordinates":[[[35.797411,47.346846],[35.797432,47.34724],[35.797645,47.347234],[35.797624,47.346841],[35.797411,47.346846]]]}},{"type":"Feature","properties":{"cadnum":"2325282401:01:001:0014"},"geometry":{"type":"Polygon","coordinates":[[[35.798678,47.346209],[35.798678,47.34635],[35.79886,47.34635],[35.79886,47.346289],[35.798889,47.346289],[35.798889,47.346237],[35.79886,47.346237],[35.79886,47.346209],[35.798678,47.346209]]]}},{"type":"Feature","properties":{"cadnum":"2325282401:01:001:0017"},"geometry":{"type":"Polygon","coordinates":[[[35.793802,47.348066],[35.793824,47.348333],[35.794451,47.348311],[35.794445,47.348035],[35.793802,47.348066]]]}},{"type":"Feature","properties":{"cadnum":"2325282401:01:001:0028"},"geometry":{"type":"Polygon","coordinates":[[[35.793292,47.348667],[35.7933,47.348955],[35.793371,47.348955],[35.793497,47.348955],[35.793543,47.348954],[35.793681,47.348954],[35.794211,47.348954],[35.794203,47.348662],[35.794083,47.348662],[35.793672,47.348669],[35.793451,47.348668],[35.793292,47.348667]]]}},{"type":"Feature","properties":{"cadnum":"2325282401:01:001:0022"},"geometry":{"type":"Polygon","coordinates":[[[35.797014,47.346856],[35.797032,47.347207],[35.797347,47.347199],[35.797348,47.347199],[35.797349,47.347242],[35.797432,47.34724],[35.797411,47.346846],[35.797014,47.346856]]]}},{"type":"Feature","properties":{"cadnum":"2325282401:01:001:0061"},"geometry":{"type":"Polygon","coordinates":[[[35.794716,47.349576],[35.794724,47.349834],[35.795785,47.34982],[35.795784,47.349751],[35.79577,47.349572],[35.794716,47.349576]]]}},{"type":"Feature","properties":{"cadnum":"2325282401:01:001:0018"},"geometry":{"type":"Polygon","coordinates":[[[35.79578,47.349821],[35.795793,47.350018],[35.795793,47.350019],[35.796913,47.349982],[35.7969,47.349785],[35.79578,47.349821]]]}},{"type":"Feature","properties":{"cadnum":"2325282401:01:001:0015"},"geometry":{"type":"Polygon","coordinates":[[[35.800826,47.333266],[35.802481,47.333431],[35.802847,47.331828],[35.802687,47.331716],[35.802284,47.33172],[35.802143,47.332019],[35.801089,47.332114],[35.800826,47.333266]]]}},{"type":"Feature","properties":{"cadnum":"2325282401:01:001:0050"},"geometry":{"type":"Polygon","coordinates":[[[35.788027,47.346465],[35.788036,47.346854],[35.788039,47.346872],[35.788306,47.346865],[35.788877,47.346874],[35.788864,47.346607],[35.788864,47.346606],[35.788857,47.346587],[35.788317,47.346591],[35.788331,47.346443],[35.788027,47.346465]]]}},{"type":"Feature","properties":{"cadnum":"2325282401:01:001:0033"},"geometry":{"type":"Polygon","coordinates":[[[35.792312,47.347772],[35.792322,47.347938],[35.79321,47.347923],[35.7932,47.347654],[35.793036,47.347663],[35.792883,47.347704],[35.792812,47.347735],[35.792698,47.347746],[35.792544,47.34776],[35.792312,47.347772]]]}},{"type":"Feature","properties":{"cadnum":"2325282401:01:001:0045"},"geometry":{"type":"Polygon","coordinates":[[[35.792322,47.347939],[35.792332,47.348078],[35.793234,47.348058],[35.793216,47.347922],[35.792322,47.347939]]]}},{"type":"Feature","properties":{"cadnum":"2325282401:01:001:0040"},"geometry":{"type":"Polygon","coordinates":[[[35.789093,47.349461],[35.790143,47.349402],[35.790142,47.349204],[35.789101,47.349246],[35.789093,47.349461]]]}},{"type":"Feature","properties":{"cadnum":"2325282401:01:001:0037"},"geometry":{"type":"Polygon","coordinates":[[[35.789084,47.349665],[35.790145,47.349601],[35.790143,47.349402],[35.789093,47.349461],[35.789084,47.349665]]]}},{"type":"Feature","properties":{"cadnum":"2325282401:01:001:0032"},"geometry":{"type":"Polygon","coordinates":[[[35.788814,47.348188],[35.78883,47.348415],[35.790134,47.348367],[35.790131,47.348141],[35.788814,47.348188]]]}},{"type":"Feature","properties":{"cadnum":"2325282401:01:001:0035"},"geometry":{"type":"Polygon","coordinates":[[[35.788775,47.348417],[35.788787,47.348633],[35.790135,47.348591],[35.790134,47.348367],[35.788775,47.348417]]]}},{"type":"Feature","properties":{"cadnum":"2325282401:01:001:0031"},"geometry":{"type":"Polygon","coordinates":[[[35.790355,47.347705],[35.790356,47.347826],[35.791117,47.347822],[35.791107,47.347695],[35.790355,47.347705]]]}},{"type":"Feature","properties":{"cadnum":"2325282401:01:001:0066"},"geometry":{"type":"Polygon","coordinates":[[[35.790356,47.34794],[35.791389,47.347925],[35.791389,47.347828],[35.791117,47.347822],[35.790356,47.347826],[35.790356,47.34794]]]}},{"type":"Feature","properties":{"cadnum":"2325282401:01:001:0016"},"geometry":{"type":"Polygon","coordinates":[[[35.791329,47.348304],[35.791342,47.348435],[35.791364,47.348645],[35.792239,47.348604],[35.792225,47.348378],[35.791829,47.348383],[35.791799,47.348253],[35.791329,47.348304]]]}},{"type":"Feature","properties":{"cadnum":"2325282401:01:001:0108"},"geometry":{"type":"Polygon","coordinates":[[[35.791382,47.349186],[35.791389,47.349331],[35.791394,47.349456],[35.792322,47.34942],[35.792293,47.34916],[35.791761,47.349178],[35.791382,47.349186]]]}},{"type":"Feature","properties":{"cadnum":"2325282401:01:001:0012"},"geometry":{"type":"Polygon","coordinates":[[[35.791364,47.348645],[35.791366,47.348678],[35.791385,47.348901],[35.791389,47.348934],[35.792265,47.348899],[35.792239,47.348604],[35.791364,47.348645]]]}},{"type":"Feature","properties":{"cadnum":"2325282401:01:001:0027"},"geometry":{"type":"Polygon","coordinates":[[[35.725267,47.433927],[35.725955,47.434657],[35.726222,47.434563],[35.725518,47.433817],[35.725267,47.433927]]]}},{"type":"Feature","properties":{"cadnum":"2325282401:01:001:0025"},"geometry":{"type":"Polygon","coordinates":[[[35.793638,47.335125],[35.793955,47.335143],[35.794105,47.333924],[35.793788,47.333906],[35.793638,47.335125]]]}},{"type":"Feature","properties":{"cadnum":"2325282401:01:001:0009"},"geometry":{"type":"Polygon","coordinates":[[[35.796137,47.34526],[35.796163,47.345647],[35.796165,47.345666],[35.796638,47.345651],[35.796597,47.345238],[35.796137,47.34526]]]}},{"type":"Feature","properties":{"cadnum":"2325282401:01:001:0041"},"geometry":{"type":"Polygon","coordinates":[[[35.79518,47.346045],[35.795616,47.346042],[35.795604,47.345729],[35.795184,47.345749],[35.79518,47.346045]]]}}]}