{"type":"FeatureCollection","features":[{"type":"Feature","properties":{"cadnum":"2325280804:01:001:0005"},"geometry":{"type":"Polygon","coordinates":[[[35.519207,47.100152],[35.519279,47.100582],[35.519629,47.102527],[35.519831,47.10377],[35.51983,47.10377],[35.51994,47.104438],[35.520116,47.105449],[35.520251,47.1061],[35.520534,47.106733],[35.520751,47.107125],[35.52096,47.107509],[35.520959,47.107509],[35.520969,47.107526],[35.521026,47.107626],[35.521027,47.107626],[35.521427,47.108311],[35.521812,47.108831],[35.522484,47.10956],[35.523652,47.110879],[35.524083,47.111365],[35.524084,47.111365],[35.524206,47.111502],[35.524206,47.111503],[35.525642,47.113117],[35.52684,47.114488],[35.527371,47.115103],[35.527372,47.115103],[35.527414,47.115152],[35.52789,47.115624],[35.529085,47.116547],[35.529699,47.116998],[35.529699,47.116999],[35.530196,47.117363],[35.531309,47.118014],[35.532276,47.118724],[35.532396,47.118812],[35.532435,47.118841],[35.532599,47.118961],[35.534234,47.120173],[35.535192,47.120899],[35.535199,47.120904],[35.535253,47.12087],[35.535364,47.1208],[35.535364,47.120799],[35.535378,47.120791],[35.535431,47.120757],[35.535364,47.120706],[35.534479,47.120029],[35.532836,47.118817],[35.532835,47.118816],[35.531529,47.117857],[35.530418,47.117207],[35.529871,47.116805],[35.529318,47.116399],[35.528141,47.115491],[35.527681,47.115036],[35.527112,47.114378],[35.525913,47.113],[35.524351,47.111248],[35.523923,47.110768],[35.522752,47.109443],[35.522091,47.108726],[35.521722,47.108223],[35.521301,47.107509],[35.521266,47.10745],[35.521048,47.10705],[35.520835,47.106662],[35.520565,47.106059],[35.520399,47.105238],[35.520297,47.104783],[35.520215,47.104348],[35.520187,47.10416],[35.520157,47.103969],[35.520141,47.103871],[35.520047,47.103261],[35.519948,47.10251],[35.519593,47.100556],[35.519514,47.100083],[35.519484,47.10009],[35.519223,47.100145],[35.519215,47.100148],[35.519207,47.100152]]]}},{"type":"Feature","properties":{"cadnum":"2325280804:01:001:0004"},"geometry":{"type":"Polygon","coordinates":[[[35.520047,47.103261],[35.520126,47.10377],[35.520125,47.10377],[35.520141,47.103871],[35.520144,47.103887],[35.520157,47.103969],[35.520734,47.103904],[35.520758,47.104121],[35.520187,47.10416],[35.520215,47.104348],[35.52262,47.103774],[35.52207,47.102782],[35.520047,47.103261]]]}},{"type":"Feature","properties":{"cadnum":"2325280804:01:001:0002"},"geometry":{"type":"Polygon","coordinates":[[[35.520297,47.104783],[35.520399,47.105238],[35.52099,47.10506],[35.520832,47.10464],[35.520297,47.104783]]]}},{"type":"Feature","properties":{"cadnum":"2325280804:01:001:0003"},"geometry":{"type":"Polygon","coordinates":[[[35.520157,47.103969],[35.520187,47.10416],[35.520758,47.104121],[35.520734,47.103904],[35.520157,47.103969]]]}},{"type":"Feature","properties":{"cadnum":"2325280804:01:001:0001"},"geometry":{"type":"Polygon","coordinates":[[[35.520832,47.10464],[35.52099,47.10506],[35.521123,47.105246],[35.523014,47.104585],[35.522786,47.10412],[35.520832,47.10464]]]}}]}