{"type":"FeatureCollection","features":[{"type":"Feature","properties":{"cadnum":"2325282403:01:001:0006"},"geometry":{"type":"Polygon","coordinates":[[[35.845952,47.367943],[35.846616,47.368697],[35.846926,47.369048],[35.847919,47.368581],[35.848303,47.368401],[35.848422,47.368345],[35.847502,47.367214],[35.845952,47.367943]]]}},{"type":"Feature","properties":{"cadnum":"2325282403:01:001:0003"},"geometry":{"type":"Polygon","coordinates":[[[35.846926,47.369048],[35.847808,47.370052],[35.848475,47.369737],[35.849353,47.369321],[35.848757,47.368698],[35.848757,47.368697],[35.848422,47.368345],[35.847671,47.368697],[35.847671,47.368698],[35.846926,47.369048]]]}},{"type":"Feature","properties":{"cadnum":"2325282403:01:001:0007"},"geometry":{"type":"Polygon","coordinates":[[[35.845373,47.367285],[35.845952,47.367943],[35.847502,47.367214],[35.846869,47.366582],[35.845373,47.367285]]]}},{"type":"Feature","properties":{"cadnum":"2325282403:01:001:0002"},"geometry":{"type":"Polygon","coordinates":[[[35.826847,47.333866],[35.826867,47.334307],[35.827603,47.334321],[35.827608,47.333967],[35.826847,47.333866]]]}},{"type":"Feature","properties":{"cadnum":"2325282403:01:001:0001"},"geometry":{"type":"Polygon","coordinates":[[[35.826867,47.334307],[35.826892,47.334888],[35.827596,47.334897],[35.827603,47.334322],[35.827603,47.334321],[35.826867,47.334307]]]}},{"type":"Feature","properties":{"cadnum":"2325282403:01:001:0004"},"geometry":{"type":"Polygon","coordinates":[[[35.847808,47.370052],[35.848303,47.370514],[35.848385,47.37059],[35.848475,47.370674],[35.848491,47.370688],[35.850019,47.369971],[35.849353,47.369321],[35.848303,47.369818],[35.847808,47.370052]]]}},{"type":"Feature","properties":{"cadnum":"2325282403:01:001:0005"},"geometry":{"type":"Polygon","coordinates":[[[35.848491,47.370688],[35.849168,47.371315],[35.850689,47.370602],[35.850019,47.369971],[35.848491,47.370688]]]}}]}