{"type":"FeatureCollection","features":[{"type":"Feature","properties":{"cadnum":"2325284401:16:001:0014"},"geometry":{"type":"Polygon","coordinates":[[[35.50634,47.358789],[35.507727,47.358943],[35.51322,47.359555],[35.518506,47.360143],[35.518435,47.359939],[35.513392,47.359377],[35.513391,47.359377],[35.507898,47.358766],[35.506371,47.358595],[35.50634,47.358789]]]}},{"type":"Feature","properties":{"cadnum":"2325284401:16:001:0010"},"geometry":{"type":"Polygon","coordinates":[[[35.506217,47.359545],[35.507727,47.359714],[35.51322,47.360326],[35.518783,47.360944],[35.518716,47.360747],[35.513392,47.360155],[35.513391,47.360155],[35.507898,47.359543],[35.506247,47.359358],[35.506217,47.359545]]]}},{"type":"Feature","properties":{"cadnum":"2325284401:16:001:0021"},"geometry":{"type":"Polygon","coordinates":[[[35.506565,47.357401],[35.506727,47.357419],[35.506728,47.357419],[35.507727,47.35753],[35.51322,47.358143],[35.517997,47.358674],[35.51792,47.358456],[35.513392,47.357952],[35.513391,47.357952],[35.508605,47.357419],[35.508602,47.357419],[35.507888,47.357339],[35.506599,47.357195],[35.506565,47.357401]]]}},{"type":"Feature","properties":{"cadnum":"2325284401:16:001:0007"},"geometry":{"type":"Polygon","coordinates":[[[35.506127,47.360097],[35.507727,47.360276],[35.51322,47.360887],[35.515959,47.361192],[35.518713,47.361499],[35.518713,47.3615],[35.518747,47.361503],[35.518885,47.361519],[35.518885,47.361518],[35.518987,47.361529],[35.51892,47.361336],[35.518754,47.361318],[35.518201,47.361256],[35.517999,47.361234],[35.517157,47.36114],[35.517156,47.36114],[35.513392,47.360721],[35.513391,47.360721],[35.507898,47.360109],[35.506156,47.359914],[35.506127,47.360097]]]}},{"type":"Feature","properties":{"cadnum":"2325284401:16:001:0005"},"geometry":{"type":"Polygon","coordinates":[[[35.506068,47.360458],[35.507727,47.360644],[35.512936,47.361223],[35.51322,47.361255],[35.518713,47.361867],[35.518737,47.36187],[35.518885,47.361886],[35.519121,47.361912],[35.519054,47.361721],[35.518739,47.361687],[35.514876,47.361256],[35.51322,47.361072],[35.507898,47.360479],[35.506097,47.360279],[35.506068,47.360458]]]}},{"type":"Feature","properties":{"cadnum":"2325284401:16:001:0001"},"geometry":{"type":"Polygon","coordinates":[[[35.505952,47.361164],[35.507727,47.361362],[35.51322,47.361975],[35.518713,47.362586],[35.519382,47.36266],[35.519318,47.362475],[35.518885,47.362427],[35.513392,47.361816],[35.513391,47.361816],[35.508372,47.361256],[35.507898,47.361203],[35.507898,47.361202],[35.505982,47.36099],[35.505957,47.36114],[35.505956,47.36114],[35.505952,47.361164]]]}},{"type":"Feature","properties":{"cadnum":"2325284401:16:001:0002"},"geometry":{"type":"Polygon","coordinates":[[[35.505982,47.36099],[35.507727,47.361183],[35.507727,47.361184],[35.51322,47.361796],[35.51322,47.361797],[35.518713,47.362408],[35.519318,47.362475],[35.519252,47.362289],[35.518885,47.362248],[35.513392,47.361637],[35.513391,47.361637],[35.50998,47.361256],[35.509607,47.361215],[35.508936,47.36114],[35.508935,47.36114],[35.507898,47.361024],[35.50601,47.360814],[35.505982,47.36099]]]}},{"type":"Feature","properties":{"cadnum":"2325284401:16:001:0015"},"geometry":{"type":"Polygon","coordinates":[[[35.506371,47.358595],[35.507727,47.358747],[35.51322,47.359358],[35.518435,47.359939],[35.518363,47.359733],[35.513392,47.359179],[35.513391,47.359179],[35.507898,47.358568],[35.506403,47.358401],[35.506371,47.358595]]]}},{"type":"Feature","properties":{"cadnum":"2325284401:16:001:0008"},"geometry":{"type":"Polygon","coordinates":[[[35.506156,47.359914],[35.507727,47.36009],[35.51322,47.360702],[35.517999,47.361234],[35.518713,47.361313],[35.518754,47.361318],[35.518885,47.361332],[35.51892,47.361336],[35.518885,47.361236],[35.518851,47.361141],[35.513392,47.360533],[35.513391,47.360533],[35.507898,47.359922],[35.506187,47.359731],[35.506156,47.359914]]]}},{"type":"Feature","properties":{"cadnum":"2325284401:16:001:0018"},"geometry":{"type":"Polygon","coordinates":[[[35.506467,47.358006],[35.507727,47.358147],[35.513391,47.358779],[35.513391,47.358778],[35.513392,47.358778],[35.518219,47.359316],[35.518146,47.359104],[35.513392,47.358575],[35.513391,47.358575],[35.507898,47.357963],[35.5065,47.357807],[35.506467,47.358006]]]}},{"type":"Feature","properties":{"cadnum":"2325284401:16:001:0011"},"geometry":{"type":"Polygon","coordinates":[[[35.506247,47.359358],[35.507727,47.359524],[35.51322,47.360136],[35.518716,47.360747],[35.518646,47.360547],[35.513392,47.359962],[35.513391,47.359962],[35.507898,47.359351],[35.506278,47.35917],[35.506247,47.359358]]]}},{"type":"Feature","properties":{"cadnum":"2325284401:16:001:0016"},"geometry":{"type":"Polygon","coordinates":[[[35.506403,47.358401],[35.507727,47.358549],[35.51322,47.35916],[35.518363,47.359733],[35.518292,47.359525],[35.513392,47.358979],[35.513391,47.358979],[35.507898,47.358368],[35.506435,47.358205],[35.506403,47.358401]]]}},{"type":"Feature","properties":{"cadnum":"2325284401:16:001:0004"},"geometry":{"type":"Polygon","coordinates":[[[35.50604,47.360636],[35.507727,47.360824],[35.507727,47.360825],[35.510957,47.361184],[35.51322,47.361437],[35.518885,47.362068],[35.518885,47.362067],[35.519186,47.362101],[35.519121,47.361912],[35.518737,47.36187],[35.513392,47.361274],[35.513391,47.361274],[35.513229,47.361256],[35.512936,47.361223],[35.512186,47.36114],[35.512184,47.36114],[35.507898,47.360663],[35.506068,47.360458],[35.50604,47.360636]]]}},{"type":"Feature","properties":{"cadnum":"2325284401:16:001:0013"},"geometry":{"type":"Polygon","coordinates":[[[35.506309,47.35898],[35.507727,47.359138],[35.51322,47.359751],[35.518576,47.360347],[35.518506,47.360143],[35.513392,47.359575],[35.513391,47.359575],[35.513391,47.359574],[35.507898,47.358962],[35.50634,47.358789],[35.506309,47.35898]]]}},{"type":"Feature","properties":{"cadnum":"2325284401:16:001:0019"},"geometry":{"type":"Polygon","coordinates":[[[35.5065,47.357807],[35.507727,47.357944],[35.51322,47.358556],[35.518146,47.359104],[35.518072,47.35889],[35.513392,47.358369],[35.513391,47.358369],[35.507898,47.357758],[35.506532,47.357605],[35.5065,47.357807]]]}},{"type":"Feature","properties":{"cadnum":"2325284401:01:001:0015"},"geometry":{"type":"Polygon","coordinates":[[[35.537421,47.353915],[35.537664,47.354207],[35.538565,47.353794],[35.539436,47.353395],[35.539208,47.353124],[35.537911,47.353697],[35.53786,47.35372],[35.537648,47.353814],[35.537421,47.353915]]]}},{"type":"Feature","properties":{"cadnum":"2325284401:01:001:0095"},"geometry":{"type":"Polygon","coordinates":[[[35.540472,47.353751],[35.540539,47.353814],[35.54054,47.353814],[35.540686,47.353949],[35.540686,47.35395],[35.541616,47.354814],[35.542032,47.354607],[35.541063,47.353707],[35.54089,47.353545],[35.540889,47.353545],[35.540686,47.353646],[35.540581,47.353697],[35.54058,47.353697],[35.540472,47.353751]]]}},{"type":"Feature","properties":{"cadnum":"2325284401:16:001:0023"},"geometry":{"type":"Polygon","coordinates":[[[35.506615,47.357092],[35.507727,47.357216],[35.510128,47.357483],[35.51322,47.357828],[35.517883,47.358347],[35.517806,47.358126],[35.513386,47.357634],[35.512499,47.357535],[35.512501,47.357535],[35.507898,47.357023],[35.50665,47.356884],[35.506615,47.357092]]]}},{"type":"Feature","properties":{"cadnum":"2325284401:16:001:0024"},"geometry":{"type":"Polygon","coordinates":[[[35.50665,47.356884],[35.507727,47.357003],[35.507727,47.357004],[35.511456,47.357419],[35.51322,47.357616],[35.513386,47.357634],[35.513391,47.357635],[35.513392,47.357635],[35.517806,47.358126],[35.517729,47.357903],[35.514424,47.357535],[35.514368,47.357529],[35.513379,47.357419],[35.513376,47.357419],[35.513317,47.357412],[35.507898,47.356808],[35.506683,47.356673],[35.50665,47.356884]]]}},{"type":"Feature","properties":{"cadnum":"2325284401:16:001:0022"},"geometry":{"type":"Polygon","coordinates":[[[35.506599,47.357195],[35.507727,47.357321],[35.507727,47.357322],[35.507888,47.357339],[35.507898,47.357341],[35.509648,47.357535],[35.509649,47.357535],[35.51322,47.357933],[35.51792,47.358456],[35.517883,47.358347],[35.513392,47.357848],[35.513391,47.357848],[35.510593,47.357535],[35.510128,47.357483],[35.509549,47.357419],[35.509548,47.357419],[35.507898,47.357235],[35.506615,47.357092],[35.506599,47.357195]]]}},{"type":"Feature","properties":{"cadnum":"2325284401:01:001:0004"},"geometry":{"type":"Polygon","coordinates":[[[35.544089,47.350673],[35.544175,47.350842],[35.545744,47.350506],[35.545656,47.350334],[35.544089,47.350673]]]}},{"type":"Feature","properties":{"cadnum":"2325284401:01:001:0046"},"geometry":{"type":"Polygon","coordinates":[[[35.541009,47.351615],[35.54115,47.351766],[35.542117,47.351525],[35.541976,47.351374],[35.541009,47.351615]]]}},{"type":"Feature","properties":{"cadnum":"2325284401:01:001:0066"},"geometry":{"type":"Polygon","coordinates":[[[35.541956,47.351187],[35.54208,47.351348],[35.543607,47.350967],[35.543529,47.350803],[35.542693,47.350997],[35.541956,47.351187]]]}},{"type":"Feature","properties":{"cadnum":"2325284401:01:001:0042"},"geometry":{"type":"Polygon","coordinates":[[[35.544006,47.3505],[35.544089,47.350673],[35.54566,47.350333],[35.545577,47.350161],[35.544006,47.3505]]]}},{"type":"Feature","properties":{"cadnum":"2325284401:01:001:0041"},"geometry":{"type":"Polygon","coordinates":[[[35.545577,47.350161],[35.54566,47.350333],[35.546179,47.350221],[35.546686,47.350111],[35.546623,47.349986],[35.5466,47.34994],[35.546437,47.349976],[35.546435,47.349976],[35.546269,47.350012],[35.545896,47.350092],[35.545897,47.350092],[35.545577,47.350161]]]}},{"type":"Feature","properties":{"cadnum":"2325284401:01:001:0065"},"geometry":{"type":"Polygon","coordinates":[[[35.54089,47.35146],[35.541009,47.351615],[35.54208,47.351348],[35.541956,47.351187],[35.541929,47.351194],[35.54089,47.35146]]]}},{"type":"Feature","properties":{"cadnum":"2325284401:01:001:0005"},"geometry":{"type":"Polygon","coordinates":[[[35.545656,47.350334],[35.545744,47.350506],[35.54635,47.350377],[35.546351,47.350377],[35.546774,47.350287],[35.546686,47.350111],[35.546351,47.350184],[35.54635,47.350184],[35.545656,47.350334]]]}},{"type":"Feature","properties":{"cadnum":"2325284401:01:001:0086"},"geometry":{"type":"Polygon","coordinates":[[[35.540558,47.351056],[35.540637,47.351171],[35.540686,47.351158],[35.540686,47.351159],[35.540812,47.351126],[35.540857,47.351114],[35.54183,47.350861],[35.541716,47.350698],[35.541105,47.350857],[35.540872,47.350924],[35.540835,47.35094],[35.540558,47.351056]]]}},{"type":"Feature","properties":{"cadnum":"2325284401:01:001:0029"},"geometry":{"type":"Polygon","coordinates":[[[35.541976,47.351374],[35.542117,47.351525],[35.543684,47.351133],[35.543607,47.350967],[35.541976,47.351374]]]}},{"type":"Feature","properties":{"cadnum":"2325284401:01:001:0044"},"geometry":{"type":"Polygon","coordinates":[[[35.543924,47.350329],[35.544006,47.3505],[35.545577,47.350161],[35.545495,47.34999],[35.545495,47.349989],[35.54502,47.350092],[35.543924,47.350329]]]}},{"type":"Feature","properties":{"cadnum":"2325284401:01:001:0008"},"geometry":{"type":"Polygon","coordinates":[[[35.543762,47.349992],[35.543762,47.349993],[35.54381,47.350092],[35.543811,47.350092],[35.543843,47.350158],[35.544144,47.350092],[35.545475,47.349804],[35.545396,47.34964],[35.543838,47.349976],[35.543837,47.349976],[35.543764,47.349992],[35.543762,47.349992]]]}},{"type":"Feature","properties":{"cadnum":"2325284401:01:001:0087"},"geometry":{"type":"Polygon","coordinates":[[[35.541716,47.350698],[35.54183,47.350861],[35.543367,47.350461],[35.543285,47.35029],[35.541716,47.350698]]]}},{"type":"Feature","properties":{"cadnum":"2325284401:01:001:0014"},"geometry":{"type":"Polygon","coordinates":[[[35.540761,47.35133],[35.540857,47.351428],[35.540889,47.35146],[35.54089,47.35146],[35.541929,47.351194],[35.541854,47.351034],[35.540761,47.35133]]]}},{"type":"Feature","properties":{"cadnum":"2325284401:01:001:0013"},"geometry":{"type":"Polygon","coordinates":[[[35.541854,47.351034],[35.541929,47.351194],[35.542693,47.350997],[35.543529,47.350803],[35.543448,47.350632],[35.542602,47.350833],[35.541854,47.351034]]]}},{"type":"Feature","properties":{"cadnum":"2325284401:01:001:0043"},"geometry":{"type":"Polygon","coordinates":[[[35.545495,47.349989],[35.545495,47.34999],[35.545543,47.350092],[35.545544,47.350092],[35.545577,47.350161],[35.546179,47.350032],[35.546299,47.350006],[35.54635,47.349995],[35.546351,47.349995],[35.5466,47.34994],[35.546514,47.34977],[35.546351,47.349805],[35.54635,47.349805],[35.545558,47.349976],[35.5455,47.349988],[35.545495,47.349989]]]}},{"type":"Feature","properties":{"cadnum":"2325284401:01:001:0077"},"geometry":{"type":"Polygon","coordinates":[[[35.53856,47.346692],[35.538655,47.346869],[35.539795,47.346599],[35.539712,47.34642],[35.53856,47.346692]]]}},{"type":"Feature","properties":{"cadnum":"2325284401:01:001:0007"},"geometry":{"type":"Polygon","coordinates":[[[35.536434,47.350459],[35.536617,47.350666],[35.537902,47.350021],[35.53864,47.349651],[35.5384,47.34945],[35.537376,47.349976],[35.537374,47.349976],[35.536434,47.350459]]]}},{"type":"Feature","properties":{"cadnum":"2325284401:01:001:0068"},"geometry":{"type":"Polygon","coordinates":[[[35.539155,47.347884],[35.539279,47.348055],[35.540392,47.347791],[35.540309,47.347612],[35.539155,47.347884]]]}},{"type":"Feature","properties":{"cadnum":"2325284401:01:001:0064"},"geometry":{"type":"Polygon","coordinates":[[[35.539613,47.348558],[35.539709,47.348724],[35.540657,47.3485],[35.540561,47.348335],[35.539613,47.348558]]]}},{"type":"Feature","properties":{"cadnum":"2325284401:01:001:0006"},"geometry":{"type":"Polygon","coordinates":[[[35.538433,47.348674],[35.538744,47.348955],[35.539405,47.348646],[35.53921,47.348341],[35.538972,47.348428],[35.538433,47.348674]]]}},{"type":"Feature","properties":{"cadnum":"2325284401:01:001:0057"},"geometry":{"type":"Polygon","coordinates":[[[35.539802,47.348899],[35.539939,47.349055],[35.540686,47.348879],[35.540686,47.34888],[35.540829,47.348845],[35.540746,47.348676],[35.539802,47.348899]]]}},{"type":"Feature","properties":{"cadnum":"2325284401:01:001:0056"},"geometry":{"type":"Polygon","coordinates":[[[35.540746,47.348676],[35.540829,47.348845],[35.540857,47.348839],[35.542412,47.348473],[35.542329,47.348304],[35.540746,47.348676]]]}},{"type":"Feature","properties":{"cadnum":"2325284401:01:001:0017"},"geometry":{"type":"Polygon","coordinates":[[[35.53921,47.348341],[35.539405,47.348646],[35.539505,47.348598],[35.539316,47.348301],[35.53921,47.348341]]]}},{"type":"Feature","properties":{"cadnum":"2325284401:01:001:0063"},"geometry":{"type":"Polygon","coordinates":[[[35.540561,47.348335],[35.540657,47.3485],[35.540686,47.348494],[35.540734,47.348482],[35.540857,47.348454],[35.540857,47.348453],[35.542237,47.348128],[35.542147,47.347961],[35.540686,47.348306],[35.540561,47.348335]]]}},{"type":"Feature","properties":{"cadnum":"2325284401:01:001:0075"},"geometry":{"type":"Polygon","coordinates":[[[35.540098,47.349219],[35.540277,47.349375],[35.540857,47.349248],[35.540857,47.349247],[35.541175,47.349177],[35.541083,47.348987],[35.540686,47.349081],[35.540098,47.349219]]]}},{"type":"Feature","properties":{"cadnum":"2325284401:01:001:0078"},"geometry":{"type":"Polygon","coordinates":[[[35.539712,47.34642],[35.539795,47.346599],[35.540857,47.346348],[35.541303,47.346242],[35.541221,47.346065],[35.540686,47.346191],[35.540686,47.346192],[35.54042,47.346254],[35.540417,47.346254],[35.539945,47.346365],[35.539924,47.34637],[35.539712,47.34642]]]}},{"type":"Feature","properties":{"cadnum":"2325284401:01:001:0067"},"geometry":{"type":"Polygon","coordinates":[[[35.540309,47.347612],[35.540391,47.347791],[35.540686,47.347722],[35.541897,47.347435],[35.541815,47.347258],[35.540857,47.347484],[35.540857,47.347483],[35.540309,47.347612]]]}},{"type":"Feature","properties":{"cadnum":"2325284401:01:001:0024"},"geometry":{"type":"Polygon","coordinates":[[[35.540729,47.348484],[35.54082,47.348659],[35.540857,47.348651],[35.540857,47.34865],[35.542329,47.348304],[35.542237,47.348129],[35.542237,47.348128],[35.540729,47.348484]]]}},{"type":"Feature","properties":{"cadnum":"2325284401:01:001:0025"},"geometry":{"type":"Polygon","coordinates":[[[35.539709,47.348724],[35.539802,47.348899],[35.540686,47.348691],[35.54082,47.348659],[35.540729,47.348484],[35.539709,47.348724]]]}},{"type":"Feature","properties":{"cadnum":"2325284401:01:001:0003"},"geometry":{"type":"Polygon","coordinates":[[[35.537022,47.34737],[35.537181,47.347513],[35.538478,47.346936],[35.538399,47.346783],[35.537022,47.34737]]]}},{"type":"Feature","properties":{"cadnum":"2325284401:01:001:0011"},"geometry":{"type":"Polygon","coordinates":[[[35.538579,47.346907],[35.538662,47.347069],[35.539801,47.346806],[35.539713,47.346643],[35.538579,47.346907]]]}},{"type":"Feature","properties":{"cadnum":"2325284401:01:001:0010"},"geometry":{"type":"Polygon","coordinates":[[[35.539713,47.346643],[35.539801,47.346806],[35.540857,47.346564],[35.540857,47.346563],[35.541396,47.346439],[35.541307,47.34627],[35.540879,47.34637],[35.540686,47.346416],[35.539713,47.346643]]]}},{"type":"Feature","properties":{"cadnum":"2325284401:01:001:0082"},"geometry":{"type":"Polygon","coordinates":[[[35.543869,47.346759],[35.543947,47.346931],[35.545042,47.346684],[35.544966,47.346511],[35.543869,47.346759]]]}},{"type":"Feature","properties":{"cadnum":"2325284401:01:001:0009"},"geometry":{"type":"Polygon","coordinates":[[[35.545396,47.34964],[35.545475,47.349804],[35.546179,47.349653],[35.546281,47.349631],[35.54635,47.349616],[35.546351,47.349616],[35.546428,47.349599],[35.546345,47.349434],[35.545396,47.34964]]]}},{"type":"Feature","properties":{"cadnum":"2325284401:01:001:0099"},"geometry":{"type":"Polygon","coordinates":[[[35.544313,47.347606],[35.544395,47.347773],[35.545373,47.347548],[35.545291,47.347382],[35.544313,47.347606]]]}},{"type":"Feature","properties":{"cadnum":"2325284401:01:001:0070"},"geometry":{"type":"Polygon","coordinates":[[[35.543751,47.346593],[35.54384,47.346766],[35.544966,47.346511],[35.544881,47.346341],[35.54379,47.346585],[35.543751,47.346593]]]}},{"type":"Feature","properties":{"cadnum":"2325284401:01:001:0021"},"geometry":{"type":"Polygon","coordinates":[[[35.543042,47.348636],[35.543121,47.348822],[35.544583,47.348497],[35.544502,47.34831],[35.543042,47.348636]]]}},{"type":"Feature","properties":{"cadnum":"2325284401:01:001:0018"},"geometry":{"type":"Polygon","coordinates":[[[35.542129,47.346772],[35.542212,47.346945],[35.542953,47.346771],[35.54379,47.346585],[35.543709,47.346416],[35.542955,47.346583],[35.542129,47.346772]]]}},{"type":"Feature","properties":{"cadnum":"2325284401:01:001:0076"},"geometry":{"type":"Polygon","coordinates":[[[35.541083,47.348987],[35.541175,47.349177],[35.542186,47.348955],[35.542168,47.348919],[35.542581,47.348822],[35.542499,47.348654],[35.541083,47.348987]]]}},{"type":"Feature","properties":{"cadnum":"2325284401:01:001:0022"},"geometry":{"type":"Polygon","coordinates":[[[35.544502,47.34831],[35.544583,47.348497],[35.545687,47.34825],[35.545608,47.348064],[35.544502,47.34831]]]}},{"type":"Feature","properties":{"cadnum":"2325284401:01:001:0081"},"geometry":{"type":"Polygon","coordinates":[[[35.542299,47.347114],[35.542377,47.347286],[35.543947,47.346931],[35.543869,47.346759],[35.542299,47.347114]]]}},{"type":"Feature","properties":{"cadnum":"2325284401:01:001:0069"},"geometry":{"type":"Polygon","coordinates":[[[35.542212,47.346945],[35.542299,47.347114],[35.54384,47.346766],[35.543751,47.346593],[35.542953,47.346771],[35.542212,47.346945]]]}},{"type":"Feature","properties":{"cadnum":"2325284401:01:001:0098"},"geometry":{"type":"Polygon","coordinates":[[[35.542708,47.347969],[35.542789,47.348137],[35.544395,47.347773],[35.544313,47.347606],[35.542708,47.347969]]]}},{"type":"Feature","properties":{"cadnum":"2325284401:01:001:0019"},"geometry":{"type":"Polygon","coordinates":[[[35.543709,47.346416],[35.54379,47.346585],[35.54488,47.346341],[35.544881,47.346341],[35.5448,47.346175],[35.544441,47.346254],[35.544131,47.346322],[35.543914,47.34637],[35.543709,47.346416]]]}}]}