{"type":"FeatureCollection","features":[{"type":"Feature","properties":{"cadnum":"2325283603:01:001:0001"},"geometry":{"type":"Polygon","coordinates":[[[35.758823,47.244969],[35.75884,47.245132],[35.759046,47.245138],[35.760147,47.245199],[35.760412,47.245217],[35.76047,47.24522],[35.760584,47.245228],[35.760584,47.245227],[35.761104,47.24526],[35.761588,47.245288],[35.761996,47.245331],[35.762428,47.245491],[35.762743,47.245652],[35.762766,47.245664],[35.762766,47.245665],[35.763297,47.245951],[35.763495,47.246063],[35.763966,47.246317],[35.764355,47.246521],[35.764737,47.246703],[35.765089,47.246877],[35.765774,47.247068],[35.765905,47.247096],[35.765905,47.247097],[35.765969,47.24711],[35.766077,47.247133],[35.76723,47.247375],[35.768577,47.247656],[35.769568,47.247867],[35.771207,47.248211],[35.771398,47.248251],[35.771399,47.248251],[35.771465,47.248265],[35.77157,47.248287],[35.77157,47.248286],[35.772575,47.248492],[35.773382,47.248651],[35.773951,47.24875],[35.774232,47.248776],[35.774802,47.248791],[35.775266,47.24878],[35.775595,47.248758],[35.775752,47.248735],[35.775999,47.248683],[35.776581,47.248428],[35.776892,47.248216],[35.777093,47.24808],[35.777906,47.247512],[35.779386,47.246469],[35.780521,47.245667],[35.780805,47.245477],[35.781114,47.24529],[35.781387,47.245156],[35.781559,47.245093],[35.78105,47.245121],[35.780965,47.245163],[35.780641,47.245359],[35.780352,47.245554],[35.780027,47.245781],[35.779212,47.246354],[35.777729,47.247395],[35.776924,47.247966],[35.776892,47.247988],[35.77643,47.248301],[35.775898,47.248535],[35.775691,47.248579],[35.775557,47.248598],[35.77525,47.248618],[35.774802,47.248629],[35.774252,47.248615],[35.773998,47.248592],[35.773446,47.248492],[35.772643,47.248333],[35.77157,47.248112],[35.771279,47.248052],[35.769639,47.247711],[35.768652,47.247494],[35.767301,47.247216],[35.766077,47.246955],[35.765857,47.246907],[35.765207,47.246733],[35.764874,47.246571],[35.764497,47.24639],[35.764115,47.246188],[35.763648,47.245933],[35.76345,47.245821],[35.763374,47.24578],[35.762892,47.245517],[35.76257,47.24535],[35.762081,47.245169],[35.761622,47.245121],[35.76113,47.245088],[35.760584,47.245059],[35.760163,47.245036],[35.75906,47.244977],[35.758823,47.244969]]]}},{"type":"Feature","properties":{"cadnum":"2325283603:01:001:0005"},"geometry":{"type":"Polygon","coordinates":[[[35.768116,47.247992],[35.7684,47.248047],[35.768451,47.247943],[35.768162,47.247887],[35.768116,47.247992]]]}},{"type":"Feature","properties":{"cadnum":"2325283603:01:001:0059"},"geometry":{"type":"Polygon","coordinates":[[[35.765313,47.247912],[35.76574,47.247984],[35.765861,47.24766],[35.765905,47.247525],[35.765927,47.247459],[35.766034,47.247194],[35.765798,47.247144],[35.765791,47.247145],[35.765664,47.247443],[35.765542,47.247406],[35.765467,47.247618],[35.765413,47.24763],[35.765313,47.247911],[35.765313,47.247912]]]}},{"type":"Feature","properties":{"cadnum":"2325283603:01:001:0054"},"geometry":{"type":"Polygon","coordinates":[[[35.768162,47.247887],[35.768451,47.247943],[35.768541,47.247758],[35.768462,47.24774],[35.768378,47.247723],[35.768247,47.247695],[35.768162,47.247887]]]}},{"type":"Feature","properties":{"cadnum":"2325283603:01:001:0056"},"geometry":{"type":"Polygon","coordinates":[[[35.757851,47.259028],[35.757857,47.259052],[35.758085,47.259048],[35.758085,47.259061],[35.758112,47.25906],[35.758111,47.259048],[35.758138,47.259048],[35.75825,47.258925],[35.758257,47.25892],[35.758276,47.258871],[35.758269,47.25887],[35.758212,47.25886],[35.758212,47.258859],[35.758236,47.258802],[35.758057,47.258768],[35.758,47.258758],[35.758,47.258757],[35.758013,47.258714],[35.757994,47.258707],[35.757996,47.258697],[35.757942,47.258685],[35.757898,47.258853],[35.757851,47.259028]]]}},{"type":"Feature","properties":{"cadnum":"2325283603:01:001:0064"},"geometry":{"type":"Polygon","coordinates":[[[35.753892,47.245041],[35.754346,47.245033],[35.754341,47.244901],[35.754326,47.244354],[35.753902,47.244361],[35.753898,47.244765],[35.753892,47.245041]]]}},{"type":"Feature","properties":{"cadnum":"2325283603:01:001:0053"},"geometry":{"type":"Polygon","coordinates":[[[35.761292,47.256895],[35.761423,47.256897],[35.761533,47.256899],[35.761655,47.2569],[35.761661,47.256685],[35.761582,47.256684],[35.76143,47.256681],[35.761297,47.256679],[35.761292,47.256895]]]}},{"type":"Feature","properties":{"cadnum":"2325283603:01:001:0060"},"geometry":{"type":"Polygon","coordinates":[[[35.764979,47.248849],[35.765394,47.248909],[35.76574,47.247984],[35.765313,47.247912],[35.764979,47.248849]]]}}]}