{"type":"FeatureCollection","features":[{"type":"Feature","properties":{"cadnum":"2325282804:01:001:0064"},"geometry":{"type":"Polygon","coordinates":[[[35.663629,47.098887],[35.663854,47.098942],[35.66401,47.098644],[35.663786,47.09859],[35.663629,47.098887]]]}},{"type":"Feature","properties":{"cadnum":"2325282804:01:001:0005"},"geometry":{"type":"Polygon","coordinates":[[[35.678087,47.103105],[35.678186,47.10314],[35.678186,47.103139],[35.678187,47.103139],[35.678646,47.103299],[35.679369,47.102203],[35.678954,47.102066],[35.678087,47.103105]]]}},{"type":"Feature","properties":{"cadnum":"2325282804:01:001:0004"},"geometry":{"type":"Polygon","coordinates":[[[35.678954,47.102066],[35.679369,47.102203],[35.6798,47.10155],[35.679477,47.101438],[35.678954,47.102066]]]}},{"type":"Feature","properties":{"cadnum":"2325282804:01:001:0056"},"geometry":{"type":"Polygon","coordinates":[[[35.6523,47.095772],[35.652661,47.095874],[35.652895,47.095577],[35.652932,47.095528],[35.652566,47.095423],[35.6523,47.095772]]]}},{"type":"Feature","properties":{"cadnum":"2325282804:01:001:0055"},"geometry":{"type":"Polygon","coordinates":[[[35.652566,47.095423],[35.652932,47.095528],[35.653182,47.095213],[35.653747,47.094497],[35.653411,47.094392],[35.65283,47.095101],[35.652566,47.095423]]]}},{"type":"Feature","properties":{"cadnum":"2325282804:01:001:0006"},"geometry":{"type":"Polygon","coordinates":[[[35.650639,47.096411],[35.650903,47.096569],[35.651224,47.096302],[35.651328,47.096215],[35.651692,47.095896],[35.651308,47.095784],[35.651021,47.096102],[35.650641,47.096409],[35.650642,47.096409],[35.650639,47.096411]]]}},{"type":"Feature","properties":{"cadnum":"2325282804:01:001:0007"},"geometry":{"type":"Polygon","coordinates":[[[35.649917,47.096995],[35.650269,47.097099],[35.650549,47.096865],[35.650651,47.09678],[35.650721,47.096722],[35.650903,47.096569],[35.650639,47.096411],[35.649917,47.096995]]]}},{"type":"Feature","properties":{"cadnum":"2325282804:01:001:0010"},"geometry":{"type":"Polygon","coordinates":[[[35.701025,47.105662],[35.701381,47.105716],[35.7017,47.104755],[35.70188,47.10427],[35.701475,47.104198],[35.70141,47.104388],[35.70131,47.104648],[35.701025,47.105662]]]}},{"type":"Feature","properties":{"cadnum":"2325282804:01:001:0008"},"geometry":{"type":"Polygon","coordinates":[[[35.675959,47.106745],[35.676505,47.106805],[35.676628,47.106262],[35.676077,47.106219],[35.676033,47.106469],[35.675959,47.106745]]]}},{"type":"Feature","properties":{"cadnum":"2325282804:01:001:0009"},"geometry":{"type":"Polygon","coordinates":[[[35.675794,47.10736],[35.676363,47.10743],[35.676505,47.106805],[35.675959,47.106745],[35.675794,47.10736]]]}}]}