{"type":"FeatureCollection","features":[{"type":"Feature","properties":{"cadnum":"2325586804:02:002:0014"},"geometry":{"type":"Polygon","coordinates":[[[36.175499,47.067948],[36.175798,47.06807],[36.176285,47.067494],[36.176004,47.067378],[36.175499,47.067948]]]}},{"type":"Feature","properties":{"cadnum":"2325586804:02:002:0013"},"geometry":{"type":"Polygon","coordinates":[[[36.174882,47.068655],[36.175201,47.068785],[36.17548,47.068445],[36.175798,47.06807],[36.175499,47.067948],[36.175158,47.068333],[36.174882,47.068655]]]}},{"type":"Feature","properties":{"cadnum":"2325586804:01:002:0009"},"geometry":{"type":"Polygon","coordinates":[[[36.163242,47.064996],[36.163347,47.06505],[36.163904,47.064555],[36.16431,47.064194],[36.164205,47.06414],[36.163792,47.064506],[36.163242,47.064996]]]}},{"type":"Feature","properties":{"cadnum":"2325586804:01:002:0005"},"geometry":{"type":"Polygon","coordinates":[[[36.151185,47.056738],[36.151681,47.057193],[36.153414,47.056314],[36.15305,47.055978],[36.152882,47.055852],[36.151185,47.056738]]]}},{"type":"Feature","properties":{"cadnum":"2325586804:01:002:0003"},"geometry":{"type":"Polygon","coordinates":[[[36.15197,47.057459],[36.152404,47.057889],[36.154138,47.05701],[36.153705,47.05658],[36.15197,47.057459]]]}}]}