{"type":"FeatureCollection","features":[{"type":"Feature","properties":{"cadnum":"2325581201:02:004:0006"},"geometry":{"type":"Polygon","coordinates":[[[36.385581,47.204276],[36.385622,47.204356],[36.385846,47.204332],[36.385852,47.204397],[36.385855,47.204432],[36.385873,47.204629],[36.385877,47.204672],[36.385883,47.204746],[36.385884,47.204746],[36.385901,47.204923],[36.386559,47.20487],[36.386633,47.204865],[36.386633,47.204866],[36.387049,47.204836],[36.387235,47.204822],[36.387226,47.204746],[36.38721,47.204608],[36.386841,47.204629],[36.386839,47.204629],[36.38664,47.20464],[36.386633,47.204641],[36.385988,47.204677],[36.38596,47.204436],[36.386633,47.204398],[36.387183,47.204367],[36.387181,47.204356],[36.387177,47.20432],[36.387172,47.204265],[36.387985,47.204232],[36.387892,47.203785],[36.387073,47.203089],[36.386805,47.203466],[36.386392,47.204047],[36.386391,47.204047],[36.385581,47.204276]]]}},{"type":"Feature","properties":{"cadnum":"2325581201:02:004:0005"},"geometry":{"type":"Polygon","coordinates":[[[36.38596,47.204436],[36.385988,47.204677],[36.386805,47.204632],[36.386805,47.204631],[36.38721,47.204608],[36.387183,47.204367],[36.386805,47.204389],[36.386805,47.204388],[36.38596,47.204436]]]}},{"type":"Feature","properties":{"cadnum":"2325581201:01:003:0009"},"geometry":{"type":"Polygon","coordinates":[[[36.375492,47.210148],[36.375646,47.210147],[36.375647,47.210147],[36.376442,47.21014],[36.375958,47.209594],[36.37568,47.209926],[36.375492,47.210148]]]}},{"type":"Feature","properties":{"cadnum":"2325581201:02:001:0005"},"geometry":{"type":"Polygon","coordinates":[[[36.379296,47.209698],[36.379583,47.209757],[36.379665,47.209567],[36.379652,47.209564],[36.379557,47.209545],[36.379496,47.209533],[36.379399,47.209514],[36.379387,47.209511],[36.379296,47.209698]]]}}]}