{"type":"FeatureCollection","features":[{"type":"Feature","properties":{"cadnum":"2325283605:01:001:0002"},"geometry":{"type":"Polygon","coordinates":[[[35.957536,47.257958],[35.957585,47.25796],[35.957588,47.257938],[35.957681,47.257944],[35.957679,47.257955],[35.957728,47.257958],[35.957728,47.257957],[35.957748,47.257788],[35.957557,47.257779],[35.957536,47.257957],[35.957536,47.257958]]]}},{"type":"Feature","properties":{"cadnum":"2325283605:01:001:0023"},"geometry":{"type":"Polygon","coordinates":[[[35.953124,47.257197],[35.953397,47.257227],[35.953415,47.257149],[35.953459,47.256967],[35.953602,47.25638],[35.953333,47.256353],[35.953221,47.256805],[35.953211,47.256851],[35.95321,47.256851],[35.953209,47.256851],[35.953173,47.257007],[35.953124,47.257197]]]}},{"type":"Feature","properties":{"cadnum":"2325283605:01:001:0010"},"geometry":{"type":"Polygon","coordinates":[[[35.964672,47.25752],[35.964815,47.257519],[35.964814,47.257354],[35.964672,47.257354],[35.964672,47.25752]]]}},{"type":"Feature","properties":{"cadnum":"2325283605:01:001:0017"},"geometry":{"type":"Polygon","coordinates":[[[35.950086,47.256399],[35.950197,47.256967],[35.950227,47.257116],[35.9506,47.257106],[35.950587,47.256967],[35.950588,47.256967],[35.950538,47.256386],[35.950086,47.256399]]]}},{"type":"Feature","properties":{"cadnum":"2325283605:01:001:0018"},"geometry":{"type":"Polygon","coordinates":[[[35.95007,47.256319],[35.950086,47.256399],[35.950538,47.256386],[35.950533,47.25633],[35.950527,47.256301],[35.95007,47.256319]]]}},{"type":"Feature","properties":{"cadnum":"2325283605:01:001:0016"},"geometry":{"type":"Polygon","coordinates":[[[35.942074,47.261377],[35.943422,47.261375],[35.943523,47.261206],[35.943631,47.260881],[35.94209,47.260668],[35.942074,47.261377]]]}},{"type":"Feature","properties":{"cadnum":"2325283605:01:001:0008"},"geometry":{"type":"Polygon","coordinates":[[[35.960728,47.257172],[35.960785,47.257453],[35.961425,47.257457],[35.961367,47.257089],[35.960728,47.257172]]]}},{"type":"Feature","properties":{"cadnum":"2325283605:01:001:0001"},"geometry":{"type":"Polygon","coordinates":[[[35.947939,47.25965],[35.947958,47.259919],[35.94838,47.259906],[35.948368,47.259728],[35.948393,47.259727],[35.948392,47.2597],[35.948365,47.259701],[35.948365,47.2597],[35.948361,47.259636],[35.948188,47.259641],[35.948186,47.259617],[35.948088,47.25962],[35.94809,47.259645],[35.947939,47.25965]]]}},{"type":"Feature","properties":{"cadnum":"2325283605:01:001:0007"},"geometry":{"type":"Polygon","coordinates":[[[35.948808,47.259372],[35.949067,47.259379],[35.949087,47.258951],[35.949119,47.258253],[35.948856,47.258247],[35.948833,47.258647],[35.948808,47.259372]]]}},{"type":"Feature","properties":{"cadnum":"2325283605:01:001:0006"},"geometry":{"type":"Polygon","coordinates":[[[35.949832,47.260289],[35.949833,47.260289],[35.952076,47.26026],[35.952159,47.25966],[35.951458,47.259676],[35.950553,47.259625],[35.949961,47.259636],[35.949839,47.259638],[35.949832,47.260289]]]}},{"type":"Feature","properties":{"cadnum":"2325283605:01:001:0004"},"geometry":{"type":"Polygon","coordinates":[[[35.942813,47.25847],[35.942943,47.258485],[35.942966,47.258396],[35.942836,47.258381],[35.942813,47.25847]]]}}]}