{"type":"FeatureCollection","features":[{"type":"Feature","properties":{"cadnum":"2325281205:01:001:0021"},"geometry":{"type":"Polygon","coordinates":[[[35.71874,47.32094],[35.719075,47.320923],[35.719206,47.32031],[35.719207,47.32031],[35.719298,47.319886],[35.718986,47.319856],[35.718985,47.319856],[35.718882,47.32031],[35.718883,47.32031],[35.71874,47.32094]]]}},{"type":"Feature","properties":{"cadnum":"2325281205:02:001:0001"},"geometry":{"type":"Polygon","coordinates":[[[35.753842,47.321905],[35.753916,47.322016],[35.754073,47.322256],[35.754312,47.32262],[35.75458,47.323011],[35.754919,47.32354],[35.754919,47.323541],[35.755161,47.323917],[35.75516,47.323917],[35.755211,47.323996],[35.755233,47.324034],[35.755278,47.324112],[35.755371,47.324284],[35.755455,47.324419],[35.755893,47.325275],[35.755901,47.325293],[35.755968,47.325501],[35.755995,47.325583],[35.7563,47.326779],[35.756346,47.327019],[35.756388,47.327014],[35.756597,47.326989],[35.756632,47.326984],[35.756589,47.326749],[35.75628,47.325544],[35.756264,47.325496],[35.756223,47.325366],[35.756181,47.325238],[35.755852,47.324595],[35.755852,47.32456],[35.755822,47.324495],[35.755777,47.324446],[35.755729,47.32435],[35.755481,47.323921],[35.755091,47.323313],[35.754845,47.32293],[35.754577,47.322538],[35.754098,47.321809],[35.754073,47.321818],[35.75386,47.321898],[35.753842,47.321905]]]}},{"type":"Feature","properties":{"cadnum":"2325281205:01:001:0128"},"geometry":{"type":"Polygon","coordinates":[[[35.728234,47.320505],[35.728726,47.320559],[35.728791,47.320258],[35.728859,47.319954],[35.728391,47.319903],[35.728283,47.32031],[35.728284,47.32031],[35.728234,47.320505]]]}},{"type":"Feature","properties":{"cadnum":"2325281205:01:001:0033"},"geometry":{"type":"Polygon","coordinates":[[[35.750416,47.324465],[35.750677,47.324506],[35.750863,47.324017],[35.751085,47.323435],[35.750822,47.323394],[35.750623,47.323917],[35.750622,47.323917],[35.750416,47.324465]]]}},{"type":"Feature","properties":{"cadnum":"2325281205:01:001:0031"},"geometry":{"type":"Polygon","coordinates":[[[35.749905,47.324385],[35.750209,47.324433],[35.750378,47.323988],[35.750559,47.323513],[35.750257,47.323458],[35.750082,47.323917],[35.750057,47.323982],[35.750037,47.324034],[35.750038,47.324034],[35.749905,47.324385]]]}},{"type":"Feature","properties":{"cadnum":"2325281205:01:001:0025"},"geometry":{"type":"Polygon","coordinates":[[[35.752127,47.324773],[35.752383,47.324815],[35.752696,47.323917],[35.752695,47.323917],[35.752749,47.323764],[35.752472,47.32373],[35.75241,47.323917],[35.752409,47.323917],[35.752127,47.324773]]]}},{"type":"Feature","properties":{"cadnum":"2325281205:01:001:0032"},"geometry":{"type":"Polygon","coordinates":[[[35.750209,47.324433],[35.750416,47.324465],[35.750578,47.324034],[35.750579,47.324034],[35.750822,47.323394],[35.750617,47.323362],[35.750559,47.323513],[35.750405,47.323917],[35.750378,47.323988],[35.750361,47.324034],[35.750209,47.324433]]]}},{"type":"Feature","properties":{"cadnum":"2325281205:01:001:0049"},"geometry":{"type":"Polygon","coordinates":[[[35.725533,47.320527],[35.725843,47.320558],[35.725897,47.32031],[35.725898,47.32031],[35.726048,47.319638],[35.725726,47.319606],[35.725577,47.32031],[35.725578,47.32031],[35.725533,47.320527]]]}},{"type":"Feature","properties":{"cadnum":"2325281205:01:001:0050"},"geometry":{"type":"Polygon","coordinates":[[[35.725336,47.321469],[35.725633,47.321498],[35.725843,47.320558],[35.725533,47.320527],[35.725336,47.321469]]]}},{"type":"Feature","properties":{"cadnum":"2325281205:01:001:0023"},"geometry":{"type":"Polygon","coordinates":[[[35.765523,47.326588],[35.765757,47.326619],[35.765893,47.326133],[35.765657,47.326102],[35.765523,47.326588]]]}},{"type":"Feature","properties":{"cadnum":"2325281205:01:001:0022"},"geometry":{"type":"Polygon","coordinates":[[[35.718985,47.319856],[35.718986,47.319856],[35.719298,47.319886],[35.7195,47.318946],[35.719199,47.318909],[35.718985,47.319856]]]}},{"type":"Feature","properties":{"cadnum":"2325281205:01:001:0127"},"geometry":{"type":"Polygon","coordinates":[[[35.718432,47.318532],[35.718755,47.31857],[35.718804,47.318314],[35.718804,47.318313],[35.718805,47.318313],[35.718851,47.318317],[35.71894,47.318033],[35.719,47.317763],[35.719,47.317762],[35.718629,47.317718],[35.718583,47.31789],[35.718432,47.318532]]]}},{"type":"Feature","properties":{"cadnum":"2325281205:01:001:0017"},"geometry":{"type":"Polygon","coordinates":[[[35.74883,47.325015],[35.749333,47.325094],[35.749426,47.32481],[35.749514,47.324537],[35.748998,47.324459],[35.74883,47.325015]]]}},{"type":"Feature","properties":{"cadnum":"2325281205:01:001:0018"},"geometry":{"type":"Polygon","coordinates":[[[35.748395,47.32646],[35.748891,47.326455],[35.749333,47.325094],[35.74883,47.325015],[35.748395,47.32646]]]}},{"type":"Feature","properties":{"cadnum":"2325281205:01:001:0010"},"geometry":{"type":"Polygon","coordinates":[[[35.72395,47.318543],[35.724522,47.318614],[35.724712,47.317925],[35.724113,47.317854],[35.72395,47.318543]]]}},{"type":"Feature","properties":{"cadnum":"2325281205:01:001:0009"},"geometry":{"type":"Polygon","coordinates":[[[35.72383,47.31906],[35.724382,47.319124],[35.724522,47.318614],[35.72395,47.318543],[35.72383,47.31906]]]}},{"type":"Feature","properties":{"cadnum":"2325281205:01:001:0028"},"geometry":{"type":"Polygon","coordinates":[[[35.723123,47.319044],[35.723337,47.319066],[35.723608,47.31779],[35.723368,47.317764],[35.723123,47.319044]]]}},{"type":"Feature","properties":{"cadnum":"2325281205:01:001:0030"},"geometry":{"type":"Polygon","coordinates":[[[35.742228,47.32313],[35.742762,47.323217],[35.742932,47.322689],[35.742393,47.322605],[35.742228,47.32313]]]}},{"type":"Feature","properties":{"cadnum":"2325281205:01:001:0029"},"geometry":{"type":"Polygon","coordinates":[[[35.742393,47.322605],[35.742932,47.322689],[35.743124,47.322098],[35.74258,47.32201],[35.742393,47.322605]]]}},{"type":"Feature","properties":{"cadnum":"2325281205:01:001:0129"},"geometry":{"type":"Polygon","coordinates":[[[35.709477,47.31835],[35.710071,47.318401],[35.710082,47.318329],[35.710125,47.317895],[35.70956,47.317846],[35.709503,47.318177],[35.709477,47.31835]]]}},{"type":"Feature","properties":{"cadnum":"2325281205:01:001:0019"},"geometry":{"type":"Polygon","coordinates":[[[35.751104,47.325135],[35.751949,47.325267],[35.75205,47.324929],[35.75121,47.324799],[35.751104,47.325135]]]}},{"type":"Feature","properties":{"cadnum":"2325281205:01:001:0020"},"geometry":{"type":"Polygon","coordinates":[[[35.750792,47.326119],[35.751679,47.326168],[35.751949,47.325267],[35.751104,47.325135],[35.750792,47.326119]]]}}]}