{"type":"FeatureCollection","features":[{"type":"Feature","properties":{"cadnum":"2325280403:01:001:0013"},"geometry":{"type":"Polygon","coordinates":[[[35.782705,47.1076],[35.782861,47.107626],[35.782862,47.107626],[35.78346,47.107727],[35.783515,47.107544],[35.783597,47.107268],[35.782845,47.107132],[35.782732,47.107509],[35.782705,47.1076]]]}},{"type":"Feature","properties":{"cadnum":"2325280403:01:001:0005"},"geometry":{"type":"Polygon","coordinates":[[[35.7866,47.108642],[35.78692,47.108736],[35.787406,47.107948],[35.787134,47.10787],[35.7866,47.108642]]]}},{"type":"Feature","properties":{"cadnum":"2325280403:01:001:0011"},"geometry":{"type":"Polygon","coordinates":[[[35.786317,47.10856],[35.7866,47.108642],[35.787134,47.10787],[35.786786,47.107769],[35.786317,47.10856]]]}},{"type":"Feature","properties":{"cadnum":"2325280403:01:001:0014"},"geometry":{"type":"Polygon","coordinates":[[[35.78855,47.107927],[35.788885,47.108024],[35.789169,47.107564],[35.789379,47.107227],[35.789082,47.107141],[35.788833,47.107509],[35.78878,47.107587],[35.788754,47.107626],[35.78855,47.107927]]]}},{"type":"Feature","properties":{"cadnum":"2325280403:01:001:0015"},"geometry":{"type":"Polygon","coordinates":[[[35.789082,47.107141],[35.789379,47.107226],[35.789585,47.106893],[35.789306,47.106813],[35.789082,47.107141]]]}},{"type":"Feature","properties":{"cadnum":"2325280403:01:001:0025"},"geometry":{"type":"Polygon","coordinates":[[[35.795593,47.111171],[35.795922,47.111128],[35.795917,47.111026],[35.795886,47.110604],[35.795847,47.110009],[35.795631,47.110037],[35.795634,47.110256],[35.795632,47.11033],[35.795631,47.110398],[35.795631,47.110616],[35.795593,47.111171]]]}},{"type":"Feature","properties":{"cadnum":"2325280403:01:001:0009"},"geometry":{"type":"Polygon","coordinates":[[[35.797412,47.109821],[35.797514,47.110519],[35.797947,47.110495],[35.797824,47.109799],[35.797412,47.109821]]]}},{"type":"Feature","properties":{"cadnum":"2325280403:01:001:0002"},"geometry":{"type":"Polygon","coordinates":[[[35.794506,47.111105],[35.794672,47.111158],[35.794899,47.110694],[35.794731,47.110639],[35.794506,47.111105]]]}},{"type":"Feature","properties":{"cadnum":"2325280403:01:001:0006"},"geometry":{"type":"Polygon","coordinates":[[[35.798483,47.109763],[35.79852,47.10996],[35.798772,47.10995],[35.798854,47.110397],[35.798864,47.110397],[35.79896,47.110393],[35.799036,47.11039],[35.799233,47.110381],[35.799115,47.109738],[35.798864,47.109748],[35.798483,47.109763]]]}},{"type":"Feature","properties":{"cadnum":"2325280403:01:001:0016"},"geometry":{"type":"Polygon","coordinates":[[[35.788952,47.109117],[35.789345,47.109238],[35.789754,47.108623],[35.789474,47.108542],[35.788952,47.109117]]]}},{"type":"Feature","properties":{"cadnum":"2325280403:01:001:0012"},"geometry":{"type":"Polygon","coordinates":[[[35.782845,47.107132],[35.783597,47.107268],[35.78371,47.10689],[35.782956,47.106763],[35.782845,47.107132]]]}}]}