{"type":"FeatureCollection","features":[{"type":"Feature","properties":{"cadnum":"2325281203:01:001:0013"},"geometry":{"type":"Polygon","coordinates":[[[35.627473,47.220972],[35.628524,47.221448],[35.628576,47.221472],[35.628576,47.221473],[35.630051,47.222142],[35.630841,47.222496],[35.631238,47.222563],[35.632862,47.221971],[35.634069,47.221518],[35.635157,47.22111],[35.636583,47.220582],[35.637441,47.220292],[35.637752,47.220168],[35.639398,47.219555],[35.639469,47.219528],[35.639734,47.219503],[35.639734,47.219502],[35.641391,47.219341],[35.643087,47.219257],[35.644081,47.219216],[35.645056,47.219387],[35.645064,47.219388],[35.645227,47.219473],[35.645228,47.219473],[35.645386,47.219555],[35.645605,47.219668],[35.645612,47.219671],[35.645706,47.21972],[35.646357,47.220064],[35.646873,47.220366],[35.646991,47.22027],[35.646473,47.219966],[35.645819,47.219619],[35.645146,47.219272],[35.644098,47.219088],[35.643075,47.219131],[35.64137,47.219215],[35.639593,47.219389],[35.639408,47.219406],[35.63901,47.219555],[35.638866,47.219609],[35.638698,47.219671],[35.637661,47.220058],[35.637352,47.220181],[35.636497,47.22047],[35.635069,47.220998],[35.634241,47.22131],[35.632774,47.221861],[35.631214,47.222429],[35.630917,47.222378],[35.630916,47.222378],[35.630153,47.222037],[35.628627,47.221344],[35.627871,47.220995],[35.627552,47.220875],[35.627473,47.220972]]]}},{"type":"Feature","properties":{"cadnum":"2325281203:01:001:0023"},"geometry":{"type":"Polygon","coordinates":[[[35.642874,47.219673],[35.642946,47.219887],[35.643082,47.220206],[35.643583,47.220095],[35.643491,47.219843],[35.643389,47.219559],[35.642882,47.219671],[35.642874,47.219673]]]}},{"type":"Feature","properties":{"cadnum":"2325281203:01:001:0024"},"geometry":{"type":"Polygon","coordinates":[[[35.642785,47.219412],[35.642872,47.219671],[35.642873,47.219671],[35.642874,47.219673],[35.643389,47.219559],[35.643326,47.219382],[35.642785,47.219412]]]}},{"type":"Feature","properties":{"cadnum":"2325281203:01:001:0010"},"geometry":{"type":"Polygon","coordinates":[[[35.640638,47.219445],[35.640732,47.219671],[35.640733,47.219671],[35.640904,47.220078],[35.640987,47.22006],[35.641006,47.220114],[35.641271,47.220072],[35.641059,47.219634],[35.640941,47.219389],[35.640638,47.219445]]]}},{"type":"Feature","properties":{"cadnum":"2325281203:01:001:0021"},"geometry":{"type":"Polygon","coordinates":[[[35.641588,47.219435],[35.641619,47.219555],[35.641636,47.219622],[35.641649,47.219671],[35.64165,47.219671],[35.641727,47.219962],[35.641787,47.220098],[35.641915,47.220369],[35.642203,47.22031],[35.642022,47.219905],[35.642022,47.219904],[35.64196,47.21967],[35.641893,47.219417],[35.641588,47.219435]]]}},{"type":"Feature","properties":{"cadnum":"2325281203:01:001:0072"},"geometry":{"type":"Polygon","coordinates":[[[35.626362,47.227083],[35.626365,47.227133],[35.626382,47.227438],[35.627198,47.227426],[35.627165,47.227066],[35.626992,47.227074],[35.626762,47.227085],[35.626362,47.227083]]]}},{"type":"Feature","properties":{"cadnum":"2325281203:01:001:0027"},"geometry":{"type":"Polygon","coordinates":[[[35.637373,47.22416],[35.637504,47.224316],[35.637504,47.224317],[35.637453,47.224336],[35.63776,47.224703],[35.638075,47.224581],[35.63783,47.224288],[35.638129,47.224173],[35.63792,47.223956],[35.637373,47.22416]]]}},{"type":"Feature","properties":{"cadnum":"2325281203:01:001:0045"},"geometry":{"type":"Polygon","coordinates":[[[35.636222,47.224058],[35.636612,47.224538],[35.636723,47.224493],[35.636796,47.224463],[35.636698,47.22434],[35.636628,47.224324],[35.63636,47.224002],[35.636222,47.224058]]]}},{"type":"Feature","properties":{"cadnum":"2325281203:01:001:0028"},"geometry":{"type":"Polygon","coordinates":[[[35.637013,47.223731],[35.637373,47.22416],[35.63792,47.223956],[35.63752,47.223541],[35.637013,47.223731]]]}},{"type":"Feature","properties":{"cadnum":"2325281203:01:001:0016"},"geometry":{"type":"Polygon","coordinates":[[[35.633923,47.225521],[35.634241,47.225428],[35.634241,47.225427],[35.634519,47.225346],[35.63472,47.224909],[35.634464,47.224795],[35.634135,47.225236],[35.633923,47.225521]]]}},{"type":"Feature","properties":{"cadnum":"2325281203:01:001:0017"},"geometry":{"type":"Polygon","coordinates":[[[35.635098,47.22549],[35.635259,47.225702],[35.636475,47.225301],[35.63634,47.225122],[35.635098,47.22549]]]}},{"type":"Feature","properties":{"cadnum":"2325281203:01:001:0049"},"geometry":{"type":"Polygon","coordinates":[[[35.635094,47.226293],[35.6352,47.226433],[35.63537,47.226376],[35.63693,47.225888],[35.636824,47.225748],[35.635094,47.226293]]]}},{"type":"Feature","properties":{"cadnum":"2325281203:01:001:0061"},"geometry":{"type":"Polygon","coordinates":[[[35.63459,47.226314],[35.634788,47.226572],[35.6352,47.226433],[35.635094,47.226293],[35.635004,47.226174],[35.63459,47.226314]]]}},{"type":"Feature","properties":{"cadnum":"2325281203:01:001:0014"},"geometry":{"type":"Polygon","coordinates":[[[35.633557,47.224868],[35.633709,47.225117],[35.633976,47.224817],[35.634069,47.224714],[35.6342,47.22457],[35.634241,47.224525],[35.63436,47.224394],[35.634102,47.224285],[35.633557,47.224868]]]}},{"type":"Feature","properties":{"cadnum":"2325281203:01:001:0034"},"geometry":{"type":"Polygon","coordinates":[[[35.636608,47.222274],[35.637335,47.223285],[35.637335,47.223286],[35.637334,47.223286],[35.637403,47.223381],[35.637497,47.223344],[35.637603,47.223301],[35.636824,47.222187],[35.636608,47.222274]]]}},{"type":"Feature","properties":{"cadnum":"2325281203:01:001:0018"},"geometry":{"type":"Polygon","coordinates":[[[35.63477,47.225588],[35.634926,47.225811],[35.635259,47.225702],[35.635098,47.22549],[35.63477,47.225588]]]}},{"type":"Feature","properties":{"cadnum":"2325281203:01:001:0022"},"geometry":{"type":"Polygon","coordinates":[[[35.633505,47.224789],[35.633938,47.224978],[35.634069,47.224838],[35.634092,47.224814],[35.634241,47.224656],[35.634394,47.224493],[35.634207,47.224412],[35.633961,47.224305],[35.633505,47.224789]]]}},{"type":"Feature","properties":{"cadnum":"2325281203:01:001:0030"},"geometry":{"type":"Polygon","coordinates":[[[35.639033,47.222006],[35.639159,47.222221],[35.639105,47.222237],[35.639333,47.222599],[35.639562,47.222523],[35.639563,47.222523],[35.639694,47.222479],[35.639488,47.222133],[35.639562,47.222113],[35.639563,47.222113],[35.639677,47.222081],[35.639557,47.221832],[35.639033,47.222006]]]}},{"type":"Feature","properties":{"cadnum":"2325281203:01:001:0047"},"geometry":{"type":"Polygon","coordinates":[[[35.640084,47.220295],[35.640284,47.220723],[35.640654,47.22065],[35.640437,47.220225],[35.640084,47.220295]]]}},{"type":"Feature","properties":{"cadnum":"2325281203:01:001:0006"},"geometry":{"type":"Polygon","coordinates":[[[35.641187,47.222861],[35.641655,47.223402],[35.641692,47.223445],[35.641987,47.223341],[35.641546,47.222714],[35.641187,47.222861]]]}},{"type":"Feature","properties":{"cadnum":"2325281203:01:001:0007"},"geometry":{"type":"Polygon","coordinates":[[[35.640703,47.222304],[35.641187,47.222861],[35.641546,47.222714],[35.641149,47.222149],[35.641138,47.222134],[35.640703,47.222304]]]}},{"type":"Feature","properties":{"cadnum":"2325281203:01:001:0037"},"geometry":{"type":"Polygon","coordinates":[[[35.64142,47.22087],[35.641601,47.221211],[35.641923,47.221827],[35.642166,47.221782],[35.641848,47.221175],[35.641698,47.220818],[35.64142,47.22087]]]}},{"type":"Feature","properties":{"cadnum":"2325281203:01:001:0038"},"geometry":{"type":"Polygon","coordinates":[[[35.64223,47.220713],[35.642386,47.221076],[35.642563,47.221038],[35.642563,47.221039],[35.642831,47.22161],[35.643066,47.221565],[35.642615,47.22064],[35.64223,47.220713]]]}},{"type":"Feature","properties":{"cadnum":"2325281203:01:001:0052"},"geometry":{"type":"Polygon","coordinates":[[[35.643353,47.220333],[35.643404,47.220453],[35.643807,47.220377],[35.643748,47.220248],[35.643353,47.220333]]]}},{"type":"Feature","properties":{"cadnum":"2325281203:01:001:0012"},"geometry":{"type":"Polygon","coordinates":[[[35.631568,47.223898],[35.631639,47.223923],[35.631575,47.224008],[35.631865,47.223993],[35.63195,47.223998],[35.632339,47.223602],[35.632038,47.223472],[35.631865,47.223607],[35.631568,47.223898]]]}},{"type":"Feature","properties":{"cadnum":"2325281203:01:001:0015"},"geometry":{"type":"Polygon","coordinates":[[[35.633398,47.223214],[35.633504,47.223285],[35.633504,47.223286],[35.633503,47.223286],[35.633634,47.223373],[35.633635,47.223374],[35.634069,47.223096],[35.634751,47.222659],[35.634606,47.222494],[35.634069,47.222814],[35.633398,47.223214]]]}},{"type":"Feature","properties":{"cadnum":"2325281203:01:001:0001"},"geometry":{"type":"Polygon","coordinates":[[[35.627686,47.221622],[35.628552,47.221994],[35.628576,47.221969],[35.628664,47.221877],[35.628748,47.22179],[35.628748,47.221789],[35.628776,47.22176],[35.628576,47.221672],[35.628576,47.221673],[35.627871,47.221364],[35.627686,47.221622]]]}},{"type":"Feature","properties":{"cadnum":"2325281203:01:001:0002"},"geometry":{"type":"Polygon","coordinates":[[[35.62714,47.222384],[35.628102,47.222809],[35.628576,47.222307],[35.629,47.221858],[35.628776,47.22176],[35.628664,47.221877],[35.628552,47.221994],[35.627686,47.221622],[35.62714,47.222384]]]}},{"type":"Feature","properties":{"cadnum":"2325281203:01:001:0026"},"geometry":{"type":"Polygon","coordinates":[[[35.637711,47.221918],[35.638004,47.222336],[35.638204,47.222259],[35.637877,47.221852],[35.637711,47.221918]]]}},{"type":"Feature","properties":{"cadnum":"2325281203:01:001:0031"},"geometry":{"type":"Polygon","coordinates":[[[35.63577,47.220973],[35.636289,47.221641],[35.636391,47.221604],[35.636474,47.221571],[35.635966,47.2209],[35.63577,47.220973]]]}},{"type":"Feature","properties":{"cadnum":"2325281203:01:001:0036"},"geometry":{"type":"Polygon","coordinates":[[[35.634576,47.221411],[35.635484,47.222505],[35.635681,47.222432],[35.634775,47.221339],[35.634576,47.221411]]]}},{"type":"Feature","properties":{"cadnum":"2325281203:01:001:0029"},"geometry":{"type":"Polygon","coordinates":[[[35.638676,47.221629],[35.638889,47.221943],[35.638979,47.221916],[35.639033,47.222006],[35.639557,47.221832],[35.639368,47.221434],[35.638676,47.221629]]]}},{"type":"Feature","properties":{"cadnum":"2325281203:01:001:0039"},"geometry":{"type":"Polygon","coordinates":[[[35.638389,47.220946],[35.638731,47.221483],[35.639066,47.221384],[35.638718,47.220848],[35.638389,47.220946]]]}},{"type":"Feature","properties":{"cadnum":"2325281203:01:001:0065"},"geometry":{"type":"Polygon","coordinates":[[[35.635966,47.2209],[35.636474,47.221571],[35.63667,47.221498],[35.636171,47.220824],[35.635966,47.2209]]]}},{"type":"Feature","properties":{"cadnum":"2325281203:01:001:0063"},"geometry":{"type":"Polygon","coordinates":[[[35.637009,47.222052],[35.637069,47.222136],[35.637275,47.222053],[35.637213,47.221969],[35.637009,47.222052]]]}},{"type":"Feature","properties":{"cadnum":"2325281203:01:001:0042"},"geometry":{"type":"Polygon","coordinates":[[[35.634186,47.221316],[35.634586,47.221166],[35.634651,47.220403],[35.634246,47.220556],[35.634186,47.221316]]]}},{"type":"Feature","properties":{"cadnum":"2325281203:01:001:0048"},"geometry":{"type":"Polygon","coordinates":[[[35.634775,47.221339],[35.635681,47.222432],[35.635877,47.222357],[35.634967,47.221265],[35.634775,47.221339]]]}},{"type":"Feature","properties":{"cadnum":"2325281203:01:001:0064"},"geometry":{"type":"Polygon","coordinates":[[[35.634191,47.221547],[35.634811,47.2223],[35.635026,47.22223],[35.634389,47.221482],[35.634191,47.221547]]]}},{"type":"Feature","properties":{"cadnum":"2325281203:01:001:0032"},"geometry":{"type":"Polygon","coordinates":[[[35.636884,47.222273],[35.637603,47.223301],[35.637835,47.223209],[35.637104,47.222186],[35.636884,47.222273]]]}},{"type":"Feature","properties":{"cadnum":"2325281203:01:001:0062"},"geometry":{"type":"Polygon","coordinates":[[[35.637069,47.222136],[35.637835,47.223209],[35.638059,47.223119],[35.637275,47.222053],[35.637069,47.222136]]]}},{"type":"Feature","properties":{"cadnum":"2325281203:01:001:0025"},"geometry":{"type":"Polygon","coordinates":[[[35.638004,47.222336],[35.638444,47.222963],[35.638692,47.222869],[35.638204,47.222259],[35.638004,47.222336]]]}},{"type":"Feature","properties":{"cadnum":"2325281203:01:001:0041"},"geometry":{"type":"Polygon","coordinates":[[[35.634246,47.220556],[35.634651,47.220403],[35.634712,47.219711],[35.634301,47.219862],[35.634246,47.220556]]]}},{"type":"Feature","properties":{"cadnum":"2325281203:01:001:0008"},"geometry":{"type":"Polygon","coordinates":[[[35.630281,47.222153],[35.630577,47.222291],[35.630651,47.222028],[35.630782,47.22132],[35.630475,47.221285],[35.630338,47.221967],[35.630281,47.222153]]]}},{"type":"Feature","properties":{"cadnum":"2325281203:01:001:0035"},"geometry":{"type":"Polygon","coordinates":[[[35.633701,47.221506],[35.633925,47.221417],[35.633969,47.22118],[35.633942,47.221152],[35.634036,47.220113],[35.633789,47.220211],[35.633701,47.221506]]]}},{"type":"Feature","properties":{"cadnum":"2325281203:01:001:0011"},"geometry":{"type":"Polygon","coordinates":[[[35.632188,47.222325],[35.632396,47.222545],[35.632573,47.222732],[35.632921,47.222577],[35.63279,47.222424],[35.63274,47.222441],[35.63253,47.22219],[35.632188,47.222325]]]}},{"type":"Feature","properties":{"cadnum":"2325281203:01:001:0004"},"geometry":{"type":"Polygon","coordinates":[[[35.632578,47.221918],[35.632931,47.221792],[35.633007,47.220911],[35.632681,47.220994],[35.632578,47.221918]]]}},{"type":"Feature","properties":{"cadnum":"2325281203:01:001:0005"},"geometry":{"type":"Polygon","coordinates":[[[35.632681,47.220994],[35.633007,47.220911],[35.633068,47.220214],[35.632758,47.220295],[35.632681,47.220994]]]}},{"type":"Feature","properties":{"cadnum":"2325281203:01:001:0020"},"geometry":{"type":"Polygon","coordinates":[[[35.632984,47.222895],[35.633175,47.223026],[35.633789,47.222708],[35.633588,47.222482],[35.633309,47.222591],[35.633391,47.222674],[35.632984,47.222895]]]}},{"type":"Feature","properties":{"cadnum":"2325281203:01:001:0009"},"geometry":{"type":"Polygon","coordinates":[[[35.630475,47.221285],[35.630782,47.22132],[35.630988,47.220224],[35.630722,47.220039],[35.630475,47.221285]]]}},{"type":"Feature","properties":{"cadnum":"2325281203:01:001:0019"},"geometry":{"type":"Polygon","coordinates":[[[35.632633,47.222225],[35.632845,47.222475],[35.632888,47.222462],[35.63298,47.222569],[35.633195,47.222477],[35.633309,47.222591],[35.633588,47.222482],[35.633172,47.222015],[35.632633,47.222225]]]}}]}