{"type":"FeatureCollection","features":[{"type":"Feature","properties":{"cadnum":"2325582902:02:001:0007"},"geometry":{"type":"Polygon","coordinates":[[[36.144718,47.297805],[36.144814,47.297846],[36.144934,47.297896],[36.144934,47.297897],[36.145303,47.298052],[36.145443,47.297896],[36.146256,47.297006],[36.145608,47.296733],[36.145106,47.297339],[36.145105,47.297339],[36.145105,47.297338],[36.144718,47.297805]]]}},{"type":"Feature","properties":{"cadnum":"2325582902:02:004:0005"},"geometry":{"type":"Polygon","coordinates":[[[36.168457,47.306423],[36.168957,47.306658],[36.16941,47.306193],[36.168898,47.305974],[36.168457,47.306423]]]}},{"type":"Feature","properties":{"cadnum":"2325582902:02:004:0006"},"geometry":{"type":"Polygon","coordinates":[[[36.168205,47.30743],[36.1686,47.307576],[36.169807,47.306339],[36.16941,47.306193],[36.168957,47.306658],[36.168205,47.30743]]]}},{"type":"Feature","properties":{"cadnum":"2325582902:01:001:0007"},"geometry":{"type":"Polygon","coordinates":[[[36.130884,47.289592],[36.132264,47.290303],[36.132881,47.289678],[36.13157,47.288844],[36.130884,47.289592]]]}},{"type":"Feature","properties":{"cadnum":"2325582902:01:002:0005"},"geometry":{"type":"Polygon","coordinates":[[[36.145057,47.300163],[36.145675,47.300411],[36.146341,47.299662],[36.14574,47.299422],[36.145057,47.300163]]]}}]}