{"type":"FeatureCollection","features":[{"type":"Feature","properties":{"cadnum":"2325282801:01:001:0077"},"geometry":{"type":"Polygon","coordinates":[[[35.723524,47.109645],[35.723599,47.109852],[35.723789,47.10981],[35.723717,47.10961],[35.723524,47.109645]]]}},{"type":"Feature","properties":{"cadnum":"2325282801:01:002:0037"},"geometry":{"type":"Polygon","coordinates":[[[35.711115,47.103436],[35.711158,47.10377],[35.711157,47.10377],[35.711278,47.104673],[35.71169,47.104638],[35.711576,47.10377],[35.711575,47.10377],[35.711529,47.103412],[35.711115,47.103436]]]}},{"type":"Feature","properties":{"cadnum":"2325282801:01:002:0032"},"geometry":{"type":"Polygon","coordinates":[[[35.714124,47.103639],[35.714156,47.103887],[35.714157,47.103887],[35.714267,47.104702],[35.714686,47.104669],[35.71458,47.103887],[35.714542,47.103604],[35.714124,47.103639]]]}},{"type":"Feature","properties":{"cadnum":"2325282801:01:002:0046"},"geometry":{"type":"Polygon","coordinates":[[[35.7132,47.103693],[35.713214,47.10377],[35.713213,47.10377],[35.713228,47.103848],[35.713235,47.103887],[35.713412,47.104838],[35.713844,47.104805],[35.71369,47.103887],[35.713691,47.103887],[35.713657,47.103685],[35.7132,47.103693]]]}},{"type":"Feature","properties":{"cadnum":"2325282801:01:002:0030"},"geometry":{"type":"Polygon","coordinates":[[[35.703297,47.10383],[35.703673,47.103887],[35.703738,47.103897],[35.703783,47.10377],[35.704114,47.102836],[35.703637,47.102763],[35.703316,47.10377],[35.703297,47.10383]]]}},{"type":"Feature","properties":{"cadnum":"2325282801:01:002:0004"},"geometry":{"type":"Polygon","coordinates":[[[35.704661,47.104115],[35.705101,47.104191],[35.705249,47.10377],[35.705248,47.10377],[35.705491,47.103079],[35.705037,47.102984],[35.704736,47.103887],[35.704737,47.103887],[35.704661,47.104115]]]}},{"type":"Feature","properties":{"cadnum":"2325282801:01:001:0008"},"geometry":{"type":"Polygon","coordinates":[[[35.701712,47.103366],[35.702224,47.103451],[35.702101,47.10377],[35.7021,47.10377],[35.702014,47.103995],[35.702364,47.104052],[35.702419,47.103886],[35.702836,47.102643],[35.702043,47.10251],[35.701712,47.103366]]]}},{"type":"Feature","properties":{"cadnum":"2325282801:01:001:0007"},"geometry":{"type":"Polygon","coordinates":[[[35.701502,47.10391],[35.702014,47.103995],[35.702055,47.103887],[35.702224,47.103451],[35.701712,47.103366],[35.70151,47.103887],[35.701502,47.10391]]]}},{"type":"Feature","properties":{"cadnum":"2325282801:01:002:0011"},"geometry":{"type":"Polygon","coordinates":[[[35.702763,47.104122],[35.702764,47.104122],[35.703182,47.10419],[35.703303,47.103811],[35.702891,47.103743],[35.702841,47.103887],[35.702842,47.103887],[35.702763,47.104122]]]}},{"type":"Feature","properties":{"cadnum":"2325282801:01:002:0040"},"geometry":{"type":"Polygon","coordinates":[[[35.702891,47.103743],[35.703303,47.103811],[35.703637,47.102763],[35.703242,47.1027],[35.702891,47.103743]]]}},{"type":"Feature","properties":{"cadnum":"2325282801:01:001:0028"},"geometry":{"type":"Polygon","coordinates":[[[35.699525,47.1108],[35.699987,47.110838],[35.700115,47.110848],[35.700159,47.110571],[35.700159,47.11057],[35.700194,47.110352],[35.700148,47.110348],[35.699608,47.110303],[35.699525,47.1108]]]}},{"type":"Feature","properties":{"cadnum":"2325282801:01:001:0076"},"geometry":{"type":"Polygon","coordinates":[[[35.698569,47.110207],[35.698607,47.110279],[35.698607,47.11028],[35.698681,47.11026],[35.698641,47.110186],[35.698569,47.110207]]]}},{"type":"Feature","properties":{"cadnum":"2325282801:01:001:0027"},"geometry":{"type":"Polygon","coordinates":[[[35.699342,47.11189],[35.699934,47.111988],[35.700032,47.111365],[35.700033,47.111365],[35.700115,47.110848],[35.699525,47.1108],[35.69943,47.111365],[35.699342,47.11189]]]}},{"type":"Feature","properties":{"cadnum":"2325282801:01:001:0012"},"geometry":{"type":"Polygon","coordinates":[[[35.707923,47.10758],[35.708459,47.107587],[35.708715,47.106011],[35.708726,47.105963],[35.708198,47.105956],[35.707935,47.107509],[35.707933,47.107509],[35.707923,47.10758]]]}},{"type":"Feature","properties":{"cadnum":"2325282801:01:002:0008"},"geometry":{"type":"Polygon","coordinates":[[[35.711057,47.105942],[35.711323,47.107509],[35.711322,47.107509],[35.711391,47.107907],[35.71179,47.107878],[35.711726,47.107509],[35.711451,47.105914],[35.711057,47.105942]]]}},{"type":"Feature","properties":{"cadnum":"2325282801:01:002:0033"},"geometry":{"type":"Polygon","coordinates":[[[35.714267,47.104702],[35.714316,47.105066],[35.714736,47.105032],[35.714686,47.104669],[35.714267,47.104702]]]}},{"type":"Feature","properties":{"cadnum":"2325282801:01:002:0001"},"geometry":{"type":"Polygon","coordinates":[[[35.711878,47.105547],[35.711959,47.106263],[35.712382,47.10623],[35.712276,47.105516],[35.711878,47.105547]]]}},{"type":"Feature","properties":{"cadnum":"2325282801:01:002:0045"},"geometry":{"type":"Polygon","coordinates":[[[35.713412,47.104838],[35.713467,47.105138],[35.713893,47.105104],[35.713844,47.104805],[35.713412,47.104838]]]}},{"type":"Feature","properties":{"cadnum":"2325282801:01:002:0036"},"geometry":{"type":"Polygon","coordinates":[[[35.711278,47.104673],[35.71136,47.105299],[35.711772,47.105265],[35.71169,47.104638],[35.711278,47.104673]]]}},{"type":"Feature","properties":{"cadnum":"2325282801:01:002:0007"},"geometry":{"type":"Polygon","coordinates":[[[35.711001,47.105614],[35.711057,47.105942],[35.711145,47.105936],[35.711451,47.105914],[35.711395,47.105587],[35.711001,47.105614]]]}},{"type":"Feature","properties":{"cadnum":"2325282801:01:001:0004"},"geometry":{"type":"Polygon","coordinates":[[[35.720418,47.107804],[35.720736,47.108662],[35.720977,47.108619],[35.720661,47.10776],[35.720418,47.107804]]]}},{"type":"Feature","properties":{"cadnum":"2325282801:01:001:0005"},"geometry":{"type":"Polygon","coordinates":[[[35.720736,47.108662],[35.721118,47.109817],[35.721359,47.109773],[35.720977,47.108619],[35.720736,47.108662]]]}},{"type":"Feature","properties":{"cadnum":"2325282801:01:002:0043"},"geometry":{"type":"Polygon","coordinates":[[[35.695975,47.104881],[35.696269,47.104963],[35.696781,47.103785],[35.696401,47.103681],[35.696369,47.10377],[35.696342,47.103847],[35.696328,47.103887],[35.695975,47.104881]]]}},{"type":"Feature","properties":{"cadnum":"2325282801:01:002:0042"},"geometry":{"type":"Polygon","coordinates":[[[35.696401,47.103681],[35.696781,47.103785],[35.69693,47.103442],[35.696513,47.103368],[35.696401,47.103681]]]}},{"type":"Feature","properties":{"cadnum":"2325282801:01:002:0002"},"geometry":{"type":"Polygon","coordinates":[[[35.697183,47.104374],[35.697488,47.104452],[35.697746,47.103805],[35.697831,47.103594],[35.697488,47.103538],[35.697403,47.10377],[35.697402,47.10377],[35.697183,47.104374]]]}},{"type":"Feature","properties":{"cadnum":"2325282801:01:002:0025"},"geometry":{"type":"Polygon","coordinates":[[[35.698849,47.10346],[35.699129,47.103507],[35.699274,47.103088],[35.698983,47.103077],[35.698849,47.10346]]]}},{"type":"Feature","properties":{"cadnum":"2325282801:01:002:0016"},"geometry":{"type":"Polygon","coordinates":[[[35.699227,47.103224],[35.699585,47.103281],[35.700041,47.102032],[35.69966,47.101974],[35.699227,47.103224]]]}},{"type":"Feature","properties":{"cadnum":"2325282801:01:002:0026"},"geometry":{"type":"Polygon","coordinates":[[[35.698983,47.103077],[35.699274,47.103088],[35.69966,47.101974],[35.699375,47.101963],[35.698983,47.103077]]]}},{"type":"Feature","properties":{"cadnum":"2325282801:01:002:0015"},"geometry":{"type":"Polygon","coordinates":[[[35.699129,47.103507],[35.699482,47.103565],[35.699585,47.103281],[35.699227,47.103224],[35.699129,47.103507]]]}},{"type":"Feature","properties":{"cadnum":"2325282801:01:002:0027"},"geometry":{"type":"Polygon","coordinates":[[[35.702609,47.106014],[35.702994,47.106083],[35.703414,47.10486],[35.703026,47.104794],[35.702609,47.106014]]]}},{"type":"Feature","properties":{"cadnum":"2325282801:01:002:0031"},"geometry":{"type":"Polygon","coordinates":[[[35.704272,47.10537],[35.704692,47.105437],[35.704893,47.104756],[35.704483,47.10469],[35.704272,47.10537]]]}},{"type":"Feature","properties":{"cadnum":"2325282801:01:002:0029"},"geometry":{"type":"Polygon","coordinates":[[[35.703182,47.10419],[35.70361,47.104261],[35.703738,47.103897],[35.703297,47.10383],[35.703182,47.10419]]]}},{"type":"Feature","properties":{"cadnum":"2325282801:01:002:0028"},"geometry":{"type":"Polygon","coordinates":[[[35.703026,47.104794],[35.703414,47.10486],[35.703523,47.104544],[35.703135,47.104477],[35.703026,47.104794]]]}},{"type":"Feature","properties":{"cadnum":"2325282801:01:002:0003"},"geometry":{"type":"Polygon","coordinates":[[[35.704559,47.104424],[35.704992,47.104499],[35.705101,47.104191],[35.704661,47.104115],[35.704559,47.104424]]]}},{"type":"Feature","properties":{"cadnum":"2325282801:01:001:0001"},"geometry":{"type":"Polygon","coordinates":[[[35.70358,47.106209],[35.703992,47.106269],[35.704268,47.105378],[35.703857,47.105318],[35.703856,47.105318],[35.70358,47.106209]]]}},{"type":"Feature","properties":{"cadnum":"2325282801:01:001:0002"},"geometry":{"type":"Polygon","coordinates":[[[35.703856,47.105318],[35.703857,47.105318],[35.704268,47.105378],[35.704483,47.10469],[35.70407,47.10463],[35.703856,47.105318]]]}},{"type":"Feature","properties":{"cadnum":"2325282801:01:001:0014"},"geometry":{"type":"Polygon","coordinates":[[[35.707471,47.105364],[35.70762,47.10539],[35.707624,47.105381],[35.707636,47.105382],[35.707652,47.105385],[35.707672,47.105329],[35.707625,47.105321],[35.707642,47.105268],[35.707646,47.105259],[35.707516,47.105237],[35.707471,47.105364]]]}},{"type":"Feature","properties":{"cadnum":"2325282801:01:002:0005"},"geometry":{"type":"Polygon","coordinates":[[[35.706002,47.105394],[35.706413,47.105464],[35.706549,47.10505],[35.706146,47.104982],[35.706002,47.105394]]]}},{"type":"Feature","properties":{"cadnum":"2325282801:01:002:0069"},"geometry":{"type":"Polygon","coordinates":[[[35.707258,47.105405],[35.707359,47.105423],[35.707389,47.10534],[35.7074,47.105311],[35.707382,47.105308],[35.707402,47.105249],[35.70729,47.105228],[35.707267,47.105282],[35.707314,47.105291],[35.707291,47.105347],[35.707278,47.105345],[35.70726,47.105397],[35.707258,47.105405]]]}},{"type":"Feature","properties":{"cadnum":"2325282801:01:001:0011"},"geometry":{"type":"Polygon","coordinates":[[[35.708198,47.105956],[35.708726,47.105963],[35.708844,47.10544],[35.708359,47.105359],[35.708234,47.105743],[35.708198,47.105956]]]}},{"type":"Feature","properties":{"cadnum":"2325282801:01:002:0006"},"geometry":{"type":"Polygon","coordinates":[[[35.705621,47.106483],[35.706055,47.106547],[35.706413,47.105464],[35.706002,47.105394],[35.705621,47.106483]]]}}]}