{"type":"FeatureCollection","features":[{"type":"Feature","properties":{"cadnum":"2332987900:01:002:0132"},"geometry":{"type":"Polygon","coordinates":[[[35.545931,47.812472],[35.546179,47.812498],[35.54623,47.812503],[35.54635,47.812516],[35.546351,47.812516],[35.551844,47.81309],[35.551844,47.813089],[35.553454,47.813257],[35.554085,47.813323],[35.554099,47.813257],[35.554204,47.812798],[35.551672,47.812534],[35.546261,47.811968],[35.546059,47.811947],[35.545931,47.812472]]]}},{"type":"Feature","properties":{"cadnum":"2332987900:01:002:0140"},"geometry":{"type":"Polygon","coordinates":[[[35.554504,47.813488],[35.557165,47.813757],[35.562658,47.814311],[35.562658,47.814312],[35.562719,47.814317],[35.56283,47.813745],[35.562831,47.813738],[35.562765,47.813731],[35.558066,47.813257],[35.557165,47.813166],[35.557165,47.813167],[35.556924,47.813142],[35.556919,47.813142],[35.554632,47.81291],[35.55458,47.813142],[35.554579,47.813142],[35.554568,47.813195],[35.554554,47.813257],[35.554504,47.813488]]]}}]}