{"type":"FeatureCollection","features":[{"type":"Feature","properties":{"cadnum":"4400000000:12:002:0350"},"geometry":{"type":"Polygon","coordinates":[[[38.272685,49.944752],[38.273626,49.945216],[38.275027,49.94414],[38.275369,49.943878],[38.27499,49.943651],[38.274502,49.943357],[38.273482,49.94414],[38.273481,49.94414],[38.272685,49.944752]]]}},{"type":"Feature","properties":{"cadnum":"4400000000:03:001:0260"},"geometry":{"type":"Polygon","coordinates":[[[39.544288,48.057034],[39.544499,48.057043],[39.5445,48.057043],[39.5445,48.057055],[39.544534,48.057055],[39.54454,48.057046],[39.544733,48.057055],[39.544746,48.056905],[39.544724,48.056902],[39.544723,48.056902],[39.544723,48.056878],[39.544666,48.056875],[39.544666,48.056899],[39.54462,48.056899],[39.54462,48.056889],[39.544607,48.056889],[39.544607,48.056899],[39.544301,48.056884],[39.544288,48.057034]]]}},{"type":"Feature","properties":{"cadnum":"4400000000:02:002:0556"},"geometry":{"type":"Polygon","coordinates":[[[39.361989,48.689558],[39.362092,48.689724],[39.362469,48.689614],[39.362365,48.689454],[39.361989,48.689558]]]}},{"type":"Feature","properties":{"cadnum":"4400000000:03:011:0044"},"geometry":{"type":"Polygon","coordinates":[[[39.336777,48.598905],[39.336876,48.598902],[39.337078,48.5989],[39.33728,48.5989],[39.337271,48.598766],[39.336993,48.598766],[39.336777,48.598772],[39.336777,48.598905]]]}},{"type":"Feature","properties":{"cadnum":"4400000000:05:001:0044"},"geometry":{"type":"Polygon","coordinates":[[[39.524072,48.047829],[39.524089,48.047852],[39.524292,48.047978],[39.524628,48.048092],[39.524732,48.048159],[39.524942,48.048081],[39.524728,48.047738],[39.524714,48.047702],[39.524651,48.047624],[39.524072,48.047829]]]}},{"type":"Feature","properties":{"cadnum":"4400000000:08:001:0129"},"geometry":{"type":"Polygon","coordinates":[[[39.442519,48.698017],[39.443526,48.698237],[39.444071,48.697143],[39.443064,48.696923],[39.442519,48.698017]]]}},{"type":"Feature","properties":{"cadnum":"4400000000:02:003:0162"},"geometry":{"type":"Polygon","coordinates":[[[38.523716,48.639856],[38.523977,48.63988],[38.524026,48.639568],[38.523761,48.639542],[38.523716,48.639856]]]}},{"type":"Feature","properties":{"cadnum":"4400000000:00:000:0001"},"geometry":{"type":"Polygon","coordinates":[[[39.559918,48.076157],[39.560471,48.076208],[39.560524,48.076015],[39.560561,48.075893],[39.560417,48.075875],[39.560021,48.07583],[39.559918,48.076157]]]}},{"type":"Feature","properties":{"cadnum":"4400000000:14:004:0050"},"geometry":{"type":"Polygon","coordinates":[[[39.645254,49.112017],[39.645296,49.113422],[39.645367,49.115741],[39.645419,49.11713],[39.645447,49.117827],[39.64551,49.117825],[39.647036,49.117776],[39.647004,49.117018],[39.647003,49.117018],[39.646853,49.113422],[39.646852,49.113422],[39.646791,49.111944],[39.645266,49.112017],[39.645254,49.112017]]]}},{"type":"Feature","properties":{"cadnum":"4400000000:00:000:0000"},"geometry":{"type":"Polygon","coordinates":[[[38.908847,48.085357],[38.908887,48.085406],[38.908886,48.085406],[38.908967,48.085505],[38.90898,48.085521],[38.909116,48.085687],[38.909354,48.085601],[38.909354,48.085552],[38.90931,48.085501],[38.909306,48.085463],[38.909305,48.085459],[38.909242,48.085396],[38.909094,48.08524],[38.908847,48.085357]]]}},{"type":"Feature","properties":{"cadnum":"4400000000:02:040:0173"},"geometry":{"type":"Polygon","coordinates":[[[39.388202,48.580245],[39.388435,48.580352],[39.388588,48.580126],[39.388588,48.579954],[39.388533,48.57993],[39.388529,48.579933],[39.388493,48.579969],[39.38839,48.580061],[39.388206,48.580239],[39.388202,48.580245]]]}},{"type":"Feature","properties":{"cadnum":"4400000000:01:001:0006"},"geometry":{"type":"Polygon","coordinates":[[[39.142575,48.591247],[39.14302,48.591749],[39.143599,48.592403],[39.143796,48.592341],[39.143208,48.591681],[39.142741,48.591155],[39.142575,48.591247]]]}},{"type":"Feature","properties":{"cadnum":"4400000000:05:002:0072"},"geometry":{"type":"Polygon","coordinates":[[[39.521107,48.025637],[39.521188,48.02564],[39.521422,48.02564],[39.521489,48.025652],[39.521485,48.02573],[39.521588,48.025733],[39.521583,48.025751],[39.521686,48.025754],[39.521691,48.025736],[39.521789,48.025739],[39.521799,48.025661],[39.521678,48.025658],[39.521682,48.025622],[39.521422,48.025613],[39.521426,48.025373],[39.52143,48.025373],[39.521435,48.025357],[39.521426,48.025357],[39.52143,48.025295],[39.521413,48.025295],[39.521412,48.025295],[39.521412,48.025294],[39.521412,48.025259],[39.521372,48.025259],[39.521372,48.025192],[39.521196,48.025192],[39.521192,48.025559],[39.521107,48.025559],[39.521107,48.025637]]]}},{"type":"Feature","properties":{"cadnum":"4400000000:01:007:0172"},"geometry":{"type":"Polygon","coordinates":[[[38.643053,48.509649],[38.643107,48.509667],[38.643124,48.509673],[38.643174,48.509688],[38.643197,48.509658],[38.643201,48.509649],[38.643197,48.509647],[38.643201,48.509643],[38.643166,48.509632],[38.643084,48.509608],[38.643076,48.509623],[38.643053,48.509649]]]}},{"type":"Feature","properties":{"cadnum":"4400000000:03:001:0259"},"geometry":{"type":"Polygon","coordinates":[[[39.543299,48.053356],[39.543596,48.053374],[39.543596,48.053375],[39.543592,48.053398],[39.543641,48.053401],[39.543641,48.053377],[39.543938,48.053395],[39.543951,48.053281],[39.543655,48.053263],[39.543659,48.053236],[39.543618,48.053233],[39.543614,48.05326],[39.543417,48.053248],[39.543417,48.053236],[39.543398,48.053236],[39.543398,48.053248],[39.543318,48.053242],[39.543299,48.053356]]]}},{"type":"Feature","properties":{"cadnum":"4400000000:07:002:0355"},"geometry":{"type":"Polygon","coordinates":[[[38.542878,48.628114],[38.543085,48.628506],[38.543645,48.628372],[38.543588,48.628271],[38.543462,48.6282],[38.543313,48.627965],[38.543125,48.628007],[38.543146,48.628051],[38.542878,48.628114]]]}}]}