{"type":"FeatureCollection","features":[{"type":"Feature","properties":{"cadnum":"4410100001:02:072:0205"},"geometry":{"type":"Polygon","coordinates":[[[39.336068,48.569612],[39.336471,48.569674],[39.336458,48.569636],[39.336431,48.569588],[39.336404,48.569528],[39.336414,48.569499],[39.336418,48.569442],[39.336435,48.569418],[39.336454,48.569392],[39.336458,48.569392],[39.336458,48.569389],[39.336463,48.569222],[39.336125,48.569217],[39.336068,48.569612]]]}},{"type":"Feature","properties":{"cadnum":"4410100001:02:016:0002"},"geometry":{"type":"Polygon","coordinates":[[[39.345679,48.572269],[39.346349,48.57245],[39.346631,48.572623],[39.346366,48.57281],[39.346398,48.572828],[39.346528,48.572893],[39.346614,48.572934],[39.346708,48.57297],[39.346752,48.572988],[39.3474,48.573193],[39.347448,48.573154],[39.347597,48.573031],[39.34762,48.573012],[39.348159,48.572566],[39.347871,48.572519],[39.347615,48.5727],[39.34736,48.572834],[39.347144,48.572765],[39.346865,48.572616],[39.346825,48.572551],[39.346852,48.572159],[39.346771,48.572112],[39.346771,48.572111],[39.346834,48.572066],[39.346915,48.572114],[39.346905,48.572568],[39.346905,48.572569],[39.347228,48.57234],[39.347373,48.57242],[39.347448,48.572356],[39.347574,48.572248],[39.34762,48.57226],[39.34762,48.572259],[39.347853,48.572316],[39.347853,48.572317],[39.347903,48.57237],[39.347898,48.572459],[39.348375,48.572055],[39.347987,48.571838],[39.347926,48.571802],[39.347966,48.57177],[39.348029,48.571802],[39.34845,48.57204],[39.347947,48.572471],[39.348209,48.572524],[39.348823,48.572013],[39.34854,48.571859],[39.348478,48.571844],[39.348056,48.571609],[39.347786,48.57182],[39.347574,48.571998],[39.347194,48.571784],[39.346932,48.571986],[39.346834,48.572064],[39.346829,48.572064],[39.346699,48.572162],[39.346515,48.572043],[39.346452,48.572085],[39.346259,48.572215],[39.346012,48.57229],[39.345679,48.572269]]]}},{"type":"Feature","properties":{"cadnum":"4410100001:01:029:0097"},"geometry":{"type":"Polygon","coordinates":[[[39.252296,48.553453],[39.252317,48.55353],[39.25234,48.553583],[39.252394,48.553684],[39.252479,48.55386],[39.252682,48.553821],[39.252623,48.553688],[39.252579,48.553598],[39.25252,48.553488],[39.252489,48.553411],[39.252296,48.553453]]]}}]}