{"type":"FeatureCollection","features":[{"type":"Feature","properties":{"cadnum":"4410546500:01:001:0003"},"geometry":{"type":"Polygon","coordinates":[[[38.550423,48.490789],[38.550666,48.490765],[38.550939,48.490748],[38.55094,48.490748],[38.550961,48.490747],[38.551111,48.490737],[38.551232,48.490729],[38.551223,48.490513],[38.551111,48.490524],[38.550649,48.490572],[38.550446,48.490581],[38.550423,48.490789]]]}},{"type":"Feature","properties":{"cadnum":"4410546500:02:002:0012"},"geometry":{"type":"Polygon","coordinates":[[[38.557282,48.46803],[38.557524,48.46867],[38.55814,48.469162],[38.558349,48.469267],[38.558479,48.469333],[38.558574,48.469381],[38.558575,48.469381],[38.559159,48.469676],[38.559671,48.469882],[38.561042,48.4699],[38.561926,48.469915],[38.561926,48.469916],[38.562018,48.469917],[38.562098,48.469918],[38.562111,48.469918],[38.563642,48.470156],[38.563643,48.470156],[38.564271,48.470162],[38.56423,48.469918],[38.564216,48.469346],[38.564442,48.46834],[38.564379,48.467914],[38.564339,48.46725],[38.564266,48.466615],[38.564195,48.466272],[38.56401,48.465835],[38.563579,48.466186],[38.563098,48.466327],[38.563323,48.466574],[38.562717,48.466961],[38.562069,48.467122],[38.561738,48.467369],[38.561518,48.467711],[38.561473,48.467973],[38.561473,48.467974],[38.557282,48.46803]]]}},{"type":"Feature","properties":{"cadnum":"4410546500:02:002:0010"},"geometry":{"type":"Polygon","coordinates":[[[38.555836,48.46629],[38.556433,48.466353],[38.557197,48.466433],[38.557197,48.466434],[38.556985,48.466683],[38.557174,48.46786],[38.557237,48.46803],[38.561473,48.467974],[38.561518,48.467711],[38.561738,48.467369],[38.561926,48.467229],[38.562069,48.467122],[38.562098,48.467115],[38.562717,48.466961],[38.563323,48.466574],[38.563098,48.466327],[38.563579,48.466186],[38.56401,48.465835],[38.564195,48.466272],[38.564266,48.466615],[38.564339,48.46725],[38.564379,48.467914],[38.565277,48.467956],[38.565407,48.467782],[38.565866,48.466904],[38.566229,48.466431],[38.5659,48.465739],[38.565901,48.465739],[38.565713,48.465343],[38.565259,48.46506],[38.563616,48.464617],[38.563826,48.463831],[38.564149,48.463131],[38.56415,48.463131],[38.565564,48.463107],[38.565596,48.462994],[38.564855,48.462949],[38.564289,48.462976],[38.563287,48.463104],[38.561926,48.463419],[38.561356,48.46355],[38.561329,48.4635],[38.561926,48.463362],[38.563098,48.463089],[38.563103,48.463095],[38.563997,48.462892],[38.564203,48.462844],[38.564469,48.462771],[38.565142,48.46252],[38.565448,48.462356],[38.56521,48.462106],[38.564239,48.462499],[38.564128,48.461983],[38.564078,48.461751],[38.563045,48.461105],[38.563436,48.461007],[38.563377,48.460891],[38.563377,48.46089],[38.563494,48.460804],[38.563413,48.4607],[38.563134,48.46073],[38.562807,48.46081],[38.562857,48.460867],[38.562856,48.460867],[38.562106,48.461132],[38.561926,48.461179],[38.561064,48.4614],[38.560731,48.461531],[38.560294,48.461983],[38.560278,48.462],[38.560184,48.462096],[38.560184,48.462097],[38.560008,48.462279],[38.559748,48.462514],[38.559492,48.462943],[38.558243,48.462767],[38.557991,48.462862],[38.557583,48.4638],[38.556811,48.464414],[38.55646,48.465016],[38.556161,48.465625],[38.55616,48.465625],[38.555836,48.46629]]]}},{"type":"Feature","properties":{"cadnum":"4410546500:01:002:0052"},"geometry":{"type":"Polygon","coordinates":[[[38.549012,48.48045],[38.549102,48.480632],[38.549435,48.48056],[38.54935,48.480396],[38.549012,48.48045]]]}},{"type":"Feature","properties":{"cadnum":"4410546500:01:002:0051"},"geometry":{"type":"Polygon","coordinates":[[[38.548218,48.480536],[38.548312,48.480798],[38.549102,48.480632],[38.549012,48.48045],[38.548676,48.480501],[38.548303,48.480524],[38.548218,48.480536]]]}},{"type":"Feature","properties":{"cadnum":"4410546500:02:001:0009"},"geometry":{"type":"Polygon","coordinates":[[[38.547756,48.44851],[38.548316,48.448612],[38.548393,48.44843],[38.547846,48.448317],[38.547756,48.44851]]]}},{"type":"Feature","properties":{"cadnum":"4410546500:02:001:0006"},"geometry":{"type":"Polygon","coordinates":[[[38.549781,48.450385],[38.549817,48.450411],[38.549871,48.45042],[38.550199,48.450638],[38.550234,48.450665],[38.550343,48.45062],[38.550324,48.450599],[38.550379,48.450575],[38.550396,48.450593],[38.550603,48.4505],[38.550159,48.450193],[38.549781,48.450385]]]}},{"type":"Feature","properties":{"cadnum":"4410546500:02:001:0023"},"geometry":{"type":"Polygon","coordinates":[[[38.550037,48.44997],[38.550333,48.450161],[38.550437,48.450226],[38.550635,48.450346],[38.55067,48.450432],[38.550796,48.450533],[38.550828,48.450519],[38.550859,48.450507],[38.550939,48.450472],[38.55094,48.450472],[38.55094,48.450473],[38.550999,48.450447],[38.551035,48.450429],[38.551039,48.450426],[38.550989,48.450385],[38.550842,48.450286],[38.55063,48.450149],[38.550213,48.449872],[38.550037,48.44997]]]}},{"type":"Feature","properties":{"cadnum":"4410546500:02:001:0012"},"geometry":{"type":"Polygon","coordinates":[[[38.55067,48.450628],[38.550909,48.450837],[38.550909,48.450838],[38.550873,48.450855],[38.55094,48.450917],[38.55094,48.450918],[38.55121,48.451167],[38.551211,48.451167],[38.55129,48.45124],[38.551345,48.45121],[38.551425,48.451167],[38.551519,48.451118],[38.551518,48.451117],[38.551192,48.450853],[38.551062,48.450743],[38.550832,48.450548],[38.550716,48.450596],[38.550724,48.450605],[38.550675,48.450628],[38.55067,48.450628]]]}},{"type":"Feature","properties":{"cadnum":"4410546500:02:001:0007"},"geometry":{"type":"Polygon","coordinates":[[[38.549467,48.450144],[38.549655,48.450274],[38.549781,48.450385],[38.550159,48.450193],[38.549821,48.449961],[38.549467,48.450144]]]}},{"type":"Feature","properties":{"cadnum":"4410546500:02:001:0008"},"geometry":{"type":"Polygon","coordinates":[[[38.547846,48.448317],[38.548393,48.44843],[38.548618,48.448478],[38.548662,48.448382],[38.547886,48.448225],[38.547846,48.448317]]]}},{"type":"Feature","properties":{"cadnum":"4410546500:01:001:0001"},"geometry":{"type":"Polygon","coordinates":[[[38.551052,48.488095],[38.551056,48.488107],[38.551056,48.488149],[38.551088,48.488149],[38.551092,48.488205],[38.551096,48.488253],[38.551286,48.488247],[38.552211,48.488218],[38.552198,48.488053],[38.551052,48.488095]]]}},{"type":"Feature","properties":{"cadnum":"4410546500:01:001:0002"},"geometry":{"type":"Polygon","coordinates":[[[38.552198,48.488053],[38.552211,48.488218],[38.552318,48.488214],[38.552305,48.488048],[38.552198,48.488053]]]}},{"type":"Feature","properties":{"cadnum":"4410546500:02:001:0020"},"geometry":{"type":"Polygon","coordinates":[[[38.554664,48.454403],[38.55487,48.454668],[38.554943,48.454697],[38.555045,48.454737],[38.555113,48.454754],[38.55532,48.454805],[38.555616,48.454684],[38.556006,48.454469],[38.556388,48.454225],[38.556433,48.454206],[38.556524,48.454167],[38.556604,48.454132],[38.556851,48.454025],[38.557174,48.453849],[38.55735,48.453617],[38.557314,48.453366],[38.557228,48.453081],[38.557543,48.452917],[38.557341,48.452849],[38.556954,48.452738],[38.556905,48.452723],[38.556891,48.45272],[38.556832,48.452869],[38.556666,48.452821],[38.556508,48.452761],[38.555459,48.452357],[38.555293,48.45269],[38.555234,48.45284],[38.555054,48.45342],[38.554941,48.453721],[38.554848,48.453867],[38.554664,48.454403]]]}},{"type":"Feature","properties":{"cadnum":"4410546500:03:002:0035"},"geometry":{"type":"Polygon","coordinates":[[[38.533733,48.437444],[38.534038,48.437501],[38.534313,48.437054],[38.534339,48.437013],[38.534016,48.43692],[38.534003,48.436941],[38.533733,48.437444]],[[38.533917,48.437191],[38.53389,48.437185],[38.533899,48.437168],[38.533899,48.437167],[38.5339,48.437167],[38.533926,48.437174],[38.533917,48.437191]]]}},{"type":"Feature","properties":{"cadnum":"4410546500:03:002:0037"},"geometry":{"type":"Polygon","coordinates":[[[38.532336,48.436675],[38.532479,48.436699],[38.532628,48.436723],[38.532726,48.436494],[38.532848,48.436223],[38.532583,48.436166],[38.532583,48.436167],[38.532431,48.436478],[38.532387,48.436568],[38.532376,48.436592],[38.532336,48.436675]]]}},{"type":"Feature","properties":{"cadnum":"4410546500:03:002:0034"},"geometry":{"type":"Polygon","coordinates":[[[38.533045,48.437302],[38.533081,48.437307],[38.533167,48.437325],[38.533244,48.437344],[38.533423,48.437379],[38.533625,48.436947],[38.533234,48.436867],[38.533126,48.437117],[38.533045,48.437302]],[[38.533301,48.437054],[38.533275,48.437051],[38.533284,48.437033],[38.533305,48.437039],[38.533301,48.437054]]]}},{"type":"Feature","properties":{"cadnum":"4410546500:03:002:0001"},"geometry":{"type":"Polygon","coordinates":[[[38.533225,48.4372],[38.533527,48.437275],[38.533831,48.43678],[38.533494,48.436697],[38.533225,48.4372]]]}},{"type":"Feature","properties":{"cadnum":"4410546500:03:002:0005"},"geometry":{"type":"Polygon","coordinates":[[[38.533508,48.436675],[38.533845,48.436759],[38.53394,48.436783],[38.534099,48.436478],[38.534133,48.436414],[38.53372,48.4363],[38.533555,48.436592],[38.533508,48.436675]]]}},{"type":"Feature","properties":{"cadnum":"4410546500:03:002:0002"},"geometry":{"type":"Polygon","coordinates":[[[38.533494,48.436697],[38.533831,48.43678],[38.533844,48.436759],[38.533508,48.436675],[38.533494,48.436697]]]}},{"type":"Feature","properties":{"cadnum":"4410546500:03:002:0033"},"geometry":{"type":"Polygon","coordinates":[[[38.53199,48.438345],[38.532821,48.438517],[38.532911,48.438535],[38.533531,48.438669],[38.534123,48.4376],[38.533342,48.437421],[38.533248,48.4374],[38.533248,48.437406],[38.532992,48.437361],[38.532947,48.437353],[38.532498,48.43726],[38.53199,48.438345]]]}},{"type":"Feature","properties":{"cadnum":"4410546500:03:002:0032"},"geometry":{"type":"Polygon","coordinates":[[[38.533913,48.437373],[38.533934,48.437376],[38.533993,48.437385],[38.534276,48.437435],[38.534514,48.436998],[38.534141,48.436911],[38.533913,48.437373]]]}},{"type":"Feature","properties":{"cadnum":"4410546500:04:001:0031"},"geometry":{"type":"Polygon","coordinates":[[[38.528841,48.404816],[38.528877,48.405111],[38.528967,48.405109],[38.528989,48.405108],[38.529139,48.405103],[38.52933,48.405096],[38.529313,48.404769],[38.529017,48.404795],[38.528841,48.404816]]]}},{"type":"Feature","properties":{"cadnum":"4410546500:04:001:0003"},"geometry":{"type":"Polygon","coordinates":[[[38.529542,48.404977],[38.52991,48.405052],[38.529951,48.404682],[38.529546,48.404599],[38.529542,48.404977]]]}},{"type":"Feature","properties":{"cadnum":"4410546500:04:001:0025"},"geometry":{"type":"Polygon","coordinates":[[[38.531353,48.403561],[38.531357,48.403667],[38.53137,48.403969],[38.531374,48.404038],[38.531443,48.404035],[38.531636,48.404023],[38.53164,48.404015],[38.531693,48.404008],[38.531797,48.404002],[38.531801,48.404002],[38.53177,48.403755],[38.53177,48.403754],[38.531734,48.403597],[38.531353,48.403561]]]}},{"type":"Feature","properties":{"cadnum":"4410546500:04:001:0002"},"geometry":{"type":"Polygon","coordinates":[[[38.529546,48.404599],[38.529951,48.404682],[38.529969,48.404506],[38.529973,48.404488],[38.529965,48.404405],[38.529946,48.404208],[38.52956,48.404184],[38.529546,48.404599]]]}},{"type":"Feature","properties":{"cadnum":"4410546500:04:001:0004"},"geometry":{"type":"Polygon","coordinates":[[[38.529542,48.405233],[38.529883,48.405273],[38.52991,48.405052],[38.529542,48.404977],[38.529542,48.405233]]]}},{"type":"Feature","properties":{"cadnum":"4410546500:04:001:0030"},"geometry":{"type":"Polygon","coordinates":[[[38.530871,48.404578],[38.530912,48.404828],[38.531339,48.404804],[38.531307,48.404554],[38.530871,48.404578]]]}},{"type":"Feature","properties":{"cadnum":"4410546500:02:001:0011"},"geometry":{"type":"Polygon","coordinates":[[[38.555723,48.449621],[38.55593,48.44978],[38.556105,48.449685],[38.555894,48.449526],[38.555723,48.449621]]]}},{"type":"Feature","properties":{"cadnum":"4410546500:02:001:0021"},"geometry":{"type":"Polygon","coordinates":[[[38.554551,48.448541],[38.554727,48.448645],[38.555058,48.448389],[38.555328,48.448204],[38.555486,48.448079],[38.555297,48.447969],[38.555194,48.44804],[38.554888,48.448287],[38.554551,48.448541]]]}},{"type":"Feature","properties":{"cadnum":"4410546500:02:001:0029"},"geometry":{"type":"Polygon","coordinates":[[[38.551609,48.447439],[38.55161,48.447439],[38.551811,48.447524],[38.551812,48.447524],[38.551905,48.447563],[38.552042,48.447413],[38.552112,48.447337],[38.552301,48.447122],[38.552004,48.446997],[38.551798,48.447218],[38.551708,48.447316],[38.551721,48.447322],[38.551636,48.44741],[38.551609,48.447438],[38.551609,48.447439]]]}},{"type":"Feature","properties":{"cadnum":"4410546500:02:001:0017"},"geometry":{"type":"Polygon","coordinates":[[[38.552485,48.450763],[38.552877,48.451053],[38.552877,48.451054],[38.552876,48.451054],[38.5531,48.451219],[38.553333,48.451094],[38.552696,48.450628],[38.552485,48.450763]]]}},{"type":"Feature","properties":{"cadnum":"4410546500:02:001:0010"},"geometry":{"type":"Polygon","coordinates":[[[38.555063,48.449988],[38.555067,48.449994],[38.5551,48.450018],[38.555211,48.450113],[38.555247,48.450144],[38.555257,48.450149],[38.55593,48.44978],[38.555723,48.449621],[38.555337,48.44983],[38.555063,48.449988]]]}},{"type":"Feature","properties":{"cadnum":"4410546500:02:001:0028"},"geometry":{"type":"Polygon","coordinates":[[[38.56119,48.450566],[38.561369,48.450685],[38.561863,48.450477],[38.561926,48.450451],[38.562091,48.450382],[38.562098,48.450379],[38.562178,48.450346],[38.562016,48.450182],[38.561855,48.45025],[38.561532,48.450402],[38.561226,48.450539],[38.56119,48.450566]]]}},{"type":"Feature","properties":{"cadnum":"4410546500:02:001:0027"},"geometry":{"type":"Polygon","coordinates":[[[38.562511,48.451094],[38.562596,48.451167],[38.562597,48.451167],[38.563111,48.451609],[38.56317,48.451666],[38.563256,48.451752],[38.56336,48.451714],[38.563386,48.451705],[38.563216,48.45154],[38.563157,48.451487],[38.563031,48.451388],[38.562834,48.451228],[38.563077,48.451103],[38.562887,48.450939],[38.562608,48.451054],[38.562607,48.451054],[38.562511,48.451094]]]}},{"type":"Feature","properties":{"cadnum":"4410546500:01:002:0050"},"geometry":{"type":"Polygon","coordinates":[[[38.554035,48.475382],[38.554119,48.476073],[38.55489,48.476551],[38.556397,48.477484],[38.556604,48.477367],[38.556604,48.477366],[38.557025,48.477127],[38.557484,48.476665],[38.557713,48.476434],[38.55779,48.476341],[38.55779,48.476297],[38.556901,48.475761],[38.556534,48.47554],[38.55588,48.475147],[38.555104,48.474861],[38.554947,48.474894],[38.554838,48.474933],[38.554398,48.475144],[38.554035,48.475382]]]}},{"type":"Feature","properties":{"cadnum":"4410546500:04:001:0005"},"geometry":{"type":"Polygon","coordinates":[[[38.544508,48.400189],[38.544544,48.400353],[38.544584,48.400344],[38.544737,48.400317],[38.544733,48.400311],[38.54493,48.400251],[38.544989,48.40023],[38.545106,48.400209],[38.545429,48.400138],[38.545446,48.400134],[38.545579,48.400103],[38.545618,48.400093],[38.545658,48.400084],[38.545555,48.399964],[38.545305,48.40002],[38.545304,48.40002],[38.54529,48.400024],[38.545289,48.400024],[38.5451,48.400069],[38.545064,48.400077],[38.544939,48.400105],[38.544899,48.400111],[38.544722,48.400134],[38.544656,48.400143],[38.54458,48.400161],[38.544508,48.400189]]]}},{"type":"Feature","properties":{"cadnum":"4410546500:04:001:0028"},"geometry":{"type":"Polygon","coordinates":[[[38.54436,48.398509],[38.544513,48.39859],[38.54506,48.398205],[38.545446,48.397987],[38.545546,48.397931],[38.545366,48.397847],[38.54519,48.397946],[38.54488,48.39816],[38.544534,48.398399],[38.544504,48.398429],[38.544467,48.398414],[38.544404,48.39847],[38.54436,48.398509]]]}},{"type":"Feature","properties":{"cadnum":"4410546500:04:001:0023"},"geometry":{"type":"Polygon","coordinates":[[[38.542918,48.398662],[38.543561,48.398867],[38.543745,48.398736],[38.543295,48.398402],[38.542918,48.398662]]]}},{"type":"Feature","properties":{"cadnum":"4410546500:02:001:0015"},"geometry":{"type":"Polygon","coordinates":[[[38.557295,48.453256],[38.557431,48.453494],[38.557591,48.453435],[38.557641,48.45314],[38.557295,48.453256]]]}},{"type":"Feature","properties":{"cadnum":"4410546500:02:001:0022"},"geometry":{"type":"Polygon","coordinates":[[[38.559918,48.452014],[38.560085,48.452136],[38.560929,48.451749],[38.560794,48.451612],[38.559918,48.452014]]]}},{"type":"Feature","properties":{"cadnum":"4410546500:02:002:0006"},"geometry":{"type":"Polygon","coordinates":[[[38.560013,48.454799],[38.560026,48.454811],[38.560188,48.454963],[38.560318,48.455086],[38.56048,48.455201],[38.560587,48.455276],[38.560803,48.455183],[38.560597,48.454978],[38.560524,48.454933],[38.560278,48.454749],[38.560278,48.454748],[38.560314,48.454728],[38.560215,48.454653],[38.560154,48.454697],[38.560054,48.45477],[38.560022,48.454794],[38.560013,48.454799]]]}},{"type":"Feature","properties":{"cadnum":"4410546500:02:002:0007"},"geometry":{"type":"Polygon","coordinates":[[[38.559012,48.45375],[38.559456,48.454177],[38.559698,48.454046],[38.559249,48.453614],[38.559186,48.453646],[38.559173,48.453659],[38.559012,48.45375]]]}},{"type":"Feature","properties":{"cadnum":"4410546500:02:001:0014"},"geometry":{"type":"Polygon","coordinates":[[[38.557718,48.453114],[38.557727,48.453384],[38.558203,48.453211],[38.558019,48.453012],[38.557718,48.453114]]]}},{"type":"Feature","properties":{"cadnum":"4410546500:02:001:0013"},"geometry":{"type":"Polygon","coordinates":[[[38.558123,48.452851],[38.558283,48.453021],[38.558729,48.452836],[38.558985,48.452732],[38.558827,48.452568],[38.558756,48.452595],[38.558123,48.452851]]]}},{"type":"Feature","properties":{"cadnum":"4410546500:02:001:0026"},"geometry":{"type":"Polygon","coordinates":[[[38.561109,48.45165],[38.561306,48.451827],[38.561994,48.451487],[38.561823,48.451326],[38.561585,48.45143],[38.561566,48.451439],[38.561109,48.45165]]]}},{"type":"Feature","properties":{"cadnum":"4410546500:02:002:0011"},"geometry":{"type":"Polygon","coordinates":[[[38.566633,48.451195],[38.567086,48.45163],[38.567419,48.451884],[38.567521,48.451962],[38.567591,48.452015],[38.567868,48.452226],[38.56844,48.451946],[38.569027,48.452079],[38.56949,48.452514],[38.570019,48.452258],[38.570002,48.45224],[38.569495,48.452485],[38.569046,48.452065],[38.56844,48.451924],[38.568188,48.451657],[38.568157,48.451668],[38.568407,48.451937],[38.567874,48.452198],[38.567591,48.451981],[38.567115,48.451615],[38.56666,48.451183],[38.566633,48.451195]]]}},{"type":"Feature","properties":{"cadnum":"4410546500:03:001:0032"},"geometry":{"type":"Polygon","coordinates":[[[38.526407,48.436267],[38.527018,48.436396],[38.527328,48.435746],[38.526839,48.435645],[38.52673,48.435871],[38.526609,48.435844],[38.526573,48.435924],[38.526407,48.436267]]]}},{"type":"Feature","properties":{"cadnum":"4410546500:04:001:0033"},"geometry":{"type":"Polygon","coordinates":[[[38.527633,48.403674],[38.527633,48.403675],[38.527645,48.403781],[38.527646,48.403781],[38.527651,48.403827],[38.527678,48.404006],[38.527682,48.404092],[38.527885,48.404092],[38.527885,48.404097],[38.527992,48.404097],[38.527992,48.404092],[38.528118,48.404086],[38.528074,48.403812],[38.528054,48.403694],[38.528047,48.40365],[38.527755,48.403667],[38.527643,48.403674],[38.527633,48.403674]]]}},{"type":"Feature","properties":{"cadnum":"4410546500:04:001:0021"},"geometry":{"type":"Polygon","coordinates":[[[38.524754,48.403474],[38.524879,48.403555],[38.524915,48.403602],[38.525021,48.403667],[38.525129,48.403733],[38.525145,48.403743],[38.525169,48.403724],[38.525198,48.403701],[38.525225,48.403716],[38.525248,48.403701],[38.525518,48.403531],[38.525607,48.403463],[38.525913,48.403251],[38.525814,48.403188],[38.525477,48.40297],[38.525288,48.403105],[38.525244,48.403084],[38.525068,48.403218],[38.5251,48.403235],[38.5251,48.403236],[38.524969,48.403334],[38.524831,48.403421],[38.524754,48.403474]]]}},{"type":"Feature","properties":{"cadnum":"4410546500:02:001:0016"},"geometry":{"type":"Polygon","coordinates":[[[38.548196,48.446893],[38.5482,48.446964],[38.549848,48.446914],[38.551111,48.446919],[38.553109,48.446925],[38.554484,48.44694],[38.556604,48.446949],[38.556738,48.446949],[38.557102,48.446934],[38.557817,48.446875],[38.55797,48.446863],[38.557951,48.446827],[38.557924,48.44677],[38.557664,48.446794],[38.557089,48.446845],[38.556734,48.44686],[38.556433,48.446859],[38.556433,48.44686],[38.554488,48.446851],[38.553109,48.446854],[38.55094,48.446847],[38.550939,48.446847],[38.549844,48.446843],[38.548196,48.446893]]]}},{"type":"Feature","properties":{"cadnum":"4410546500:04:001:0027"},"geometry":{"type":"Polygon","coordinates":[[[38.544817,48.401984],[38.544827,48.401984],[38.544823,48.402085],[38.545379,48.402117],[38.545446,48.402119],[38.545446,48.40212],[38.545617,48.402124],[38.545618,48.402124],[38.545721,48.402127],[38.545735,48.401936],[38.545594,48.401927],[38.545222,48.401903],[38.544926,48.401885],[38.544858,48.401882],[38.544831,48.401882],[38.544817,48.401984]]]}},{"type":"Feature","properties":{"cadnum":"4410546500:04:002:0002"},"geometry":{"type":"Polygon","coordinates":[[[38.526232,48.395769],[38.526483,48.395954],[38.526573,48.395912],[38.526303,48.395715],[38.526232,48.395769]]]}},{"type":"Feature","properties":{"cadnum":"4410546500:04:002:0001"},"geometry":{"type":"Polygon","coordinates":[[[38.526303,48.395715],[38.526573,48.395912],[38.527026,48.395703],[38.527018,48.395691],[38.527053,48.395676],[38.526995,48.395616],[38.526955,48.395631],[38.526923,48.395593],[38.526866,48.395543],[38.526865,48.395542],[38.526866,48.395542],[38.526879,48.395536],[38.526713,48.395428],[38.526376,48.395662],[38.526303,48.395715]]]}},{"type":"Feature","properties":{"cadnum":"4410546500:02:001:0002"},"geometry":{"type":"Polygon","coordinates":[[[38.550832,48.445361],[38.550868,48.445374],[38.55094,48.445414],[38.55094,48.445415],[38.550999,48.445448],[38.551111,48.445495],[38.551335,48.445588],[38.551488,48.445648],[38.551668,48.445454],[38.551565,48.445421],[38.551375,48.445359],[38.551106,48.445296],[38.550926,48.44529],[38.550895,48.445296],[38.550832,48.445361]]]}},{"type":"Feature","properties":{"cadnum":"4410546500:01:001:0004"},"geometry":{"type":"Polygon","coordinates":[[[38.551614,48.485017],[38.551815,48.485089],[38.551951,48.484928],[38.552094,48.484749],[38.552148,48.484677],[38.552265,48.484546],[38.552297,48.484508],[38.552346,48.484439],[38.552234,48.484401],[38.552175,48.48438],[38.552112,48.484359],[38.552067,48.484421],[38.552071,48.484421],[38.552035,48.484478],[38.552031,48.484478],[38.551915,48.484615],[38.551712,48.484889],[38.551614,48.485017]]]}},{"type":"Feature","properties":{"cadnum":"4410546500:03:002:0036"},"geometry":{"type":"Polygon","coordinates":[[[38.535844,48.437472],[38.53619,48.437596],[38.536495,48.437188],[38.536135,48.437063],[38.536122,48.437081],[38.536073,48.437143],[38.535844,48.437472]]]}},{"type":"Feature","properties":{"cadnum":"4410546500:03:001:0002"},"geometry":{"type":"Polygon","coordinates":[[[38.527867,48.437248],[38.528078,48.437296],[38.527952,48.437552],[38.528028,48.437567],[38.528011,48.437603],[38.528028,48.437623],[38.528042,48.437635],[38.528074,48.437647],[38.528271,48.437692],[38.528307,48.43762],[38.528051,48.437563],[38.528168,48.437334],[38.528127,48.437325],[38.528141,48.437298],[38.528181,48.437307],[38.528194,48.437272],[38.528028,48.437236],[38.528015,48.437263],[38.527952,48.437248],[38.527952,48.437247],[38.527965,48.437221],[38.527889,48.437206],[38.527867,48.437248]]]}},{"type":"Feature","properties":{"cadnum":"4410546500:03:001:0001"},"geometry":{"type":"Polygon","coordinates":[[[38.527489,48.437435],[38.527669,48.437474],[38.527791,48.43762],[38.527844,48.4376],[38.527709,48.437439],[38.527508,48.437397],[38.527489,48.437435]]]}},{"type":"Feature","properties":{"cadnum":"4410546500:04:001:0026"},"geometry":{"type":"Polygon","coordinates":[[[38.527678,48.404712],[38.527755,48.405231],[38.528185,48.405216],[38.528101,48.4047],[38.527678,48.404712]]]}},{"type":"Feature","properties":{"cadnum":"4410546500:02:001:0018"},"geometry":{"type":"Polygon","coordinates":[[[38.559895,48.450265],[38.559968,48.450313],[38.560054,48.450376],[38.560211,48.450277],[38.560054,48.450167],[38.559928,48.450248],[38.559895,48.450265]]]}},{"type":"Feature","properties":{"cadnum":"4410546500:02:001:0025"},"geometry":{"type":"Polygon","coordinates":[[[38.558392,48.450885],[38.558414,48.450903],[38.558454,48.450933],[38.558477,48.45095],[38.558625,48.451058],[38.559281,48.450739],[38.559061,48.450579],[38.558392,48.450885]]]}},{"type":"Feature","properties":{"cadnum":"4410546500:02:002:0009"},"geometry":{"type":"Polygon","coordinates":[[[38.566063,48.451165],[38.566153,48.451248],[38.566247,48.451204],[38.566153,48.45112],[38.566063,48.451165]]]}},{"type":"Feature","properties":{"cadnum":"4410546500:02:002:0001"},"geometry":{"type":"Polygon","coordinates":[[[38.562052,48.453736],[38.562174,48.453855],[38.562195,48.453843],[38.562196,48.453843],[38.562214,48.453855],[38.562258,48.453887],[38.562326,48.453944],[38.562484,48.45409],[38.562528,48.45415],[38.562668,48.454257],[38.562757,48.454335],[38.562887,48.454454],[38.562973,48.454529],[38.563071,48.454611],[38.563207,48.454543],[38.563054,48.454406],[38.562941,48.454308],[38.562883,48.45426],[38.562748,48.454144],[38.562645,48.454061],[38.562429,48.453891],[38.562317,48.453778],[38.562214,48.453668],[38.562052,48.453736]]]}},{"type":"Feature","properties":{"cadnum":"4410546500:02:002:0003"},"geometry":{"type":"Polygon","coordinates":[[[38.562757,48.453432],[38.562918,48.453575],[38.562946,48.453602],[38.563602,48.454185],[38.56375,48.454114],[38.562928,48.453357],[38.562807,48.453399],[38.562815,48.453411],[38.562815,48.453412],[38.562757,48.453432]]]}},{"type":"Feature","properties":{"cadnum":"4410546500:04:001:0022"},"geometry":{"type":"Polygon","coordinates":[[[38.530566,48.401694],[38.530804,48.401933],[38.531194,48.40176],[38.530957,48.401522],[38.530566,48.401694]]]}},{"type":"Feature","properties":{"cadnum":"4410546500:04:001:0001"},"geometry":{"type":"Polygon","coordinates":[[[38.530089,48.401781],[38.530215,48.401909],[38.530351,48.401849],[38.530332,48.401832],[38.530332,48.401831],[38.530476,48.401766],[38.530409,48.401697],[38.530625,48.401602],[38.530584,48.401563],[38.530089,48.401781]]]}},{"type":"Feature","properties":{"cadnum":"4410546500:04:001:0034"},"geometry":{"type":"Polygon","coordinates":[[[38.529129,48.402994],[38.529143,48.403075],[38.52929,48.403069],[38.529277,48.402988],[38.529129,48.402994]]]}},{"type":"Feature","properties":{"cadnum":"4410546500:04:001:0032"},"geometry":{"type":"Polygon","coordinates":[[[38.532026,48.40261],[38.532066,48.402643],[38.532179,48.40274],[38.532237,48.402789],[38.532408,48.402943],[38.53256,48.40286],[38.532372,48.402681],[38.532313,48.402631],[38.532192,48.402517],[38.532125,48.402553],[38.532098,48.402571],[38.532026,48.40261]]]}},{"type":"Feature","properties":{"cadnum":"4410546500:02:001:0001"},"geometry":{"type":"Polygon","coordinates":[[[38.551488,48.445648],[38.551752,48.445749],[38.551856,48.445772],[38.552031,48.445823],[38.552238,48.445889],[38.552373,48.445737],[38.552387,48.445716],[38.551915,48.445537],[38.551888,48.445529],[38.551668,48.445454],[38.551488,48.445648]]]}},{"type":"Feature","properties":{"cadnum":"4410546500:02:001:0024"},"geometry":{"type":"Polygon","coordinates":[[[38.552704,48.445809],[38.553343,48.44605],[38.553505,48.445877],[38.552876,48.44563],[38.552867,48.445639],[38.552822,48.445683],[38.552704,48.445809]]]}},{"type":"Feature","properties":{"cadnum":"4410546500:02:001:0004"},"geometry":{"type":"Polygon","coordinates":[[[38.551165,48.44512],[38.551758,48.445311],[38.551941,48.445126],[38.551326,48.444935],[38.551165,48.44512]]]}},{"type":"Feature","properties":{"cadnum":"4410546500:02:001:0003"},"geometry":{"type":"Polygon","coordinates":[[[38.551758,48.445311],[38.552507,48.445552],[38.552691,48.445368],[38.551941,48.445126],[38.551758,48.445311]]]}},{"type":"Feature","properties":{"cadnum":"4410546500:02:001:0005"},"geometry":{"type":"Polygon","coordinates":[[[38.551102,48.444602],[38.551501,48.44482],[38.551842,48.444599],[38.551465,48.444372],[38.551102,48.444602]]]}},{"type":"Feature","properties":{"cadnum":"4410546500:04:001:0024"},"geometry":{"type":"Polygon","coordinates":[[[38.539177,48.397397],[38.539221,48.397415],[38.53928,48.397436],[38.539433,48.397466],[38.53976,48.397296],[38.539607,48.3972],[38.539483,48.397137],[38.539177,48.397397]]]}}]}