{"type":"FeatureCollection","features":[{"type":"Feature","properties":{"cadnum":"4411460200:01:002:0145"},"geometry":{"type":"Polygon","coordinates":[[[39.565376,48.313697],[39.565385,48.313969],[39.565673,48.313981],[39.565673,48.313883],[39.565601,48.313859],[39.5656,48.313859],[39.565587,48.313701],[39.565376,48.313697]]]}},{"type":"Feature","properties":{"cadnum":"4411460200:01:002:0065"},"geometry":{"type":"Polygon","coordinates":[[[39.561895,48.319217],[39.561918,48.31937],[39.562106,48.319352],[39.562317,48.319343],[39.562291,48.31919],[39.561895,48.319217]]]}},{"type":"Feature","properties":{"cadnum":"4411460200:01:004:0106"},"geometry":{"type":"Polygon","coordinates":[[[39.581375,48.311269],[39.581407,48.311272],[39.581401,48.311368],[39.581627,48.311412],[39.58194,48.310965],[39.581594,48.310949],[39.581388,48.31103],[39.581375,48.311269]]]}}]}