{"type":"FeatureCollection","features":[{"type":"Feature","properties":{"cadnum":"4411446500:03:003:0045"},"geometry":{"type":"Polygon","coordinates":[[[39.919806,48.361618],[39.919824,48.361631],[39.919842,48.361618],[39.919829,48.361607],[39.919806,48.361618]]]}},{"type":"Feature","properties":{"cadnum":"4411446500:03:003:0044"},"geometry":{"type":"Polygon","coordinates":[[[39.919478,48.361416],[39.9195,48.361416],[39.919501,48.361416],[39.919506,48.361374],[39.919573,48.361377],[39.919577,48.361362],[39.919483,48.361356],[39.919478,48.361416]]]}},{"type":"Feature","properties":{"cadnum":"4411446500:03:003:0047"},"geometry":{"type":"Polygon","coordinates":[[[39.920579,48.362039],[39.920602,48.362049],[39.920615,48.362034],[39.920592,48.362025],[39.920579,48.362039]]]}},{"type":"Feature","properties":{"cadnum":"4411446500:03:003:0048"},"geometry":{"type":"Polygon","coordinates":[[[39.920996,48.362195],[39.921015,48.3622],[39.921028,48.362186],[39.921005,48.36218],[39.920996,48.362195]]]}},{"type":"Feature","properties":{"cadnum":"4411446500:03:003:0046"},"geometry":{"type":"Polygon","coordinates":[[[39.920066,48.361938],[39.92008,48.361947],[39.920175,48.361872],[39.920156,48.361861],[39.920066,48.361938]]]}},{"type":"Feature","properties":{"cadnum":"4411446500:03:003:0042"},"geometry":{"type":"Polygon","coordinates":[[[39.919313,48.360765],[39.919317,48.36078],[39.919344,48.360777],[39.91934,48.360762],[39.919313,48.360765]]]}},{"type":"Feature","properties":{"cadnum":"4411446500:03:003:0041"},"geometry":{"type":"Polygon","coordinates":[[[39.919209,48.360401],[39.919214,48.360416],[39.91924,48.360413],[39.919236,48.360398],[39.919209,48.360401]]]}},{"type":"Feature","properties":{"cadnum":"4411446500:03:003:0040"},"geometry":{"type":"Polygon","coordinates":[[[39.919133,48.360118],[39.919133,48.360132],[39.91916,48.360132],[39.91916,48.360118],[39.919133,48.360118]]]}},{"type":"Feature","properties":{"cadnum":"4411446500:03:003:0007"},"geometry":{"type":"Polygon","coordinates":[[[39.921715,48.360147],[39.921778,48.360329],[39.92264,48.360293],[39.92256,48.360079],[39.921984,48.360132],[39.921715,48.360147]]]}},{"type":"Feature","properties":{"cadnum":"4411446500:03:003:0043"},"geometry":{"type":"Polygon","coordinates":[[[39.919388,48.361034],[39.919393,48.361049],[39.919416,48.361045],[39.919411,48.36103],[39.919388,48.361034]]]}},{"type":"Feature","properties":{"cadnum":"4411446500:01:004:0037"},"geometry":{"type":"Polygon","coordinates":[[[39.913168,48.354479],[39.913244,48.354516],[39.913244,48.354517],[39.913384,48.354584],[39.913416,48.354553],[39.913814,48.354178],[39.913594,48.354074],[39.913321,48.354334],[39.913168,48.354479]]]}},{"type":"Feature","properties":{"cadnum":"4411446500:05:002:0030"},"geometry":{"type":"Polygon","coordinates":[[[39.887521,48.369264],[39.887539,48.369374],[39.887557,48.369439],[39.887557,48.36944],[39.887588,48.369514],[39.887889,48.369479],[39.887836,48.369231],[39.887521,48.369264]]]}},{"type":"Feature","properties":{"cadnum":"4411446500:05:002:0025"},"geometry":{"type":"Polygon","coordinates":[[[39.886555,48.369127],[39.886627,48.369407],[39.886857,48.36938],[39.886924,48.369374],[39.886914,48.369324],[39.886857,48.369085],[39.886555,48.369127]]]}},{"type":"Feature","properties":{"cadnum":"4411446500:05:002:0012"},"geometry":{"type":"Polygon","coordinates":[[[39.888383,48.370311],[39.888432,48.370529],[39.888436,48.370547],[39.888832,48.370493],[39.888796,48.370388],[39.888738,48.370255],[39.888383,48.370311]]]}},{"type":"Feature","properties":{"cadnum":"4411446500:05:002:0027"},"geometry":{"type":"Polygon","coordinates":[[[39.887939,48.369815],[39.887947,48.36984],[39.887956,48.36984],[39.88801,48.370069],[39.888293,48.370036],[39.888239,48.369804],[39.88823,48.369774],[39.887939,48.369815]]]}},{"type":"Feature","properties":{"cadnum":"4411446500:05:002:0015"},"geometry":{"type":"Polygon","coordinates":[[[39.886092,48.369183],[39.886096,48.369198],[39.886102,48.369243],[39.886146,48.369464],[39.886519,48.369422],[39.886492,48.369339],[39.886339,48.369348],[39.886322,48.369288],[39.886308,48.369219],[39.886285,48.369162],[39.886092,48.369183]]]}},{"type":"Feature","properties":{"cadnum":"4411446500:05:002:0001"},"geometry":{"type":"Polygon","coordinates":[[[39.887767,48.370174],[39.887844,48.370407],[39.888019,48.370388],[39.888069,48.370379],[39.88806,48.370356],[39.888113,48.370347],[39.888379,48.370314],[39.888306,48.370102],[39.887767,48.370174]]]}},{"type":"Feature","properties":{"cadnum":"4411446500:05:002:0014"},"geometry":{"type":"Polygon","coordinates":[[[39.886285,48.369162],[39.886308,48.369219],[39.886322,48.369288],[39.886339,48.369348],[39.886492,48.369339],[39.886519,48.369422],[39.886627,48.369407],[39.886555,48.369127],[39.886285,48.369162]]]}},{"type":"Feature","properties":{"cadnum":"4411446500:05:002:0002"},"geometry":{"type":"Polygon","coordinates":[[[39.888563,48.369726],[39.888643,48.369998],[39.888729,48.369986],[39.888752,48.369819],[39.888788,48.369815],[39.888864,48.369807],[39.888855,48.36978],[39.888922,48.369771],[39.889421,48.3697],[39.889367,48.369592],[39.888738,48.369702],[39.888563,48.369726]]]}},{"type":"Feature","properties":{"cadnum":"4411446500:05:002:0029"},"geometry":{"type":"Polygon","coordinates":[[[39.886905,48.36978],[39.88691,48.369815],[39.886928,48.369965],[39.887035,48.369947],[39.887337,48.369908],[39.88726,48.369616],[39.886941,48.369655],[39.886951,48.369687],[39.88695,48.369687],[39.886924,48.369696],[39.886918,48.369705],[39.886918,48.369726],[39.886905,48.36978]]]}},{"type":"Feature","properties":{"cadnum":"4411446500:05:002:0013"},"geometry":{"type":"Polygon","coordinates":[[[39.888203,48.370932],[39.888207,48.37095],[39.888208,48.37095],[39.888262,48.371149],[39.888729,48.371111],[39.888666,48.370881],[39.88856,48.370893],[39.888203,48.370932]]]}},{"type":"Feature","properties":{"cadnum":"4411446500:05:002:0010"},"geometry":{"type":"Polygon","coordinates":[[[39.891195,48.372955],[39.891272,48.373034],[39.891298,48.373062],[39.891406,48.373238],[39.891443,48.373228],[39.891998,48.373083],[39.891968,48.373032],[39.891784,48.37288],[39.891572,48.372856],[39.891443,48.37289],[39.891195,48.372955]]]}},{"type":"Feature","properties":{"cadnum":"4411446500:04:002:0020"},"geometry":{"type":"Polygon","coordinates":[[[39.879377,48.369682],[39.879651,48.369864],[39.880052,48.369587],[39.879782,48.369413],[39.879377,48.369682]]]}},{"type":"Feature","properties":{"cadnum":"4411446500:04:002:0024"},"geometry":{"type":"Polygon","coordinates":[[[39.87922,48.370135],[39.879458,48.370326],[39.879947,48.37006],[39.879651,48.369864],[39.87922,48.370135]]]}},{"type":"Feature","properties":{"cadnum":"4411446500:04:002:0026"},"geometry":{"type":"Polygon","coordinates":[[[39.878519,48.369154],[39.878807,48.369344],[39.879184,48.369096],[39.878901,48.368912],[39.878519,48.369154]]]}},{"type":"Feature","properties":{"cadnum":"4411446500:04:002:0012"},"geometry":{"type":"Polygon","coordinates":[[[39.877203,48.368789],[39.877442,48.368935],[39.877725,48.368742],[39.877828,48.368667],[39.87759,48.368515],[39.877222,48.368778],[39.877203,48.368789]]]}},{"type":"Feature","properties":{"cadnum":"4411446500:04:002:0006"},"geometry":{"type":"Polygon","coordinates":[[[39.878367,48.367811],[39.878632,48.367977],[39.878659,48.367993],[39.878951,48.367789],[39.878664,48.367596],[39.878538,48.367685],[39.878367,48.367811]]]}},{"type":"Feature","properties":{"cadnum":"4411446500:04:002:0011"},"geometry":{"type":"Polygon","coordinates":[[[39.876517,48.367822],[39.87658,48.367864],[39.876827,48.368026],[39.877177,48.367766],[39.876863,48.367566],[39.876517,48.367822]]]}},{"type":"Feature","properties":{"cadnum":"4411446500:04:002:0016"},"geometry":{"type":"Polygon","coordinates":[[[39.877316,48.369693],[39.877576,48.36987],[39.878115,48.369527],[39.87785,48.369348],[39.877406,48.369646],[39.877316,48.369693]]]}},{"type":"Feature","properties":{"cadnum":"4411446500:04:002:0002"},"geometry":{"type":"Polygon","coordinates":[[[39.877733,48.367972],[39.877976,48.368124],[39.878035,48.368085],[39.878102,48.368034],[39.878119,48.368008],[39.878358,48.367822],[39.878106,48.36767],[39.877733,48.367972]]]}},{"type":"Feature","properties":{"cadnum":"4411446500:04:002:0017"},"geometry":{"type":"Polygon","coordinates":[[[39.877995,48.368778],[39.877999,48.36878],[39.878236,48.368935],[39.878595,48.368685],[39.878219,48.368431],[39.878012,48.368568],[39.878165,48.368667],[39.877995,48.368778]]]}},{"type":"Feature","properties":{"cadnum":"4411446500:04:002:0018"},"geometry":{"type":"Polygon","coordinates":[[[39.878236,48.368935],[39.878551,48.369136],[39.878911,48.368884],[39.878595,48.368685],[39.878236,48.368935]]]}},{"type":"Feature","properties":{"cadnum":"4411446500:04:002:0013"},"geometry":{"type":"Polygon","coordinates":[[[39.875196,48.367405],[39.875421,48.367557],[39.875511,48.367608],[39.875882,48.367342],[39.875738,48.367264],[39.875569,48.367172],[39.875546,48.367186],[39.875544,48.367186],[39.87539,48.367283],[39.875362,48.3673],[39.875362,48.367301],[39.875196,48.367405]]]}},{"type":"Feature","properties":{"cadnum":"4411446500:04:002:0022"},"geometry":{"type":"Polygon","coordinates":[[[39.877842,48.369189],[39.878138,48.369374],[39.878519,48.369118],[39.878236,48.368935],[39.877842,48.369189]]]}},{"type":"Feature","properties":{"cadnum":"4411446500:04:002:0015"},"geometry":{"type":"Polygon","coordinates":[[[39.876939,48.36859],[39.877222,48.368778],[39.87759,48.368515],[39.877536,48.368482],[39.87727,48.368327],[39.876939,48.36859]]]}},{"type":"Feature","properties":{"cadnum":"4411446500:04:002:0019"},"geometry":{"type":"Polygon","coordinates":[[[39.878169,48.370317],[39.878402,48.37049],[39.878951,48.37012],[39.878708,48.369947],[39.878169,48.370317]]]}},{"type":"Feature","properties":{"cadnum":"4411446500:04:002:0014"},"geometry":{"type":"Polygon","coordinates":[[[39.877976,48.368124],[39.878245,48.368297],[39.878654,48.368008],[39.878389,48.36784],[39.878358,48.367822],[39.878119,48.368008],[39.878102,48.368034],[39.878102,48.368035],[39.878035,48.368085],[39.877976,48.368124]]]}},{"type":"Feature","properties":{"cadnum":"4411446500:01:004:0003"},"geometry":{"type":"Polygon","coordinates":[[[39.918755,48.356422],[39.918909,48.356503],[39.918967,48.356533],[39.919273,48.356248],[39.919326,48.356199],[39.919101,48.356079],[39.918941,48.356237],[39.918934,48.356244],[39.918826,48.356351],[39.918755,48.356422]]]}},{"type":"Feature","properties":{"cadnum":"4411446500:01:003:0012"},"geometry":{"type":"Polygon","coordinates":[[[39.918724,48.358041],[39.918737,48.358057],[39.918741,48.358062],[39.918909,48.358274],[39.919101,48.358515],[39.919403,48.35841],[39.91902,48.357935],[39.918797,48.358015],[39.918724,48.358041]]]}},{"type":"Feature","properties":{"cadnum":"4411446500:01:003:0006"},"geometry":{"type":"Polygon","coordinates":[[[39.916388,48.359121],[39.916393,48.359127],[39.916455,48.359246],[39.91659,48.359503],[39.916856,48.35944],[39.916981,48.359413],[39.917013,48.359404],[39.916814,48.359022],[39.916388,48.359121]]]}},{"type":"Feature","properties":{"cadnum":"4411446500:01:003:0004"},"geometry":{"type":"Polygon","coordinates":[[[39.917076,48.358309],[39.917152,48.358517],[39.917646,48.35844],[39.917573,48.358229],[39.917076,48.358309]]]}},{"type":"Feature","properties":{"cadnum":"4411446500:01:003:0010"},"geometry":{"type":"Polygon","coordinates":[[[39.916923,48.358008],[39.917017,48.3583],[39.917596,48.358207],[39.917497,48.357903],[39.916923,48.358008]]]}},{"type":"Feature","properties":{"cadnum":"4411446500:01:003:0025"},"geometry":{"type":"Polygon","coordinates":[[[39.91769,48.358882],[39.917713,48.358884],[39.917722,48.35887],[39.917695,48.358864],[39.91769,48.358882]]]}},{"type":"Feature","properties":{"cadnum":"4411446500:01:004:0001"},"geometry":{"type":"Polygon","coordinates":[[[39.917313,48.356619],[39.91752,48.356724],[39.917816,48.356396],[39.917952,48.356256],[39.918009,48.356208],[39.918009,48.356207],[39.917789,48.356097],[39.917658,48.356237],[39.917657,48.356237],[39.917656,48.356237],[39.917592,48.356306],[39.917552,48.356351],[39.917313,48.356619]]]}},{"type":"Feature","properties":{"cadnum":"4411446500:01:003:0015"},"geometry":{"type":"Polygon","coordinates":[[[39.918422,48.358145],[39.918598,48.358362],[39.918737,48.358536],[39.918804,48.358619],[39.918909,48.358582],[39.919101,48.358515],[39.918741,48.358062],[39.918724,48.358041],[39.918615,48.358076],[39.918422,48.358145]]]}},{"type":"Feature","properties":{"cadnum":"4411446500:01:003:0016"},"geometry":{"type":"Polygon","coordinates":[[[39.916743,48.358476],[39.916927,48.35878],[39.918804,48.358619],[39.918598,48.358362],[39.918428,48.358389],[39.917713,48.358515],[39.917686,48.358434],[39.917646,48.35844],[39.917152,48.358517],[39.917116,48.358426],[39.916743,48.358476]]]}},{"type":"Feature","properties":{"cadnum":"4411446500:02:001:0001"},"geometry":{"type":"Polygon","coordinates":[[[39.918602,48.359055],[39.918625,48.359058],[39.918634,48.359043],[39.918607,48.359037],[39.918602,48.359055]]]}},{"type":"Feature","properties":{"cadnum":"4411446500:01:003:0005"},"geometry":{"type":"Polygon","coordinates":[[[39.916563,48.357643],[39.916716,48.357977],[39.917546,48.357853],[39.917547,48.357853],[39.917705,48.358485],[39.918428,48.358384],[39.918324,48.35784],[39.917816,48.357891],[39.91761,48.357431],[39.916563,48.357643]]]}},{"type":"Feature","properties":{"cadnum":"4411446500:01:003:0017"},"geometry":{"type":"Polygon","coordinates":[[[39.91651,48.357616],[39.9166,48.357563],[39.916787,48.357512],[39.917152,48.357444],[39.917152,48.357443],[39.917336,48.357393],[39.917466,48.357333],[39.917533,48.357285],[39.917502,48.357229],[39.917282,48.357136],[39.916806,48.356918],[39.916613,48.356912],[39.916586,48.357064],[39.916518,48.357378],[39.91651,48.357616]]]}},{"type":"Feature","properties":{"cadnum":"4411446500:01:003:0013"},"geometry":{"type":"Polygon","coordinates":[[[39.91496,48.358231],[39.916478,48.35832],[39.916411,48.357685],[39.916411,48.357371],[39.916491,48.357019],[39.916487,48.356754],[39.914973,48.358196],[39.91496,48.358231]],[[39.91633,48.357037],[39.916307,48.357028],[39.916321,48.357014],[39.916343,48.357023],[39.91633,48.357037]],[[39.9162,48.357897],[39.916181,48.357885],[39.9162,48.357873],[39.916217,48.357885],[39.9162,48.357897]],[[39.915872,48.357503],[39.915871,48.357503],[39.915849,48.357494],[39.915862,48.357479],[39.915885,48.357488],[39.915872,48.357503]],[[39.915674,48.358234],[39.915656,48.35822],[39.915678,48.358207],[39.915696,48.35822],[39.915674,48.358234]],[[39.915432,48.357948],[39.915409,48.357939],[39.915422,48.357924],[39.915445,48.357933],[39.915432,48.357948]]]}},{"type":"Feature","properties":{"cadnum":"4411446500:01:003:0011"},"geometry":{"type":"Polygon","coordinates":[[[39.918418,48.357784],[39.918615,48.358076],[39.918724,48.358041],[39.918737,48.358036],[39.918797,48.358015],[39.918909,48.357976],[39.918909,48.357975],[39.91902,48.357935],[39.919317,48.357828],[39.919617,48.357724],[39.919433,48.357485],[39.918837,48.357697],[39.918808,48.357661],[39.918418,48.357784]]]}},{"type":"Feature","properties":{"cadnum":"4411446500:01:002:0007"},"geometry":{"type":"Polygon","coordinates":[[[39.917736,48.356831],[39.917965,48.356944],[39.917992,48.356909],[39.918454,48.356444],[39.918221,48.356322],[39.918095,48.35644],[39.917973,48.356572],[39.917736,48.356831]]]}},{"type":"Feature","properties":{"cadnum":"4411446500:01:003:0020"},"geometry":{"type":"Polygon","coordinates":[[[39.915715,48.358709],[39.915724,48.358727],[39.915745,48.35872],[39.915741,48.358705],[39.915715,48.358709]]]}},{"type":"Feature","properties":{"cadnum":"4411446500:01:003:0022"},"geometry":{"type":"Polygon","coordinates":[[[39.916317,48.35861],[39.916361,48.358664],[39.91638,48.358655],[39.916348,48.358616],[39.916411,48.358596],[39.916397,48.358581],[39.916317,48.35861]]]}},{"type":"Feature","properties":{"cadnum":"4411446500:01:003:0021"},"geometry":{"type":"Polygon","coordinates":[[[39.916042,48.358655],[39.916051,48.35867],[39.916074,48.358667],[39.916065,48.358652],[39.916042,48.358655]]]}},{"type":"Feature","properties":{"cadnum":"4411446500:01:003:0024"},"geometry":{"type":"Polygon","coordinates":[[[39.917237,48.358795],[39.91726,48.358802],[39.917269,48.358784],[39.917246,48.35878],[39.917237,48.358795]]]}},{"type":"Feature","properties":{"cadnum":"4411446500:01:003:0008"},"geometry":{"type":"Polygon","coordinates":[[[39.918648,48.357459],[39.918737,48.357581],[39.918737,48.357582],[39.918755,48.357605],[39.918808,48.357661],[39.918837,48.357697],[39.918909,48.357672],[39.918909,48.357671],[39.919433,48.357485],[39.919244,48.357249],[39.918748,48.357424],[39.918648,48.357459]]]}},{"type":"Feature","properties":{"cadnum":"4411446500:01:003:0009"},"geometry":{"type":"Polygon","coordinates":[[[39.918531,48.357303],[39.918648,48.357459],[39.918737,48.357427],[39.918748,48.357424],[39.918909,48.357368],[39.918909,48.357367],[39.919244,48.357249],[39.919433,48.357485],[39.919617,48.357724],[39.919995,48.358198],[39.920539,48.357935],[39.919433,48.357121],[39.919191,48.357163],[39.918737,48.357259],[39.918531,48.357303]]]}},{"type":"Feature","properties":{"cadnum":"4411446500:01:004:0002"},"geometry":{"type":"Polygon","coordinates":[[[39.91752,48.356724],[39.917736,48.356831],[39.917973,48.356572],[39.918095,48.35644],[39.918221,48.356322],[39.918221,48.356321],[39.918009,48.356208],[39.917974,48.356237],[39.917973,48.356237],[39.917952,48.356256],[39.917859,48.356351],[39.917816,48.356396],[39.91752,48.356724]]]}},{"type":"Feature","properties":{"cadnum":"4411446500:01:003:0018"},"geometry":{"type":"Polygon","coordinates":[[[39.917542,48.357468],[39.91778,48.357918],[39.918194,48.357864],[39.917862,48.357411],[39.917542,48.357468]]]}},{"type":"Feature","properties":{"cadnum":"4411446500:01:003:0007"},"geometry":{"type":"Polygon","coordinates":[[[39.918063,48.357435],[39.918315,48.357756],[39.918755,48.357605],[39.918517,48.357282],[39.918063,48.357435]]]}},{"type":"Feature","properties":{"cadnum":"4411446500:01:003:0026"},"geometry":{"type":"Polygon","coordinates":[[[39.918149,48.358968],[39.918171,48.358972],[39.918181,48.358957],[39.918158,48.35895],[39.918149,48.358968]]]}},{"type":"Feature","properties":{"cadnum":"4411446500:01:003:0023"},"geometry":{"type":"Polygon","coordinates":[[[39.916783,48.358709],[39.916806,48.358715],[39.916814,48.358696],[39.916787,48.358694],[39.916783,48.358709]]]}},{"type":"Feature","properties":{"cadnum":"4411446500:03:003:0018"},"geometry":{"type":"Polygon","coordinates":[[[39.924523,48.357408],[39.924684,48.35755],[39.924994,48.357858],[39.925102,48.357813],[39.924657,48.357362],[39.92463,48.357375],[39.924607,48.357353],[39.924544,48.357386],[39.924554,48.357393],[39.924523,48.357408]]]}},{"type":"Feature","properties":{"cadnum":"4411446500:03:003:0012"},"geometry":{"type":"Polygon","coordinates":[[[39.924657,48.357362],[39.924783,48.357491],[39.925034,48.35736],[39.924896,48.357234],[39.924657,48.357362]]]}},{"type":"Feature","properties":{"cadnum":"4411446500:03:003:0017"},"geometry":{"type":"Polygon","coordinates":[[[39.924122,48.356682],[39.924231,48.356772],[39.924387,48.356901],[39.924402,48.356913],[39.924626,48.357097],[39.924868,48.356951],[39.92437,48.356551],[39.924122,48.356682]]]}},{"type":"Feature","properties":{"cadnum":"4411446500:03:003:0020"},"geometry":{"type":"Polygon","coordinates":[[[39.926045,48.358344],[39.926521,48.358333],[39.926818,48.358309],[39.926795,48.35818],[39.926584,48.358189],[39.926225,48.358196],[39.926221,48.358204],[39.926221,48.358205],[39.926063,48.358207],[39.926045,48.358344]]]}},{"type":"Feature","properties":{"cadnum":"4411446500:03:003:0009"},"geometry":{"type":"Polygon","coordinates":[[[39.924405,48.356527],[39.924909,48.35693],[39.925143,48.356789],[39.924648,48.356408],[39.924405,48.356527]]]}},{"type":"Feature","properties":{"cadnum":"4411446500:03:003:0008"},"geometry":{"type":"Polygon","coordinates":[[[39.924357,48.358255],[39.92442,48.35847],[39.92476,48.358431],[39.92467,48.35822],[39.924357,48.358255]]]}},{"type":"Feature","properties":{"cadnum":"4411446500:03:003:0013"},"geometry":{"type":"Polygon","coordinates":[[[39.923701,48.357032],[39.924109,48.357395],[39.92423,48.357331],[39.924231,48.357331],[39.924339,48.357273],[39.924402,48.357239],[39.924433,48.357223],[39.924433,48.357222],[39.924231,48.357059],[39.923997,48.356871],[39.923701,48.357032]]]}},{"type":"Feature","properties":{"cadnum":"4411446500:03:003:0016"},"geometry":{"type":"Polygon","coordinates":[[[39.926952,48.357926],[39.92697,48.358055],[39.927518,48.357966],[39.927496,48.357831],[39.926952,48.357926]]]}},{"type":"Feature","properties":{"cadnum":"4411446500:04:001:0030"},"geometry":{"type":"Polygon","coordinates":[[[39.882643,48.372663],[39.88271,48.372892],[39.882782,48.372883],[39.882786,48.372901],[39.882989,48.372874],[39.882989,48.37288],[39.883069,48.372865],[39.883012,48.372617],[39.882643,48.372663]]]}},{"type":"Feature","properties":{"cadnum":"4411446500:04:001:0019"},"geometry":{"type":"Polygon","coordinates":[[[39.880169,48.373238],[39.880186,48.373277],[39.880276,48.373364],[39.880285,48.373367],[39.880457,48.37335],[39.880859,48.37331],[39.880842,48.373227],[39.880819,48.373155],[39.880572,48.373188],[39.88036,48.373209],[39.88028,48.373217],[39.880169,48.373238]]]}},{"type":"Feature","properties":{"cadnum":"4411446500:04:001:0015"},"geometry":{"type":"Polygon","coordinates":[[[39.882136,48.37217],[39.882144,48.372212],[39.882266,48.372767],[39.882293,48.372763],[39.882576,48.372734],[39.883039,48.372683],[39.882886,48.372089],[39.882832,48.372071],[39.882404,48.372131],[39.882383,48.372149],[39.882136,48.37217]]]}},{"type":"Feature","properties":{"cadnum":"4411446500:04:001:0018"},"geometry":{"type":"Polygon","coordinates":[[[39.882764,48.372919],[39.882813,48.37311],[39.883173,48.37308],[39.883123,48.372904],[39.883043,48.372916],[39.883043,48.37291],[39.88284,48.372928],[39.882836,48.37291],[39.882764,48.372919]]]}},{"type":"Feature","properties":{"cadnum":"4411446500:04:001:0003"},"geometry":{"type":"Polygon","coordinates":[[[39.881542,48.37359],[39.881597,48.373829],[39.881781,48.373808],[39.881781,48.373772],[39.881848,48.373767],[39.881853,48.373603],[39.881834,48.373546],[39.881727,48.373557],[39.881542,48.37359]]]}},{"type":"Feature","properties":{"cadnum":"4411446500:04:001:0016"},"geometry":{"type":"Polygon","coordinates":[[[39.881924,48.372847],[39.882001,48.373185],[39.882198,48.373161],[39.882198,48.373104],[39.88214,48.372827],[39.881924,48.372847]]]}},{"type":"Feature","properties":{"cadnum":"4411446500:05:001:0002"},"geometry":{"type":"Polygon","coordinates":[[[39.884085,48.371841],[39.884098,48.371878],[39.884201,48.371863],[39.884201,48.371854],[39.884475,48.371821],[39.884538,48.372051],[39.884453,48.372062],[39.884461,48.372089],[39.88439,48.372102],[39.88439,48.372101],[39.884385,48.372093],[39.884197,48.372122],[39.884205,48.372159],[39.884475,48.372117],[39.884475,48.372122],[39.884551,48.37211],[39.884807,48.372069],[39.8847,48.371767],[39.884085,48.371841]]]}},{"type":"Feature","properties":{"cadnum":"4411446500:04:001:0004"},"geometry":{"type":"Polygon","coordinates":[[[39.883725,48.374527],[39.883737,48.374599],[39.883738,48.374599],[39.883811,48.37499],[39.883991,48.374987],[39.884027,48.374987],[39.88404,48.374954],[39.883985,48.37482],[39.883951,48.374638],[39.883909,48.374587],[39.883894,48.374542],[39.883882,48.374506],[39.883725,48.374527]]]}},{"type":"Feature","properties":{"cadnum":"4411446500:05:001:0003"},"geometry":{"type":"Polygon","coordinates":[[[39.884337,48.37254],[39.884417,48.372803],[39.885172,48.372704],[39.88514,48.37263],[39.885127,48.372593],[39.884884,48.37263],[39.884861,48.372573],[39.884853,48.372519],[39.884794,48.372525],[39.884714,48.372534],[39.884704,48.372519],[39.8847,48.372495],[39.884337,48.37254]]]}},{"type":"Feature","properties":{"cadnum":"4411446500:04:001:0014"},"geometry":{"type":"Polygon","coordinates":[[[39.881834,48.371669],[39.881825,48.371761],[39.88183,48.371794],[39.88187,48.371934],[39.881884,48.372015],[39.88188,48.372015],[39.881893,48.372102],[39.882054,48.372089],[39.882108,48.372084],[39.882094,48.372024],[39.882077,48.371896],[39.882064,48.371878],[39.882054,48.371803],[39.882027,48.371677],[39.882023,48.371657],[39.881947,48.37166],[39.881834,48.371669]]]}},{"type":"Feature","properties":{"cadnum":"4411446500:04:001:0002"},"geometry":{"type":"Polygon","coordinates":[[[39.881169,48.373689],[39.881192,48.373823],[39.881282,48.373862],[39.881578,48.373829],[39.881524,48.37359],[39.881295,48.373623],[39.881169,48.373689]]]}},{"type":"Feature","properties":{"cadnum":"4411446500:04:001:0021"},"geometry":{"type":"Polygon","coordinates":[[[39.88236,48.372892],[39.882396,48.373143],[39.882463,48.37313],[39.882463,48.373131],[39.882486,48.373143],[39.882589,48.373134],[39.88258,48.373065],[39.882566,48.372997],[39.88254,48.372874],[39.88236,48.372892]]]}},{"type":"Feature","properties":{"cadnum":"4411446500:04:001:0020"},"geometry":{"type":"Polygon","coordinates":[[[39.880783,48.372997],[39.880819,48.373155],[39.880842,48.373227],[39.880859,48.37331],[39.881111,48.37328],[39.881026,48.372967],[39.880959,48.372975],[39.880958,48.372975],[39.880941,48.372916],[39.880891,48.372922],[39.880909,48.372982],[39.880783,48.372997]]]}},{"type":"Feature","properties":{"cadnum":"4411446500:04:001:0013"},"geometry":{"type":"Polygon","coordinates":[[[39.880456,48.37365],[39.880513,48.373838],[39.881031,48.373754],[39.880972,48.37357],[39.880456,48.37365]]]}},{"type":"Feature","properties":{"cadnum":"4411446500:04:001:0005"},"geometry":{"type":"Polygon","coordinates":[[[39.881201,48.37422],[39.881232,48.374393],[39.881255,48.374484],[39.881255,48.374485],[39.881271,48.374546],[39.881284,48.374599],[39.881285,48.374599],[39.881305,48.374673],[39.881704,48.374625],[39.881674,48.37452],[39.881578,48.374178],[39.881201,48.37422]]]}},{"type":"Feature","properties":{"cadnum":"4411446500:04:001:0012"},"geometry":{"type":"Polygon","coordinates":[[[39.880312,48.373453],[39.880375,48.373665],[39.880457,48.373653],[39.880457,48.373652],[39.880972,48.37357],[39.880918,48.373373],[39.880312,48.373453]]]}},{"type":"Feature","properties":{"cadnum":"4411446500:04:001:0017"},"geometry":{"type":"Polygon","coordinates":[[[39.881394,48.37288],[39.881461,48.373113],[39.88148,48.373181],[39.881498,48.373236],[39.881681,48.373214],[39.881605,48.37286],[39.881394,48.37288]]]}},{"type":"Feature","properties":{"cadnum":"4411446500:04:001:0022"},"geometry":{"type":"Polygon","coordinates":[[[39.880941,48.372916],[39.880958,48.372975],[39.880959,48.372975],[39.881025,48.372967],[39.881026,48.372967],[39.881111,48.37328],[39.881282,48.373259],[39.881165,48.372889],[39.880941,48.372916]]]}},{"type":"Feature","properties":{"cadnum":"4411446500:01:001:0015"},"geometry":{"type":"Polygon","coordinates":[[[39.915503,48.352011],[39.915562,48.352035],[39.915588,48.352006],[39.915589,48.352006],[39.915745,48.352074],[39.915674,48.352145],[39.9158,48.352199],[39.916034,48.351973],[39.915701,48.351805],[39.915503,48.352011]]]}},{"type":"Feature","properties":{"cadnum":"4411446500:01:001:0011"},"geometry":{"type":"Polygon","coordinates":[[[39.915854,48.351644],[39.916244,48.351814],[39.916451,48.351626],[39.916061,48.351456],[39.915854,48.351644]]]}},{"type":"Feature","properties":{"cadnum":"4411446500:01:001:0013"},"geometry":{"type":"Polygon","coordinates":[[[39.915275,48.351661],[39.915661,48.351835],[39.915854,48.351644],[39.915468,48.351473],[39.915275,48.351661]]]}},{"type":"Feature","properties":{"cadnum":"4411446500:01:001:0037"},"geometry":{"type":"Polygon","coordinates":[[[39.916523,48.351032],[39.916559,48.351047],[39.916793,48.351169],[39.916856,48.351199],[39.917062,48.351005],[39.916698,48.35085],[39.916608,48.350933],[39.916617,48.350939],[39.916617,48.35094],[39.916523,48.351032]]]}},{"type":"Feature","properties":{"cadnum":"4411446500:01:001:0033"},"geometry":{"type":"Polygon","coordinates":[[[39.918692,48.350134],[39.918737,48.350156],[39.918841,48.350205],[39.918909,48.350141],[39.919154,48.34991],[39.919002,48.349838],[39.918835,48.349998],[39.918692,48.350134]]]}},{"type":"Feature","properties":{"cadnum":"4411446500:01:001:0004"},"geometry":{"type":"Polygon","coordinates":[[[39.917642,48.350683],[39.917762,48.350736],[39.917862,48.350791],[39.917898,48.350745],[39.917933,48.350712],[39.917982,48.35074],[39.918063,48.350668],[39.918099,48.350635],[39.917973,48.350579],[39.917942,48.350563],[39.917898,48.350603],[39.917766,48.350552],[39.917642,48.350683]]]}},{"type":"Feature","properties":{"cadnum":"4411446500:01:001:0009"},"geometry":{"type":"Polygon","coordinates":[[[39.915468,48.351473],[39.915854,48.351644],[39.916061,48.351456],[39.915665,48.351283],[39.915468,48.351473]]]}},{"type":"Feature","properties":{"cadnum":"4411446500:01:002:0012"},"geometry":{"type":"Polygon","coordinates":[[[39.913374,48.352659],[39.913437,48.352701],[39.913464,48.352718],[39.913814,48.352602],[39.913815,48.352601],[39.913881,48.352566],[39.913912,48.352586],[39.913912,48.352587],[39.914273,48.352823],[39.914609,48.352605],[39.91416,48.352285],[39.913526,48.352587],[39.913374,48.352659]]]}},{"type":"Feature","properties":{"cadnum":"4411446500:01:002:0018"},"geometry":{"type":"Polygon","coordinates":[[[39.914753,48.352727],[39.914992,48.352847],[39.915241,48.352618],[39.915373,48.352497],[39.915149,48.352384],[39.914782,48.352701],[39.914784,48.352701],[39.914753,48.352727]]]}},{"type":"Feature","properties":{"cadnum":"4411446500:01:001:0012"},"geometry":{"type":"Polygon","coordinates":[[[39.915741,48.352533],[39.915849,48.352586],[39.915849,48.352587],[39.916441,48.35288],[39.916568,48.352763],[39.916437,48.352701],[39.915858,48.352423],[39.915741,48.352533]]]}},{"type":"Feature","properties":{"cadnum":"4411446500:01:001:0007"},"geometry":{"type":"Polygon","coordinates":[[[39.917956,48.351223],[39.918091,48.351283],[39.918126,48.351247],[39.918189,48.351194],[39.918229,48.351152],[39.918212,48.351143],[39.918234,48.351125],[39.918235,48.351125],[39.918252,48.35113],[39.918315,48.351065],[39.918145,48.350993],[39.918122,48.351014],[39.918135,48.35102],[39.917956,48.351223]]]}},{"type":"Feature","properties":{"cadnum":"4411446500:01:001:0010"},"geometry":{"type":"Polygon","coordinates":[[[39.915678,48.351289],[39.916061,48.351456],[39.916271,48.351271],[39.915875,48.351095],[39.915678,48.351289]]]}},{"type":"Feature","properties":{"cadnum":"4411446500:01:002:0019"},"geometry":{"type":"Polygon","coordinates":[[[39.914992,48.352847],[39.915216,48.352957],[39.915593,48.352608],[39.915373,48.352497],[39.915275,48.352587],[39.915241,48.352618],[39.91515,48.352701],[39.914992,48.352847]]]}},{"type":"Feature","properties":{"cadnum":"4411446500:01:002:0011"},"geometry":{"type":"Polygon","coordinates":[[[39.913464,48.352718],[39.91395,48.353035],[39.914273,48.352823],[39.914087,48.352701],[39.914086,48.352701],[39.913881,48.352566],[39.913843,48.352587],[39.913842,48.352587],[39.913815,48.352601],[39.913814,48.352602],[39.913516,48.352701],[39.913517,48.352701],[39.913464,48.352718]]]}},{"type":"Feature","properties":{"cadnum":"4411446500:01:002:0045"},"geometry":{"type":"Polygon","coordinates":[[[39.919806,48.356455],[39.920022,48.356568],[39.920175,48.356405],[39.920179,48.356408],[39.9203,48.356268],[39.920368,48.35619],[39.920147,48.356083],[39.920006,48.356237],[39.920005,48.356237],[39.919806,48.356455]]]}},{"type":"Feature","properties":{"cadnum":"4411446500:01:004:0018"},"geometry":{"type":"Polygon","coordinates":[[[39.918495,48.355065],[39.918711,48.355172],[39.918737,48.355148],[39.918897,48.355001],[39.918909,48.35499],[39.919087,48.354826],[39.918921,48.354748],[39.918863,48.354718],[39.918495,48.355065]]]}},{"type":"Feature","properties":{"cadnum":"4411446500:01:004:0023"},"geometry":{"type":"Polygon","coordinates":[[[39.918302,48.354972],[39.918495,48.355065],[39.918737,48.354837],[39.918863,48.354718],[39.918665,48.354626],[39.918302,48.354972]]]}},{"type":"Feature","properties":{"cadnum":"4411446500:01:005:0013"},"geometry":{"type":"Polygon","coordinates":[[[39.91924,48.354086],[39.919411,48.354166],[39.920058,48.353554],[39.919883,48.353477],[39.91924,48.354086]]]}},{"type":"Feature","properties":{"cadnum":"4411446500:01:005:0011"},"geometry":{"type":"Polygon","coordinates":[[[39.923925,48.353769],[39.924231,48.353912],[39.924284,48.353937],[39.924402,48.353825],[39.924477,48.353754],[39.924402,48.35372],[39.924114,48.35359],[39.923925,48.353769]]]}},{"type":"Feature","properties":{"cadnum":"4411446500:01:004:0006"},"geometry":{"type":"Polygon","coordinates":[[[39.920278,48.355927],[39.920502,48.356032],[39.920835,48.355707],[39.920619,48.355599],[39.920278,48.355927]]]}},{"type":"Feature","properties":{"cadnum":"4411446500:01:004:0008"},"geometry":{"type":"Polygon","coordinates":[[[39.920619,48.355599],[39.920835,48.355707],[39.921257,48.355285],[39.921028,48.355172],[39.920619,48.355599]]]}},{"type":"Feature","properties":{"cadnum":"4411446500:01:001:0014"},"geometry":{"type":"Polygon","coordinates":[[[39.918931,48.353736],[39.919083,48.353808],[39.919533,48.353378],[39.91938,48.353309],[39.918931,48.353736]]]}},{"type":"Feature","properties":{"cadnum":"4411446500:01:004:0010"},"geometry":{"type":"Polygon","coordinates":[[[39.919307,48.35493],[39.919533,48.355037],[39.919923,48.354665],[39.919699,48.354566],[39.919307,48.35493]]]}},{"type":"Feature","properties":{"cadnum":"4411446500:01:005:0005"},"geometry":{"type":"Polygon","coordinates":[[[39.921437,48.355026],[39.921477,48.355044],[39.9215,48.355026],[39.921459,48.355005],[39.921437,48.355026]]]}},{"type":"Feature","properties":{"cadnum":"4411446500:01:004:0007"},"geometry":{"type":"Polygon","coordinates":[[[39.921383,48.352411],[39.921487,48.352459],[39.921387,48.352546],[39.921479,48.352586],[39.921479,48.352587],[39.921481,48.352587],[39.921571,48.352629],[39.921572,48.35263],[39.92174,48.352701],[39.921741,48.352701],[39.921783,48.352718],[39.921877,48.352632],[39.921953,48.352554],[39.922011,48.35248],[39.921603,48.352316],[39.921581,48.352333],[39.92158,48.352333],[39.921544,48.352316],[39.921504,48.352351],[39.921491,48.352342],[39.921451,48.352375],[39.92145,48.352375],[39.921432,48.352366],[39.921383,48.352411]]]}},{"type":"Feature","properties":{"cadnum":"4411446500:01:004:0024"},"geometry":{"type":"Polygon","coordinates":[[[39.920022,48.356568],[39.920246,48.356676],[39.920592,48.356298],[39.920592,48.356297],[39.920372,48.356183],[39.920326,48.356237],[39.920325,48.356237],[39.920265,48.356307],[39.920227,48.356351],[39.920228,48.356351],[39.920179,48.356408],[39.920175,48.356404],[39.920022,48.356568]]]}},{"type":"Feature","properties":{"cadnum":"4411446500:01:004:0025"},"geometry":{"type":"Polygon","coordinates":[[[39.919761,48.355145],[39.919986,48.355249],[39.920386,48.354871],[39.920152,48.354766],[39.919761,48.355145]]]}},{"type":"Feature","properties":{"cadnum":"4411446500:01:005:0008"},"geometry":{"type":"Polygon","coordinates":[[[39.920699,48.35267],[39.920761,48.352701],[39.920762,48.352701],[39.920799,48.352718],[39.920848,48.352674],[39.920879,48.352647],[39.920911,48.352665],[39.920932,48.352644],[39.920965,48.352611],[39.921032,48.352644],[39.921082,48.352668],[39.921045,48.352701],[39.921108,48.352734],[39.921154,48.352692],[39.921109,48.35267],[39.921383,48.352411],[39.921127,48.352289],[39.920852,48.352546],[39.920844,48.352542],[39.920794,48.352587],[39.920793,48.352587],[39.920699,48.35267]]]}},{"type":"Feature","properties":{"cadnum":"4411446500:01:002:0009"},"geometry":{"type":"Polygon","coordinates":[[[39.918432,48.35576],[39.918652,48.355871],[39.918737,48.355786],[39.918737,48.355787],[39.918885,48.355641],[39.918909,48.355618],[39.918909,48.355617],[39.918994,48.355533],[39.918774,48.355426],[39.918598,48.355605],[39.918432,48.35576]]]}},{"type":"Feature","properties":{"cadnum":"4411446500:01:004:0012"},"geometry":{"type":"Polygon","coordinates":[[[39.921487,48.356512],[39.921818,48.356665],[39.922204,48.356371],[39.922031,48.356283],[39.92203,48.356282],[39.9218,48.356172],[39.921634,48.356351],[39.921635,48.356351],[39.921487,48.356512]]]}},{"type":"Feature","properties":{"cadnum":"4411446500:01:004:0032"},"geometry":{"type":"Polygon","coordinates":[[[39.921149,48.355733],[39.921369,48.355835],[39.921527,48.355683],[39.921711,48.355503],[39.921491,48.355393],[39.921307,48.355581],[39.921149,48.355733]]]}},{"type":"Feature","properties":{"cadnum":"4411446500:01:002:0006"},"geometry":{"type":"Polygon","coordinates":[[[39.91867,48.355163],[39.918737,48.355197],[39.918885,48.355271],[39.918909,48.355249],[39.919267,48.354927],[39.919047,48.354817],[39.918737,48.355102],[39.91867,48.355163]]]}},{"type":"Feature","properties":{"cadnum":"4411446500:01:005:0006"},"geometry":{"type":"Polygon","coordinates":[[[39.920382,48.353351],[39.920485,48.353488],[39.920969,48.353405],[39.920839,48.353217],[39.920776,48.353169],[39.920382,48.353351]]]}},{"type":"Feature","properties":{"cadnum":"4411446500:01:005:0017"},"geometry":{"type":"Polygon","coordinates":[[[39.919164,48.355345],[39.919384,48.355455],[39.919783,48.355112],[39.919554,48.355002],[39.919164,48.355345]]]}},{"type":"Feature","properties":{"cadnum":"4411446500:01:002:0005"},"geometry":{"type":"Polygon","coordinates":[[[39.9218,48.356172],[39.92203,48.356282],[39.922232,48.356094],[39.92242,48.355906],[39.922433,48.355895],[39.922362,48.355835],[39.922214,48.35576],[39.9218,48.356172]]]}},{"type":"Feature","properties":{"cadnum":"4411446500:01:004:0022"},"geometry":{"type":"Polygon","coordinates":[[[39.921518,48.356028],[39.921737,48.356134],[39.922146,48.355721],[39.921931,48.355614],[39.921518,48.356028]]]}},{"type":"Feature","properties":{"cadnum":"4411446500:01:004:0016"},"geometry":{"type":"Polygon","coordinates":[[[39.919087,48.354826],[39.919307,48.35493],[39.919699,48.354566],[39.919474,48.354464],[39.919087,48.354826]]]}},{"type":"Feature","properties":{"cadnum":"4411446500:01:004:0027"},"geometry":{"type":"Polygon","coordinates":[[[39.924257,48.35411],[39.924402,48.354179],[39.924607,48.354276],[39.924684,48.354187],[39.92477,48.354103],[39.924433,48.353951],[39.924257,48.35411]]]}},{"type":"Feature","properties":{"cadnum":"4411446500:01:004:0020"},"geometry":{"type":"Polygon","coordinates":[[[39.920399,48.3555],[39.920619,48.355599],[39.921028,48.355172],[39.920817,48.355068],[39.920399,48.3555]]]}},{"type":"Feature","properties":{"cadnum":"4411446500:01:005:0009"},"geometry":{"type":"Polygon","coordinates":[[[39.9252,48.35248],[39.925424,48.352586],[39.925424,48.352587],[39.92561,48.352675],[39.925613,48.352677],[39.925928,48.352382],[39.925515,48.352187],[39.9252,48.35248]]]}},{"type":"Feature","properties":{"cadnum":"4411446500:05:002:0011"},"geometry":{"type":"Polygon","coordinates":[[[39.888864,48.371242],[39.888878,48.371359],[39.888935,48.371654],[39.889016,48.371645],[39.889079,48.371669],[39.889641,48.3716],[39.889165,48.371334],[39.889057,48.371263],[39.888958,48.371233],[39.888864,48.371242]]]}},{"type":"Feature","properties":{"cadnum":"4411446500:05:002:0031"},"geometry":{"type":"Polygon","coordinates":[[[39.888846,48.373026],[39.888985,48.373304],[39.889218,48.373286],[39.889601,48.373238],[39.889515,48.372984],[39.889255,48.372993],[39.888846,48.373026]]]}},{"type":"Feature","properties":{"cadnum":"4411446500:05:002:0028"},"geometry":{"type":"Polygon","coordinates":[[[39.889534,48.372588],[39.889605,48.372805],[39.890454,48.372686],[39.890382,48.372475],[39.89,48.372543],[39.889534,48.372588]]]}},{"type":"Feature","properties":{"cadnum":"4411446500:05:002:0016"},"geometry":{"type":"Polygon","coordinates":[[[39.890526,48.373492],[39.890773,48.374139],[39.891038,48.374101],[39.890782,48.373438],[39.890526,48.373492]]]}},{"type":"Feature","properties":{"cadnum":"4411446500:03:003:0036"},"geometry":{"type":"Polygon","coordinates":[[[39.926076,48.36015],[39.926089,48.360317],[39.926242,48.360317],[39.926234,48.360144],[39.926076,48.36015]]]}},{"type":"Feature","properties":{"cadnum":"4411446500:03:003:0050"},"geometry":{"type":"Polygon","coordinates":[[[39.925829,48.360306],[39.925848,48.360448],[39.926022,48.360446],[39.926095,48.360448],[39.926692,48.360428],[39.926831,48.360416],[39.927001,48.360401],[39.927015,48.360246],[39.92697,48.360249],[39.92662,48.360278],[39.926225,48.360284],[39.926072,48.360288],[39.925829,48.360306]]]}},{"type":"Feature","properties":{"cadnum":"4411446500:03:003:0035"},"geometry":{"type":"Polygon","coordinates":[[[39.926234,48.360144],[39.926242,48.360317],[39.926642,48.360317],[39.926993,48.360293],[39.927038,48.360293],[39.927145,48.360291],[39.927127,48.360096],[39.927118,48.36007],[39.926993,48.360079],[39.926234,48.360144]]]}},{"type":"Feature","properties":{"cadnum":"4411446500:04:001:0006"},"geometry":{"type":"Polygon","coordinates":[[[39.882723,48.37473],[39.882746,48.374813],[39.882782,48.374808],[39.882796,48.37493],[39.882782,48.374933],[39.882796,48.374981],[39.882782,48.374983],[39.882792,48.375025],[39.882872,48.375016],[39.88293,48.375138],[39.882966,48.375264],[39.883123,48.375246],[39.883079,48.374999],[39.883016,48.37468],[39.882989,48.374592],[39.882729,48.374616],[39.882756,48.374727],[39.882755,48.374727],[39.882723,48.37473]]]}},{"type":"Feature","properties":{"cadnum":"4411446500:04:001:0029"},"geometry":{"type":"Polygon","coordinates":[[[39.882073,48.374804],[39.882081,48.374835],[39.88209,48.374831],[39.882153,48.374999],[39.882171,48.375034],[39.88218,48.375085],[39.882234,48.375082],[39.882239,48.375109],[39.882261,48.375106],[39.882266,48.375136],[39.882279,48.375321],[39.882486,48.3753],[39.882467,48.37513],[39.882337,48.374658],[39.882094,48.374685],[39.882094,48.374771],[39.882104,48.374802],[39.882073,48.374804]]]}},{"type":"Feature","properties":{"cadnum":"4411446500:01:002:0034"},"geometry":{"type":"Polygon","coordinates":[[[39.91417,48.354166],[39.914386,48.354274],[39.914762,48.353955],[39.914537,48.353844],[39.91417,48.354166]]]}},{"type":"Feature","properties":{"cadnum":"4411446500:01:002:0027"},"geometry":{"type":"Polygon","coordinates":[[[39.915063,48.353396],[39.915283,48.35351],[39.915642,48.353181],[39.915642,48.353178],[39.915422,48.353065],[39.915063,48.353396]]]}},{"type":"Feature","properties":{"cadnum":"4411446500:01:002:0016"},"geometry":{"type":"Polygon","coordinates":[[[39.91752,48.354077],[39.91774,48.354181],[39.918118,48.353856],[39.917893,48.353749],[39.91752,48.354077]]]}},{"type":"Feature","properties":{"cadnum":"4411446500:01:002:0039"},"geometry":{"type":"Polygon","coordinates":[[[39.914888,48.354528],[39.91513,48.354641],[39.915489,48.354307],[39.915256,48.35419],[39.915027,48.354405],[39.915019,48.354402],[39.914888,48.354528]]]}},{"type":"Feature","properties":{"cadnum":"4411446500:01:002:0036"},"geometry":{"type":"Polygon","coordinates":[[[39.916797,48.35373],[39.917007,48.35384],[39.91704,48.353844],[39.917416,48.35351],[39.917174,48.353393],[39.916797,48.35373]]]}},{"type":"Feature","properties":{"cadnum":"4411446500:01:002:0022"},"geometry":{"type":"Polygon","coordinates":[[[39.916042,48.356079],[39.916258,48.356181],[39.91686,48.355643],[39.916631,48.355536],[39.916042,48.356079]]]}},{"type":"Feature","properties":{"cadnum":"4411446500:01:002:0038"},"geometry":{"type":"Polygon","coordinates":[[[39.916774,48.355431],[39.916994,48.355539],[39.917242,48.355312],[39.917345,48.355216],[39.917129,48.35511],[39.916774,48.355431]]]}},{"type":"Feature","properties":{"cadnum":"4411446500:01:002:0052"},"geometry":{"type":"Polygon","coordinates":[[[39.915629,48.355512],[39.915845,48.355617],[39.916208,48.355285],[39.915994,48.355181],[39.915629,48.355512]]]}},{"type":"Feature","properties":{"cadnum":"4411446500:01:002:0020"},"geometry":{"type":"Polygon","coordinates":[[[39.915489,48.354307],[39.915711,48.35442],[39.916078,48.354083],[39.915867,48.353975],[39.915489,48.354307]]]}},{"type":"Feature","properties":{"cadnum":"4411446500:01:002:0015"},"geometry":{"type":"Polygon","coordinates":[[[39.917097,48.353867],[39.917296,48.353969],[39.917677,48.353641],[39.917462,48.353528],[39.917097,48.353867]]]}},{"type":"Feature","properties":{"cadnum":"4411446500:01:002:0025"},"geometry":{"type":"Polygon","coordinates":[[[39.914699,48.3553],[39.914906,48.355405],[39.915441,48.354963],[39.915216,48.354858],[39.914699,48.3553]]]}},{"type":"Feature","properties":{"cadnum":"4411446500:01:002:0024"},"geometry":{"type":"Polygon","coordinates":[[[39.914061,48.354849],[39.914296,48.354957],[39.91469,48.354605],[39.91447,48.354501],[39.914061,48.354849]]]}},{"type":"Feature","properties":{"cadnum":"4411446500:01:001:0036"},"geometry":{"type":"Polygon","coordinates":[[[39.918112,48.353196],[39.918239,48.353256],[39.918239,48.353253],[39.918365,48.353309],[39.918401,48.353271],[39.918485,48.353152],[39.918477,48.353145],[39.918562,48.353065],[39.918621,48.353011],[39.918432,48.352931],[39.918332,48.352972],[39.918112,48.353196]]]}},{"type":"Feature","properties":{"cadnum":"4411446500:01:002:0017"},"geometry":{"type":"Polygon","coordinates":[[[39.918185,48.354393],[39.918441,48.354521],[39.918795,48.354196],[39.918562,48.354074],[39.918185,48.354393]]]}},{"type":"Feature","properties":{"cadnum":"4411446500:01:002:0021"},"geometry":{"type":"Polygon","coordinates":[[[39.915351,48.354748],[39.915562,48.354849],[39.915652,48.35476],[39.915921,48.354528],[39.915711,48.35442],[39.915351,48.354748]]]}},{"type":"Feature","properties":{"cadnum":"4411446500:01:002:0030"},"geometry":{"type":"Polygon","coordinates":[[[39.917359,48.354521],[39.917579,48.354629],[39.917952,48.354283],[39.91774,48.354181],[39.917359,48.354521]]]}},{"type":"Feature","properties":{"cadnum":"4411446500:01:002:0031"},"geometry":{"type":"Polygon","coordinates":[[[39.914852,48.353292],[39.915063,48.353396],[39.915422,48.353065],[39.915216,48.352957],[39.914852,48.353292]]]}},{"type":"Feature","properties":{"cadnum":"4411446500:01:002:0035"},"geometry":{"type":"Polygon","coordinates":[[[39.915019,48.355309],[39.915234,48.35542],[39.915661,48.355068],[39.915441,48.354963],[39.915019,48.355309]]]}},{"type":"Feature","properties":{"cadnum":"4411446500:01:002:0041"},"geometry":{"type":"Polygon","coordinates":[[[39.917579,48.354629],[39.917799,48.354733],[39.918171,48.354387],[39.917952,48.354283],[39.917579,48.354629]]]}},{"type":"Feature","properties":{"cadnum":"4411446500:01:002:0054"},"geometry":{"type":"Polygon","coordinates":[[[39.91774,48.354181],[39.917952,48.354283],[39.918171,48.354106],[39.918332,48.35396],[39.918118,48.353856],[39.91774,48.354181]]]}},{"type":"Feature","properties":{"cadnum":"4411446500:01:002:0003"},"geometry":{"type":"Polygon","coordinates":[[[39.91637,48.354053],[39.916594,48.35416],[39.916973,48.353826],[39.916761,48.353716],[39.91637,48.354053]]]}},{"type":"Feature","properties":{"cadnum":"4411446500:01:002:0032"},"geometry":{"type":"Polygon","coordinates":[[[39.916577,48.353632],[39.916797,48.35373],[39.917174,48.353393],[39.916959,48.353285],[39.916577,48.353632]]]}},{"type":"Feature","properties":{"cadnum":"4411446500:01:002:0040"},"geometry":{"type":"Polygon","coordinates":[[[39.9146,48.354378],[39.91482,48.354482],[39.915185,48.35416],[39.914969,48.354055],[39.9146,48.354378]]]}},{"type":"Feature","properties":{"cadnum":"4411446500:01:002:0001"},"geometry":{"type":"Polygon","coordinates":[[[39.91726,48.355271],[39.917497,48.35539],[39.917969,48.354966],[39.917726,48.354849],[39.917363,48.355175],[39.91726,48.355271]]]}},{"type":"Feature","properties":{"cadnum":"4411446500:01:002:0046"},"geometry":{"type":"Polygon","coordinates":[[[39.915283,48.354169],[39.915512,48.354285],[39.915867,48.353975],[39.915648,48.353867],[39.915283,48.354169]]]}},{"type":"Feature","properties":{"cadnum":"4411446500:01:002:0028"},"geometry":{"type":"Polygon","coordinates":[[[39.915485,48.353611],[39.915711,48.353725],[39.916061,48.35339],[39.915862,48.353289],[39.915485,48.353611]]]}},{"type":"Feature","properties":{"cadnum":"4411446500:01:002:0014"},"geometry":{"type":"Polygon","coordinates":[[[39.916856,48.354984],[39.91707,48.355092],[39.917443,48.354769],[39.917237,48.354661],[39.916856,48.354984]]]}},{"type":"Feature","properties":{"cadnum":"4411446500:01:002:0023"},"geometry":{"type":"Polygon","coordinates":[[[39.91513,48.354641],[39.915351,48.354748],[39.915711,48.35442],[39.915489,48.354307],[39.91513,48.354641]]]}},{"type":"Feature","properties":{"cadnum":"4411446500:01:004:0019"},"geometry":{"type":"Polygon","coordinates":[[[39.918041,48.355563],[39.918261,48.355667],[39.918589,48.355331],[39.918374,48.355223],[39.918041,48.355563]]]}},{"type":"Feature","properties":{"cadnum":"4411446500:01:002:0029"},"geometry":{"type":"Polygon","coordinates":[[[39.917143,48.354414],[39.917359,48.354521],[39.91774,48.354181],[39.91752,48.354077],[39.917143,48.354414]]]}},{"type":"Feature","properties":{"cadnum":"4411446500:01:002:0049"},"geometry":{"type":"Polygon","coordinates":[[[39.913734,48.353951],[39.913944,48.354059],[39.9143,48.353725],[39.914084,48.353617],[39.913734,48.353951]]]}},{"type":"Feature","properties":{"cadnum":"4411446500:01:002:0048"},"geometry":{"type":"Polygon","coordinates":[[[39.915814,48.355647],[39.916034,48.355751],[39.916428,48.35539],[39.916208,48.355285],[39.915814,48.355647]]]}},{"type":"Feature","properties":{"cadnum":"4411446500:01:002:0026"},"geometry":{"type":"Polygon","coordinates":[[[39.916051,48.355772],[39.916267,48.355873],[39.916631,48.355536],[39.91642,48.355435],[39.916051,48.355772]]]}},{"type":"Feature","properties":{"cadnum":"4411446500:01:004:0026"},"geometry":{"type":"Polygon","coordinates":[[[39.917821,48.355459],[39.918041,48.355563],[39.918374,48.355223],[39.918135,48.355106],[39.917821,48.355459]]]}},{"type":"Feature","properties":{"cadnum":"4411446500:01:002:0002"},"geometry":{"type":"Polygon","coordinates":[[[39.916648,48.35419],[39.916753,48.354243],[39.916883,48.3543],[39.917264,48.353966],[39.917053,48.353849],[39.916648,48.35419]]]}},{"type":"Feature","properties":{"cadnum":"4411446500:01:002:0010"},"geometry":{"type":"Polygon","coordinates":[[[39.915521,48.354811],[39.915741,48.354927],[39.91611,48.354596],[39.915881,48.354488],[39.915611,48.354721],[39.915521,48.354811]]]}},{"type":"Feature","properties":{"cadnum":"4411446500:01:002:0004"},"geometry":{"type":"Polygon","coordinates":[[[39.918104,48.356106],[39.918324,48.35622],[39.918521,48.356002],[39.918652,48.355871],[39.918432,48.35576],[39.918104,48.356106]]]}},{"type":"Feature","properties":{"cadnum":"4411446500:01:002:0033"},"geometry":{"type":"Polygon","coordinates":[[[39.915642,48.353178],[39.915642,48.353181],[39.915862,48.353289],[39.915994,48.353139],[39.916002,48.353125],[39.916208,48.352915],[39.916002,48.352814],[39.915642,48.353178]]]}},{"type":"Feature","properties":{"cadnum":"4411446500:01:002:0050"},"geometry":{"type":"Polygon","coordinates":[[[39.917835,48.354698],[39.918118,48.354826],[39.918158,48.354784],[39.918225,48.354721],[39.918477,48.354486],[39.918216,48.354357],[39.918202,48.354351],[39.917835,48.354698]]]}},{"type":"Feature","properties":{"cadnum":"4411446500:01:004:0013"},"geometry":{"type":"Polygon","coordinates":[[[39.917722,48.3559],[39.917933,48.356008],[39.918265,48.355667],[39.918041,48.355563],[39.917722,48.3559]]]}},{"type":"Feature","properties":{"cadnum":"4411446500:01:002:0047"},"geometry":{"type":"Polygon","coordinates":[[[39.916694,48.354897],[39.916909,48.355005],[39.917269,48.354676],[39.917053,48.354575],[39.916694,48.354897]]]}},{"type":"Feature","properties":{"cadnum":"4411446500:01:002:0051"},"geometry":{"type":"Polygon","coordinates":[[[39.915755,48.353742],[39.915988,48.353858],[39.916361,48.353524],[39.916132,48.353414],[39.915755,48.353742]]]}},{"type":"Feature","properties":{"cadnum":"4411446500:03:003:0010"},"geometry":{"type":"Polygon","coordinates":[[[39.921652,48.357844],[39.92167,48.357885],[39.922137,48.357667],[39.92212,48.357625],[39.921652,48.357844]]]}},{"type":"Feature","properties":{"cadnum":"4411446500:03:003:0011"},"geometry":{"type":"Polygon","coordinates":[[[39.92167,48.357885],[39.92176,48.358145],[39.92229,48.358064],[39.922137,48.357667],[39.92167,48.357885]]]}},{"type":"Feature","properties":{"cadnum":"4411446500:01:004:0017"},"geometry":{"type":"Polygon","coordinates":[[[39.921437,48.357238],[39.921611,48.357384],[39.922191,48.357046],[39.9218,48.356855],[39.921437,48.357238]]]}},{"type":"Feature","properties":{"cadnum":"4411446500:01:002:0008"},"geometry":{"type":"Polygon","coordinates":[[[39.919177,48.356656],[39.919388,48.356766],[39.91956,48.356614],[39.91977,48.356437],[39.919546,48.356315],[39.919177,48.356656]]]}},{"type":"Feature","properties":{"cadnum":"4411446500:03:003:0004"},"geometry":{"type":"Polygon","coordinates":[[[39.920575,48.358437],[39.920691,48.358705],[39.921172,48.358605],[39.920992,48.358306],[39.920575,48.358437]]]}},{"type":"Feature","properties":{"cadnum":"4411446500:03:003:0005"},"geometry":{"type":"Polygon","coordinates":[[[39.919761,48.35921],[39.91977,48.359264],[39.919775,48.359309],[39.920534,48.359228],[39.920713,48.359198],[39.920669,48.359072],[39.919761,48.35921]]]}},{"type":"Feature","properties":{"cadnum":"4411446500:03:003:0006"},"geometry":{"type":"Polygon","coordinates":[[[39.920789,48.358915],[39.920885,48.359118],[39.921437,48.359052],[39.921342,48.358837],[39.920789,48.358915]]]}},{"type":"Feature","properties":{"cadnum":"4411446500:01:004:0015"},"geometry":{"type":"Polygon","coordinates":[[[39.920099,48.357121],[39.920319,48.357231],[39.920673,48.356879],[39.920449,48.356778],[39.920099,48.357121]]]}},{"type":"Feature","properties":{"cadnum":"4411446500:03:003:0002"},"geometry":{"type":"Polygon","coordinates":[[[39.919963,48.359784],[39.919986,48.35984],[39.920309,48.359795],[39.920355,48.359756],[39.920758,48.359718],[39.920776,48.359559],[39.920776,48.359461],[39.920638,48.359479],[39.920512,48.359508],[39.920408,48.359545],[39.920309,48.35967],[39.920206,48.359715],[39.91999,48.359735],[39.919963,48.359784]]]}},{"type":"Feature","properties":{"cadnum":"4411446500:03:003:0037"},"geometry":{"type":"Polygon","coordinates":[[[39.919011,48.359105],[39.91906,48.359136],[39.919016,48.359169],[39.919034,48.35918],[39.919097,48.359136],[39.91903,48.359094],[39.919011,48.359105]]]}},{"type":"Feature","properties":{"cadnum":"4411446500:01:003:0014"},"geometry":{"type":"Polygon","coordinates":[[[39.919317,48.357828],[39.919699,48.358306],[39.919999,48.358201],[39.919617,48.357724],[39.919317,48.357828]]]}},{"type":"Feature","properties":{"cadnum":"4411446500:01:003:0019"},"geometry":{"type":"Polygon","coordinates":[[[39.91902,48.357935],[39.919403,48.35841],[39.919699,48.358306],[39.919317,48.357828],[39.91902,48.357935]]]}},{"type":"Feature","properties":{"cadnum":"4411446500:03:003:0049"},"geometry":{"type":"Polygon","coordinates":[[[39.921693,48.358476],[39.921728,48.358587],[39.922303,48.358536],[39.922519,48.358491],[39.922586,48.358482],[39.922582,48.358458],[39.922577,48.358458],[39.92255,48.35836],[39.922299,48.358395],[39.922124,48.358422],[39.921693,48.358476]]]}},{"type":"Feature","properties":{"cadnum":"4411446500:03:003:0039"},"geometry":{"type":"Polygon","coordinates":[[[39.91911,48.35978],[39.91911,48.359795],[39.919137,48.359795],[39.919133,48.359777],[39.91911,48.35978]]]}},{"type":"Feature","properties":{"cadnum":"4411446500:03:003:0014"},"geometry":{"type":"Polygon","coordinates":[[[39.923611,48.356951],[39.923701,48.357032],[39.923997,48.356871],[39.923911,48.356798],[39.923611,48.356951]]]}},{"type":"Feature","properties":{"cadnum":"4411446500:03:003:0038"},"geometry":{"type":"Polygon","coordinates":[[[39.919083,48.359446],[39.919087,48.359464],[39.91911,48.359461],[39.91911,48.359446],[39.919083,48.359446]]]}},{"type":"Feature","properties":{"cadnum":"4411446500:04:002:0010"},"geometry":{"type":"Polygon","coordinates":[[[39.880509,48.369762],[39.880882,48.370007],[39.881255,48.369771],[39.881075,48.369658],[39.880842,48.369523],[39.880509,48.369762]]]}},{"type":"Feature","properties":{"cadnum":"4411446500:01:005:0003"},"geometry":{"type":"Polygon","coordinates":[[[39.923009,48.350817],[39.92317,48.350895],[39.923202,48.350865],[39.923256,48.350895],[39.923309,48.350924],[39.923408,48.350966],[39.923539,48.35085],[39.923611,48.350784],[39.923619,48.350751],[39.923611,48.350721],[39.923584,48.350698],[39.923359,48.350603],[39.923363,48.350596],[39.923265,48.350548],[39.923022,48.350781],[39.923036,48.350787],[39.923009,48.350817]]]}},{"type":"Feature","properties":{"cadnum":"4411446500:01:005:0007"},"geometry":{"type":"Polygon","coordinates":[[[39.923143,48.351405],[39.923259,48.351459],[39.923229,48.351483],[39.923242,48.351515],[39.923256,48.351555],[39.923278,48.351612],[39.923606,48.351778],[39.923642,48.351749],[39.923768,48.351641],[39.923848,48.351683],[39.924158,48.351378],[39.924267,48.351157],[39.923894,48.351026],[39.923862,48.351014],[39.923804,48.351014],[39.923565,48.351211],[39.923472,48.35119],[39.923256,48.35136],[39.923211,48.351342],[39.923143,48.351405]]]}},{"type":"Feature","properties":{"cadnum":"4411446500:01:005:0004"},"geometry":{"type":"Polygon","coordinates":[[[39.921127,48.352289],[39.921383,48.352411],[39.921432,48.352366],[39.92145,48.352375],[39.921491,48.352342],[39.921504,48.352351],[39.921666,48.352202],[39.921617,48.352178],[39.921625,48.352154],[39.921545,48.352116],[39.921544,48.352116],[39.921554,48.35211],[39.921391,48.352029],[39.921355,48.352062],[39.92132,48.352047],[39.921181,48.352176],[39.921217,48.352193],[39.921217,48.352194],[39.921189,48.352217],[39.921198,48.352223],[39.921127,48.352289]]]}},{"type":"Feature","properties":{"cadnum":"4411446500:01:001:0034"},"geometry":{"type":"Polygon","coordinates":[[[39.92021,48.350734],[39.920678,48.350951],[39.920879,48.350758],[39.920416,48.350539],[39.92021,48.350734]]]}},{"type":"Feature","properties":{"cadnum":"4411446500:01:004:0014"},"geometry":{"type":"Polygon","coordinates":[[[39.925982,48.354506],[39.926221,48.354647],[39.926364,48.354733],[39.926687,48.354922],[39.926835,48.354823],[39.926126,48.354384],[39.926054,48.354438],[39.925982,48.354506]]]}},{"type":"Feature","properties":{"cadnum":"4411446500:01:004:0005"},"geometry":{"type":"Polygon","coordinates":[[[39.927177,48.354491],[39.927235,48.354528],[39.927406,48.354384],[39.927353,48.354345],[39.927177,48.354491]]]}},{"type":"Feature","properties":{"cadnum":"4411446500:01:004:0021"},"geometry":{"type":"Polygon","coordinates":[[[39.926171,48.353895],[39.926372,48.354005],[39.926705,48.353694],[39.926535,48.35357],[39.926171,48.353895]]]}},{"type":"Feature","properties":{"cadnum":"4411446500:01:004:0030"},"geometry":{"type":"Polygon","coordinates":[[[39.925592,48.353393],[39.925883,48.353528],[39.926175,48.353253],[39.926028,48.353169],[39.925928,48.353106],[39.925906,48.353125],[39.925717,48.353271],[39.925592,48.353393]]]}},{"type":"Feature","properties":{"cadnum":"4411446500:01:004:0004"},"geometry":{"type":"Polygon","coordinates":[[[39.926521,48.354079],[39.926835,48.354274],[39.927177,48.354491],[39.927353,48.354345],[39.926961,48.354068],[39.926737,48.353909],[39.926521,48.354079]]]}}]}