{"type":"FeatureCollection","features":[{"type":"Feature","properties":{"cadnum":"4411670903:01:002:0008"},"geometry":{"type":"Polygon","coordinates":[[[38.830375,48.323835],[38.830375,48.323853],[38.830402,48.323853],[38.830402,48.323835],[38.830375,48.323835]]]}},{"type":"Feature","properties":{"cadnum":"4411670903:01:002:0012"},"geometry":{"type":"Polygon","coordinates":[[[38.828264,48.324385],[38.828264,48.324438],[38.828285,48.324438],[38.828285,48.324385],[38.828264,48.324385]]]}},{"type":"Feature","properties":{"cadnum":"4411670903:01:002:0016"},"geometry":{"type":"Polygon","coordinates":[[[38.826511,48.323751],[38.826511,48.32377],[38.826534,48.32377],[38.826534,48.323751],[38.826511,48.323751]]]}},{"type":"Feature","properties":{"cadnum":"4411670903:01:002:0007"},"geometry":{"type":"Polygon","coordinates":[[[38.830905,48.323688],[38.830905,48.323706],[38.830931,48.323706],[38.830927,48.323688],[38.830905,48.323688]]]}},{"type":"Feature","properties":{"cadnum":"4411670903:01:002:0009"},"geometry":{"type":"Polygon","coordinates":[[[38.829849,48.323981],[38.829849,48.323999],[38.829872,48.323999],[38.829872,48.323981],[38.829849,48.323981]]]}},{"type":"Feature","properties":{"cadnum":"4411670903:01:002:0015"},"geometry":{"type":"Polygon","coordinates":[[[38.826947,48.323919],[38.826947,48.323936],[38.826974,48.323936],[38.826974,48.323919],[38.826947,48.323919]]]}},{"type":"Feature","properties":{"cadnum":"4411670903:01:002:0010"},"geometry":{"type":"Polygon","coordinates":[[[38.829319,48.324127],[38.829319,48.324146],[38.829341,48.324146],[38.829341,48.324127],[38.829319,48.324127]]]}},{"type":"Feature","properties":{"cadnum":"4411670903:01:002:0011"},"geometry":{"type":"Polygon","coordinates":[[[38.828788,48.324274],[38.828788,48.324292],[38.828816,48.324292],[38.828816,48.324274],[38.828788,48.324274]]]}},{"type":"Feature","properties":{"cadnum":"4411670903:01:002:0017"},"geometry":{"type":"Polygon","coordinates":[[[38.826341,48.32371],[38.826373,48.323761],[38.826449,48.323739],[38.826417,48.323688],[38.826341,48.32371]]]}},{"type":"Feature","properties":{"cadnum":"4411670903:01:002:0014"},"geometry":{"type":"Polygon","coordinates":[[[38.827387,48.324086],[38.827387,48.324104],[38.82741,48.324104],[38.82741,48.324086],[38.827387,48.324086]]]}},{"type":"Feature","properties":{"cadnum":"4411670903:01:002:0013"},"geometry":{"type":"Polygon","coordinates":[[[38.827823,48.324253],[38.827823,48.324271],[38.827849,48.324271],[38.827849,48.324253],[38.827823,48.324253]]]}},{"type":"Feature","properties":{"cadnum":"4411670903:01:002:0018"},"geometry":{"type":"Polygon","coordinates":[[[38.826134,48.323814],[38.826161,48.323811],[38.826161,48.323796],[38.826134,48.323796],[38.826134,48.323814]]]}},{"type":"Feature","properties":{"cadnum":"4411670903:01:001:0009"},"geometry":{"type":"Polygon","coordinates":[[[38.834933,48.322787],[38.834933,48.322801],[38.834956,48.322801],[38.834956,48.322787],[38.834933,48.322787]]]}},{"type":"Feature","properties":{"cadnum":"4411670903:01:002:0004"},"geometry":{"type":"Polygon","coordinates":[[[38.83249,48.323252],[38.83249,48.323268],[38.832517,48.323268],[38.832517,48.323252],[38.83249,48.323252]]]}},{"type":"Feature","properties":{"cadnum":"4411670903:01:001:0007"},"geometry":{"type":"Polygon","coordinates":[[[38.835786,48.32276],[38.835786,48.322778],[38.835809,48.322778],[38.835809,48.32276],[38.835786,48.32276]]]}},{"type":"Feature","properties":{"cadnum":"4411670903:01:002:0002"},"geometry":{"type":"Polygon","coordinates":[[[38.833551,48.32296],[38.833551,48.322975],[38.833572,48.322975],[38.833572,48.32296],[38.833551,48.32296]]]}},{"type":"Feature","properties":{"cadnum":"4411670903:01:001:0005"},"geometry":{"type":"Polygon","coordinates":[[[38.83664,48.322732],[38.83664,48.322751],[38.836663,48.322751],[38.836663,48.322732],[38.83664,48.322732]]]}},{"type":"Feature","properties":{"cadnum":"4411670903:01:002:0005"},"geometry":{"type":"Polygon","coordinates":[[[38.83196,48.323396],[38.83196,48.323414],[38.831987,48.323414],[38.831987,48.323396],[38.83196,48.323396]]]}},{"type":"Feature","properties":{"cadnum":"4411670903:01:002:0003"},"geometry":{"type":"Polygon","coordinates":[[[38.833019,48.323106],[38.833019,48.323121],[38.833042,48.323121],[38.833042,48.323106],[38.833019,48.323106]]]}},{"type":"Feature","properties":{"cadnum":"4411670903:01:001:0008"},"geometry":{"type":"Polygon","coordinates":[[[38.83536,48.322774],[38.83536,48.32279],[38.835382,48.32279],[38.835382,48.322774],[38.83536,48.322774]]]}},{"type":"Feature","properties":{"cadnum":"4411670903:01:001:0010"},"geometry":{"type":"Polygon","coordinates":[[[38.834503,48.322798],[38.834503,48.322816],[38.83453,48.322816],[38.83453,48.322798],[38.834503,48.322798]]]}},{"type":"Feature","properties":{"cadnum":"4411670903:01:002:0001"},"geometry":{"type":"Polygon","coordinates":[[[38.834075,48.322814],[38.834075,48.322829],[38.834102,48.322829],[38.834102,48.322814],[38.834075,48.322814]]]}},{"type":"Feature","properties":{"cadnum":"4411670903:01:001:0006"},"geometry":{"type":"Polygon","coordinates":[[[38.836214,48.322745],[38.836214,48.322801],[38.836241,48.322801],[38.836235,48.322745],[38.836214,48.322745]]]}},{"type":"Feature","properties":{"cadnum":"4411670903:01:001:0003"},"geometry":{"type":"Polygon","coordinates":[[[38.837493,48.322709],[38.837493,48.322724],[38.83752,48.322724],[38.83752,48.322709],[38.837493,48.322709]]]}},{"type":"Feature","properties":{"cadnum":"4411670903:01:001:0004"},"geometry":{"type":"Polygon","coordinates":[[[38.837067,48.322721],[38.837067,48.322774],[38.837094,48.322774],[38.83709,48.322721],[38.837067,48.322721]]]}},{"type":"Feature","properties":{"cadnum":"4411670903:01:001:0002"},"geometry":{"type":"Polygon","coordinates":[[[38.83792,48.322694],[38.83792,48.322712],[38.837947,48.322712],[38.837947,48.322694],[38.83792,48.322694]]]}},{"type":"Feature","properties":{"cadnum":"4411670903:01:002:0019"},"geometry":{"type":"Polygon","coordinates":[[[38.825654,48.323892],[38.825654,48.32391],[38.825676,48.32391],[38.825676,48.323892],[38.825654,48.323892]]]}},{"type":"Feature","properties":{"cadnum":"4411670903:01:002:0006"},"geometry":{"type":"Polygon","coordinates":[[[38.83143,48.323545],[38.831452,48.323599],[38.83148,48.323593],[38.831452,48.32354],[38.83143,48.323545]]]}}]}