{"type":"FeatureCollection","features":[{"type":"Feature","properties":{"cadnum":"4411446200:02:001:0012"},"geometry":{"type":"Polygon","coordinates":[[[39.530598,48.311747],[39.531379,48.312168],[39.531139,48.312416],[39.531138,48.312416],[39.531083,48.312473],[39.531232,48.31253],[39.531233,48.31253],[39.534011,48.31359],[39.534263,48.313321],[39.532611,48.312416],[39.53261,48.312416],[39.531653,48.31189],[39.531469,48.312079],[39.530602,48.311607],[39.530598,48.311747]]]}},{"type":"Feature","properties":{"cadnum":"4411446200:01:002:0060"},"geometry":{"type":"Polygon","coordinates":[[[39.559429,48.316529],[39.559559,48.316542],[39.559964,48.316542],[39.559937,48.316272],[39.559815,48.316281],[39.5596,48.316285],[39.559519,48.316392],[39.559429,48.316529]]]}},{"type":"Feature","properties":{"cadnum":"4411446200:01:002:0058"},"geometry":{"type":"Polygon","coordinates":[[[39.560732,48.316221],[39.560853,48.31658],[39.560857,48.316598],[39.561127,48.31661],[39.561195,48.316586],[39.561132,48.316192],[39.560732,48.316221]]]}},{"type":"Feature","properties":{"cadnum":"4411446200:01:002:0100"},"geometry":{"type":"Polygon","coordinates":[[[39.561186,48.317455],[39.561629,48.317441],[39.561621,48.317103],[39.561195,48.317118],[39.561186,48.317455]]]}},{"type":"Feature","properties":{"cadnum":"4411446200:01:002:0104"},"geometry":{"type":"Polygon","coordinates":[[[39.560807,48.317124],[39.560826,48.317184],[39.560813,48.317386],[39.560813,48.317515],[39.561186,48.317503],[39.561186,48.317455],[39.561195,48.317118],[39.561145,48.317118],[39.560807,48.317124]]]}},{"type":"Feature","properties":{"cadnum":"4411446200:01:002:0041"},"geometry":{"type":"Polygon","coordinates":[[[39.559775,48.316864],[39.559797,48.317031],[39.56035,48.317001],[39.560354,48.316881],[39.560341,48.316762],[39.5603,48.316765],[39.560247,48.316772],[39.560233,48.316664],[39.55978,48.316691],[39.559802,48.316863],[39.559801,48.316863],[39.559801,48.316864],[39.559775,48.316864]]]}},{"type":"Feature","properties":{"cadnum":"4411446200:01:002:0063"},"geometry":{"type":"Polygon","coordinates":[[[39.559765,48.316542],[39.55978,48.316691],[39.560233,48.316664],[39.56022,48.316544],[39.559964,48.316565],[39.559964,48.316542],[39.559765,48.316542]]]}},{"type":"Feature","properties":{"cadnum":"4411446200:01:002:0103"},"geometry":{"type":"Polygon","coordinates":[[[39.559937,48.316272],[39.559964,48.316542],[39.559964,48.316565],[39.56022,48.316544],[39.56048,48.316524],[39.56043,48.316239],[39.559937,48.316272]]]}},{"type":"Feature","properties":{"cadnum":"4411446200:02:003:0001"},"geometry":{"type":"Polygon","coordinates":[[[39.564195,48.296698],[39.564266,48.296779],[39.56631,48.296719],[39.566377,48.296719],[39.567175,48.296692],[39.567281,48.296689],[39.567168,48.295844],[39.567092,48.29518],[39.566162,48.295222],[39.564918,48.295279],[39.564321,48.295647],[39.564176,48.296321],[39.564195,48.296698]]]}},{"type":"Feature","properties":{"cadnum":"4411446200:02:001:0193"},"geometry":{"type":"Polygon","coordinates":[[[39.545492,48.31042],[39.545582,48.310797],[39.545622,48.310949],[39.545653,48.311107],[39.545945,48.311093],[39.545882,48.310872],[39.545788,48.310639],[39.545721,48.310394],[39.545492,48.31042]]]}},{"type":"Feature","properties":{"cadnum":"4411446200:02:001:0019"},"geometry":{"type":"Polygon","coordinates":[[[39.547522,48.312076],[39.547694,48.312416],[39.547729,48.312484],[39.547754,48.31253],[39.547755,48.31253],[39.547863,48.312715],[39.548133,48.312658],[39.548003,48.312435],[39.548002,48.312434],[39.547746,48.312028],[39.547522,48.312076]]]}},{"type":"Feature","properties":{"cadnum":"4411446200:02:001:0002"},"geometry":{"type":"Polygon","coordinates":[[[39.542446,48.315747],[39.54383,48.316009],[39.544736,48.316183],[39.54475,48.316186],[39.544809,48.316195],[39.544872,48.316157],[39.545202,48.315959],[39.548002,48.314274],[39.548968,48.313715],[39.550693,48.312694],[39.550695,48.312692],[39.550695,48.312693],[39.550855,48.312597],[39.550867,48.31259],[39.551155,48.312416],[39.551658,48.312114],[39.552041,48.311888],[39.552624,48.31152],[39.552651,48.311505],[39.552539,48.311415],[39.55245,48.311344],[39.552409,48.311368],[39.551802,48.311741],[39.550867,48.312285],[39.550641,48.312416],[39.55064,48.312416],[39.550455,48.312524],[39.550445,48.31253],[39.548708,48.31356],[39.54683,48.314612],[39.546385,48.314866],[39.545756,48.315179],[39.545263,48.315391],[39.545204,48.315331],[39.544584,48.315532],[39.544364,48.315579],[39.543538,48.315687],[39.543538,48.315692],[39.543538,48.315693],[39.542712,48.315675],[39.54246,48.315643],[39.542446,48.315747]]]}},{"type":"Feature","properties":{"cadnum":"4411446200:02:001:0043"},"geometry":{"type":"Polygon","coordinates":[[[39.550738,48.312198],[39.550756,48.31221],[39.550773,48.312201],[39.55076,48.312187],[39.550738,48.312198]]]}},{"type":"Feature","properties":{"cadnum":"4411446200:02:001:0020"},"geometry":{"type":"Polygon","coordinates":[[[39.547477,48.311988],[39.547522,48.312076],[39.547746,48.312028],[39.547715,48.311974],[39.547576,48.311986],[39.547477,48.311988]]]}},{"type":"Feature","properties":{"cadnum":"4411446200:02:001:0122"},"geometry":{"type":"Polygon","coordinates":[[[39.546551,48.310528],[39.546557,48.310549],[39.546618,48.310806],[39.546681,48.311063],[39.546938,48.311057],[39.546907,48.3108],[39.546848,48.310717],[39.546812,48.310502],[39.546551,48.310528]]]}},{"type":"Feature","properties":{"cadnum":"4411446200:02:001:0044"},"geometry":{"type":"Polygon","coordinates":[[[39.550406,48.312404],[39.550423,48.312416],[39.550442,48.312404],[39.550423,48.312393],[39.550406,48.312404]]]}},{"type":"Feature","properties":{"cadnum":"4411446200:02:003:0028"},"geometry":{"type":"Polygon","coordinates":[[[39.550446,48.309997],[39.550695,48.310062],[39.550839,48.310099],[39.550867,48.310106],[39.550891,48.310113],[39.551425,48.310241],[39.551497,48.310071],[39.550962,48.309942],[39.550762,48.309885],[39.550572,48.309829],[39.550446,48.309997]]]}},{"type":"Feature","properties":{"cadnum":"4411446200:02:001:0194"},"geometry":{"type":"Polygon","coordinates":[[[39.545487,48.310414],[39.545492,48.31042],[39.545721,48.310394],[39.545721,48.310387],[39.545487,48.310414]]]}},{"type":"Feature","properties":{"cadnum":"4411446200:01:002:0048"},"geometry":{"type":"Polygon","coordinates":[[[39.562285,48.316535],[39.562295,48.316726],[39.562321,48.316881],[39.562824,48.316846],[39.562824,48.316505],[39.562285,48.316535]]]}},{"type":"Feature","properties":{"cadnum":"4411446200:01:002:0084"},"geometry":{"type":"Polygon","coordinates":[[[39.563866,48.316807],[39.563933,48.316828],[39.563966,48.316783],[39.563893,48.316762],[39.563866,48.316807]]]}},{"type":"Feature","properties":{"cadnum":"4411446200:01:003:0074"},"geometry":{"type":"Polygon","coordinates":[[[39.56604,48.315947],[39.566055,48.316069],[39.566054,48.316069],[39.566059,48.316106],[39.566066,48.316183],[39.566067,48.316183],[39.566067,48.316188],[39.566117,48.316305],[39.566144,48.316341],[39.566144,48.316407],[39.566193,48.316622],[39.56644,48.316607],[39.566361,48.316183],[39.566315,48.315932],[39.56604,48.315947]]]}},{"type":"Feature","properties":{"cadnum":"4411446200:01:003:0130"},"geometry":{"type":"Polygon","coordinates":[[[39.564136,48.318038],[39.564163,48.318035],[39.564163,48.318017],[39.564136,48.318019],[39.564136,48.318038]]]}},{"type":"Feature","properties":{"cadnum":"4411446200:01:003:0149"},"geometry":{"type":"Polygon","coordinates":[[[39.564176,48.317446],[39.564182,48.317565],[39.564486,48.317551],[39.564486,48.317434],[39.564176,48.317446]]]}},{"type":"Feature","properties":{"cadnum":"4411446200:01:002:0106"},"geometry":{"type":"Polygon","coordinates":[[[39.562362,48.318716],[39.562402,48.319035],[39.562443,48.319263],[39.562448,48.319296],[39.562757,48.319268],[39.562713,48.318984],[39.562663,48.318692],[39.562362,48.318716]]]}},{"type":"Feature","properties":{"cadnum":"4411446200:01:003:0053"},"geometry":{"type":"Polygon","coordinates":[[[39.565776,48.315977],[39.565789,48.316069],[39.565788,48.316069],[39.56579,48.316075],[39.56581,48.316183],[39.565811,48.316183],[39.565857,48.316413],[39.565914,48.31664],[39.566193,48.316622],[39.566144,48.316407],[39.566144,48.316341],[39.566117,48.316305],[39.566067,48.316188],[39.566059,48.316106],[39.566046,48.315977],[39.565776,48.315977]]]}},{"type":"Feature","properties":{"cadnum":"4411446200:01:002:0062"},"geometry":{"type":"Polygon","coordinates":[[[39.563862,48.319203],[39.563939,48.319743],[39.564208,48.319725],[39.564132,48.31919],[39.563862,48.319203]]]}},{"type":"Feature","properties":{"cadnum":"4411446200:01:003:0140"},"geometry":{"type":"Polygon","coordinates":[[[39.56547,48.319128],[39.56552,48.319358],[39.565556,48.319582],[39.565897,48.31957],[39.565874,48.319394],[39.565847,48.31937],[39.565853,48.31934],[39.565824,48.31911],[39.56547,48.319128]]]}},{"type":"Feature","properties":{"cadnum":"4411446200:01:002:0096"},"geometry":{"type":"Polygon","coordinates":[[[39.563679,48.317966],[39.563679,48.318005],[39.563683,48.318074],[39.563687,48.318166],[39.563687,48.318167],[39.563679,48.318175],[39.5637,48.3183],[39.563817,48.318291],[39.564128,48.318249],[39.564149,48.31822],[39.564123,48.31801],[39.564119,48.317942],[39.563679,48.317966]]]}},{"type":"Feature","properties":{"cadnum":"4411446200:01:003:0139"},"geometry":{"type":"Polygon","coordinates":[[[39.566027,48.318417],[39.566103,48.31905],[39.56627,48.319026],[39.566239,48.318772],[39.566333,48.318763],[39.566274,48.31851],[39.566377,48.318497],[39.56635,48.318384],[39.566027,48.318417]]]}},{"type":"Feature","properties":{"cadnum":"4411446200:01:003:0148"},"geometry":{"type":"Polygon","coordinates":[[[39.564141,48.316927],[39.564176,48.317446],[39.564486,48.317434],[39.564495,48.317184],[39.564514,48.317184],[39.564514,48.31707],[39.564528,48.316912],[39.564141,48.316927]]]}},{"type":"Feature","properties":{"cadnum":"4411446200:01:002:0105"},"geometry":{"type":"Polygon","coordinates":[[[39.562474,48.316069],[39.562489,48.316183],[39.56249,48.316183],[39.562501,48.316261],[39.56256,48.316458],[39.562838,48.316436],[39.562798,48.316263],[39.562784,48.316237],[39.562753,48.316082],[39.562753,48.316081],[39.56274,48.316042],[39.562474,48.316069]]]}},{"type":"Feature","properties":{"cadnum":"4411446200:01:003:0151"},"geometry":{"type":"Polygon","coordinates":[[[39.566103,48.31905],[39.566157,48.319349],[39.566166,48.319396],[39.566176,48.319445],[39.566176,48.319564],[39.566197,48.319564],[39.566373,48.319558],[39.566522,48.319549],[39.566486,48.319343],[39.566463,48.319148],[39.566427,48.31902],[39.566427,48.319006],[39.566419,48.319006],[39.56627,48.319026],[39.566103,48.31905]]]}},{"type":"Feature","properties":{"cadnum":"4411446200:01:002:0049"},"geometry":{"type":"Polygon","coordinates":[[[39.562285,48.316535],[39.562824,48.316505],[39.56283,48.31644],[39.562574,48.316452],[39.562285,48.316469],[39.562285,48.316535]]]}},{"type":"Feature","properties":{"cadnum":"4411446200:01:002:0064"},"geometry":{"type":"Polygon","coordinates":[[[39.561823,48.318772],[39.561895,48.319217],[39.562291,48.31919],[39.562258,48.318975],[39.562237,48.31874],[39.561823,48.318772]]]}},{"type":"Feature","properties":{"cadnum":"4411446200:01:002:0102"},"geometry":{"type":"Polygon","coordinates":[[[39.562209,48.316088],[39.562226,48.316183],[39.562227,48.316183],[39.562241,48.316257],[39.562237,48.316257],[39.562277,48.316469],[39.562304,48.316467],[39.56256,48.316458],[39.562501,48.316261],[39.562474,48.316069],[39.562209,48.316088]]]}},{"type":"Feature","properties":{"cadnum":"4411446200:01:001:0058"},"geometry":{"type":"Polygon","coordinates":[[[39.559173,48.310943],[39.559308,48.311233],[39.559604,48.311138],[39.559537,48.311069],[39.559537,48.311066],[39.559515,48.311033],[39.559492,48.310989],[39.559425,48.310919],[39.559415,48.310923],[39.559371,48.310874],[39.559173,48.310943]]]}},{"type":"Feature","properties":{"cadnum":"4411446200:03:002:0007"},"geometry":{"type":"Polygon","coordinates":[[[39.557736,48.310456],[39.558266,48.31048],[39.558293,48.310349],[39.558216,48.310334],[39.558253,48.31017],[39.55801,48.310134],[39.557803,48.310119],[39.557736,48.310456]]]}},{"type":"Feature","properties":{"cadnum":"4411446200:01:001:0052"},"geometry":{"type":"Polygon","coordinates":[[[39.560054,48.310624],[39.560084,48.310657],[39.560161,48.310734],[39.56027,48.310866],[39.560346,48.310949],[39.560377,48.310985],[39.560606,48.310857],[39.560484,48.310746],[39.560296,48.310585],[39.56022,48.310519],[39.560054,48.310624]]]}},{"type":"Feature","properties":{"cadnum":"4411446200:03:002:0030"},"geometry":{"type":"Polygon","coordinates":[[[39.56123,48.309781],[39.561283,48.309787],[39.561293,48.309772],[39.561235,48.309763],[39.56123,48.309781]]]}},{"type":"Feature","properties":{"cadnum":"4411446200:01:002:0020"},"geometry":{"type":"Polygon","coordinates":[[[39.56066,48.312252],[39.561118,48.3123],[39.56119,48.311962],[39.560723,48.311935],[39.56066,48.312252]]]}},{"type":"Feature","properties":{"cadnum":"4411446200:01:002:0097"},"geometry":{"type":"Polygon","coordinates":[[[39.560723,48.311935],[39.561,48.31195],[39.56105,48.311807],[39.56109,48.311666],[39.560817,48.311669],[39.560723,48.311935]]]}},{"type":"Feature","properties":{"cadnum":"4411446200:03:002:0036"},"geometry":{"type":"Polygon","coordinates":[[[39.557799,48.30907],[39.557826,48.309076],[39.557834,48.309061],[39.557807,48.309056],[39.557799,48.30907]]]}},{"type":"Feature","properties":{"cadnum":"4411446200:01:002:0061"},"geometry":{"type":"Polygon","coordinates":[[[39.559941,48.311212],[39.560174,48.311505],[39.560184,48.31152],[39.56044,48.311469],[39.560188,48.31108],[39.560035,48.311153],[39.559941,48.311212]]]}},{"type":"Feature","properties":{"cadnum":"4411446200:01:002:0009"},"geometry":{"type":"Polygon","coordinates":[[[39.560566,48.312649],[39.560907,48.312691],[39.561222,48.312727],[39.561279,48.312512],[39.560934,48.312473],[39.56062,48.312437],[39.560595,48.31253],[39.560596,48.31253],[39.560566,48.312649]]]}},{"type":"Feature","properties":{"cadnum":"4411446200:01:002:0019"},"geometry":{"type":"Polygon","coordinates":[[[39.561118,48.3123],[39.56132,48.31232],[39.561549,48.312344],[39.561576,48.312171],[39.561356,48.312147],[39.561405,48.311974],[39.561415,48.311941],[39.561195,48.311926],[39.56119,48.311962],[39.561118,48.3123]]]}},{"type":"Feature","properties":{"cadnum":"4411446200:01:001:0017"},"geometry":{"type":"Polygon","coordinates":[[[39.557785,48.312425],[39.557977,48.312473],[39.558144,48.312515],[39.558211,48.31253],[39.558212,48.31253],[39.55853,48.312601],[39.55854,48.312599],[39.558603,48.312488],[39.558545,48.312473],[39.558477,48.312455],[39.558419,48.31244],[39.557889,48.312296],[39.557792,48.312416],[39.557791,48.312416],[39.557785,48.312425]]]}},{"type":"Feature","properties":{"cadnum":"4411446200:01:002:0003"},"geometry":{"type":"Polygon","coordinates":[[[39.557031,48.307562],[39.557228,48.307938],[39.557601,48.308443],[39.557848,48.308679],[39.557959,48.308762],[39.558007,48.308798],[39.558113,48.308876],[39.558114,48.308876],[39.558199,48.308939],[39.558297,48.309023],[39.559088,48.309477],[39.559461,48.309596],[39.560152,48.309758],[39.560794,48.309862],[39.561105,48.309891],[39.561581,48.309883],[39.561682,48.309874],[39.561682,48.309875],[39.561828,48.309862],[39.561853,48.309859],[39.562595,48.309793],[39.563211,48.30971],[39.564172,48.309575],[39.565061,48.309572],[39.565578,48.309575],[39.566598,48.309575],[39.566984,48.309581],[39.567175,48.309589],[39.567191,48.30959],[39.567347,48.309596],[39.567591,48.309605],[39.570424,48.309596],[39.571413,48.309408],[39.571476,48.309396],[39.571642,48.309369],[39.571656,48.309369],[39.571637,48.309313],[39.571583,48.309318],[39.571462,48.309336],[39.57139,48.309348],[39.570411,48.309506],[39.567595,48.309515],[39.567347,48.309521],[39.567347,48.30952],[39.567667,48.309486],[39.56813,48.309399],[39.568763,48.309223],[39.569172,48.309082],[39.569516,48.308945],[39.569642,48.308876],[39.569643,48.308876],[39.569862,48.308757],[39.570384,48.308476],[39.57064,48.308339],[39.571098,48.308162],[39.57156,48.308091],[39.572059,48.308018],[39.572256,48.308007],[39.572256,48.307953],[39.572042,48.307965],[39.571543,48.308037],[39.57109,48.308106],[39.570573,48.308279],[39.570308,48.308422],[39.569782,48.308703],[39.56947,48.308876],[39.56947,48.308877],[39.569449,48.308888],[39.569117,48.309019],[39.568713,48.309157],[39.568088,48.30933],[39.567644,48.309414],[39.567305,48.309464],[39.566984,48.30951],[39.566593,48.309519],[39.565587,48.309501],[39.565065,48.309497],[39.564149,48.309515],[39.563633,48.30959],[39.562591,48.309731],[39.561854,48.309787],[39.561853,48.309787],[39.561853,48.309786],[39.561603,48.309805],[39.561118,48.309826],[39.560803,48.309787],[39.560207,48.309689],[39.559524,48.309519],[39.559155,48.309417],[39.558413,48.308968],[39.558283,48.308861],[39.558274,48.308853],[39.557933,48.30858],[39.557704,48.308377],[39.557354,48.30789],[39.557251,48.30767],[39.557044,48.307272],[39.557031,48.307562]]]}},{"type":"Feature","properties":{"cadnum":"4411446200:01:002:0017"},"geometry":{"type":"Polygon","coordinates":[[[39.56105,48.311807],[39.561603,48.311791],[39.561682,48.311786],[39.561682,48.311787],[39.561684,48.311786],[39.561684,48.311771],[39.561685,48.311771],[39.561733,48.311771],[39.56176,48.311786],[39.561853,48.311785],[39.561854,48.311785],[39.561998,48.311782],[39.562008,48.311675],[39.562008,48.311636],[39.562012,48.311627],[39.561854,48.311634],[39.561853,48.311634],[39.561853,48.311633],[39.561329,48.311654],[39.56109,48.311666],[39.561082,48.311708],[39.56105,48.311807]]]}},{"type":"Feature","properties":{"cadnum":"4411446200:02:003:0002"},"geometry":{"type":"Polygon","coordinates":[[[39.55245,48.311344],[39.552539,48.311415],[39.552651,48.311505],[39.553092,48.311257],[39.553635,48.310947],[39.554915,48.31042],[39.555674,48.310048],[39.555908,48.309865],[39.556188,48.309642],[39.556189,48.309642],[39.556189,48.309643],[39.556213,48.309623],[39.55636,48.309461],[39.55636,48.30946],[39.556518,48.309286],[39.556738,48.308927],[39.556756,48.308873],[39.556869,48.308523],[39.557031,48.307562],[39.557044,48.307272],[39.557111,48.306695],[39.557138,48.30587],[39.557121,48.305416],[39.557008,48.305166],[39.556761,48.304703],[39.556492,48.304222],[39.556189,48.303613],[39.556188,48.303613],[39.556115,48.303465],[39.555853,48.303513],[39.556189,48.304187],[39.556189,48.304188],[39.556236,48.304282],[39.55636,48.304503],[39.55636,48.304502],[39.556509,48.304765],[39.556693,48.305108],[39.556693,48.305109],[39.556692,48.305109],[39.556691,48.305109],[39.556752,48.305219],[39.556753,48.305223],[39.556855,48.305458],[39.556932,48.305907],[39.556905,48.306866],[39.556847,48.307242],[39.556721,48.307777],[39.556604,48.308494],[39.556515,48.308762],[39.556514,48.308762],[39.556478,48.308873],[39.556476,48.308876],[39.556476,48.308877],[39.556276,48.309205],[39.555993,48.309519],[39.5557,48.309749],[39.55549,48.309913],[39.554763,48.310271],[39.553455,48.310806],[39.553392,48.310841],[39.552907,48.311089],[39.55245,48.311344]]]}},{"type":"Feature","properties":{"cadnum":"4411446200:01:001:0091"},"geometry":{"type":"Polygon","coordinates":[[[39.559425,48.310881],[39.559469,48.310929],[39.559478,48.310925],[39.559541,48.310998],[39.559559,48.311042],[39.559582,48.311075],[39.559582,48.311078],[39.559645,48.311146],[39.559752,48.311266],[39.559991,48.311129],[39.559968,48.311105],[39.559797,48.310961],[39.559622,48.310803],[39.559511,48.310845],[39.55951,48.310845],[39.559474,48.310863],[39.559438,48.310874],[39.559425,48.310881]]]}},{"type":"Feature","properties":{"cadnum":"4411446200:03:002:0038"},"geometry":{"type":"Polygon","coordinates":[[[39.556578,48.309247],[39.556604,48.309271],[39.556586,48.30928],[39.556599,48.309295],[39.556662,48.309264],[39.556649,48.309253],[39.556626,48.309262],[39.556599,48.309238],[39.556578,48.309247]]]}},{"type":"Feature","properties":{"cadnum":"4411446200:03:002:0032"},"geometry":{"type":"Polygon","coordinates":[[[39.560251,48.309626],[39.560274,48.309629],[39.560278,48.309611],[39.560256,48.309608],[39.560251,48.309626]]]}},{"type":"Feature","properties":{"cadnum":"4411446200:03:002:0035"},"geometry":{"type":"Polygon","coordinates":[[[39.55854,48.309256],[39.558566,48.309262],[39.558576,48.309244],[39.558549,48.309238],[39.55854,48.309256]]]}},{"type":"Feature","properties":{"cadnum":"4411446200:03:002:0033"},"geometry":{"type":"Polygon","coordinates":[[[39.559622,48.309543],[39.559645,48.309552],[39.559681,48.309501],[39.559654,48.309495],[39.559622,48.309543]]]}},{"type":"Feature","properties":{"cadnum":"4411446200:03:002:0031"},"geometry":{"type":"Polygon","coordinates":[[[39.560732,48.309701],[39.560759,48.309707],[39.560763,48.309689],[39.560736,48.309685],[39.560732,48.309701]]]}},{"type":"Feature","properties":{"cadnum":"4411446200:03:002:0034"},"geometry":{"type":"Polygon","coordinates":[[[39.559169,48.309411],[39.559191,48.309417],[39.559199,48.309402],[39.559178,48.309396],[39.559169,48.309411]]]}},{"type":"Feature","properties":{"cadnum":"4411446200:01:001:0021"},"geometry":{"type":"Polygon","coordinates":[[[39.557211,48.312661],[39.557408,48.312703],[39.557601,48.312515],[39.557453,48.312473],[39.557421,48.312464],[39.55735,48.31253],[39.557211,48.312661]]]}},{"type":"Feature","properties":{"cadnum":"4411446200:01:001:0053"},"geometry":{"type":"Polygon","coordinates":[[[39.559622,48.310803],[39.559797,48.310961],[39.559968,48.311105],[39.560346,48.310949],[39.56027,48.310866],[39.560161,48.310734],[39.560084,48.310657],[39.560054,48.310624],[39.559622,48.310803]]]}},{"type":"Feature","properties":{"cadnum":"4411446200:01:002:0067"},"geometry":{"type":"Polygon","coordinates":[[[39.559199,48.312559],[39.559456,48.312623],[39.559924,48.312709],[39.559968,48.312583],[39.559987,48.312526],[39.559734,48.312482],[39.559686,48.312473],[39.559555,48.312449],[39.559511,48.312443],[39.55951,48.312443],[39.559317,48.312401],[39.559305,48.312416],[39.559304,48.312416],[39.559285,48.312437],[39.559259,48.312473],[39.559222,48.312524],[39.559218,48.31253],[39.559199,48.312559]]]}},{"type":"Feature","properties":{"cadnum":"4411446200:03:002:0037"},"geometry":{"type":"Polygon","coordinates":[[[39.557098,48.308873],[39.557121,48.308918],[39.557143,48.308912],[39.557125,48.308868],[39.557098,48.308873]]]}},{"type":"Feature","properties":{"cadnum":"4411446200:01:002:0018"},"geometry":{"type":"Polygon","coordinates":[[[39.561356,48.312147],[39.561576,48.312171],[39.561549,48.312344],[39.561682,48.312357],[39.561682,48.312358],[39.561825,48.312371],[39.561853,48.312374],[39.561854,48.312374],[39.561922,48.31238],[39.561962,48.312129],[39.561981,48.311983],[39.561717,48.311985],[39.561643,48.311986],[39.561405,48.311974],[39.561356,48.312147]]]}},{"type":"Feature","properties":{"cadnum":"4411446200:03:002:0014"},"geometry":{"type":"Polygon","coordinates":[[[39.556653,48.310896],[39.556887,48.310905],[39.556895,48.3108],[39.556662,48.310791],[39.556653,48.310896]]]}},{"type":"Feature","properties":{"cadnum":"4411446200:03:002:0016"},"geometry":{"type":"Polygon","coordinates":[[[39.56004,48.309539],[39.560561,48.309569],[39.560579,48.309435],[39.560058,48.309404],[39.56004,48.309539]]]}},{"type":"Feature","properties":{"cadnum":"4411446200:04:001:0033"},"geometry":{"type":"Polygon","coordinates":[[[39.570078,48.287144],[39.570082,48.287192],[39.570155,48.287192],[39.570155,48.287141],[39.570078,48.287144]]]}},{"type":"Feature","properties":{"cadnum":"4411446200:01:003:0006"},"geometry":{"type":"Polygon","coordinates":[[[39.576057,48.317987],[39.576061,48.31801],[39.576111,48.318226],[39.576336,48.318172],[39.576547,48.318142],[39.576501,48.31797],[39.576501,48.317969],[39.576762,48.317945],[39.576636,48.317497],[39.576371,48.317521],[39.576493,48.317945],[39.576057,48.317987]]]}},{"type":"Feature","properties":{"cadnum":"4411446200:01:004:0103"},"geometry":{"type":"Polygon","coordinates":[[[39.57568,48.31598],[39.575747,48.316069],[39.575746,48.316069],[39.575801,48.316141],[39.575849,48.316126],[39.575981,48.316084],[39.576097,48.316042],[39.576457,48.315905],[39.576331,48.315747],[39.57568,48.31598]]]}},{"type":"Feature","properties":{"cadnum":"4411446200:01:003:0005"},"geometry":{"type":"Polygon","coordinates":[[[39.575971,48.31756],[39.576057,48.317987],[39.576493,48.317945],[39.576371,48.317521],[39.575971,48.31756]]]}},{"type":"Feature","properties":{"cadnum":"4411446200:01:003:0146"},"geometry":{"type":"Polygon","coordinates":[[[39.574436,48.316568],[39.574499,48.316831],[39.574507,48.316903],[39.574499,48.317153],[39.57453,48.317243],[39.574556,48.317315],[39.574818,48.317291],[39.574705,48.316804],[39.57466,48.316547],[39.574436,48.316568]]]}},{"type":"Feature","properties":{"cadnum":"4411446200:01:004:0118"},"geometry":{"type":"Polygon","coordinates":[[[39.577239,48.316419],[39.577306,48.316652],[39.577629,48.316589],[39.577826,48.316544],[39.577818,48.316514],[39.577786,48.316314],[39.577692,48.316323],[39.577239,48.316419]]]}},{"type":"Feature","properties":{"cadnum":"4411446200:01:004:0099"},"geometry":{"type":"Polygon","coordinates":[[[39.576327,48.316658],[39.576479,48.316807],[39.576537,48.316783],[39.576632,48.316748],[39.577053,48.316607],[39.576893,48.316422],[39.576537,48.316559],[39.576327,48.316658]]]}},{"type":"Feature","properties":{"cadnum":"4411446200:01:003:0092"},"geometry":{"type":"Polygon","coordinates":[[[39.574265,48.317676],[39.574336,48.318187],[39.574686,48.318158],[39.574623,48.317649],[39.574265,48.317676]]]}},{"type":"Feature","properties":{"cadnum":"4411446200:01:003:0141"},"geometry":{"type":"Polygon","coordinates":[[[39.574912,48.317649],[39.575032,48.318187],[39.575091,48.318423],[39.575279,48.318402],[39.575212,48.318116],[39.575154,48.317868],[39.575069,48.31764],[39.574912,48.317649]]]}},{"type":"Feature","properties":{"cadnum":"4411446200:01:003:0090"},"geometry":{"type":"Polygon","coordinates":[[[39.572728,48.316574],[39.572751,48.31695],[39.572791,48.316947],[39.57284,48.316944],[39.57284,48.316943],[39.573147,48.316918],[39.573111,48.316649],[39.573331,48.316633],[39.573353,48.31661],[39.573357,48.316556],[39.573101,48.316584],[39.573101,48.316583],[39.573074,48.316553],[39.572728,48.316574]]]}},{"type":"Feature","properties":{"cadnum":"4411446200:01:004:0120"},"geometry":{"type":"Polygon","coordinates":[[[39.577894,48.315991],[39.577911,48.316069],[39.57791,48.316069],[39.577925,48.316135],[39.577935,48.316183],[39.577948,48.316246],[39.578333,48.316207],[39.578451,48.316195],[39.578447,48.31618],[39.578648,48.316165],[39.578594,48.315911],[39.578212,48.315955],[39.577894,48.315991]]]}},{"type":"Feature","properties":{"cadnum":"4411446200:01:003:0100"},"geometry":{"type":"Polygon","coordinates":[[[39.564073,48.311714],[39.564182,48.311717],[39.564186,48.31164],[39.564082,48.311633],[39.564073,48.311714]]]}},{"type":"Feature","properties":{"cadnum":"4411446200:03:002:0063"},"geometry":{"type":"Polygon","coordinates":[[[39.56287,48.308915],[39.562991,48.30913],[39.56292,48.309145],[39.562996,48.309313],[39.563099,48.309519],[39.563264,48.309446],[39.563085,48.309136],[39.563085,48.309118],[39.563063,48.309082],[39.563044,48.309088],[39.562968,48.308981],[39.562964,48.308981],[39.562924,48.308906],[39.56287,48.308915]]]}},{"type":"Feature","properties":{"cadnum":"4411446200:03:002:0010"},"geometry":{"type":"Polygon","coordinates":[[[39.563427,48.310544],[39.563503,48.310644],[39.563858,48.310731],[39.564325,48.310791],[39.564321,48.3108],[39.564455,48.310818],[39.564442,48.310866],[39.564522,48.310874],[39.564536,48.310827],[39.564617,48.310836],[39.564617,48.31083],[39.564618,48.31083],[39.565232,48.310901],[39.565313,48.310337],[39.565273,48.310164],[39.565254,48.310143],[39.565147,48.309543],[39.565035,48.309545],[39.565035,48.309539],[39.564212,48.30959],[39.563593,48.309644],[39.563453,48.309698],[39.563472,48.310438],[39.563427,48.310544]]]}},{"type":"Feature","properties":{"cadnum":"4411446200:01:003:0142"},"geometry":{"type":"Polygon","coordinates":[[[39.566077,48.312338],[39.566239,48.312335],[39.566306,48.312338],[39.566486,48.312342],[39.566499,48.312207],[39.56649,48.312207],[39.566495,48.312123],[39.566495,48.311998],[39.566144,48.311986],[39.566126,48.311986],[39.566086,48.312222],[39.56609,48.312234],[39.566086,48.312287],[39.566077,48.312338]]]}},{"type":"Feature","properties":{"cadnum":"4411446200:01:003:0104"},"geometry":{"type":"Polygon","coordinates":[[[39.566543,48.311917],[39.566606,48.31192],[39.566606,48.311857],[39.566549,48.311857],[39.566543,48.311917]]]}},{"type":"Feature","properties":{"cadnum":"4411446200:01:002:0014"},"geometry":{"type":"Polygon","coordinates":[[[39.562698,48.311744],[39.562698,48.31178],[39.562807,48.31178],[39.562807,48.311744],[39.562698,48.311744]]]}},{"type":"Feature","properties":{"cadnum":"4411446200:03:001:0073"},"geometry":{"type":"Polygon","coordinates":[[[39.559524,48.304446],[39.559555,48.304694],[39.559559,48.30478],[39.559587,48.304878],[39.559918,48.304869],[39.559905,48.304681],[39.559883,48.304437],[39.559524,48.304446]]]}},{"type":"Feature","properties":{"cadnum":"4411446200:01:003:0068"},"geometry":{"type":"Polygon","coordinates":[[[39.571394,48.314193],[39.571457,48.31437],[39.571875,48.31431],[39.572208,48.314271],[39.572158,48.314089],[39.572113,48.314095],[39.572109,48.314083],[39.57196,48.314104],[39.571965,48.314116],[39.571933,48.314118],[39.571938,48.314137],[39.571898,48.314142],[39.571893,48.314116],[39.571853,48.314122],[39.571857,48.314133],[39.571857,48.314134],[39.571727,48.314155],[39.571727,48.314149],[39.571394,48.314193]]]}},{"type":"Feature","properties":{"cadnum":"4411446200:01:003:0084"},"geometry":{"type":"Polygon","coordinates":[[[39.571027,48.313721],[39.571031,48.313739],[39.571057,48.313733],[39.571049,48.313719],[39.571027,48.313721]]]}},{"type":"Feature","properties":{"cadnum":"4411446200:01:003:0091"},"geometry":{"type":"Polygon","coordinates":[[[39.56844,48.314292],[39.568799,48.315245],[39.568979,48.315517],[39.568924,48.315893],[39.569166,48.315872],[39.569172,48.315896],[39.569202,48.316069],[39.569201,48.316069],[39.569211,48.316122],[39.569221,48.316183],[39.569222,48.316183],[39.569275,48.316478],[39.570455,48.316073],[39.570455,48.316072],[39.57051,48.315914],[39.570537,48.31532],[39.571233,48.314561],[39.571098,48.314125],[39.570937,48.313644],[39.569778,48.313677],[39.569235,48.313737],[39.5687,48.313802],[39.568493,48.313907],[39.56844,48.314292]],[[39.571004,48.314645],[39.571004,48.314644],[39.571017,48.314629],[39.57104,48.314638],[39.571027,48.314653],[39.571026,48.314653],[39.571004,48.314645]],[[39.570635,48.315],[39.570658,48.314991],[39.570703,48.315045],[39.570681,48.315054],[39.570635,48.315]],[[39.570317,48.315134],[39.570407,48.315114],[39.570415,48.315131],[39.570415,48.315132],[39.570325,48.315152],[39.570317,48.315134]],[[39.570137,48.315152],[39.570138,48.315152],[39.570235,48.315143],[39.570254,48.315221],[39.570151,48.31523],[39.570137,48.315152]]]}},{"type":"Feature","properties":{"cadnum":"4411446200:01:003:0087"},"geometry":{"type":"Polygon","coordinates":[[[39.571004,48.314645],[39.571027,48.314654],[39.571027,48.314653],[39.57104,48.314638],[39.571017,48.314629],[39.571004,48.314645]]]}},{"type":"Feature","properties":{"cadnum":"4411446200:01:003:0066"},"geometry":{"type":"Polygon","coordinates":[[[39.567365,48.315302],[39.567554,48.315326],[39.567797,48.315371],[39.567855,48.315376],[39.567908,48.315066],[39.567505,48.315008],[39.567469,48.315054],[39.567428,48.315152],[39.567398,48.315152],[39.567365,48.315302]]]}},{"type":"Feature","properties":{"cadnum":"4411446200:01:003:0081"},"geometry":{"type":"Polygon","coordinates":[[[39.570738,48.312888],[39.570744,48.312906],[39.57077,48.3129],[39.570766,48.312885],[39.570738,48.312888]]]}},{"type":"Feature","properties":{"cadnum":"4411446200:01:003:0025"},"geometry":{"type":"Polygon","coordinates":[[[39.569944,48.313321],[39.569975,48.31336],[39.570074,48.313325],[39.570119,48.313345],[39.570208,48.313336],[39.570262,48.313288],[39.570249,48.313226],[39.570214,48.31321],[39.570249,48.313166],[39.570222,48.313157],[39.570191,48.313199],[39.570172,48.31319],[39.570082,48.313199],[39.570029,48.31325],[39.570038,48.313288],[39.569944,48.313321]]]}},{"type":"Feature","properties":{"cadnum":"4411446200:01:003:0034"},"geometry":{"type":"Polygon","coordinates":[[[39.570335,48.312278],[39.570348,48.312311],[39.570371,48.312309],[39.57038,48.312333],[39.570352,48.312335],[39.570371,48.31238],[39.570402,48.312375],[39.570417,48.312416],[39.570416,48.312416],[39.570424,48.312434],[39.570424,48.312435],[39.570415,48.31244],[39.570425,48.312473],[39.570434,48.312503],[39.570407,48.312506],[39.570416,48.31253],[39.570417,48.31253],[39.57042,48.312539],[39.570447,48.312533],[39.570497,48.312685],[39.57047,48.312688],[39.570478,48.312712],[39.570505,48.312709],[39.570514,48.312732],[39.570491,48.312736],[39.570524,48.312822],[39.570648,48.312801],[39.570541,48.312485],[39.570541,48.312484],[39.570564,48.312482],[39.570541,48.312413],[39.570514,48.312416],[39.570505,48.31238],[39.570528,48.312377],[39.570514,48.312335],[39.570488,48.312338],[39.570487,48.312338],[39.570442,48.312207],[39.570394,48.31221],[39.570344,48.312222],[39.570361,48.312276],[39.570335,48.312278]]]}},{"type":"Feature","properties":{"cadnum":"4411446200:01:003:0143"},"geometry":{"type":"Polygon","coordinates":[[[39.57112,48.313402],[39.571233,48.313721],[39.571453,48.313686],[39.571436,48.313626],[39.571489,48.313617],[39.571476,48.313581],[39.571426,48.31359],[39.571399,48.313513],[39.571336,48.313369],[39.57112,48.313402]]]}},{"type":"Feature","properties":{"cadnum":"4411446200:01:003:0083"},"geometry":{"type":"Polygon","coordinates":[[[39.570923,48.313429],[39.570931,48.313444],[39.570954,48.313441],[39.57095,48.313423],[39.570923,48.313429]]]}},{"type":"Feature","properties":{"cadnum":"4411446200:01:003:0107"},"geometry":{"type":"Polygon","coordinates":[[[39.570137,48.315152],[39.570151,48.31523],[39.570254,48.315221],[39.570235,48.315143],[39.570137,48.315152]]]}},{"type":"Feature","properties":{"cadnum":"4411446200:01:003:0076"},"geometry":{"type":"Polygon","coordinates":[[[39.570608,48.312888],[39.570627,48.31296],[39.570694,48.312954],[39.570677,48.312882],[39.570608,48.312888]]]}},{"type":"Feature","properties":{"cadnum":"4411446200:01:003:0080"},"geometry":{"type":"Polygon","coordinates":[[[39.570631,48.312577],[39.57064,48.312592],[39.570663,48.31259],[39.570658,48.312572],[39.570631,48.312577]]]}},{"type":"Feature","properties":{"cadnum":"4411446200:01:003:0088"},"geometry":{"type":"Polygon","coordinates":[[[39.570635,48.315],[39.570681,48.315054],[39.570703,48.315045],[39.570658,48.314991],[39.570635,48.315]]]}},{"type":"Feature","properties":{"cadnum":"4411446200:01:003:0085"},"geometry":{"type":"Polygon","coordinates":[[[39.571116,48.313987],[39.57112,48.314005],[39.571147,48.314002],[39.571143,48.313985],[39.571116,48.313987]]]}},{"type":"Feature","properties":{"cadnum":"4411446200:01:003:0086"},"geometry":{"type":"Polygon","coordinates":[[[39.571174,48.314346],[39.571174,48.314364],[39.571269,48.31437],[39.571269,48.314352],[39.571174,48.314346]]]}},{"type":"Feature","properties":{"cadnum":"4411446200:01:003:0089"},"geometry":{"type":"Polygon","coordinates":[[[39.570317,48.315134],[39.570325,48.315152],[39.570415,48.315132],[39.570407,48.315114],[39.570317,48.315134]]]}},{"type":"Feature","properties":{"cadnum":"4411446200:01:003:0082"},"geometry":{"type":"Polygon","coordinates":[[[39.570824,48.313139],[39.570828,48.313154],[39.570856,48.313151],[39.570851,48.313133],[39.570824,48.313139]]]}},{"type":"Feature","properties":{"cadnum":"4411446200:01:003:0152"},"geometry":{"type":"Polygon","coordinates":[[[39.571956,48.315666],[39.572019,48.315953],[39.572644,48.315881],[39.572698,48.31566],[39.572459,48.315648],[39.572346,48.315654],[39.572243,48.315652],[39.572032,48.315657],[39.571956,48.315666]]]}},{"type":"Feature","properties":{"cadnum":"4411446200:01:004:0068"},"geometry":{"type":"Polygon","coordinates":[[[39.581904,48.31388],[39.582516,48.313921],[39.582453,48.313686],[39.581946,48.31365],[39.581904,48.31388]]]}},{"type":"Feature","properties":{"cadnum":"4411446200:01:004:0023"},"geometry":{"type":"Polygon","coordinates":[[[39.578824,48.313031],[39.57925,48.313049],[39.579344,48.312829],[39.579233,48.312805],[39.578864,48.312756],[39.578824,48.313031]]]}},{"type":"Feature","properties":{"cadnum":"4411446200:01:004:0104"},"geometry":{"type":"Polygon","coordinates":[[[39.578365,48.312132],[39.578474,48.312123],[39.578644,48.312099],[39.578657,48.312198],[39.578644,48.312207],[39.578635,48.312222],[39.578635,48.312227],[39.578635,48.312228],[39.578604,48.312231],[39.578617,48.312302],[39.57864,48.312384],[39.578649,48.312416],[39.578648,48.312416],[39.578667,48.312475],[39.578687,48.312473],[39.578734,48.312467],[39.57891,48.312449],[39.57891,48.312425],[39.578896,48.312327],[39.578914,48.312327],[39.578927,48.312219],[39.578981,48.312076],[39.578994,48.312025],[39.578474,48.312087],[39.578474,48.312081],[39.578374,48.31209],[39.578365,48.312132]]]}},{"type":"Feature","properties":{"cadnum":"4411446200:01:004:0117"},"geometry":{"type":"Polygon","coordinates":[[[39.582552,48.315329],[39.582579,48.315606],[39.582893,48.31561],[39.583185,48.315619],[39.583145,48.31546],[39.583131,48.315409],[39.583122,48.3154],[39.583009,48.315388],[39.582808,48.315353],[39.582552,48.315329]]]}},{"type":"Feature","properties":{"cadnum":"4411446200:01:004:0121"},"geometry":{"type":"Polygon","coordinates":[[[39.578594,48.315911],[39.578628,48.316069],[39.578627,48.316069],[39.578648,48.316165],[39.578734,48.316159],[39.57872,48.316057],[39.578716,48.315995],[39.578703,48.315968],[39.578703,48.315899],[39.578594,48.315911]]]}},{"type":"Feature","properties":{"cadnum":"4411446200:01:004:0067"},"geometry":{"type":"Polygon","coordinates":[[[39.581132,48.313826],[39.581904,48.31388],[39.581946,48.31365],[39.581739,48.313638],[39.581334,48.313596],[39.581204,48.313578],[39.581155,48.313671],[39.581132,48.313826]]]}},{"type":"Feature","properties":{"cadnum":"4411446200:01:004:0024"},"geometry":{"type":"Polygon","coordinates":[[[39.578873,48.312756],[39.579241,48.312807],[39.579349,48.312834],[39.57947,48.312581],[39.579376,48.312574],[39.578904,48.312574],[39.578873,48.312756]]]}},{"type":"Feature","properties":{"cadnum":"4411446200:01:004:0078"},"geometry":{"type":"Polygon","coordinates":[[[39.578891,48.312431],[39.578891,48.312574],[39.579363,48.312568],[39.579453,48.312574],[39.579508,48.312435],[39.579537,48.312362],[39.579462,48.312356],[39.579241,48.31238],[39.578995,48.312416],[39.578994,48.312416],[39.578893,48.312431],[39.578891,48.312431]]]}},{"type":"Feature","properties":{"cadnum":"4411446200:01:004:0127"},"geometry":{"type":"Polygon","coordinates":[[[39.578568,48.315165],[39.578594,48.315344],[39.578999,48.315326],[39.579399,48.315289],[39.579367,48.315114],[39.578568,48.315165]]]}},{"type":"Feature","properties":{"cadnum":"4411446200:03:004:0063"},"geometry":{"type":"Polygon","coordinates":[[[39.567621,48.30515],[39.567622,48.305151],[39.567628,48.305223],[39.567631,48.305249],[39.567631,48.30525],[39.567627,48.305252],[39.56764,48.305407],[39.567644,48.305407],[39.567644,48.305527],[39.567874,48.305518],[39.567864,48.305283],[39.567864,48.305282],[39.5679,48.305279],[39.567895,48.305234],[39.56786,48.305237],[39.567851,48.305142],[39.567622,48.30515],[39.567621,48.30515]]]}},{"type":"Feature","properties":{"cadnum":"4411446200:03:004:0062"},"geometry":{"type":"Polygon","coordinates":[[[39.568143,48.305183],[39.568151,48.305252],[39.568273,48.305243],[39.568264,48.305172],[39.568143,48.305183]]]}},{"type":"Feature","properties":{"cadnum":"4411446200:03:002:0028"},"geometry":{"type":"Polygon","coordinates":[[[39.567617,48.307358],[39.568035,48.307397],[39.568111,48.306968],[39.567694,48.306928],[39.567617,48.307358]]]}},{"type":"Feature","properties":{"cadnum":"4411446200:01:003:0008"},"geometry":{"type":"Polygon","coordinates":[[[39.572256,48.308007],[39.572423,48.307998],[39.572668,48.307988],[39.572668,48.307989],[39.572826,48.307982],[39.57284,48.307982],[39.572881,48.30798],[39.573187,48.307959],[39.573677,48.307869],[39.574094,48.307759],[39.577225,48.306552],[39.577185,48.306504],[39.574059,48.307708],[39.57365,48.307816],[39.573174,48.307902],[39.572872,48.307923],[39.572668,48.307931],[39.572419,48.307941],[39.572256,48.307953],[39.572256,48.308007]]]}},{"type":"Feature","properties":{"cadnum":"4411446200:02:001:0017"},"geometry":{"type":"Polygon","coordinates":[[[39.535624,48.31135],[39.535624,48.311368],[39.535651,48.311368],[39.535651,48.31135],[39.535624,48.31135]]]}},{"type":"Feature","properties":{"cadnum":"4411446200:02:001:0013"},"geometry":{"type":"Polygon","coordinates":[[[39.537942,48.311293],[39.537942,48.311311],[39.537968,48.311311],[39.537968,48.311293],[39.537942,48.311293]]]}},{"type":"Feature","properties":{"cadnum":"4411446200:02:001:0018"},"geometry":{"type":"Polygon","coordinates":[[[39.535045,48.311365],[39.535045,48.311383],[39.535072,48.311383],[39.535072,48.311365],[39.535045,48.311365]]]}},{"type":"Feature","properties":{"cadnum":"4411446200:03:004:0065"},"geometry":{"type":"Polygon","coordinates":[[[39.577818,48.305539],[39.577839,48.305542],[39.577854,48.305596],[39.577988,48.305907],[39.578011,48.305936],[39.578101,48.305916],[39.578161,48.3059],[39.578168,48.305898],[39.578333,48.30584],[39.578333,48.305839],[39.578378,48.305823],[39.578344,48.305497],[39.578284,48.305497],[39.578034,48.305494],[39.577818,48.305509],[39.577818,48.305539]]]}},{"type":"Feature","properties":{"cadnum":"4411446200:01:004:0070"},"geometry":{"type":"Polygon","coordinates":[[[39.581375,48.308688],[39.581407,48.308762],[39.581448,48.308858],[39.581451,48.308864],[39.582004,48.308736],[39.58208,48.308718],[39.582143,48.308703],[39.582193,48.308691],[39.58226,48.308422],[39.581994,48.308503],[39.581604,48.308616],[39.581375,48.308688]]]}},{"type":"Feature","properties":{"cadnum":"4411446200:02:001:0016"},"geometry":{"type":"Polygon","coordinates":[[[39.547571,48.312933],[39.547689,48.313187],[39.547922,48.31356],[39.548151,48.313504],[39.547962,48.31321],[39.547953,48.31321],[39.547792,48.312885],[39.547571,48.312933]]]}},{"type":"Feature","properties":{"cadnum":"4411446200:01:001:0059"},"geometry":{"type":"Polygon","coordinates":[[[39.549054,48.313861],[39.549054,48.313862],[39.549108,48.313901],[39.549125,48.313889],[39.549071,48.31385],[39.549054,48.313861]]]}},{"type":"Feature","properties":{"cadnum":"4411446200:02:001:0045"},"geometry":{"type":"Polygon","coordinates":[[[39.549857,48.312754],[39.54988,48.31276],[39.549893,48.312745],[39.549894,48.312745],[39.549934,48.31276],[39.549943,48.312745],[39.549903,48.31273],[39.549916,48.312718],[39.549893,48.312709],[39.549857,48.312754]]]}},{"type":"Feature","properties":{"cadnum":"4411446200:02:001:0015"},"geometry":{"type":"Polygon","coordinates":[[[39.547302,48.312989],[39.547666,48.313611],[39.547922,48.31356],[39.547689,48.313187],[39.547571,48.312933],[39.547302,48.312989]]]}},{"type":"Feature","properties":{"cadnum":"4411446200:01:001:0019"},"geometry":{"type":"Polygon","coordinates":[[[39.549211,48.31661],[39.549588,48.31675],[39.549408,48.316971],[39.550695,48.317209],[39.550695,48.31721],[39.550815,48.317231],[39.550867,48.31707],[39.550867,48.317069],[39.551098,48.316353],[39.550746,48.316243],[39.550559,48.316183],[39.55056,48.316183],[39.549863,48.315962],[39.549893,48.315905],[39.550014,48.31572],[39.549718,48.315652],[39.549656,48.315774],[39.549489,48.316069],[39.549488,48.316069],[39.549462,48.316117],[39.549424,48.316183],[39.549395,48.316237],[39.549211,48.31661]]]}},{"type":"Feature","properties":{"cadnum":"4411446200:02:001:0131"},"geometry":{"type":"Polygon","coordinates":[[[39.545945,48.312616],[39.546102,48.31288],[39.546246,48.313106],[39.546498,48.313044],[39.546408,48.3129],[39.546201,48.31255],[39.545945,48.312616]]]}},{"type":"Feature","properties":{"cadnum":"4411446200:02:001:0014"},"geometry":{"type":"Polygon","coordinates":[[[39.547922,48.31356],[39.548088,48.313823],[39.548285,48.31371],[39.548151,48.313504],[39.547922,48.31356]]]}},{"type":"Feature","properties":{"cadnum":"4411446200:02:001:0005"},"geometry":{"type":"Polygon","coordinates":[[[39.544872,48.312951],[39.545146,48.313357],[39.545202,48.313344],[39.54522,48.31334],[39.545374,48.313306],[39.545374,48.313305],[39.545473,48.313283],[39.545226,48.312852],[39.545169,48.31288],[39.54489,48.312945],[39.544872,48.312951]]]}},{"type":"Feature","properties":{"cadnum":"4411446200:01:001:0047"},"geometry":{"type":"Polygon","coordinates":[[[39.54909,48.313916],[39.549152,48.313952],[39.549201,48.31391],[39.549138,48.313877],[39.54909,48.313916]]]}},{"type":"Feature","properties":{"cadnum":"4411446200:01:001:0018"},"geometry":{"type":"Polygon","coordinates":[[[39.549718,48.315652],[39.550014,48.31572],[39.550352,48.315191],[39.549956,48.315185],[39.549718,48.315652]]]}},{"type":"Feature","properties":{"cadnum":"4411446200:01:001:0056"},"geometry":{"type":"Polygon","coordinates":[[[39.550643,48.318373],[39.550695,48.318387],[39.550695,48.318388],[39.551056,48.318486],[39.551182,48.318244],[39.550832,48.318178],[39.550643,48.318373]]]}},{"type":"Feature","properties":{"cadnum":"4411446200:01:004:0097"},"geometry":{"type":"Polygon","coordinates":[[[39.552108,48.316183],[39.552324,48.316237],[39.552611,48.316285],[39.552706,48.316299],[39.552817,48.316084],[39.552454,48.316013],[39.552197,48.315977],[39.552157,48.316069],[39.552108,48.316183]]]}},{"type":"Feature","properties":{"cadnum":"4411446200:01:002:0055"},"geometry":{"type":"Polygon","coordinates":[[[39.555126,48.319137],[39.555189,48.319161],[39.555234,48.319104],[39.555167,48.319083],[39.555126,48.319137]]]}},{"type":"Feature","properties":{"cadnum":"4411446200:01:001:0007"},"geometry":{"type":"Polygon","coordinates":[[[39.551106,48.316945],[39.551151,48.317147],[39.551272,48.317153],[39.551272,48.316938],[39.551106,48.316945]]]}},{"type":"Feature","properties":{"cadnum":"4411446200:01:001:0013"},"geometry":{"type":"Polygon","coordinates":[[[39.555413,48.316538],[39.556101,48.316679],[39.556142,48.316616],[39.556132,48.31661],[39.556191,48.316502],[39.555494,48.316368],[39.555413,48.316538]]]}},{"type":"Feature","properties":{"cadnum":"4411446200:01:001:0055"},"geometry":{"type":"Polygon","coordinates":[[[39.551056,48.318486],[39.551358,48.318566],[39.551601,48.318614],[39.551677,48.318632],[39.551748,48.318444],[39.551798,48.31845],[39.551834,48.318357],[39.551182,48.318244],[39.551056,48.318486]]]}},{"type":"Feature","properties":{"cadnum":"4411446200:01:002:0066"},"geometry":{"type":"Polygon","coordinates":[[[39.555616,48.31975],[39.555989,48.319755],[39.556012,48.319214],[39.555674,48.319247],[39.555666,48.319409],[39.555616,48.31975]]]}},{"type":"Feature","properties":{"cadnum":"4411446200:01:001:0006"},"geometry":{"type":"Polygon","coordinates":[[[39.551272,48.317153],[39.551691,48.317171],[39.551695,48.317136],[39.551775,48.317138],[39.551933,48.317144],[39.552018,48.317136],[39.552193,48.316941],[39.552144,48.316941],[39.551982,48.316936],[39.551641,48.316927],[39.551272,48.316938],[39.551272,48.317153]]]}},{"type":"Feature","properties":{"cadnum":"4411446200:02:001:0123"},"geometry":{"type":"Polygon","coordinates":[[[39.544383,48.310675],[39.544423,48.310883],[39.544473,48.311012],[39.5445,48.311155],[39.544769,48.311144],[39.544737,48.310923],[39.544714,48.310848],[39.54471,48.310639],[39.544383,48.310675]]]}},{"type":"Feature","properties":{"cadnum":"4411446200:02:001:0128"},"geometry":{"type":"Polygon","coordinates":[[[39.54245,48.310779],[39.542523,48.311227],[39.542926,48.311215],[39.542855,48.310767],[39.54245,48.310779]]]}},{"type":"Feature","properties":{"cadnum":"4411446200:01:001:0015"},"geometry":{"type":"Polygon","coordinates":[[[39.556936,48.312939],[39.557516,48.313028],[39.55783,48.313058],[39.558131,48.313124],[39.55823,48.313151],[39.558293,48.313031],[39.557924,48.312966],[39.557048,48.312838],[39.556936,48.312939]]]}},{"type":"Feature","properties":{"cadnum":"4411446200:01:002:0107"},"geometry":{"type":"Polygon","coordinates":[[[39.561432,48.315152],[39.561495,48.315577],[39.561682,48.315567],[39.561682,48.315568],[39.561767,48.315563],[39.561853,48.315559],[39.561853,48.315558],[39.561854,48.315558],[39.561912,48.315555],[39.561882,48.315311],[39.561882,48.315242],[39.561868,48.315128],[39.561706,48.315128],[39.561706,48.315149],[39.561432,48.315152]]]}},{"type":"Feature","properties":{"cadnum":"4411446200:01:001:0029"},"geometry":{"type":"Polygon","coordinates":[[[39.556474,48.3135],[39.55686,48.313551],[39.557021,48.313587],[39.557021,48.313582],[39.557022,48.313582],[39.557025,48.313584],[39.557098,48.313444],[39.557111,48.313399],[39.556528,48.313316],[39.556474,48.3135]]]}},{"type":"Feature","properties":{"cadnum":"4411446200:01:001:0041"},"geometry":{"type":"Polygon","coordinates":[[[39.55615,48.315263],[39.556189,48.31527],[39.556189,48.315271],[39.556329,48.315298],[39.55636,48.315305],[39.55636,48.315304],[39.556864,48.315395],[39.556865,48.315395],[39.556968,48.315212],[39.556928,48.315203],[39.556272,48.315078],[39.55615,48.315263]]]}},{"type":"Feature","properties":{"cadnum":"4411446200:01:001:0092"},"geometry":{"type":"Polygon","coordinates":[[[39.556681,48.313351],[39.557115,48.313414],[39.557247,48.313438],[39.557327,48.313219],[39.556775,48.313082],[39.556681,48.313351]]]}},{"type":"Feature","properties":{"cadnum":"4411446200:01:002:0039"},"geometry":{"type":"Polygon","coordinates":[[[39.558876,48.31333],[39.558953,48.313351],[39.559021,48.313357],[39.559182,48.313387],[39.559501,48.313456],[39.559591,48.313201],[39.559262,48.313094],[39.559012,48.31304],[39.558949,48.313208],[39.558882,48.313325],[39.558876,48.31333]]]}},{"type":"Feature","properties":{"cadnum":"4411446200:01:001:0098"},"geometry":{"type":"Polygon","coordinates":[[[39.556159,48.31402],[39.556189,48.314026],[39.556729,48.314131],[39.556824,48.313969],[39.556209,48.313886],[39.556159,48.31402]]]}},{"type":"Feature","properties":{"cadnum":"4411446200:01:002:0004"},"geometry":{"type":"Polygon","coordinates":[[[39.560359,48.31439],[39.560736,48.314406],[39.561077,48.314426],[39.56141,48.314454],[39.561455,48.314361],[39.561463,48.314331],[39.561392,48.314319],[39.5611,48.314289],[39.560624,48.314266],[39.560359,48.314257],[39.560359,48.31439]]]}},{"type":"Feature","properties":{"cadnum":"4411446200:01:002:0098"},"geometry":{"type":"Polygon","coordinates":[[[39.55969,48.31336],[39.560224,48.313438],[39.560278,48.313175],[39.559775,48.313097],[39.55973,48.313246],[39.55969,48.31336]]]}},{"type":"Feature","properties":{"cadnum":"4411446200:01:002:0057"},"geometry":{"type":"Polygon","coordinates":[[[39.559631,48.313629],[39.560174,48.313706],[39.560207,48.31354],[39.560224,48.313438],[39.55969,48.31336],[39.559645,48.313489],[39.559631,48.313629]]]}},{"type":"Feature","properties":{"cadnum":"4411446200:01:002:0099"},"geometry":{"type":"Polygon","coordinates":[[[39.559501,48.313456],[39.559645,48.313489],[39.55969,48.31336],[39.55973,48.313246],[39.559591,48.313201],[39.559501,48.313456]]]}},{"type":"Feature","properties":{"cadnum":"4411446200:01:001:0048"},"geometry":{"type":"Polygon","coordinates":[[[39.556191,48.31296],[39.55636,48.313036],[39.556541,48.313118],[39.556662,48.313037],[39.556725,48.312984],[39.556425,48.312849],[39.556362,48.312816],[39.556356,48.31282],[39.556295,48.31287],[39.556191,48.31296]]]}},{"type":"Feature","properties":{"cadnum":"4411446200:01:001:0094"},"geometry":{"type":"Polygon","coordinates":[[[39.55602,48.315436],[39.556189,48.315473],[39.556209,48.315478],[39.55636,48.315503],[39.556622,48.315546],[39.556748,48.315561],[39.556779,48.315568],[39.556864,48.315395],[39.556329,48.315298],[39.556109,48.315254],[39.55602,48.315436]]]}},{"type":"Feature","properties":{"cadnum":"4411446200:01:002:0015"},"geometry":{"type":"Polygon","coordinates":[[[39.559222,48.314465],[39.559375,48.314806],[39.55973,48.314746],[39.5596,48.314375],[39.559447,48.314412],[39.559222,48.314465]]]}},{"type":"Feature","properties":{"cadnum":"4411446200:01:001:0020"},"geometry":{"type":"Polygon","coordinates":[[[39.557408,48.312703],[39.557951,48.31282],[39.558157,48.312873],[39.558346,48.312933],[39.558459,48.312763],[39.558279,48.312727],[39.557601,48.312515],[39.557408,48.312703]]]}},{"type":"Feature","properties":{"cadnum":"4411446200:01:002:0101"},"geometry":{"type":"Polygon","coordinates":[[[39.55814,48.313638],[39.558625,48.313761],[39.558765,48.313513],[39.55836,48.313387],[39.55814,48.313638]]]}},{"type":"Feature","properties":{"cadnum":"4411446200:01:002:0108"},"geometry":{"type":"Polygon","coordinates":[[[39.561495,48.315577],[39.561499,48.315612],[39.561682,48.315605],[39.561774,48.315601],[39.561774,48.315595],[39.561774,48.315594],[39.561853,48.315592],[39.561853,48.315591],[39.561854,48.315591],[39.561918,48.315588],[39.561912,48.315555],[39.561767,48.315563],[39.561495,48.315577]]]}},{"type":"Feature","properties":{"cadnum":"4411446200:02:001:0049"},"geometry":{"type":"Polygon","coordinates":[[[39.551821,48.311138],[39.551924,48.311158],[39.55196,48.311078],[39.551861,48.311057],[39.551821,48.311138]]]}},{"type":"Feature","properties":{"cadnum":"4411446200:02:001:0041"},"geometry":{"type":"Polygon","coordinates":[[[39.551618,48.31166],[39.551636,48.311672],[39.551654,48.31166],[39.551636,48.311649],[39.551618,48.31166]]]}},{"type":"Feature","properties":{"cadnum":"4411446200:02:001:0039"},"geometry":{"type":"Polygon","coordinates":[[[39.552297,48.311131],[39.552314,48.311144],[39.552333,48.311129],[39.55231,48.31112],[39.552297,48.311131]]]}},{"type":"Feature","properties":{"cadnum":"4411446200:02:001:0040"},"geometry":{"type":"Polygon","coordinates":[[[39.551878,48.311457],[39.551928,48.311493],[39.551951,48.311481],[39.551901,48.311445],[39.551878,48.311457]]]}},{"type":"Feature","properties":{"cadnum":"4411446200:02:003:0030"},"geometry":{"type":"Polygon","coordinates":[[[39.551784,48.3099],[39.55231,48.310029],[39.552499,48.31008],[39.552616,48.31011],[39.552741,48.310143],[39.552817,48.309969],[39.552674,48.309937],[39.552553,48.309907],[39.552548,48.309913],[39.552547,48.309913],[39.552387,48.309871],[39.551874,48.309736],[39.551834,48.309814],[39.551784,48.3099]]]}},{"type":"Feature","properties":{"cadnum":"4411446200:02:003:0019"},"geometry":{"type":"Polygon","coordinates":[[[39.555459,48.3098],[39.555472,48.309811],[39.555494,48.309802],[39.555476,48.309787],[39.555459,48.3098]]]}},{"type":"Feature","properties":{"cadnum":"4411446200:02:003:0029"},"geometry":{"type":"Polygon","coordinates":[[[39.551425,48.310241],[39.551555,48.310271],[39.551627,48.310104],[39.551497,48.310071],[39.551425,48.310241]]]}},{"type":"Feature","properties":{"cadnum":"4411446200:01:001:0089"},"geometry":{"type":"Polygon","coordinates":[[[39.553872,48.311702],[39.554147,48.311714],[39.554192,48.311466],[39.554178,48.311415],[39.553932,48.311397],[39.553872,48.311702]]]}},{"type":"Feature","properties":{"cadnum":"4411446200:02:003:0022"},"geometry":{"type":"Polygon","coordinates":[[[39.553626,48.3106],[39.553635,48.310615],[39.553658,48.310609],[39.553649,48.310593],[39.553626,48.3106]]]}},{"type":"Feature","properties":{"cadnum":"4411446200:01:001:0057"},"geometry":{"type":"Polygon","coordinates":[[[39.554547,48.312236],[39.554551,48.312258],[39.554763,48.312291],[39.55488,48.312296],[39.55505,48.312302],[39.555067,48.312094],[39.554834,48.31209],[39.554583,48.31209],[39.554547,48.312236]]]}},{"type":"Feature","properties":{"cadnum":"4411446200:02:003:0024"},"geometry":{"type":"Polygon","coordinates":[[[39.552547,48.310899],[39.552557,48.310916],[39.55258,48.310907],[39.55257,48.310892],[39.552547,48.310899]]]}},{"type":"Feature","properties":{"cadnum":"4411446200:01:001:0022"},"geometry":{"type":"Polygon","coordinates":[[[39.553486,48.31224],[39.553635,48.312246],[39.553675,48.312249],[39.553712,48.312246],[39.554058,48.312252],[39.554062,48.312043],[39.553505,48.312007],[39.553486,48.31224]]]}},{"type":"Feature","properties":{"cadnum":"4411446200:02:001:0042"},"geometry":{"type":"Polygon","coordinates":[[[39.551188,48.311923],[39.551205,48.311939],[39.551222,48.311926],[39.551205,48.311911],[39.551188,48.311923]]]}},{"type":"Feature","properties":{"cadnum":"4411446200:02:003:0025"},"geometry":{"type":"Polygon","coordinates":[[[39.552077,48.311027],[39.552085,48.311042],[39.552161,48.311024],[39.552153,48.311009],[39.552077,48.311027]]]}},{"type":"Feature","properties":{"cadnum":"4411446200:02:003:0021"},"geometry":{"type":"Polygon","coordinates":[[[39.554349,48.310373],[39.554381,48.310418],[39.554404,48.310412],[39.554375,48.310367],[39.554349,48.310373]]]}},{"type":"Feature","properties":{"cadnum":"4411446200:02:003:0027"},"geometry":{"type":"Polygon","coordinates":[[[39.551865,48.310179],[39.552678,48.310307],[39.552687,48.310301],[39.552759,48.310131],[39.552633,48.310101],[39.552517,48.310071],[39.55244,48.310044],[39.551964,48.309946],[39.551865,48.310179]]]}},{"type":"Feature","properties":{"cadnum":"4411446200:01:001:0093"},"geometry":{"type":"Polygon","coordinates":[[[39.55584,48.311445],[39.55589,48.311457],[39.556029,48.311466],[39.556029,48.311463],[39.556069,48.311323],[39.556136,48.311072],[39.555966,48.311054],[39.555912,48.311221],[39.555894,48.311314],[39.55584,48.311445]]]}},{"type":"Feature","properties":{"cadnum":"4411446200:02:003:0020"},"geometry":{"type":"Polygon","coordinates":[[[39.55488,48.31011],[39.554897,48.310122],[39.554915,48.31011],[39.554901,48.310098],[39.55488,48.31011]]]}},{"type":"Feature","properties":{"cadnum":"4411446200:02:003:0023"},"geometry":{"type":"Polygon","coordinates":[[[39.552983,48.310779],[39.552993,48.310794],[39.553016,48.310788],[39.553006,48.310773],[39.552983,48.310779]]]}},{"type":"Feature","properties":{"cadnum":"4411446200:01:004:0123"},"geometry":{"type":"Polygon","coordinates":[[[39.577526,48.310256],[39.578101,48.310322],[39.578161,48.31033],[39.578161,48.310331],[39.578254,48.310343],[39.578333,48.310354],[39.578333,48.310353],[39.578491,48.310373],[39.578537,48.310236],[39.578172,48.310197],[39.577571,48.310139],[39.577526,48.310256]]]}},{"type":"Feature","properties":{"cadnum":"4411446200:01:004:0102"},"geometry":{"type":"Polygon","coordinates":[[[39.577916,48.311807],[39.577939,48.311875],[39.577952,48.311941],[39.577971,48.311939],[39.577979,48.311977],[39.577961,48.31198],[39.577975,48.312037],[39.578038,48.31203],[39.578212,48.312019],[39.578231,48.312016],[39.578208,48.311828],[39.578199,48.311819],[39.578199,48.311798],[39.578191,48.31178],[39.578042,48.311762],[39.577921,48.311756],[39.577916,48.311807]]]}},{"type":"Feature","properties":{"cadnum":"4411446200:01:004:0003"},"geometry":{"type":"Polygon","coordinates":[[[39.572675,48.31091],[39.572711,48.310958],[39.572774,48.31094],[39.572738,48.310892],[39.572675,48.31091]]]}},{"type":"Feature","properties":{"cadnum":"4411446200:01:004:0114"},"geometry":{"type":"Polygon","coordinates":[[[39.574992,48.310263],[39.575101,48.310445],[39.575168,48.310582],[39.575369,48.310522],[39.575388,48.310537],[39.575514,48.310502],[39.575505,48.310489],[39.575401,48.310328],[39.575361,48.31034],[39.575321,48.310352],[39.575136,48.310223],[39.575118,48.31023],[39.574992,48.310263]]]}},{"type":"Feature","properties":{"cadnum":"4411446200:03:003:0009"},"geometry":{"type":"Polygon","coordinates":[[[39.572572,48.310122],[39.572612,48.310157],[39.572594,48.310167],[39.572652,48.310259],[39.572644,48.310263],[39.572724,48.310361],[39.57284,48.310322],[39.572885,48.310307],[39.572944,48.310283],[39.572809,48.310074],[39.572728,48.310095],[39.572572,48.310122]]]}},{"type":"Feature","properties":{"cadnum":"4411446200:01:004:0030"},"geometry":{"type":"Polygon","coordinates":[[[39.572765,48.311287],[39.572864,48.311576],[39.57298,48.311559],[39.572981,48.311559],[39.573007,48.31164],[39.573218,48.311607],[39.573191,48.31152],[39.574059,48.311388],[39.573883,48.311087],[39.573893,48.311087],[39.573838,48.310991],[39.57343,48.31108],[39.573451,48.311138],[39.573533,48.311122],[39.573541,48.311149],[39.573623,48.311135],[39.57364,48.311191],[39.573546,48.311206],[39.57351,48.311212],[39.573487,48.311158],[39.573461,48.311164],[39.573327,48.311188],[39.573335,48.311215],[39.573334,48.311215],[39.57325,48.311233],[39.573237,48.311204],[39.572765,48.311287]],[[39.573264,48.311281],[39.573258,48.31126],[39.573308,48.311254],[39.573313,48.311272],[39.573264,48.311281]],[[39.572891,48.311427],[39.572864,48.31143],[39.57285,48.311386],[39.572851,48.311386],[39.572891,48.311379],[39.572904,48.311425],[39.572975,48.311412],[39.572994,48.311472],[39.573021,48.311469],[39.573048,48.311541],[39.573047,48.311541],[39.572935,48.311556],[39.572891,48.311427]]]}},{"type":"Feature","properties":{"cadnum":"4411446200:01:004:0016"},"geometry":{"type":"Polygon","coordinates":[[[39.572859,48.311179],[39.572885,48.311251],[39.572967,48.311237],[39.57294,48.311164],[39.572859,48.311179]]]}},{"type":"Feature","properties":{"cadnum":"4411446200:01:004:0111"},"geometry":{"type":"Polygon","coordinates":[[[39.574193,48.311302],[39.574224,48.311392],[39.574413,48.311361],[39.574377,48.311269],[39.574193,48.311302]]]}},{"type":"Feature","properties":{"cadnum":"4411446200:01:004:0125"},"geometry":{"type":"Polygon","coordinates":[[[39.572895,48.311609],[39.572912,48.311654],[39.573007,48.31164],[39.572981,48.311559],[39.572927,48.311567],[39.57294,48.311603],[39.572895,48.311609]]]}},{"type":"Feature","properties":{"cadnum":"4411446200:01:004:0039"},"geometry":{"type":"Polygon","coordinates":[[[39.572738,48.311024],[39.572765,48.311075],[39.572742,48.31108],[39.572742,48.311096],[39.572765,48.311107],[39.572782,48.311105],[39.572809,48.311153],[39.57284,48.311146],[39.57284,48.311145],[39.572908,48.311129],[39.572837,48.311],[39.572738,48.311024]]]}},{"type":"Feature","properties":{"cadnum":"4411446200:01:004:0038"},"geometry":{"type":"Polygon","coordinates":[[[39.574256,48.310277],[39.574346,48.310427],[39.574417,48.310414],[39.574436,48.310409],[39.574436,48.310405],[39.574539,48.310382],[39.574678,48.310346],[39.5747,48.310387],[39.574728,48.310447],[39.574759,48.310513],[39.574786,48.310511],[39.574885,48.310695],[39.574965,48.310675],[39.574988,48.310644],[39.574929,48.310474],[39.574889,48.310436],[39.574845,48.310412],[39.574803,48.310414],[39.574736,48.310334],[39.574709,48.310289],[39.574682,48.310236],[39.574678,48.310214],[39.574652,48.310176],[39.574256,48.310277]]]}},{"type":"Feature","properties":{"cadnum":"4411446200:01:003:0007"},"geometry":{"type":"Polygon","coordinates":[[[39.571637,48.309313],[39.571656,48.309369],[39.571939,48.309327],[39.572668,48.309204],[39.572668,48.309205],[39.572777,48.309186],[39.57284,48.309175],[39.572859,48.309172],[39.574,48.308999],[39.573982,48.308945],[39.572841,48.309118],[39.572668,48.309148],[39.571875,48.30928],[39.571637,48.309313]]]}},{"type":"Feature","properties":{"cadnum":"4411446200:01:004:0128"},"geometry":{"type":"Polygon","coordinates":[[[39.572698,48.310967],[39.572706,48.310982],[39.572715,48.310979],[39.572742,48.311021],[39.572818,48.310998],[39.572782,48.310943],[39.572698,48.310967]]]}},{"type":"Feature","properties":{"cadnum":"4411446200:01:004:0008"},"geometry":{"type":"Polygon","coordinates":[[[39.57285,48.310925],[39.572962,48.311107],[39.573254,48.31103],[39.573497,48.31097],[39.573254,48.310635],[39.57321,48.310626],[39.573088,48.310668],[39.573101,48.310692],[39.573151,48.310758],[39.573182,48.3108],[39.573111,48.310821],[39.57312,48.310836],[39.573074,48.310848],[39.573084,48.310863],[39.573052,48.310872],[39.572881,48.310901],[39.57285,48.310925]]]}},{"type":"Feature","properties":{"cadnum":"4411446200:01:004:0036"},"geometry":{"type":"Polygon","coordinates":[[[39.573237,48.311266],[39.573241,48.311284],[39.57329,48.311275],[39.573281,48.311257],[39.573237,48.311266]]]}},{"type":"Feature","properties":{"cadnum":"4411446200:01:004:0037"},"geometry":{"type":"Polygon","coordinates":[[[39.57321,48.311209],[39.573223,48.311237],[39.573308,48.311221],[39.573294,48.311191],[39.57321,48.311209]]]}},{"type":"Feature","properties":{"cadnum":"4411446200:01:004:0021"},"geometry":{"type":"Polygon","coordinates":[[[39.573021,48.31172],[39.573044,48.311789],[39.57321,48.311768],[39.573187,48.311696],[39.573021,48.31172]]]}},{"type":"Feature","properties":{"cadnum":"4411446200:01:004:0115"},"geometry":{"type":"Polygon","coordinates":[[[39.573268,48.311027],[39.57329,48.311069],[39.573528,48.311012],[39.573497,48.31097],[39.573268,48.311027]]]}},{"type":"Feature","properties":{"cadnum":"4411446200:01:003:0017"},"geometry":{"type":"Polygon","coordinates":[[[39.572738,48.312013],[39.572751,48.312037],[39.572774,48.312034],[39.572765,48.312007],[39.572738,48.312013]]]}},{"type":"Feature","properties":{"cadnum":"4411446200:01:004:0035"},"geometry":{"type":"Polygon","coordinates":[[[39.572832,48.311401],[39.57285,48.311443],[39.572872,48.311439],[39.572885,48.311436],[39.572872,48.311392],[39.572832,48.311401]]]}},{"type":"Feature","properties":{"cadnum":"4411446200:03:001:0036"},"geometry":{"type":"Polygon","coordinates":[[[39.558082,48.308637],[39.558104,48.308661],[39.558157,48.308715],[39.558185,48.308739],[39.55822,48.30876],[39.558261,48.308777],[39.558346,48.308793],[39.558468,48.308817],[39.558553,48.308569],[39.558616,48.308431],[39.558455,48.308392],[39.558346,48.308359],[39.55818,48.308335],[39.558113,48.308529],[39.558082,48.308637]]]}},{"type":"Feature","properties":{"cadnum":"4411446200:03:001:0039"},"geometry":{"type":"Polygon","coordinates":[[[39.561379,48.305581],[39.561388,48.305778],[39.561682,48.305772],[39.56243,48.305754],[39.562421,48.305584],[39.562421,48.305557],[39.561854,48.305571],[39.561853,48.305571],[39.561379,48.305581]]]}},{"type":"Feature","properties":{"cadnum":"4411446200:03:001:0014"},"geometry":{"type":"Polygon","coordinates":[[[39.560746,48.30654],[39.560794,48.306851],[39.561172,48.306806],[39.561127,48.306522],[39.56088,48.306543],[39.560746,48.30654]]]}},{"type":"Feature","properties":{"cadnum":"4411446200:03:001:0040"},"geometry":{"type":"Polygon","coordinates":[[[39.561365,48.305357],[39.561379,48.305581],[39.561682,48.305574],[39.561682,48.305575],[39.562421,48.305557],[39.562407,48.305471],[39.562384,48.305405],[39.56238,48.305333],[39.562375,48.305285],[39.562178,48.3053],[39.561895,48.305321],[39.561854,48.305324],[39.561853,48.305324],[39.561616,48.305339],[39.561365,48.305357]]]}},{"type":"Feature","properties":{"cadnum":"4411446200:01:003:0070"},"geometry":{"type":"Polygon","coordinates":[[[39.570101,48.318605],[39.570187,48.318886],[39.570231,48.319057],[39.570254,48.319161],[39.570465,48.319134],[39.570308,48.318557],[39.570101,48.318605]]]}},{"type":"Feature","properties":{"cadnum":"4411446200:01:003:0137"},"geometry":{"type":"Polygon","coordinates":[[[39.568309,48.318942],[39.56835,48.319068],[39.568421,48.319316],[39.568862,48.319254],[39.56882,48.319089],[39.568807,48.31891],[39.568623,48.318922],[39.568417,48.318934],[39.568309,48.318942]]]}},{"type":"Feature","properties":{"cadnum":"4411446200:01:003:0153"},"geometry":{"type":"Polygon","coordinates":[[[39.569795,48.318632],[39.569908,48.319185],[39.570164,48.319157],[39.570145,48.319053],[39.570105,48.318883],[39.570034,48.318603],[39.569872,48.318623],[39.569795,48.318632]]]}},{"type":"Feature","properties":{"cadnum":"4411446200:01:003:0016"},"geometry":{"type":"Polygon","coordinates":[[[39.57078,48.316927],[39.570793,48.317016],[39.570837,48.317013],[39.570824,48.316923],[39.57078,48.316927]]]}},{"type":"Feature","properties":{"cadnum":"4411446200:01:003:0071"},"geometry":{"type":"Polygon","coordinates":[[[39.569786,48.318103],[39.569895,48.318429],[39.569931,48.318593],[39.570304,48.318543],[39.570155,48.318068],[39.569786,48.318103]]]}},{"type":"Feature","properties":{"cadnum":"4411446200:01:003:0134"},"geometry":{"type":"Polygon","coordinates":[[[39.570977,48.317984],[39.57109,48.318557],[39.571323,48.318537],[39.571214,48.31796],[39.570977,48.317984]]]}},{"type":"Feature","properties":{"cadnum":"4411446200:03:001:0076"},"geometry":{"type":"Polygon","coordinates":[[[39.565681,48.304227],[39.565686,48.304255],[39.565708,48.304464],[39.565708,48.304616],[39.565996,48.304604],[39.565996,48.304547],[39.565987,48.304475],[39.565969,48.304209],[39.565681,48.304227]]]}},{"type":"Feature","properties":{"cadnum":"4411446200:03:001:0032"},"geometry":{"type":"Polygon","coordinates":[[[39.566948,48.303671],[39.566962,48.303809],[39.566988,48.304129],[39.566989,48.304129],[39.567226,48.304114],[39.567178,48.30366],[39.566948,48.303671]]]}},{"type":"Feature","properties":{"cadnum":"4411446200:03:001:0075"},"geometry":{"type":"Polygon","coordinates":[[[39.563063,48.304326],[39.563085,48.304714],[39.563327,48.304703],[39.563327,48.304649],[39.563333,48.304649],[39.563327,48.304577],[39.56331,48.304475],[39.563323,48.304475],[39.563319,48.304446],[39.563337,48.304446],[39.563333,48.304404],[39.563314,48.304404],[39.5633,48.304324],[39.563063,48.304326]]]}},{"type":"Feature","properties":{"cadnum":"4411446200:03:001:0070"},"geometry":{"type":"Polygon","coordinates":[[[39.564922,48.304251],[39.564941,48.304521],[39.564945,48.304592],[39.564949,48.304649],[39.565107,48.304646],[39.565107,48.304631],[39.565155,48.304631],[39.565151,48.304574],[39.565142,48.304502],[39.565161,48.304502],[39.565142,48.304249],[39.564922,48.304251]]]}},{"type":"Feature","properties":{"cadnum":"4411446200:03:001:0031"},"geometry":{"type":"Polygon","coordinates":[[[39.565165,48.304249],[39.565178,48.304499],[39.565214,48.304499],[39.565224,48.304628],[39.565474,48.304621],[39.56547,48.304568],[39.565461,48.304497],[39.565425,48.304242],[39.565421,48.304233],[39.565165,48.304249]]]}},{"type":"Feature","properties":{"cadnum":"4411446200:02:003:0013"},"geometry":{"type":"Polygon","coordinates":[[[39.553868,48.304034],[39.554142,48.304072],[39.554161,48.303932],[39.553868,48.304034]]]}},{"type":"Feature","properties":{"cadnum":"4411446200:02:003:0012"},"geometry":{"type":"Polygon","coordinates":[[[39.553738,48.304643],[39.554058,48.304676],[39.554142,48.304072],[39.553868,48.304034],[39.553738,48.304643]]]}},{"type":"Feature","properties":{"cadnum":"4411446200:03:004:0019"},"geometry":{"type":"Polygon","coordinates":[[[39.57399,48.30369],[39.574076,48.303947],[39.57452,48.303848],[39.574516,48.303711],[39.57399,48.30369]]]}},{"type":"Feature","properties":{"cadnum":"4411446200:03:004:0018"},"geometry":{"type":"Polygon","coordinates":[[[39.57342,48.304034],[39.573497,48.304036],[39.573497,48.304018],[39.573506,48.304012],[39.573901,48.303983],[39.574076,48.303947],[39.57399,48.30369],[39.573677,48.303678],[39.573667,48.30363],[39.5736,48.303639],[39.573541,48.303699],[39.573497,48.303755],[39.573457,48.303815],[39.573438,48.303872],[39.57342,48.304034]]]}},{"type":"Feature","properties":{"cadnum":"4411446200:03:004:0020"},"geometry":{"type":"Polygon","coordinates":[[[39.576231,48.305243],[39.576474,48.305232],[39.57647,48.305205],[39.576479,48.304732],[39.576237,48.304747],[39.576231,48.305223],[39.576232,48.305223],[39.576231,48.305243]]]}},{"type":"Feature","properties":{"cadnum":"4411446200:02:001:0132"},"geometry":{"type":"Polygon","coordinates":[[[39.538481,48.31434],[39.538772,48.314379],[39.538804,48.314253],[39.538831,48.314146],[39.538947,48.313737],[39.538683,48.313701],[39.53862,48.313916],[39.538615,48.313969],[39.538593,48.314014],[39.538538,48.314149],[39.538481,48.31434]]]}},{"type":"Feature","properties":{"cadnum":"4411446200:02:001:0050"},"geometry":{"type":"Polygon","coordinates":[[[39.5391,48.314689],[39.539221,48.314716],[39.539253,48.314651],[39.539136,48.314623],[39.5391,48.314689]]]}},{"type":"Feature","properties":{"cadnum":"4411446200:02:001:0129"},"geometry":{"type":"Polygon","coordinates":[[[39.538804,48.314253],[39.539123,48.314315],[39.539163,48.314187],[39.539221,48.31399],[39.539234,48.313993],[39.53924,48.313976],[39.53923,48.313972],[39.539267,48.31377],[39.538947,48.313737],[39.538835,48.314131],[39.538831,48.314146],[39.538804,48.314253]]]}},{"type":"Feature","properties":{"cadnum":"4411446200:02:001:0130"},"geometry":{"type":"Polygon","coordinates":[[[39.538745,48.31448],[39.53906,48.314543],[39.539123,48.314315],[39.538804,48.314253],[39.538745,48.31448]]]}},{"type":"Feature","properties":{"cadnum":"4411446200:02:001:0024"},"geometry":{"type":"Polygon","coordinates":[[[39.532727,48.312234],[39.532727,48.312252],[39.532754,48.312252],[39.532754,48.312234],[39.532727,48.312234]]]}},{"type":"Feature","properties":{"cadnum":"4411446200:02:001:0022"},"geometry":{"type":"Polygon","coordinates":[[[39.532709,48.311425],[39.532709,48.311443],[39.532758,48.311443],[39.532758,48.311425],[39.532709,48.311425]]]}},{"type":"Feature","properties":{"cadnum":"4411446200:02:001:0000"},"geometry":{"type":"Polygon","coordinates":[[[39.532754,48.311789],[39.532754,48.311807],[39.532781,48.311807],[39.532781,48.311789],[39.532754,48.311789]]]}},{"type":"Feature","properties":{"cadnum":"4411446200:02:001:0021"},"geometry":{"type":"Polygon","coordinates":[[[39.533307,48.31141],[39.533307,48.311427],[39.533333,48.311427],[39.533333,48.31141],[39.533307,48.31141]]]}},{"type":"Feature","properties":{"cadnum":"4411446200:02:001:0023"},"geometry":{"type":"Polygon","coordinates":[[[39.532718,48.311828],[39.532718,48.311846],[39.532745,48.311846],[39.532745,48.311828],[39.532718,48.311828]]]}},{"type":"Feature","properties":{"cadnum":"4411446200:02:001:0109"},"geometry":{"type":"Polygon","coordinates":[[[39.532762,48.312195],[39.532762,48.312213],[39.532789,48.312213],[39.532789,48.312195],[39.532762,48.312195]]]}},{"type":"Feature","properties":{"cadnum":"4411446200:02:001:0126"},"geometry":{"type":"Polygon","coordinates":[[[39.543592,48.31466],[39.543781,48.314654],[39.543781,48.314653],[39.543758,48.314543],[39.543785,48.314543],[39.543951,48.314537],[39.543968,48.314397],[39.543651,48.314388],[39.543596,48.314627],[39.543592,48.31466]]]}},{"type":"Feature","properties":{"cadnum":"4411446200:01:002:0125"},"geometry":{"type":"Polygon","coordinates":[[[39.543651,48.314388],[39.543968,48.314397],[39.544001,48.314178],[39.544018,48.313961],[39.544018,48.31396],[39.544045,48.313733],[39.543781,48.313787],[39.543754,48.313936],[39.543691,48.314217],[39.543651,48.314388]]]}},{"type":"Feature","properties":{"cadnum":"4411446200:02:001:0127"},"geometry":{"type":"Polygon","coordinates":[[[39.542339,48.313978],[39.542626,48.313916],[39.54259,48.313787],[39.542582,48.313719],[39.54259,48.313655],[39.542586,48.313354],[39.542437,48.313345],[39.542375,48.313721],[39.542339,48.313978]]]}},{"type":"Feature","properties":{"cadnum":"4411446200:02:001:0124"},"geometry":{"type":"Polygon","coordinates":[[[39.54458,48.3142],[39.544616,48.314504],[39.54462,48.314537],[39.544638,48.314731],[39.54497,48.314704],[39.54489,48.314447],[39.544809,48.314175],[39.54458,48.3142]]]}},{"type":"Feature","properties":{"cadnum":"4411446200:01:003:0073"},"geometry":{"type":"Polygon","coordinates":[[[39.566027,48.315858],[39.56604,48.315947],[39.566315,48.315932],[39.566296,48.315845],[39.566027,48.315858]]]}},{"type":"Feature","properties":{"cadnum":"4411446200:01:002:0021"},"geometry":{"type":"Polygon","coordinates":[[[39.562803,48.314445],[39.56317,48.314465],[39.563575,48.314477],[39.563562,48.314343],[39.563256,48.314337],[39.562807,48.314307],[39.562807,48.314403],[39.562803,48.314445]]]}},{"type":"Feature","properties":{"cadnum":"4411446200:01:002:0085"},"geometry":{"type":"Polygon","coordinates":[[[39.562883,48.312763],[39.562901,48.312897],[39.562901,48.312948],[39.563211,48.312962],[39.5634,48.312957],[39.56335,48.312754],[39.56327,48.312754],[39.563144,48.312765],[39.563126,48.31276],[39.563071,48.312763],[39.562883,48.312763]]]}},{"type":"Feature","properties":{"cadnum":"4411446200:01:003:0138"},"geometry":{"type":"Polygon","coordinates":[[[39.565753,48.315794],[39.565776,48.315977],[39.566046,48.315977],[39.56604,48.315947],[39.566027,48.315858],[39.566023,48.315807],[39.565753,48.315794]]]}},{"type":"Feature","properties":{"cadnum":"4411446200:01:002:0059"},"geometry":{"type":"Polygon","coordinates":[[[39.561859,48.314603],[39.562304,48.314623],[39.562312,48.314573],[39.561908,48.314555],[39.561882,48.314555],[39.561859,48.314603]]]}},{"type":"Feature","properties":{"cadnum":"4411446200:01:002:0144"},"geometry":{"type":"Polygon","coordinates":[[[39.564707,48.313668],[39.564715,48.313943],[39.565048,48.313958],[39.565385,48.313969],[39.565376,48.313697],[39.565151,48.313692],[39.564707,48.313668]]]}},{"type":"Feature","properties":{"cadnum":"4411446200:01:002:0056"},"geometry":{"type":"Polygon","coordinates":[[[39.563512,48.31546],[39.563575,48.315905],[39.563858,48.315872],[39.563826,48.315666],[39.563813,48.315564],[39.563795,48.315415],[39.563512,48.31546]]]}},{"type":"Feature","properties":{"cadnum":"4411446200:06:001:0004"},"geometry":{"type":"Polygon","coordinates":[[[39.570711,48.283426],[39.570757,48.283468],[39.570815,48.283441],[39.570774,48.283399],[39.570711,48.283426]]]}},{"type":"Feature","properties":{"cadnum":"4411446200:03:002:0018"},"geometry":{"type":"Polygon","coordinates":[[[39.55513,48.314671],[39.555203,48.314683],[39.555324,48.314394],[39.55523,48.31439],[39.55513,48.314671]]]}},{"type":"Feature","properties":{"cadnum":"4411446200:01:001:0068"},"geometry":{"type":"Polygon","coordinates":[[[39.554497,48.314534],[39.554515,48.314543],[39.554534,48.314528],[39.554511,48.314519],[39.554497,48.314534]]]}},{"type":"Feature","properties":{"cadnum":"4411446200:03:002:0017"},"geometry":{"type":"Polygon","coordinates":[[[39.554425,48.314558],[39.55513,48.314671],[39.55523,48.31439],[39.554704,48.314319],[39.554673,48.314325],[39.554515,48.314459],[39.554461,48.314519],[39.554425,48.314558]],[[39.554497,48.314531],[39.554511,48.314519],[39.554528,48.314528],[39.554515,48.314543],[39.554497,48.314534],[39.554464,48.31452],[39.554497,48.314531]]]}},{"type":"Feature","properties":{"cadnum":"4411446200:01:001:0069"},"geometry":{"type":"Polygon","coordinates":[[[39.554155,48.31489],[39.554178,48.314899],[39.554192,48.314884],[39.554169,48.314875],[39.554155,48.31489]]]}},{"type":"Feature","properties":{"cadnum":"4411446200:01:001:0012"},"geometry":{"type":"Polygon","coordinates":[[[39.55328,48.314576],[39.553402,48.314585],[39.553419,48.314486],[39.553299,48.314477],[39.55328,48.314576]]]}},{"type":"Feature","properties":{"cadnum":"4411446200:01:001:0090"},"geometry":{"type":"Polygon","coordinates":[[[39.552341,48.314546],[39.552643,48.314573],[39.55266,48.314414],[39.552651,48.314292],[39.552674,48.314292],[39.552678,48.314274],[39.552674,48.314077],[39.552368,48.314092],[39.55235,48.314421],[39.552341,48.314507],[39.552341,48.314546]]]}},{"type":"Feature","properties":{"cadnum":"4411446200:01:001:0050"},"geometry":{"type":"Polygon","coordinates":[[[39.5528,48.312798],[39.552903,48.312801],[39.553168,48.312805],[39.553203,48.312574],[39.552844,48.312563],[39.55284,48.312592],[39.5528,48.312798]]]}},{"type":"Feature","properties":{"cadnum":"4411446200:01:001:0044"},"geometry":{"type":"Polygon","coordinates":[[[39.555432,48.313695],[39.556042,48.313912],[39.556083,48.313907],[39.556195,48.313763],[39.555742,48.313614],[39.555589,48.313551],[39.555432,48.313695]]]}},{"type":"Feature","properties":{"cadnum":"4411446200:01:001:0009"},"geometry":{"type":"Polygon","coordinates":[[[39.552899,48.314561],[39.55332,48.314588],[39.55332,48.314587],[39.553392,48.314146],[39.552926,48.314182],[39.552916,48.31437],[39.552893,48.314507],[39.552899,48.314561]]]}},{"type":"Feature","properties":{"cadnum":"4411446200:01:001:0023"},"geometry":{"type":"Polygon","coordinates":[[[39.551609,48.315156],[39.551897,48.315167],[39.551968,48.314591],[39.551685,48.314567],[39.551609,48.315156]]]}},{"type":"Feature","properties":{"cadnum":"4411446200:01:001:0011"},"geometry":{"type":"Polygon","coordinates":[[[39.551205,48.315143],[39.551609,48.315156],[39.551658,48.314791],[39.551272,48.314758],[39.551228,48.315059],[39.551205,48.315143]]]}},{"type":"Feature","properties":{"cadnum":"4411446200:01:003:0036"},"geometry":{"type":"Polygon","coordinates":[[[39.57466,48.315544],[39.574713,48.315615],[39.574763,48.315601],[39.574709,48.315528],[39.57466,48.315544]]]}},{"type":"Feature","properties":{"cadnum":"4411446200:01:003:0010"},"geometry":{"type":"Polygon","coordinates":[[[39.573487,48.315672],[39.573564,48.315675],[39.573573,48.315397],[39.573497,48.315397],[39.573487,48.315672]]]}},{"type":"Feature","properties":{"cadnum":"4411446200:01:004:0113"},"geometry":{"type":"Polygon","coordinates":[[[39.574369,48.314385],[39.574535,48.314605],[39.574583,48.314591],[39.574723,48.314549],[39.575122,48.31445],[39.574979,48.314259],[39.574472,48.314357],[39.574369,48.314385]]]}},{"type":"Feature","properties":{"cadnum":"4411446200:01:003:0032"},"geometry":{"type":"Polygon","coordinates":[[[39.573461,48.314884],[39.57373,48.314959],[39.573864,48.314928],[39.573803,48.314678],[39.573461,48.314884]]]}},{"type":"Feature","properties":{"cadnum":"4411446200:01:004:0096"},"geometry":{"type":"Polygon","coordinates":[[[39.575132,48.313172],[39.575176,48.313297],[39.575311,48.313276],[39.575266,48.313151],[39.575132,48.313172]]]}},{"type":"Feature","properties":{"cadnum":"4411446200:01:004:0122"},"geometry":{"type":"Polygon","coordinates":[[[39.575541,48.315809],[39.575684,48.31598],[39.576331,48.315747],[39.576187,48.315583],[39.576061,48.315619],[39.576061,48.315624],[39.575541,48.315809]]]}},{"type":"Feature","properties":{"cadnum":"4411446200:01:004:0011"},"geometry":{"type":"Polygon","coordinates":[[[39.573465,48.313046],[39.573483,48.313115],[39.57352,48.313112],[39.573501,48.313044],[39.573465,48.313046]]]}},{"type":"Feature","properties":{"cadnum":"4411446200:01:003:0150"},"geometry":{"type":"Polygon","coordinates":[[[39.572837,48.313647],[39.572881,48.313784],[39.573105,48.313754],[39.573264,48.313733],[39.57342,48.313713],[39.573388,48.313626],[39.573357,48.313632],[39.57321,48.313644],[39.573128,48.31365],[39.573034,48.313641],[39.573034,48.313635],[39.572994,48.313638],[39.572989,48.313632],[39.572927,48.313641],[39.572837,48.313647]]]}},{"type":"Feature","properties":{"cadnum":"4411446200:01:004:0000"},"geometry":{"type":"Polygon","coordinates":[[[39.576677,48.314315],[39.576753,48.314546],[39.577481,48.314495],[39.577449,48.31428],[39.576677,48.314315]]]}},{"type":"Feature","properties":{"cadnum":"4411446200:01:004:0124"},"geometry":{"type":"Polygon","coordinates":[[[39.575095,48.315284],[39.575222,48.315433],[39.575225,48.31543],[39.575226,48.31543],[39.575329,48.31555],[39.575841,48.315388],[39.575608,48.315105],[39.575258,48.315221],[39.575095,48.315284]]]}},{"type":"Feature","properties":{"cadnum":"4411446200:01:003:0009"},"geometry":{"type":"Polygon","coordinates":[[[39.572795,48.315657],[39.573147,48.315657],[39.573487,48.315672],[39.573497,48.315397],[39.573141,48.315388],[39.573061,48.315395],[39.572841,48.315376],[39.572795,48.315657]]]}},{"type":"Feature","properties":{"cadnum":"4411446200:01:004:0072"},"geometry":{"type":"Polygon","coordinates":[[[39.573703,48.313632],[39.573753,48.313784],[39.57374,48.313787],[39.573753,48.313826],[39.57373,48.313829],[39.573744,48.313868],[39.573766,48.313865],[39.573797,48.313976],[39.573757,48.313981],[39.573789,48.314077],[39.573883,48.314065],[39.573897,48.314118],[39.573896,48.314118],[39.573803,48.314131],[39.57386,48.314331],[39.57434,48.314271],[39.574323,48.314209],[39.574323,48.314208],[39.57434,48.314206],[39.574153,48.313569],[39.573897,48.313602],[39.573703,48.313632]]]}},{"type":"Feature","properties":{"cadnum":"4411446200:01:004:0119"},"geometry":{"type":"Polygon","coordinates":[[[39.574831,48.314961],[39.574929,48.315087],[39.574916,48.315092],[39.574939,48.315119],[39.574956,48.315114],[39.575095,48.315284],[39.575258,48.315221],[39.575608,48.315105],[39.575549,48.315039],[39.575411,48.314959],[39.575212,48.314851],[39.574831,48.314961]]]}},{"type":"Feature","properties":{"cadnum":"4411446200:01:003:0031"},"geometry":{"type":"Polygon","coordinates":[[[39.572958,48.314833],[39.573298,48.314862],[39.573461,48.314884],[39.573803,48.314678],[39.573789,48.314623],[39.573766,48.314596],[39.573434,48.314603],[39.573313,48.314594],[39.57316,48.314609],[39.573011,48.314614],[39.572958,48.314833]]]}},{"type":"Feature","properties":{"cadnum":"4411446200:01:003:0021"},"geometry":{"type":"Polygon","coordinates":[[[39.572958,48.314169],[39.573015,48.31434],[39.573101,48.314325],[39.573105,48.314334],[39.573555,48.314268],[39.573474,48.314098],[39.572958,48.314169]]]}},{"type":"Feature","properties":{"cadnum":"4411446200:01:004:0095"},"geometry":{"type":"Polygon","coordinates":[[[39.5763,48.31543],[39.576327,48.315511],[39.576506,48.315484],[39.576479,48.315404],[39.5763,48.31543]]]}},{"type":"Feature","properties":{"cadnum":"4411446200:03:001:0074"},"geometry":{"type":"Polygon","coordinates":[[[39.56318,48.305274],[39.563189,48.305434],[39.563189,48.305724],[39.563427,48.305719],[39.563423,48.305635],[39.563417,48.30556],[39.563396,48.305318],[39.563373,48.305318],[39.563368,48.305279],[39.563293,48.305279],[39.563292,48.305279],[39.563292,48.30527],[39.56318,48.305274]]]}},{"type":"Feature","properties":{"cadnum":"4411446200:03:001:0033"},"geometry":{"type":"Polygon","coordinates":[[[39.564249,48.305802],[39.564262,48.305972],[39.564262,48.305985],[39.564271,48.305985],[39.564271,48.306044],[39.564325,48.306044],[39.564325,48.306047],[39.564379,48.306047],[39.564383,48.305972],[39.564428,48.305967],[39.564558,48.30596],[39.564698,48.305958],[39.564693,48.305939],[39.564679,48.305802],[39.564563,48.305808],[39.564562,48.305808],[39.564558,48.305793],[39.564249,48.305802]]]}},{"type":"Feature","properties":{"cadnum":"4411446200:03:001:0037"},"geometry":{"type":"Polygon","coordinates":[[[39.566287,48.305381],[39.566292,48.305447],[39.566296,48.305572],[39.566355,48.305575],[39.566593,48.305569],[39.566583,48.305518],[39.566579,48.305447],[39.566566,48.305196],[39.566329,48.305201],[39.566329,48.305216],[39.566346,48.305378],[39.566287,48.305381]]]}},{"type":"Feature","properties":{"cadnum":"4411446200:03:001:0063"},"geometry":{"type":"Polygon","coordinates":[[[39.562658,48.305294],[39.562685,48.305728],[39.56292,48.305719],[39.562914,48.305638],[39.562914,48.305566],[39.562906,48.305407],[39.562897,48.305396],[39.562901,48.305285],[39.562658,48.305294]]]}},{"type":"Feature","properties":{"cadnum":"4411446200:03:002:0060"},"geometry":{"type":"Polygon","coordinates":[[[39.565245,48.308138],[39.565708,48.308529],[39.565803,48.308485],[39.565879,48.308437],[39.565853,48.308321],[39.565839,48.308321],[39.565811,48.308288],[39.565717,48.308219],[39.565631,48.308166],[39.565367,48.30806],[39.565245,48.308138]]]}},{"type":"Feature","properties":{"cadnum":"4411446200:03:002:0059"},"geometry":{"type":"Polygon","coordinates":[[[39.562029,48.308503],[39.562092,48.308711],[39.562407,48.30864],[39.562394,48.308616],[39.562325,48.308509],[39.562325,48.308482],[39.562308,48.308434],[39.562061,48.308488],[39.562029,48.308503]]]}},{"type":"Feature","properties":{"cadnum":"4411446200:03:002:0026"},"geometry":{"type":"Polygon","coordinates":[[[39.563975,48.308398],[39.564065,48.308536],[39.564145,48.308512],[39.564149,48.308523],[39.564383,48.308463],[39.564635,48.308386],[39.564518,48.308231],[39.564199,48.308317],[39.564208,48.308323],[39.563975,48.308398]]]}},{"type":"Feature","properties":{"cadnum":"4411446200:03:002:0039"},"geometry":{"type":"Polygon","coordinates":[[[39.570968,48.309698],[39.571071,48.309718],[39.571116,48.309608],[39.571008,48.30959],[39.570968,48.309698]]]}},{"type":"Feature","properties":{"cadnum":"4411446200:03:002:0062"},"geometry":{"type":"Polygon","coordinates":[[[39.569765,48.310866],[39.569814,48.310979],[39.569952,48.310949],[39.570119,48.310916],[39.570191,48.310901],[39.570137,48.310779],[39.569931,48.310824],[39.569931,48.31083],[39.569832,48.31085],[39.569809,48.310812],[39.569786,48.310815],[39.569805,48.310856],[39.569805,48.310857],[39.569765,48.310866]]]}},{"type":"Feature","properties":{"cadnum":"4411446200:01:003:0078"},"geometry":{"type":"Polygon","coordinates":[[[39.571277,48.312129],[39.571287,48.312147],[39.57131,48.312141],[39.571304,48.312123],[39.571277,48.312129]]]}},{"type":"Feature","properties":{"cadnum":"4411446200:01:003:0026"},"geometry":{"type":"Polygon","coordinates":[[[39.569342,48.311983],[39.569413,48.312192],[39.569665,48.312159],[39.569652,48.312127],[39.56958,48.311908],[39.569535,48.311914],[39.569455,48.311926],[39.569468,48.311965],[39.569342,48.311983]]]}},{"type":"Feature","properties":{"cadnum":"4411446200:01:003:0079"},"geometry":{"type":"Polygon","coordinates":[[[39.570528,48.312291],[39.570604,48.312327],[39.570622,48.312315],[39.570545,48.312276],[39.570528,48.312291]]]}},{"type":"Feature","properties":{"cadnum":"4411446200:01:003:0108"},"geometry":{"type":"Polygon","coordinates":[[[39.571952,48.311917],[39.571979,48.311998],[39.572158,48.311971],[39.572132,48.31189],[39.571952,48.311917]]]}},{"type":"Feature","properties":{"cadnum":"4411446200:01:003:0027"},"geometry":{"type":"Polygon","coordinates":[[[39.572319,48.31158],[39.572329,48.311594],[39.572361,48.311592],[39.572356,48.311574],[39.572319,48.31158]]]}},{"type":"Feature","properties":{"cadnum":"4411446200:01:003:0023"},"geometry":{"type":"Polygon","coordinates":[[[39.569468,48.312225],[39.569499,48.312437],[39.569585,48.312437],[39.569688,48.312393],[39.569799,48.312267],[39.569724,48.312243],[39.569648,48.312255],[39.569639,48.312213],[39.569468,48.312225]]]}},{"type":"Feature","properties":{"cadnum":"4411446200:01:003:0028"},"geometry":{"type":"Polygon","coordinates":[[[39.572455,48.311589],[39.572464,48.311618],[39.572522,48.311609],[39.572508,48.31158],[39.572455,48.311589]]]}},{"type":"Feature","properties":{"cadnum":"4411446200:01:003:0077"},"geometry":{"type":"Polygon","coordinates":[[[39.571812,48.312021],[39.571816,48.312039],[39.571916,48.312016],[39.571906,48.312001],[39.571812,48.312021]]]}},{"type":"Feature","properties":{"cadnum":"4411446200:03:003:0008"},"geometry":{"type":"Polygon","coordinates":[[[39.572352,48.310148],[39.572378,48.31019],[39.572445,48.310176],[39.572419,48.310131],[39.572352,48.310148]]]}},{"type":"Feature","properties":{"cadnum":"4411446200:01:003:0022"},"geometry":{"type":"Polygon","coordinates":[[[39.570677,48.312037],[39.570685,48.312076],[39.570707,48.312072],[39.570694,48.312034],[39.570677,48.312037]]]}},{"type":"Feature","properties":{"cadnum":"4411446200:06:001:0001"},"geometry":{"type":"Polygon","coordinates":[[[39.57134,48.277218],[39.571539,48.27818],[39.572042,48.278082],[39.572526,48.278027],[39.572428,48.277544],[39.572338,48.277113],[39.57134,48.277218]]]}},{"type":"Feature","properties":{"cadnum":"4411446200:02:003:0016"},"geometry":{"type":"Polygon","coordinates":[[[39.555377,48.305985],[39.55567,48.306032],[39.555769,48.306047],[39.555832,48.30576],[39.555499,48.305721],[39.555377,48.305985]]]}},{"type":"Feature","properties":{"cadnum":"4411446200:02:003:0026"},"geometry":{"type":"Polygon","coordinates":[[[39.555499,48.305721],[39.555832,48.30576],[39.555863,48.305811],[39.555998,48.305826],[39.556123,48.305865],[39.556168,48.305852],[39.556142,48.30579],[39.55615,48.305757],[39.556146,48.305662],[39.556101,48.305638],[39.555576,48.305575],[39.555499,48.305721]]]}},{"type":"Feature","properties":{"cadnum":"4411446200:02:003:0017"},"geometry":{"type":"Polygon","coordinates":[[[39.55536,48.306038],[39.55557,48.306151],[39.555849,48.306289],[39.555966,48.306074],[39.55567,48.306032],[39.555377,48.305985],[39.55536,48.306038]]]}},{"type":"Feature","properties":{"cadnum":"4411446200:03:004:0017"},"geometry":{"type":"Polygon","coordinates":[[[39.573604,48.305545],[39.57365,48.305581],[39.573699,48.305551],[39.573658,48.305515],[39.573604,48.305545]]]}},{"type":"Feature","properties":{"cadnum":"4411446200:03:004:0001"},"geometry":{"type":"Polygon","coordinates":[[[39.572778,48.305208],[39.572809,48.305458],[39.572828,48.305482],[39.573321,48.305494],[39.573218,48.305186],[39.572778,48.305208]]]}},{"type":"Feature","properties":{"cadnum":"4411446200:01:004:0107"},"geometry":{"type":"Polygon","coordinates":[[[39.580239,48.311337],[39.580396,48.311346],[39.580711,48.311353],[39.580868,48.311346],[39.581218,48.311355],[39.581401,48.311368],[39.581407,48.311272],[39.581375,48.311269],[39.581222,48.311257],[39.580701,48.311218],[39.580518,48.311177],[39.580338,48.311164],[39.580239,48.311337]]]}},{"type":"Feature","properties":{"cadnum":"4411446200:01:004:0026"},"geometry":{"type":"Polygon","coordinates":[[[39.58177,48.310653],[39.58212,48.310704],[39.582183,48.310522],[39.58194,48.310495],[39.58177,48.310653]]]}},{"type":"Feature","properties":{"cadnum":"4411446200:01:004:0012"},"geometry":{"type":"Polygon","coordinates":[[[39.581514,48.309315],[39.581734,48.309315],[39.582202,48.309286],[39.58217,48.309061],[39.581541,48.309127],[39.581533,48.309172],[39.581514,48.309315]]]}},{"type":"Feature","properties":{"cadnum":"4411446200:01:004:0126"},"geometry":{"type":"Polygon","coordinates":[[[39.579952,48.309743],[39.580221,48.309787],[39.580642,48.309763],[39.580877,48.309763],[39.581051,48.309769],[39.581195,48.309554],[39.581029,48.309575],[39.580931,48.309575],[39.580831,48.309584],[39.580252,48.309644],[39.58,48.309665],[39.579952,48.309743]]]}},{"type":"Feature","properties":{"cadnum":"4411446200:01:004:0105"},"geometry":{"type":"Polygon","coordinates":[[[39.580338,48.311164],[39.580518,48.311177],[39.580701,48.311218],[39.581222,48.311257],[39.581375,48.311269],[39.581388,48.31103],[39.581231,48.311089],[39.580931,48.311069],[39.580594,48.311006],[39.580455,48.310973],[39.580338,48.311164]]]}},{"type":"Feature","properties":{"cadnum":"4411446200:01:004:0076"},"geometry":{"type":"Polygon","coordinates":[[[39.581088,48.309904],[39.581627,48.309964],[39.581829,48.309975],[39.581963,48.309751],[39.581451,48.309698],[39.581231,48.309665],[39.581088,48.309904]]]}},{"type":"Feature","properties":{"cadnum":"4411446200:01:004:0116"},"geometry":{"type":"Polygon","coordinates":[[[39.580005,48.311822],[39.580265,48.311822],[39.580701,48.311807],[39.580791,48.3118],[39.580755,48.311594],[39.580665,48.311598],[39.580359,48.311625],[39.580145,48.311625],[39.580099,48.311613],[39.580005,48.311822]]]}},{"type":"Feature","properties":{"cadnum":"4411446200:01:004:0077"},"geometry":{"type":"Polygon","coordinates":[[[39.581829,48.309975],[39.58199,48.309984],[39.582166,48.309772],[39.581963,48.309751],[39.581829,48.309975]]]}},{"type":"Feature","properties":{"cadnum":"4411446200:01:004:0025"},"geometry":{"type":"Polygon","coordinates":[[[39.580738,48.310489],[39.581015,48.310544],[39.581114,48.310561],[39.58146,48.310609],[39.581649,48.310445],[39.580805,48.310367],[39.580738,48.310489]]]}},{"type":"Feature","properties":{"cadnum":"4411446200:03:004:0066"},"geometry":{"type":"Polygon","coordinates":[[[39.57223,48.304359],[39.572513,48.304344],[39.572508,48.304296],[39.572499,48.304224],[39.572504,48.303997],[39.572478,48.303997],[39.572472,48.30397],[39.572248,48.303985],[39.572266,48.304156],[39.57223,48.304156],[39.57223,48.304359]]]}},{"type":"Feature","properties":{"cadnum":"4411446200:05:003:0018"},"geometry":{"type":"Polygon","coordinates":[[[39.570074,48.303259],[39.570082,48.303391],[39.570088,48.303472],[39.570088,48.303552],[39.570105,48.303582],[39.570151,48.303582],[39.570191,48.304003],[39.570272,48.304003],[39.570285,48.303992],[39.570407,48.303992],[39.570407,48.30397],[39.570394,48.30397],[39.570394,48.303923],[39.570407,48.303923],[39.570384,48.303737],[39.57038,48.303666],[39.570375,48.303666],[39.570357,48.303248],[39.570074,48.303259]]]}},{"type":"Feature","properties":{"cadnum":"4411446200:03:004:0009"},"geometry":{"type":"Polygon","coordinates":[[[39.570388,48.303439],[39.570388,48.303573],[39.570398,48.303678],[39.570407,48.303678],[39.570415,48.303753],[39.570424,48.303854],[39.570434,48.304001],[39.570455,48.304001],[39.570654,48.303997],[39.57064,48.303809],[39.570627,48.303573],[39.570618,48.30343],[39.570388,48.303439]]]}},{"type":"Feature","properties":{"cadnum":"4411446200:03:004:0064"},"geometry":{"type":"Polygon","coordinates":[[[39.570946,48.304034],[39.570954,48.304057],[39.570977,48.30415],[39.570968,48.304236],[39.570977,48.304282],[39.570981,48.304356],[39.57099,48.304356],[39.571,48.304404],[39.571256,48.304395],[39.571237,48.304231],[39.57121,48.304231],[39.571187,48.304025],[39.571053,48.304027],[39.571053,48.304021],[39.570946,48.304034]]]}},{"type":"Feature","properties":{"cadnum":"4411446200:05:003:0019"},"geometry":{"type":"Polygon","coordinates":[[[39.569738,48.302581],[39.570007,48.302877],[39.570074,48.303259],[39.570357,48.303248],[39.570361,48.30302],[39.570766,48.302991],[39.5709,48.302716],[39.570738,48.30268],[39.570465,48.302561],[39.570159,48.302528],[39.569738,48.302581]]]}}]}