{"type":"FeatureCollection","features":[{"type":"Feature","properties":{"cadnum":"4412145400:01:005:0129"},"geometry":{"type":"Polygon","coordinates":[[[38.668211,48.758291],[38.668408,48.759165],[38.671961,48.75736],[38.671961,48.757359],[38.672743,48.756962],[38.673708,48.756381],[38.673858,48.75629],[38.675073,48.755556],[38.675074,48.755556],[38.675442,48.755854],[38.674997,48.756106],[38.674675,48.75629],[38.674676,48.75629],[38.673955,48.756704],[38.671961,48.757852],[38.671282,48.758241],[38.671435,48.758413],[38.671961,48.758283],[38.677282,48.756961],[38.677282,48.756962],[38.677293,48.756959],[38.677454,48.75631],[38.677454,48.756307],[38.677478,48.756209],[38.677544,48.755946],[38.67767,48.75554],[38.67855,48.752692],[38.677823,48.752556],[38.677821,48.752556],[38.677454,48.752487],[38.671961,48.751458],[38.671961,48.751457],[38.669953,48.751081],[38.669445,48.752555],[38.669445,48.752556],[38.669028,48.753767],[38.670156,48.754691],[38.668385,48.755861],[38.668367,48.756177],[38.668367,48.756179],[38.66836,48.75629],[38.668301,48.757341],[38.669439,48.75629],[38.66944,48.75629],[38.671789,48.754124],[38.671794,48.75412],[38.671961,48.753966],[38.672423,48.753539],[38.672424,48.753539],[38.67281,48.753731],[38.67281,48.753732],[38.671789,48.754743],[38.670341,48.756177],[38.669167,48.757341],[38.668682,48.757823],[38.668211,48.758291]],[[38.675932,48.7561],[38.675927,48.756085],[38.675949,48.75608],[38.675959,48.756097],[38.675959,48.756098],[38.675932,48.7561]],[[38.67277,48.756763],[38.672769,48.756763],[38.67276,48.756746],[38.672783,48.75674],[38.672792,48.756758],[38.67277,48.756763]],[[38.670968,48.757154],[38.670959,48.757136],[38.670982,48.757131],[38.670991,48.757149],[38.670968,48.757154]],[[38.669544,48.757456],[38.669536,48.757441],[38.669563,48.757436],[38.669571,48.757454],[38.669544,48.757456]]]}},{"type":"Feature","properties":{"cadnum":"4412145400:01:003:0124"},"geometry":{"type":"Polygon","coordinates":[[[38.638553,48.77223],[38.638732,48.772461],[38.63883,48.772424],[38.63883,48.772425],[38.638912,48.772393],[38.639002,48.772365],[38.639002,48.772364],[38.639357,48.772251],[38.639312,48.77217],[38.639249,48.772185],[38.639226,48.772141],[38.639289,48.772126],[38.639231,48.772023],[38.638948,48.772088],[38.638732,48.772162],[38.638553,48.77223]]]}},{"type":"Feature","properties":{"cadnum":"4412145400:01:005:0134"},"geometry":{"type":"Polygon","coordinates":[[[38.654246,48.764885],[38.654332,48.764971],[38.654453,48.765096],[38.654462,48.765092],[38.654466,48.765089],[38.654852,48.764929],[38.654889,48.764915],[38.654965,48.764879],[38.654956,48.764867],[38.654929,48.764841],[38.654893,48.764806],[38.654767,48.764672],[38.654264,48.764876],[38.654256,48.764879],[38.654246,48.764885]]]}},{"type":"Feature","properties":{"cadnum":"4412145400:01:005:0111"},"geometry":{"type":"Polygon","coordinates":[[[38.654022,48.763479],[38.654076,48.763533],[38.654206,48.763663],[38.654732,48.763437],[38.654552,48.763251],[38.65416,48.763419],[38.654159,48.763419],[38.654022,48.763479]]]}},{"type":"Feature","properties":{"cadnum":"4412145400:01:005:0137"},"geometry":{"type":"Polygon","coordinates":[[[38.649453,48.763974],[38.649535,48.764157],[38.649816,48.764369],[38.649817,48.764369],[38.649817,48.76437],[38.649849,48.764394],[38.649988,48.764311],[38.650837,48.763805],[38.650541,48.763432],[38.650338,48.763533],[38.649988,48.763708],[38.649453,48.763974]]]}},{"type":"Feature","properties":{"cadnum":"4412145400:01:005:0138"},"geometry":{"type":"Polygon","coordinates":[[[38.651021,48.764586],[38.65116,48.764725],[38.651619,48.764527],[38.651906,48.764402],[38.651753,48.764251],[38.651722,48.764242],[38.651669,48.764251],[38.651439,48.764349],[38.651394,48.76437],[38.651323,48.764396],[38.651107,48.764492],[38.651151,48.764536],[38.651021,48.764586]]]}},{"type":"Feature","properties":{"cadnum":"4412145400:01:005:0107"},"geometry":{"type":"Polygon","coordinates":[[[38.655041,48.766164],[38.655248,48.766377],[38.65531,48.76635],[38.65531,48.766351],[38.655737,48.766162],[38.655531,48.765954],[38.65531,48.766049],[38.655041,48.766164]]]}},{"type":"Feature","properties":{"cadnum":"4412145400:01:005:0112"},"geometry":{"type":"Polygon","coordinates":[[[38.654166,48.764477],[38.654319,48.764628],[38.654856,48.764411],[38.654673,48.764237],[38.654166,48.764477]]]}},{"type":"Feature","properties":{"cadnum":"4412145400:01:005:0133"},"geometry":{"type":"Polygon","coordinates":[[[38.651367,48.76381],[38.651447,48.763887],[38.652072,48.763601],[38.651992,48.763523],[38.651367,48.76381]]]}},{"type":"Feature","properties":{"cadnum":"4412145400:01:005:0116"},"geometry":{"type":"Polygon","coordinates":[[[38.652772,48.764942],[38.65302,48.76517],[38.653483,48.764951],[38.653258,48.764725],[38.652772,48.764942]]]}},{"type":"Feature","properties":{"cadnum":"4412145400:01:005:0135"},"geometry":{"type":"Polygon","coordinates":[[[38.6475,48.760367],[38.647581,48.760441],[38.647824,48.760669],[38.648227,48.760479],[38.64807,48.760334],[38.647904,48.760175],[38.6475,48.760367]]]}},{"type":"Feature","properties":{"cadnum":"4412145400:01:005:0136"},"geometry":{"type":"Polygon","coordinates":[[[38.646592,48.7595],[38.646988,48.759912],[38.647361,48.760299],[38.647405,48.760278],[38.647405,48.760279],[38.6475,48.760367],[38.647904,48.760175],[38.647818,48.760095],[38.647628,48.759912],[38.647006,48.759313],[38.64666,48.759467],[38.646593,48.7595],[38.646592,48.7595]]]}},{"type":"Feature","properties":{"cadnum":"4412145400:01:002:0223"},"geometry":{"type":"Polygon","coordinates":[[[38.61379,48.776519],[38.614159,48.77656],[38.614199,48.776286],[38.613849,48.776288],[38.61379,48.776519]]]}},{"type":"Feature","properties":{"cadnum":"4412145400:01:005:0122"},"geometry":{"type":"Polygon","coordinates":[[[38.645937,48.757119],[38.649656,48.759079],[38.649816,48.759027],[38.649817,48.759027],[38.649832,48.759022],[38.649988,48.758973],[38.649988,48.758972],[38.650006,48.758966],[38.65104,48.758706],[38.652072,48.758578],[38.652045,48.758448],[38.652414,48.758123],[38.652046,48.75788],[38.652319,48.757705],[38.650694,48.756399],[38.650266,48.756177],[38.650265,48.756177],[38.649988,48.756034],[38.649988,48.756033],[38.648286,48.75515],[38.64706,48.756177],[38.647059,48.756177],[38.645937,48.757119]]]}},{"type":"Feature","properties":{"cadnum":"4412145400:01:005:0121"},"geometry":{"type":"Polygon","coordinates":[[[38.656582,48.761394],[38.656793,48.761593],[38.656963,48.76151],[38.65673,48.761323],[38.656582,48.761394]]]}},{"type":"Feature","properties":{"cadnum":"4412145400:01:005:0140"},"geometry":{"type":"Polygon","coordinates":[[[38.65712,48.762954],[38.657323,48.763165],[38.657606,48.763031],[38.657929,48.762878],[38.657732,48.762673],[38.65739,48.762831],[38.65712,48.762954]]]}},{"type":"Feature","properties":{"cadnum":"4412145400:01:005:0024"},"geometry":{"type":"Polygon","coordinates":[[[38.655809,48.762916],[38.65602,48.763109],[38.656487,48.762886],[38.656277,48.762691],[38.655809,48.762916]]]}},{"type":"Feature","properties":{"cadnum":"4412145400:01:005:0120"},"geometry":{"type":"Polygon","coordinates":[[[38.655961,48.761694],[38.656164,48.761886],[38.656793,48.761593],[38.656582,48.761394],[38.655961,48.761694]]]}},{"type":"Feature","properties":{"cadnum":"4412145400:01:005:0139"},"geometry":{"type":"Polygon","coordinates":[[[38.657732,48.762673],[38.657929,48.762878],[38.658261,48.762724],[38.658064,48.76252],[38.657732,48.762673]]]}},{"type":"Feature","properties":{"cadnum":"4412145400:01:002:0172"},"geometry":{"type":"Polygon","coordinates":[[[38.609227,48.773467],[38.60951,48.773502],[38.609599,48.773189],[38.6096,48.773189],[38.609703,48.773204],[38.609819,48.773189],[38.609888,48.773162],[38.609919,48.773044],[38.609937,48.77297],[38.609668,48.772946],[38.609609,48.773121],[38.609312,48.77308],[38.609227,48.773467]]]}},{"type":"Feature","properties":{"cadnum":"4412145400:01:002:0212"},"geometry":{"type":"Polygon","coordinates":[[[38.608791,48.774326],[38.608912,48.774338],[38.609034,48.774349],[38.609196,48.773609],[38.608953,48.773585],[38.60893,48.773671],[38.6088,48.774281],[38.608791,48.774326]]]}},{"type":"Feature","properties":{"cadnum":"4412145400:01:002:0213"},"geometry":{"type":"Polygon","coordinates":[[[38.608953,48.773585],[38.609196,48.773609],[38.609213,48.773532],[38.609312,48.77308],[38.60907,48.77305],[38.608993,48.773399],[38.608953,48.773585]]]}},{"type":"Feature","properties":{"cadnum":"4412145400:01:002:0220"},"geometry":{"type":"Polygon","coordinates":[[[38.609496,48.771288],[38.609833,48.771386],[38.610131,48.770966],[38.609811,48.770871],[38.609496,48.771288]]]}},{"type":"Feature","properties":{"cadnum":"4412145400:01:002:0017"},"geometry":{"type":"Polygon","coordinates":[[[38.60597,48.773574],[38.606066,48.773695],[38.607102,48.773343],[38.607035,48.773254],[38.607066,48.773245],[38.607039,48.773207],[38.60597,48.773574]]]}},{"type":"Feature","properties":{"cadnum":"4412145400:01:002:0012"},"geometry":{"type":"Polygon","coordinates":[[[38.611033,48.772976],[38.611311,48.773061],[38.611364,48.772994],[38.611465,48.772866],[38.611536,48.772777],[38.611536,48.772776],[38.611743,48.772514],[38.611486,48.772422],[38.611441,48.772488],[38.611366,48.77258],[38.611104,48.772896],[38.611033,48.772976]]]}},{"type":"Feature","properties":{"cadnum":"4412145400:01:002:0173"},"geometry":{"type":"Polygon","coordinates":[[[38.609213,48.773532],[38.609492,48.773562],[38.60951,48.773502],[38.609227,48.773467],[38.609213,48.773532]]]}},{"type":"Feature","properties":{"cadnum":"4412145400:01:002:0015"},"geometry":{"type":"Polygon","coordinates":[[[38.609613,48.774456],[38.609785,48.774483],[38.609857,48.774281],[38.610184,48.773379],[38.610041,48.773355],[38.609636,48.774394],[38.609637,48.774394],[38.609613,48.774456]]]}},{"type":"Feature","properties":{"cadnum":"4412145400:01:002:0230"},"geometry":{"type":"Polygon","coordinates":[[[38.610831,48.772824],[38.611104,48.772896],[38.611364,48.772581],[38.611366,48.77258],[38.611441,48.772488],[38.611486,48.772422],[38.611401,48.772398],[38.611213,48.772357],[38.611131,48.772479],[38.611055,48.772558],[38.610831,48.772824]]]}},{"type":"Feature","properties":{"cadnum":"4412145400:01:005:0128"},"geometry":{"type":"Polygon","coordinates":[[[38.654898,48.753701],[38.65531,48.753958],[38.65531,48.753959],[38.657714,48.755457],[38.659475,48.756177],[38.660803,48.75672],[38.661491,48.757],[38.661418,48.756177],[38.661099,48.752556],[38.661099,48.752555],[38.660975,48.751137],[38.660975,48.751129],[38.660818,48.749353],[38.660803,48.749177],[38.660781,48.748934],[38.660588,48.746736],[38.659546,48.746688],[38.65933,48.749047],[38.659331,48.749047],[38.659303,48.749351],[38.658424,48.751987],[38.657075,48.752556],[38.65531,48.7533],[38.654982,48.753438],[38.654898,48.753701]]]}},{"type":"Feature","properties":{"cadnum":"4412145400:01:005:0125"},"geometry":{"type":"Polygon","coordinates":[[[38.661972,48.746793],[38.662165,48.749047],[38.662166,48.749047],[38.662478,48.752669],[38.66279,48.75629],[38.662791,48.75629],[38.662856,48.757042],[38.664236,48.758191],[38.664271,48.758019],[38.664072,48.756177],[38.663684,48.752556],[38.663683,48.752556],[38.663683,48.752555],[38.663295,48.748934],[38.663081,48.746947],[38.661972,48.746793]]]}},{"type":"Feature","properties":{"cadnum":"4412145400:01:005:0127"},"geometry":{"type":"Polygon","coordinates":[[[38.654615,48.754542],[38.65531,48.755167],[38.656432,48.756177],[38.659236,48.758697],[38.660975,48.757774],[38.66137,48.757563],[38.660975,48.757374],[38.660975,48.757373],[38.658485,48.756177],[38.657426,48.755668],[38.655481,48.754489],[38.655481,48.754488],[38.654776,48.75406],[38.654615,48.754542]]]}},{"type":"Feature","properties":{"cadnum":"4412145400:01:005:0123"},"geometry":{"type":"Polygon","coordinates":[[[38.664739,48.758765],[38.664844,48.759798],[38.664972,48.761054],[38.666296,48.761001],[38.667244,48.760962],[38.667103,48.759798],[38.666967,48.758659],[38.666468,48.758683],[38.664739,48.758765]]]}},{"type":"Feature","properties":{"cadnum":"4412145400:01:002:0024"},"geometry":{"type":"Polygon","coordinates":[[[38.611932,48.769136],[38.612119,48.769199],[38.612205,48.769089],[38.612016,48.769024],[38.611932,48.769136]]]}},{"type":"Feature","properties":{"cadnum":"4412145400:01:002:0202"},"geometry":{"type":"Polygon","coordinates":[[[38.61084,48.769719],[38.610861,48.769728],[38.611123,48.769394],[38.611343,48.769155],[38.611364,48.769127],[38.611427,48.769046],[38.611536,48.768906],[38.612129,48.768142],[38.612528,48.768328],[38.612538,48.76831],[38.612119,48.768115],[38.611456,48.76897],[38.61132,48.769145],[38.6111,48.769385],[38.61084,48.769719]]]}},{"type":"Feature","properties":{"cadnum":"4412145400:01:002:0204"},"geometry":{"type":"Polygon","coordinates":[[[38.610552,48.770279],[38.610894,48.770442],[38.611364,48.770665],[38.611364,48.770666],[38.612052,48.770992],[38.612752,48.771327],[38.614599,48.772192],[38.615731,48.772718],[38.615744,48.772703],[38.614617,48.772177],[38.612766,48.771312],[38.61207,48.770978],[38.611403,48.770661],[38.611402,48.770661],[38.610911,48.770427],[38.61057,48.770264],[38.610552,48.770279]]]}},{"type":"Feature","properties":{"cadnum":"4412145400:01:002:0023"},"geometry":{"type":"Polygon","coordinates":[[[38.612016,48.769024],[38.612205,48.769089],[38.612781,48.768355],[38.612636,48.768304],[38.612618,48.768325],[38.612559,48.768304],[38.612016,48.769024]]]}},{"type":"Feature","properties":{"cadnum":"4412145400:01:002:0217"},"geometry":{"type":"Polygon","coordinates":[[[38.621125,48.771887],[38.621408,48.772023],[38.621804,48.771774],[38.622213,48.771383],[38.622351,48.771305],[38.622532,48.771203],[38.622513,48.771188],[38.622194,48.771371],[38.621786,48.771762],[38.621404,48.771999],[38.621144,48.771872],[38.621125,48.771887]]]}},{"type":"Feature","properties":{"cadnum":"4412145400:01:002:0237"},"geometry":{"type":"Polygon","coordinates":[[[38.62002,48.773858],[38.620295,48.773965],[38.620362,48.77382],[38.620528,48.773293],[38.620371,48.773254],[38.62024,48.773565],[38.62002,48.773858]]]}},{"type":"Feature","properties":{"cadnum":"4412145400:01:002:0238"},"geometry":{"type":"Polygon","coordinates":[[[38.619652,48.774278],[38.619657,48.774281],[38.619656,48.774281],[38.619782,48.774349],[38.619798,48.774338],[38.619809,48.774329],[38.619828,48.774338],[38.619899,48.77437],[38.619868,48.774394],[38.619939,48.774435],[38.619972,48.774403],[38.620016,48.774426],[38.620083,48.774364],[38.620097,48.774338],[38.620102,48.774329],[38.620159,48.774225],[38.620295,48.773965],[38.62002,48.773858],[38.619836,48.774107],[38.619819,48.774127],[38.619679,48.774257],[38.619652,48.774278]]]}},{"type":"Feature","properties":{"cadnum":"4412145400:01:002:0211"},"geometry":{"type":"Polygon","coordinates":[[[38.618664,48.772493],[38.61888,48.77257],[38.619213,48.772224],[38.619001,48.772144],[38.618664,48.772493]]]}},{"type":"Feature","properties":{"cadnum":"4412145400:01:002:0018"},"geometry":{"type":"Polygon","coordinates":[[[38.618075,48.771336],[38.618381,48.771478],[38.618647,48.771209],[38.618327,48.771058],[38.618075,48.771336]]]}},{"type":"Feature","properties":{"cadnum":"4412145400:01:002:0210"},"geometry":{"type":"Polygon","coordinates":[[[38.619001,48.772144],[38.619213,48.772224],[38.619293,48.772138],[38.619809,48.771584],[38.619607,48.771499],[38.619081,48.772061],[38.619001,48.772144]]]}},{"type":"Feature","properties":{"cadnum":"4412145400:01:002:0019"},"geometry":{"type":"Polygon","coordinates":[[[38.617909,48.771523],[38.618197,48.771659],[38.618381,48.771478],[38.618075,48.771336],[38.617909,48.771523]]]}},{"type":"Feature","properties":{"cadnum":"4412145400:01:002:0216"},"geometry":{"type":"Polygon","coordinates":[[[38.619778,48.771582],[38.620523,48.771911],[38.620542,48.771896],[38.619792,48.771567],[38.619778,48.771582]]]}},{"type":"Feature","properties":{"cadnum":"4412145400:01:001:0006"},"geometry":{"type":"Polygon","coordinates":[[[38.627243,48.783507],[38.627639,48.783886],[38.627844,48.783772],[38.627912,48.783734],[38.628016,48.783676],[38.628335,48.783499],[38.627867,48.783238],[38.627243,48.783507]]]}},{"type":"Feature","properties":{"cadnum":"4412145400:01:002:0219"},"geometry":{"type":"Polygon","coordinates":[[[38.603194,48.763305],[38.603353,48.763378],[38.603886,48.762816],[38.603626,48.762712],[38.603257,48.763112],[38.603253,48.763251],[38.603194,48.763305]]]}},{"type":"Feature","properties":{"cadnum":"4412145400:01:003:0121"},"geometry":{"type":"Polygon","coordinates":[[[38.630589,48.774243],[38.630625,48.774281],[38.630688,48.774346],[38.630733,48.774394],[38.630836,48.774503],[38.631168,48.774355],[38.631231,48.774338],[38.631262,48.774329],[38.631263,48.774329],[38.631384,48.774278],[38.631088,48.774044],[38.630589,48.774243]]]}},{"type":"Feature","properties":{"cadnum":"4412145400:01:003:0120"},"geometry":{"type":"Polygon","coordinates":[[[38.63027,48.77694],[38.630916,48.777517],[38.631258,48.777348],[38.630612,48.776771],[38.63027,48.77694]]]}},{"type":"Feature","properties":{"cadnum":"4412145400:01:003:0006"},"geometry":{"type":"Polygon","coordinates":[[[38.631065,48.777875],[38.631097,48.777901],[38.631096,48.777901],[38.631658,48.778372],[38.632614,48.777905],[38.633509,48.777469],[38.633509,48.777468],[38.634421,48.777023],[38.633769,48.776522],[38.633337,48.776739],[38.631065,48.777875]]]}},{"type":"Feature","properties":{"cadnum":"4412145400:01:005:0126"},"geometry":{"type":"Polygon","coordinates":[[[38.668408,48.759165],[38.668713,48.759912],[38.669032,48.76069],[38.670034,48.76027],[38.670745,48.759912],[38.670746,48.759912],[38.671789,48.759387],[38.671831,48.759366],[38.671961,48.759332],[38.671961,48.759331],[38.673075,48.759028],[38.676058,48.758389],[38.67696,48.758007],[38.677293,48.756959],[38.671789,48.758325],[38.671789,48.758326],[38.668408,48.759165]]]}},{"type":"Feature","properties":{"cadnum":"4412145400:01:004:0002"},"geometry":{"type":"Polygon","coordinates":[[[38.641185,48.775658],[38.641207,48.775761],[38.641944,48.775889],[38.641765,48.77556],[38.641333,48.775637],[38.641302,48.775632],[38.641225,48.775646],[38.64122,48.775637],[38.641189,48.775643],[38.641193,48.775658],[38.641185,48.775658]]]}},{"type":"Feature","properties":{"cadnum":"4412145400:01:005:0022"},"geometry":{"type":"Polygon","coordinates":[[[38.663957,48.767369],[38.663984,48.767375],[38.663988,48.767358],[38.663967,48.767351],[38.663957,48.767369]]]}},{"type":"Feature","properties":{"cadnum":"4412145400:01:005:0103"},"geometry":{"type":"Polygon","coordinates":[[[38.663984,48.767271],[38.664001,48.76729],[38.664028,48.767277],[38.664011,48.767259],[38.663984,48.767271]]]}},{"type":"Feature","properties":{"cadnum":"4412145400:01:001:0036"},"geometry":{"type":"Polygon","coordinates":[[[38.623794,48.780011],[38.623955,48.780074],[38.623968,48.780071],[38.624197,48.779938],[38.624417,48.77979],[38.624224,48.779689],[38.624157,48.779704],[38.623794,48.780011]]]}},{"type":"Feature","properties":{"cadnum":"4412145400:01:003:0114"},"geometry":{"type":"Polygon","coordinates":[[[38.625262,48.778461],[38.625675,48.778633],[38.626021,48.778712],[38.626228,48.778772],[38.626438,48.778905],[38.626461,48.778893],[38.626237,48.778757],[38.626031,48.778695],[38.625689,48.778618],[38.625289,48.778449],[38.62528,48.778443],[38.625262,48.778461]]]}},{"type":"Feature","properties":{"cadnum":"4412145400:01:001:0035"},"geometry":{"type":"Polygon","coordinates":[[[38.623532,48.779914],[38.623767,48.780003],[38.623794,48.780011],[38.624157,48.779704],[38.624134,48.779692],[38.623735,48.779449],[38.623681,48.779555],[38.623532,48.779914]]]}},{"type":"Feature","properties":{"cadnum":"4412145400:01:003:0115"},"geometry":{"type":"Polygon","coordinates":[[[38.625989,48.779636],[38.626052,48.779733],[38.626893,48.779461],[38.626758,48.779304],[38.625989,48.779636]]]}},{"type":"Feature","properties":{"cadnum":"4412145400:01:001:0041"},"geometry":{"type":"Polygon","coordinates":[[[38.622783,48.778976],[38.623479,48.779215],[38.623488,48.779206],[38.623591,48.779242],[38.623649,48.77926],[38.623704,48.779198],[38.623691,48.779195],[38.623721,48.779153],[38.623753,48.779109],[38.623528,48.77905],[38.623475,48.779041],[38.623222,48.778967],[38.622958,48.778831],[38.622783,48.778976]]]}},{"type":"Feature","properties":{"cadnum":"4412145400:01:005:0102"},"geometry":{"type":"Polygon","coordinates":[[[38.652405,48.76088],[38.652642,48.761104],[38.652764,48.761048],[38.652764,48.761049],[38.652778,48.76106],[38.652904,48.760998],[38.652764,48.760873],[38.652751,48.76088],[38.652634,48.760775],[38.652405,48.76088]]]}},{"type":"Feature","properties":{"cadnum":"4412145400:01:005:0115"},"geometry":{"type":"Polygon","coordinates":[[[38.652894,48.761481],[38.653055,48.761602],[38.653573,48.761347],[38.653433,48.761211],[38.652894,48.761481]]]}},{"type":"Feature","properties":{"cadnum":"4412145400:01:005:0130"},"geometry":{"type":"Polygon","coordinates":[[[38.650365,48.762644],[38.650558,48.762848],[38.651192,48.762594],[38.650999,48.76239],[38.650365,48.762644]]]}},{"type":"Feature","properties":{"cadnum":"4412145400:01:005:0023"},"geometry":{"type":"Polygon","coordinates":[[[38.657646,48.765368],[38.657781,48.765501],[38.658307,48.765273],[38.658162,48.76514],[38.657646,48.765368]]]}},{"type":"Feature","properties":{"cadnum":"4412145400:01:005:0132"},"geometry":{"type":"Polygon","coordinates":[[[38.657296,48.764577],[38.657543,48.764832],[38.657655,48.764784],[38.657535,48.764657],[38.657409,48.764527],[38.657296,48.764577]]]}},{"type":"Feature","properties":{"cadnum":"4412145400:01:005:0118"},"geometry":{"type":"Polygon","coordinates":[[[38.656133,48.764278],[38.656321,48.764494],[38.656667,48.764349],[38.65646,48.764148],[38.656416,48.764169],[38.65629,48.764222],[38.656133,48.764278]]]}},{"type":"Feature","properties":{"cadnum":"4412145400:01:005:0131"},"geometry":{"type":"Polygon","coordinates":[[[38.657058,48.764669],[38.657372,48.764974],[38.657521,48.764909],[38.657512,48.764897],[38.657521,48.764894],[38.657552,48.764894],[38.657818,48.764778],[38.657818,48.764761],[38.657818,48.76476],[38.657871,48.764737],[38.657714,48.764577],[38.657588,48.764447],[38.657058,48.764669]],[[38.657543,48.764832],[38.657296,48.764578],[38.657296,48.764577],[38.657408,48.764527],[38.657409,48.764527],[38.657535,48.764657],[38.657655,48.764784],[38.657543,48.764832]]]}},{"type":"Feature","properties":{"cadnum":"4412145400:01:005:0104"},"geometry":{"type":"Polygon","coordinates":[[[38.656554,48.766007],[38.656721,48.766173],[38.65686,48.766111],[38.656802,48.766055],[38.656699,48.765951],[38.656613,48.765984],[38.656554,48.766007]]]}},{"type":"Feature","properties":{"cadnum":"4412145400:01:005:0025"},"geometry":{"type":"Polygon","coordinates":[[[38.657561,48.765285],[38.657646,48.765368],[38.658162,48.76514],[38.658078,48.76506],[38.657561,48.765285]]]}},{"type":"Feature","properties":{"cadnum":"4412145400:01:005:0117"},"geometry":{"type":"Polygon","coordinates":[[[38.658217,48.763869],[38.658418,48.764074],[38.658927,48.763873],[38.658738,48.763669],[38.658217,48.763869]]]}},{"type":"Feature","properties":{"cadnum":"4412145400:01:005:0114"},"geometry":{"type":"Polygon","coordinates":[[[38.657372,48.76559],[38.657449,48.765655],[38.657583,48.765596],[38.657611,48.765598],[38.657659,48.765575],[38.657745,48.765661],[38.657871,48.765607],[38.657722,48.765445],[38.657372,48.76559]]]}},{"type":"Feature","properties":{"cadnum":"4412145400:01:002:0224"},"geometry":{"type":"Polygon","coordinates":[[[38.600307,48.765927],[38.600378,48.766003],[38.600441,48.76607],[38.60055,48.766028],[38.60055,48.766027],[38.601399,48.765697],[38.601322,48.76562],[38.601282,48.765637],[38.601246,48.765599],[38.601246,48.765598],[38.601277,48.765581],[38.601255,48.765557],[38.60055,48.765833],[38.600307,48.765927]]]}},{"type":"Feature","properties":{"cadnum":"4412145400:01:002:0225"},"geometry":{"type":"Polygon","coordinates":[[[38.600141,48.765993],[38.600271,48.766134],[38.600441,48.76607],[38.600307,48.765927],[38.600141,48.765993]]]}},{"type":"Feature","properties":{"cadnum":"4412145400:01:002:0226"},"geometry":{"type":"Polygon","coordinates":[[[38.599647,48.766167],[38.59975,48.766298],[38.600194,48.766152],[38.600078,48.766016],[38.599647,48.766167]]]}},{"type":"Feature","properties":{"cadnum":"4412145400:01:002:0016"},"geometry":{"type":"Polygon","coordinates":[[[38.608508,48.775303],[38.60862,48.775356],[38.609282,48.774728],[38.609326,48.774654],[38.609196,48.774625],[38.60911,48.774737],[38.608508,48.775303]]]}},{"type":"Feature","properties":{"cadnum":"4412145400:01:002:0207"},"geometry":{"type":"Polygon","coordinates":[[[38.609012,48.775566],[38.609182,48.775628],[38.609249,48.775503],[38.609196,48.775486],[38.609253,48.775418],[38.60911,48.775382],[38.609093,48.775412],[38.609012,48.775566]]]}},{"type":"Feature","properties":{"cadnum":"4412145400:01:002:0239"},"geometry":{"type":"Polygon","coordinates":[[[38.606949,48.77466],[38.606976,48.774672],[38.606963,48.774689],[38.607039,48.774713],[38.607045,48.774708],[38.607238,48.77477],[38.607619,48.774891],[38.607735,48.774779],[38.607426,48.774645],[38.607332,48.774607],[38.607301,48.774628],[38.607066,48.774533],[38.606968,48.774636],[38.606949,48.77466]]]}},{"type":"Feature","properties":{"cadnum":"4412145400:01:002:0208"},"geometry":{"type":"Polygon","coordinates":[[[38.60911,48.775382],[38.609253,48.775418],[38.609806,48.774767],[38.609848,48.774684],[38.609676,48.774663],[38.609676,48.774654],[38.60964,48.774651],[38.609636,48.77466],[38.609559,48.774651],[38.60911,48.775382]]]}},{"type":"Feature","properties":{"cadnum":"4412145400:01:002:0232"},"geometry":{"type":"Polygon","coordinates":[[[38.609626,48.775788],[38.609937,48.775853],[38.610045,48.775696],[38.610247,48.775404],[38.609945,48.77535],[38.609748,48.775617],[38.609626,48.775788]]]}},{"type":"Feature","properties":{"cadnum":"4412145400:01:003:0126"},"geometry":{"type":"Polygon","coordinates":[[[38.635076,48.777789],[38.63517,48.777898],[38.635172,48.777901],[38.635233,48.777978],[38.635262,48.778014],[38.635263,48.778014],[38.635333,48.7781],[38.635776,48.77796],[38.635646,48.777795],[38.635606,48.777745],[38.635489,48.777632],[38.635377,48.777685],[38.635346,48.777659],[38.635076,48.777789]]]}},{"type":"Feature","properties":{"cadnum":"4412145400:01:003:0125"},"geometry":{"type":"Polygon","coordinates":[[[38.634784,48.777928],[38.634863,48.778014],[38.634864,48.778014],[38.634981,48.778141],[38.635148,48.778322],[38.635463,48.778256],[38.635422,48.778206],[38.635233,48.777978],[38.635076,48.777789],[38.63484,48.777901],[38.634839,48.777901],[38.634784,48.777927],[38.634784,48.777928]]]}},{"type":"Feature","properties":{"cadnum":"4412145400:01:002:0228"},"geometry":{"type":"Polygon","coordinates":[[[38.605414,48.770578],[38.60548,48.770661],[38.605531,48.770724],[38.605551,48.770717],[38.605571,48.770711],[38.605871,48.770488],[38.605873,48.770487],[38.606043,48.77036],[38.60646,48.770048],[38.606303,48.769956],[38.606101,48.770116],[38.605948,48.770237],[38.605724,48.770395],[38.605561,48.770507],[38.605567,48.77051],[38.605504,48.770546],[38.605414,48.770578]]]}},{"type":"Feature","properties":{"cadnum":"4412145400:01:002:0218"},"geometry":{"type":"Polygon","coordinates":[[[38.618938,48.776575],[38.619113,48.776605],[38.61941,48.77583],[38.61941,48.775829],[38.619198,48.775803],[38.619149,48.776022],[38.618938,48.776575]]]}},{"type":"Feature","properties":{"cadnum":"4412145400:01:002:0233"},"geometry":{"type":"Polygon","coordinates":[[[38.619836,48.777328],[38.62015,48.777363],[38.620348,48.776931],[38.619972,48.776883],[38.619836,48.777328]]]}},{"type":"Feature","properties":{"cadnum":"4412145400:01:002:0209"},"geometry":{"type":"Polygon","coordinates":[[[38.61975,48.776773],[38.621511,48.777141],[38.621628,48.777153],[38.621647,48.777102],[38.621763,48.777087],[38.621863,48.776887],[38.62192,48.776833],[38.622117,48.776249],[38.622262,48.776279],[38.622339,48.77601],[38.62231,48.776004],[38.622302,48.776022],[38.622297,48.77604],[38.622239,48.776253],[38.622096,48.776223],[38.621889,48.776827],[38.621834,48.776878],[38.621741,48.777069],[38.62174,48.777069],[38.62162,48.777082],[38.621606,48.777132],[38.621517,48.777122],[38.61976,48.776756],[38.61975,48.776773]]]}},{"type":"Feature","properties":{"cadnum":"4412145400:01:002:0014"},"geometry":{"type":"Polygon","coordinates":[[[38.621745,48.775821],[38.621889,48.775906],[38.622037,48.775957],[38.622351,48.775776],[38.62249,48.775696],[38.622356,48.775418],[38.622351,48.775421],[38.621745,48.775821]]]}},{"type":"Feature","properties":{"cadnum":"4412145400:01:002:0205"},"geometry":{"type":"Polygon","coordinates":[[[38.618983,48.77665],[38.619005,48.776658],[38.619033,48.776613],[38.6195,48.775808],[38.619513,48.775788],[38.622297,48.77604],[38.622302,48.776022],[38.619495,48.775768],[38.619473,48.775803],[38.619005,48.776608],[38.618983,48.77665]]]}},{"type":"Feature","properties":{"cadnum":"4412145400:01:002:0231"},"geometry":{"type":"Polygon","coordinates":[[[38.621614,48.775599],[38.62166,48.775634],[38.621687,48.775658],[38.6217,48.775652],[38.621704,48.775649],[38.621763,48.77569],[38.621754,48.775693],[38.621745,48.775702],[38.621826,48.775768],[38.621834,48.775759],[38.622109,48.775581],[38.622243,48.775492],[38.622351,48.775423],[38.622351,48.775424],[38.622446,48.775362],[38.62228,48.775211],[38.622082,48.775327],[38.621974,48.775388],[38.621628,48.77559],[38.621614,48.775599]]]}},{"type":"Feature","properties":{"cadnum":"4412145400:01:003:0112"},"geometry":{"type":"Polygon","coordinates":[[[38.623358,48.773739],[38.62391,48.773958],[38.624077,48.773699],[38.623538,48.773471],[38.623358,48.773739]]]}},{"type":"Feature","properties":{"cadnum":"4412145400:01:003:0116"},"geometry":{"type":"Polygon","coordinates":[[[38.624071,48.773707],[38.624134,48.773722],[38.624471,48.773162],[38.624463,48.773159],[38.624126,48.77371],[38.624077,48.773699],[38.624071,48.773707]]]}},{"type":"Feature","properties":{"cadnum":"4412145400:01:003:0127"},"geometry":{"type":"Polygon","coordinates":[[[38.626381,48.774118],[38.626408,48.774149],[38.626525,48.774281],[38.626524,48.774281],[38.626591,48.774355],[38.626625,48.774394],[38.626672,48.774447],[38.626902,48.774324],[38.627077,48.774231],[38.627031,48.774187],[38.626776,48.773953],[38.62674,48.773926],[38.626654,48.773974],[38.626686,48.774],[38.626618,48.774035],[38.626587,48.774009],[38.626381,48.774118]]]}},{"type":"Feature","properties":{"cadnum":"4412145400:01:003:0128"},"geometry":{"type":"Polygon","coordinates":[[[38.625864,48.773695],[38.626196,48.773971],[38.626314,48.773905],[38.626515,48.773796],[38.626587,48.773754],[38.626381,48.773601],[38.626214,48.773473],[38.625864,48.773695]]]}},{"type":"Feature","properties":{"cadnum":"4412145400:01:003:0129"},"geometry":{"type":"Polygon","coordinates":[[[38.624997,48.773225],[38.625136,48.773337],[38.625451,48.773144],[38.625671,48.773008],[38.625608,48.772953],[38.625576,48.772967],[38.625536,48.772932],[38.625536,48.772931],[38.625572,48.772916],[38.625505,48.772857],[38.625473,48.772828],[38.625455,48.772837],[38.62541,48.772866],[38.625253,48.773002],[38.625127,48.773118],[38.624997,48.773225]]]}},{"type":"Feature","properties":{"cadnum":"4412145400:01:003:0117"},"geometry":{"type":"Polygon","coordinates":[[[38.624561,48.773281],[38.624602,48.773293],[38.624593,48.773302],[38.625127,48.773562],[38.625266,48.773479],[38.625096,48.773361],[38.624961,48.773254],[38.625127,48.773118],[38.62475,48.773],[38.624637,48.773168],[38.624651,48.773177],[38.624637,48.773195],[38.624664,48.773204],[38.624633,48.773248],[38.624597,48.773236],[38.624561,48.773281]]]}},{"type":"Feature","properties":{"cadnum":"4412145400:01:003:0113"},"geometry":{"type":"Polygon","coordinates":[[[38.622836,48.773532],[38.623358,48.773739],[38.623538,48.773471],[38.623048,48.773263],[38.622836,48.773532]]]}},{"type":"Feature","properties":{"cadnum":"4412145400:01:003:0016"},"geometry":{"type":"Polygon","coordinates":[[[38.622846,48.773757],[38.623771,48.77411],[38.623905,48.773967],[38.622989,48.773607],[38.622846,48.773757]]]}},{"type":"Feature","properties":{"cadnum":"4412145400:01:002:0243"},"geometry":{"type":"Polygon","coordinates":[[[38.606496,48.768003],[38.60659,48.768047],[38.606626,48.768014],[38.606666,48.768038],[38.606636,48.768065],[38.60673,48.768112],[38.606762,48.768082],[38.606793,48.768059],[38.606815,48.768038],[38.606959,48.767905],[38.607008,48.767846],[38.607215,48.767617],[38.607251,48.767579],[38.606995,48.76747],[38.606982,48.767488],[38.606882,48.7676],[38.60681,48.767683],[38.606721,48.767784],[38.606676,48.767831],[38.606617,48.767893],[38.606599,48.767908],[38.606527,48.767973],[38.606496,48.768003]]]}},{"type":"Feature","properties":{"cadnum":"4412145400:01:002:0215"},"geometry":{"type":"Polygon","coordinates":[[[38.608536,48.77064],[38.608716,48.770717],[38.608944,48.770487],[38.608769,48.770401],[38.608536,48.77064]]]}},{"type":"Feature","properties":{"cadnum":"4412145400:01:002:0203"},"geometry":{"type":"Polygon","coordinates":[[[38.606645,48.768432],[38.607772,48.768962],[38.608464,48.769291],[38.610324,48.770161],[38.610337,48.770146],[38.608477,48.769276],[38.607785,48.76895],[38.606658,48.768414],[38.606645,48.768432]]]}},{"type":"Feature","properties":{"cadnum":"4412145400:01:002:0013"},"geometry":{"type":"Polygon","coordinates":[[[38.606959,48.767964],[38.606995,48.767979],[38.607062,48.767911],[38.607026,48.767896],[38.606959,48.767964]]]}},{"type":"Feature","properties":{"cadnum":"4412145400:01:002:0167"},"geometry":{"type":"Polygon","coordinates":[[[38.610817,48.76982],[38.610934,48.769873],[38.610951,48.769871],[38.611041,48.769785],[38.610916,48.769726],[38.610817,48.76982]]]}},{"type":"Feature","properties":{"cadnum":"4412145400:01:002:0214"},"geometry":{"type":"Polygon","coordinates":[[[38.608769,48.770401],[38.608944,48.770487],[38.609613,48.76982],[38.609658,48.769776],[38.609555,48.769732],[38.60951,48.769776],[38.60942,48.769737],[38.608769,48.770401]]]}},{"type":"Feature","properties":{"cadnum":"4412145400:01:002:0235"},"geometry":{"type":"Polygon","coordinates":[[[38.60849,48.768932],[38.608634,48.769006],[38.608819,48.768841],[38.609366,48.768245],[38.609192,48.768174],[38.608643,48.768769],[38.60849,48.768932]]]}},{"type":"Feature","properties":{"cadnum":"4412145400:01:002:0171"},"geometry":{"type":"Polygon","coordinates":[[[38.607314,48.767751],[38.607601,48.767887],[38.607718,48.767771],[38.607422,48.767644],[38.607314,48.767751]]]}},{"type":"Feature","properties":{"cadnum":"4412145400:01:002:0244"},"geometry":{"type":"Polygon","coordinates":[[[38.606995,48.76747],[38.607251,48.767579],[38.607345,48.767473],[38.607093,48.767363],[38.607062,48.767398],[38.606995,48.76747]]]}},{"type":"Feature","properties":{"cadnum":"4412145400:01:002:0010"},"geometry":{"type":"Polygon","coordinates":[[[38.606892,48.768029],[38.606928,48.768044],[38.606995,48.767979],[38.606959,48.767964],[38.606892,48.768029]]]}},{"type":"Feature","properties":{"cadnum":"4412145400:01:002:0201"},"geometry":{"type":"Polygon","coordinates":[[[38.607569,48.76853],[38.608307,48.768885],[38.60832,48.76887],[38.607584,48.768515],[38.607569,48.76853]]]}},{"type":"Feature","properties":{"cadnum":"4412145400:01:002:0170"},"geometry":{"type":"Polygon","coordinates":[[[38.606865,48.768192],[38.607008,48.768257],[38.607039,48.768227],[38.607188,48.768302],[38.607601,48.767887],[38.607314,48.767751],[38.606865,48.768192]]]}},{"type":"Feature","properties":{"cadnum":"4412145400:01:002:0234"},"geometry":{"type":"Polygon","coordinates":[[[38.607534,48.769903],[38.607735,48.769978],[38.608118,48.769412],[38.60819,48.7693],[38.608253,48.769237],[38.608158,48.769195],[38.608181,48.769169],[38.608095,48.76914],[38.608073,48.76916],[38.607942,48.769311],[38.607915,48.76935],[38.607534,48.769903]]]}},{"type":"Feature","properties":{"cadnum":"4412145400:01:002:0011"},"geometry":{"type":"Polygon","coordinates":[[[38.610494,48.770226],[38.610525,48.770237],[38.610561,48.770255],[38.610584,48.770235],[38.610511,48.770205],[38.610494,48.770226]]]}},{"type":"Feature","properties":{"cadnum":"4412145400:01:002:0241"},"geometry":{"type":"Polygon","coordinates":[[[38.610224,48.769373],[38.610696,48.769587],[38.610827,48.76943],[38.610364,48.769214],[38.610224,48.769373]]]}},{"type":"Feature","properties":{"cadnum":"4412145400:01:002:0242"},"geometry":{"type":"Polygon","coordinates":[[[38.609986,48.769649],[38.610085,48.769696],[38.610458,48.769871],[38.610633,48.76966],[38.610696,48.769587],[38.610224,48.769373],[38.609986,48.769649]]]}},{"type":"Feature","properties":{"cadnum":"4412145400:01:002:0165"},"geometry":{"type":"Polygon","coordinates":[[[38.610737,48.769897],[38.610965,48.770001],[38.610974,48.769995],[38.611047,48.769924],[38.611064,48.769912],[38.611217,48.769734],[38.610983,48.769651],[38.610916,48.769726],[38.611041,48.769785],[38.61097,48.769856],[38.610951,48.769871],[38.610938,48.769873],[38.610934,48.769873],[38.610817,48.76982],[38.610772,48.769864],[38.610737,48.769897]]]}},{"type":"Feature","properties":{"cadnum":"4412145400:01:002:0236"},"geometry":{"type":"Polygon","coordinates":[[[38.609192,48.768174],[38.609366,48.768245],[38.609479,48.768124],[38.609299,48.768053],[38.609192,48.768174]]]}},{"type":"Feature","properties":{"cadnum":"4412145400:01:003:0098"},"geometry":{"type":"Polygon","coordinates":[[[38.636918,48.773855],[38.637038,48.774145],[38.637879,48.773905],[38.637794,48.773689],[38.636918,48.773855]]]}},{"type":"Feature","properties":{"cadnum":"4412145400:01:003:0097"},"geometry":{"type":"Polygon","coordinates":[[[38.636401,48.773943],[38.636405,48.77427],[38.637025,48.774151],[38.637038,48.774145],[38.636918,48.773855],[38.636401,48.773943]]]}},{"type":"Feature","properties":{"cadnum":"4412145400:01:002:0206"},"geometry":{"type":"Polygon","coordinates":[[[38.602611,48.767046],[38.602612,48.767047],[38.602701,48.767153],[38.602791,48.767259],[38.603091,48.76704],[38.603379,48.76683],[38.603137,48.7667],[38.602611,48.767046]]]}},{"type":"Feature","properties":{"cadnum":"4412145400:01:003:0106"},"geometry":{"type":"Polygon","coordinates":[[[38.642011,48.768888],[38.642208,48.769204],[38.643655,48.768944],[38.643497,48.768577],[38.642388,48.76874],[38.642011,48.768888]]]}},{"type":"Feature","properties":{"cadnum":"4412145400:01:005:0105"},"geometry":{"type":"Polygon","coordinates":[[[38.644208,48.768541],[38.644323,48.768762],[38.644323,48.768763],[38.644338,48.76879],[38.644495,48.768775],[38.645285,48.768695],[38.645443,48.769003],[38.646562,48.768831],[38.647755,48.768734],[38.648627,48.769471],[38.64878,48.769673],[38.649382,48.769554],[38.649458,48.768767],[38.649466,48.768275],[38.64834,48.767985],[38.64574,48.768317],[38.644323,48.768524],[38.644208,48.768541]],[[38.649005,48.768813],[38.649019,48.768799],[38.64904,48.768811],[38.649027,48.768826],[38.649005,48.768813]],[[38.647814,48.768583],[38.647828,48.768568],[38.64785,48.768576],[38.64785,48.768577],[38.647837,48.768592],[38.647814,48.768583]],[[38.646588,48.768331],[38.646589,48.768331],[38.646665,48.768322],[38.646673,48.768361],[38.646597,48.768367],[38.646588,48.768331]]]}},{"type":"Feature","properties":{"cadnum":"4412145400:02:004:0042"},"geometry":{"type":"Polygon","coordinates":[[[38.589585,48.778967],[38.589841,48.778976],[38.589881,48.778289],[38.589613,48.778283],[38.589585,48.778967]]]}},{"type":"Feature","properties":{"cadnum":"4412145400:01:005:0124"},"geometry":{"type":"Polygon","coordinates":[[[38.665013,48.761338],[38.66521,48.763283],[38.666296,48.763205],[38.666296,48.763206],[38.666368,48.7632],[38.666468,48.763193],[38.6675,48.763118],[38.66728,48.761229],[38.666296,48.761277],[38.665013,48.761338]]]}},{"type":"Feature","properties":{"cadnum":"4412145400:01:002:0227"},"geometry":{"type":"Polygon","coordinates":[[[38.612393,48.773568],[38.612559,48.773627],[38.612785,48.773234],[38.612874,48.77308],[38.612932,48.772993],[38.612987,48.772923],[38.612815,48.772861],[38.612775,48.772914],[38.612685,48.773038],[38.612393,48.773568]]]}},{"type":"Feature","properties":{"cadnum":"4412145400:01:002:0222"},"geometry":{"type":"Polygon","coordinates":[[[38.614001,48.773162],[38.614293,48.773289],[38.614576,48.77292],[38.614303,48.772802],[38.614001,48.773162]]]}},{"type":"Feature","properties":{"cadnum":"4412145400:01:002:0229"},"geometry":{"type":"Polygon","coordinates":[[[38.615156,48.773594],[38.615465,48.773707],[38.615479,48.773686],[38.615569,48.773535],[38.615645,48.773394],[38.615345,48.773319],[38.615237,48.773494],[38.615156,48.773594]]]}},{"type":"Feature","properties":{"cadnum":"4412145400:01:002:0221"},"geometry":{"type":"Polygon","coordinates":[[[38.614303,48.772802],[38.614576,48.77292],[38.614981,48.772396],[38.614733,48.772284],[38.614303,48.772802]]]}},{"type":"Feature","properties":{"cadnum":"4412145400:01:001:0040"},"geometry":{"type":"Polygon","coordinates":[[[38.626425,48.783199],[38.626465,48.783238],[38.626488,48.783229],[38.62652,48.783253],[38.626497,48.783264],[38.626551,48.783309],[38.626582,48.783294],[38.626601,48.783309],[38.626645,48.783321],[38.626704,48.783321],[38.626888,48.783279],[38.627184,48.78319],[38.627238,48.783164],[38.627054,48.782915],[38.626511,48.783134],[38.626425,48.783199]]]}},{"type":"Feature","properties":{"cadnum":"4412145400:01:001:0004"},"geometry":{"type":"Polygon","coordinates":[[[38.623318,48.782747],[38.623335,48.782762],[38.623352,48.782749],[38.623339,48.782734],[38.623318,48.782747]]]}},{"type":"Feature","properties":{"cadnum":"4412145400:01:001:0005"},"geometry":{"type":"Polygon","coordinates":[[[38.627004,48.783282],[38.627203,48.783471],[38.627243,48.783507],[38.627867,48.783238],[38.627633,48.783087],[38.62753,48.783075],[38.627283,48.783179],[38.627077,48.783262],[38.627004,48.783282]]]}},{"type":"Feature","properties":{"cadnum":"4412145400:01:001:0038"},"geometry":{"type":"Polygon","coordinates":[[[38.625734,48.782924],[38.625765,48.783084],[38.625832,48.783084],[38.625828,48.783104],[38.625949,48.783113],[38.625976,48.783104],[38.626031,48.783051],[38.626547,48.78283],[38.626362,48.782634],[38.625734,48.782924]]]}},{"type":"Feature","properties":{"cadnum":"4412145400:01:003:0119"},"geometry":{"type":"Polygon","coordinates":[[[38.622876,48.776152],[38.623192,48.776356],[38.623421,48.776167],[38.623645,48.776001],[38.623721,48.775883],[38.623582,48.775889],[38.623492,48.775915],[38.623412,48.775933],[38.623245,48.775983],[38.623196,48.775992],[38.623012,48.776034],[38.622918,48.776031],[38.622876,48.776152]]]}},{"type":"Feature","properties":{"cadnum":"4412145400:01:003:0108"},"geometry":{"type":"Polygon","coordinates":[[[38.624673,48.776365],[38.625846,48.777191],[38.625864,48.777179],[38.624692,48.776354],[38.624673,48.776365]]]}},{"type":"Feature","properties":{"cadnum":"4412145400:01:003:0014"},"geometry":{"type":"Polygon","coordinates":[[[38.626817,48.775229],[38.626847,48.775255],[38.627297,48.775655],[38.627562,48.775522],[38.62714,48.77511],[38.627113,48.775125],[38.627081,48.775099],[38.626973,48.775152],[38.627004,48.775178],[38.626964,48.775196],[38.626933,48.775169],[38.626817,48.775229]]]}},{"type":"Feature","properties":{"cadnum":"4412145400:01:003:0109"},"geometry":{"type":"Polygon","coordinates":[[[38.624175,48.775678],[38.624373,48.775821],[38.624423,48.775791],[38.62453,48.775867],[38.62453,48.775868],[38.624503,48.775886],[38.624539,48.775909],[38.624867,48.775622],[38.624696,48.775477],[38.62445,48.775551],[38.624175,48.775678]]]}},{"type":"Feature","properties":{"cadnum":"4412145400:01:003:0095"},"geometry":{"type":"Polygon","coordinates":[[[38.625599,48.776771],[38.625658,48.776818],[38.625658,48.776819],[38.625635,48.776833],[38.625706,48.776887],[38.625729,48.776874],[38.625792,48.776922],[38.625972,48.776824],[38.625954,48.776809],[38.625886,48.776756],[38.625783,48.776673],[38.62572,48.776709],[38.625719,48.776709],[38.625716,48.776705],[38.625599,48.776771]]]}},{"type":"Feature","properties":{"cadnum":"4412145400:01:003:0018"},"geometry":{"type":"Polygon","coordinates":[[[38.625976,48.777061],[38.626079,48.777153],[38.626291,48.777049],[38.626192,48.776957],[38.625976,48.777061]]]}},{"type":"Feature","properties":{"cadnum":"4412145400:01:003:0020"},"geometry":{"type":"Polygon","coordinates":[[[38.625761,48.776655],[38.625783,48.776673],[38.625886,48.776756],[38.625954,48.776809],[38.625972,48.776824],[38.625989,48.776836],[38.626205,48.776718],[38.626169,48.776691],[38.626052,48.776599],[38.625972,48.776537],[38.625761,48.776655]]]}},{"type":"Feature","properties":{"cadnum":"4412145400:01:003:0017"},"geometry":{"type":"Polygon","coordinates":[[[38.626272,48.777306],[38.626528,48.777517],[38.626658,48.77744],[38.626695,48.777436],[38.626834,48.777368],[38.626568,48.7771],[38.626385,48.777197],[38.626417,48.777227],[38.626272,48.777306]]]}},{"type":"Feature","properties":{"cadnum":"4412145400:01:003:0118"},"geometry":{"type":"Polygon","coordinates":[[[38.622859,48.776202],[38.623159,48.7764],[38.623192,48.776356],[38.622876,48.776152],[38.622859,48.776202]]]}},{"type":"Feature","properties":{"cadnum":"4412145400:01:003:0015"},"geometry":{"type":"Polygon","coordinates":[[[38.627297,48.775655],[38.627454,48.775791],[38.627706,48.775661],[38.627562,48.775522],[38.627297,48.775655]]]}},{"type":"Feature","properties":{"cadnum":"4412145400:01:002:0199"},"geometry":{"type":"Polygon","coordinates":[[[38.618228,48.770092],[38.61848,48.770214],[38.618691,48.770318],[38.618727,48.770329],[38.618785,48.770261],[38.618754,48.77025],[38.618812,48.770178],[38.61884,48.770149],[38.618901,48.770084],[38.618471,48.769823],[38.618228,48.770092]]]}},{"type":"Feature","properties":{"cadnum":"4412145400:01:003:0123"},"geometry":{"type":"Polygon","coordinates":[[[38.629341,48.780112],[38.62957,48.780325],[38.629754,48.780248],[38.630176,48.780071],[38.630023,48.779958],[38.629983,48.779932],[38.629744,48.779997],[38.629341,48.780112]]]}},{"type":"Feature","properties":{"cadnum":"4412145400:01:002:0193"},"geometry":{"type":"Polygon","coordinates":[[[38.62957,48.780325],[38.629731,48.780476],[38.629776,48.780447],[38.630342,48.780189],[38.630176,48.780071],[38.62957,48.780325]]]}},{"type":"Feature","properties":{"cadnum":"4412145400:01:003:0111"},"geometry":{"type":"Polygon","coordinates":[[[38.630899,48.779408],[38.631048,48.779538],[38.631325,48.77934],[38.631231,48.779254],[38.630899,48.779408]]]}},{"type":"Feature","properties":{"cadnum":"4412145400:01:003:0110"},"geometry":{"type":"Polygon","coordinates":[[[38.63049,48.77905],[38.630899,48.779408],[38.631231,48.779254],[38.630845,48.778901],[38.63049,48.77905]]]}},{"type":"Feature","properties":{"cadnum":"4412145400:01:001:0027"},"geometry":{"type":"Polygon","coordinates":[[[38.636002,48.776386],[38.636401,48.776622],[38.636482,48.776582],[38.636059,48.776332],[38.636002,48.776386]]]}},{"type":"Feature","properties":{"cadnum":"4412145400:01:001:0026"},"geometry":{"type":"Polygon","coordinates":[[[38.636059,48.776332],[38.636482,48.776582],[38.636819,48.776392],[38.636841,48.776377],[38.636734,48.776315],[38.636715,48.77633],[38.636316,48.776093],[38.636059,48.776332]]]}},{"type":"Feature","properties":{"cadnum":"4412145400:01:002:0169"},"geometry":{"type":"Polygon","coordinates":[[[38.601556,48.768826],[38.601623,48.769021],[38.602544,48.768817],[38.602414,48.768642],[38.601556,48.768826]]]}},{"type":"Feature","properties":{"cadnum":"4412145400:01:002:0020"},"geometry":{"type":"Polygon","coordinates":[[[38.603752,48.768438],[38.603756,48.768453],[38.603792,48.768447],[38.603793,48.768447],[38.603846,48.768559],[38.604601,48.76821],[38.604439,48.768112],[38.603783,48.768429],[38.603752,48.768438]]]}},{"type":"Feature","properties":{"cadnum":"4412145400:01:002:0168"},"geometry":{"type":"Polygon","coordinates":[[[38.602414,48.768642],[38.602544,48.768817],[38.602966,48.768725],[38.603464,48.768592],[38.603343,48.768429],[38.60289,48.768541],[38.602414,48.768642]]]}},{"type":"Feature","properties":{"cadnum":"4412145400:01:003:0122"},"geometry":{"type":"Polygon","coordinates":[[[38.630306,48.773941],[38.630589,48.774243],[38.631088,48.774044],[38.630733,48.773763],[38.630306,48.773941]]]}}]}