{"type":"FeatureCollection","features":[{"type":"Feature","properties":{"cadnum":"4420385501:01:001:0018"},"geometry":{"type":"Polygon","coordinates":[[[39.198521,48.118978],[39.198661,48.119047],[39.199133,48.119277],[39.199254,48.119336],[39.199305,48.119289],[39.199305,48.119288],[39.199402,48.119198],[39.199305,48.119151],[39.198823,48.118921],[39.198666,48.118838],[39.198521,48.118978]]]}},{"type":"Feature","properties":{"cadnum":"4420385501:01:001:0020"},"geometry":{"type":"Polygon","coordinates":[[[39.193546,48.121773],[39.193811,48.121791],[39.193811,48.12179],[39.193812,48.12179],[39.193976,48.1218],[39.194049,48.121755],[39.194106,48.121455],[39.194133,48.121218],[39.193994,48.121216],[39.19398,48.121206],[39.193657,48.121192],[39.193621,48.121474],[39.193546,48.121773]]]}},{"type":"Feature","properties":{"cadnum":"4420385501:01:001:0039"},"geometry":{"type":"Polygon","coordinates":[[[39.195967,48.118901],[39.196181,48.119032],[39.196209,48.119089],[39.196209,48.11909],[39.196168,48.119138],[39.196276,48.119258],[39.196361,48.119165],[39.196389,48.119179],[39.196487,48.119047],[39.19663,48.118918],[39.196141,48.118736],[39.195967,48.118901]]]}},{"type":"Feature","properties":{"cadnum":"4420385501:01:001:0038"},"geometry":{"type":"Polygon","coordinates":[[[39.194579,48.118709],[39.194955,48.118918],[39.195271,48.118732],[39.195617,48.118507],[39.195621,48.118505],[39.19562,48.118504],[39.195229,48.118298],[39.195027,48.118422],[39.195026,48.118422],[39.194843,48.118534],[39.194839,48.118536],[39.19484,48.118536],[39.194579,48.118709]]]}},{"type":"Feature","properties":{"cadnum":"4420385501:01:001:0052"},"geometry":{"type":"Polygon","coordinates":[[[39.198491,48.121243],[39.198607,48.121303],[39.19871,48.121359],[39.198823,48.121428],[39.198926,48.121341],[39.199007,48.121312],[39.1989,48.121179],[39.198854,48.121149],[39.198666,48.121059],[39.198491,48.121243]]]}},{"type":"Feature","properties":{"cadnum":"4420385501:01:001:0026"},"geometry":{"type":"Polygon","coordinates":[[[39.195705,48.118439],[39.19572,48.118447],[39.195879,48.118536],[39.19607,48.118643],[39.19628,48.118472],[39.19646,48.118322],[39.196626,48.118145],[39.196209,48.11795],[39.195898,48.118268],[39.195724,48.118422],[39.195705,48.118438],[39.195705,48.118439]]]}},{"type":"Feature","properties":{"cadnum":"4420385501:01:001:0037"},"geometry":{"type":"Polygon","coordinates":[[[39.194925,48.118985],[39.195292,48.119143],[39.195598,48.118852],[39.195845,48.118631],[39.195607,48.118516],[39.195271,48.118754],[39.194974,48.118954],[39.194925,48.118985]]]}},{"type":"Feature","properties":{"cadnum":"4420385501:01:001:0032"},"geometry":{"type":"Polygon","coordinates":[[[39.200458,48.114544],[39.200914,48.114754],[39.201093,48.114837],[39.2011,48.11484],[39.2011,48.114742],[39.201177,48.114682],[39.201288,48.11454],[39.201387,48.114418],[39.200858,48.114217],[39.200668,48.114337],[39.200458,48.114544]]]}},{"type":"Feature","properties":{"cadnum":"4420385501:01:001:0027"},"geometry":{"type":"Polygon","coordinates":[[[39.201082,48.114862],[39.201103,48.114869],[39.201104,48.114869],[39.201657,48.115047],[39.201999,48.115162],[39.202169,48.114982],[39.20203,48.114922],[39.201779,48.114855],[39.201773,48.114854],[39.201177,48.114682],[39.2011,48.114742],[39.2011,48.11484],[39.201082,48.114862]]]}},{"type":"Feature","properties":{"cadnum":"4420385501:01:001:0028"},"geometry":{"type":"Polygon","coordinates":[[[39.201177,48.114682],[39.201428,48.114754],[39.201773,48.114854],[39.201779,48.114855],[39.201829,48.114869],[39.20183,48.114869],[39.20203,48.114922],[39.202169,48.114982],[39.202349,48.114786],[39.202272,48.114769],[39.202156,48.114735],[39.202012,48.11472],[39.201913,48.114696],[39.201288,48.11454],[39.201177,48.114682]]]}},{"type":"Feature","properties":{"cadnum":"4420385501:01:001:0047"},"geometry":{"type":"Polygon","coordinates":[[[39.207186,48.121581],[39.207613,48.122034],[39.208003,48.121881],[39.207735,48.121581],[39.207555,48.12141],[39.207186,48.121581]]]}},{"type":"Feature","properties":{"cadnum":"4420385501:01:001:0048"},"geometry":{"type":"Polygon","coordinates":[[[39.206724,48.1218],[39.207107,48.122203],[39.207108,48.122203],[39.207226,48.122328],[39.207617,48.122141],[39.207182,48.121671],[39.207114,48.121614],[39.206724,48.1218]]]}},{"type":"Feature","properties":{"cadnum":"4420385501:01:001:0044"},"geometry":{"type":"Polygon","coordinates":[[[39.207743,48.120361],[39.207825,48.120448],[39.208049,48.120754],[39.208278,48.120967],[39.208435,48.120897],[39.208224,48.120706],[39.208224,48.120705],[39.208259,48.120685],[39.207923,48.120283],[39.207743,48.120361]]]}},{"type":"Feature","properties":{"cadnum":"4420385501:01:001:0035"},"geometry":{"type":"Polygon","coordinates":[[[39.207735,48.121581],[39.208003,48.121881],[39.208045,48.121926],[39.208452,48.12177],[39.208211,48.121485],[39.207976,48.121218],[39.207743,48.121326],[39.207878,48.121479],[39.207735,48.121581]]]}},{"type":"Feature","properties":{"cadnum":"4420385501:01:001:0046"},"geometry":{"type":"Polygon","coordinates":[[[39.207995,48.119653],[39.208125,48.119815],[39.208678,48.12051],[39.208884,48.120694],[39.209064,48.120612],[39.208852,48.120418],[39.208515,48.120028],[39.208578,48.120007],[39.208471,48.119875],[39.208372,48.119665],[39.208075,48.119623],[39.207995,48.119653]]]}},{"type":"Feature","properties":{"cadnum":"4420385501:01:001:0045"},"geometry":{"type":"Polygon","coordinates":[[[39.207976,48.121218],[39.208211,48.121485],[39.208452,48.12177],[39.208651,48.121686],[39.208431,48.121428],[39.208179,48.121125],[39.207976,48.121218]]]}},{"type":"Feature","properties":{"cadnum":"4420385501:01:001:0050"},"geometry":{"type":"Polygon","coordinates":[[[39.206481,48.12075],[39.206764,48.121137],[39.207106,48.121506],[39.207299,48.12141],[39.206961,48.121045],[39.206557,48.12055],[39.2065,48.120661],[39.206481,48.12075]]]}},{"type":"Feature","properties":{"cadnum":"4420385501:01:001:0042"},"geometry":{"type":"Polygon","coordinates":[[[39.207892,48.119947],[39.208125,48.120192],[39.208448,48.120603],[39.208664,48.120796],[39.208884,48.120694],[39.208678,48.12051],[39.208125,48.119815],[39.207892,48.119947]]]}},{"type":"Feature","properties":{"cadnum":"4420385501:01:001:0043"},"geometry":{"type":"Polygon","coordinates":[[[39.208965,48.120756],[39.209144,48.121023],[39.209356,48.121323],[39.209653,48.121257],[39.209396,48.12091],[39.209207,48.120643],[39.208965,48.120756]]]}},{"type":"Feature","properties":{"cadnum":"4420385501:01:001:0051"},"geometry":{"type":"Polygon","coordinates":[[[39.20467,48.122088],[39.204788,48.122203],[39.204789,48.122203],[39.204892,48.122304],[39.205075,48.12249],[39.205546,48.122235],[39.205435,48.122121],[39.205133,48.121809],[39.20467,48.122088]]]}},{"type":"Feature","properties":{"cadnum":"4420385501:01:001:0036"},"geometry":{"type":"Polygon","coordinates":[[[39.206907,48.120157],[39.207613,48.120859],[39.207909,48.121134],[39.208108,48.121045],[39.207796,48.120759],[39.207339,48.120298],[39.207087,48.120058],[39.206907,48.120157]]]}},{"type":"Feature","properties":{"cadnum":"4420385501:01:001:0031"},"geometry":{"type":"Polygon","coordinates":[[[39.19872,48.117434],[39.199039,48.117602],[39.199133,48.117648],[39.199133,48.117649],[39.199272,48.117716],[39.199286,48.117707],[39.199335,48.117707],[39.19942,48.117752],[39.199735,48.11747],[39.199294,48.117281],[39.199011,48.117161],[39.19872,48.117434]]]}},{"type":"Feature","properties":{"cadnum":"4420385501:01:001:0010"},"geometry":{"type":"Polygon","coordinates":[[[39.201922,48.118496],[39.202004,48.118536],[39.202005,48.118536],[39.202353,48.118705],[39.203005,48.119021],[39.203171,48.11885],[39.202472,48.118536],[39.202075,48.118358],[39.202005,48.118422],[39.202004,48.118422],[39.201922,48.118496]]]}},{"type":"Feature","properties":{"cadnum":"4420385501:01:001:0015"},"geometry":{"type":"Polygon","coordinates":[[[39.199846,48.118619],[39.200422,48.118883],[39.200732,48.119027],[39.200871,48.118883],[39.200584,48.118772],[39.199993,48.11847],[39.199991,48.118469],[39.199926,48.118536],[39.199846,48.118619]]]}},{"type":"Feature","properties":{"cadnum":"4420385501:01:001:0014"},"geometry":{"type":"Polygon","coordinates":[[[39.199959,48.118454],[39.199991,48.118469],[39.199993,48.11847],[39.200123,48.118536],[39.200584,48.118772],[39.200871,48.118883],[39.200992,48.118772],[39.200772,48.118652],[39.200497,48.118536],[39.200152,48.118391],[39.200305,48.118232],[39.200233,48.118193],[39.199993,48.118422],[39.199959,48.118454]]]}},{"type":"Feature","properties":{"cadnum":"4420385501:33:001:0206"},"geometry":{"type":"Polygon","coordinates":[[[39.11921,48.121863],[39.119399,48.121998],[39.119896,48.121719],[39.119695,48.121584],[39.11921,48.121863]]]}},{"type":"Feature","properties":{"cadnum":"4420385501:01:001:0022"},"geometry":{"type":"Polygon","coordinates":[[[39.192431,48.121083],[39.192665,48.121086],[39.192701,48.120823],[39.1928,48.12046],[39.192602,48.120454],[39.192498,48.12045],[39.192462,48.120723],[39.192431,48.121083]]]}},{"type":"Feature","properties":{"cadnum":"4420385501:01:001:0034"},"geometry":{"type":"Polygon","coordinates":[[[39.188443,48.120261],[39.188586,48.120583],[39.188928,48.12049],[39.188717,48.12019],[39.188443,48.120261]]]}},{"type":"Feature","properties":{"cadnum":"4420385501:01:001:0021"},"geometry":{"type":"Polygon","coordinates":[[[39.193321,48.121761],[39.193546,48.121773],[39.193621,48.121474],[39.193657,48.121192],[39.193406,48.121185],[39.193321,48.121761]]]}},{"type":"Feature","properties":{"cadnum":"4420385501:01:001:0024"},"geometry":{"type":"Polygon","coordinates":[[[39.192409,48.120448],[39.192498,48.12045],[39.192602,48.120454],[39.192625,48.120352],[39.192705,48.119959],[39.19271,48.11992],[39.192697,48.11992],[39.192751,48.119731],[39.192539,48.11971],[39.192512,48.119905],[39.192409,48.120448]]]}},{"type":"Feature","properties":{"cadnum":"4420385501:01:001:0041"},"geometry":{"type":"Polygon","coordinates":[[[39.191758,48.120331],[39.192171,48.120352],[39.192242,48.119944],[39.192275,48.119686],[39.191843,48.119647],[39.19178,48.119917],[39.191758,48.120331]]]}},{"type":"Feature","properties":{"cadnum":"4420385501:01:001:0023"},"geometry":{"type":"Polygon","coordinates":[[[39.192152,48.12046],[39.192269,48.120454],[39.192409,48.120448],[39.192512,48.119905],[39.192539,48.11971],[39.192275,48.119686],[39.192242,48.119944],[39.192171,48.120352],[39.192152,48.12046]]]}},{"type":"Feature","properties":{"cadnum":"4420385501:01:001:0025"},"geometry":{"type":"Polygon","coordinates":[[[39.192625,48.120352],[39.193091,48.120385],[39.19319,48.119971],[39.193231,48.119776],[39.192751,48.119731],[39.192697,48.11992],[39.19271,48.11992],[39.192705,48.119959],[39.192625,48.120352]]]}},{"type":"Feature","properties":{"cadnum":"4420385501:01:001:0019"},"geometry":{"type":"Polygon","coordinates":[[[39.193414,48.121101],[39.193604,48.121105],[39.193726,48.120469],[39.193541,48.120483],[39.193414,48.121101]]]}},{"type":"Feature","properties":{"cadnum":"4420385501:01:001:0033"},"geometry":{"type":"Polygon","coordinates":[[[39.188586,48.120583],[39.188703,48.120843],[39.188892,48.120823],[39.18904,48.12099],[39.189539,48.121545],[39.189718,48.121476],[39.189202,48.120876],[39.188928,48.12049],[39.188586,48.120583]]]}},{"type":"Feature","properties":{"cadnum":"4420385501:01:001:0053"},"geometry":{"type":"Polygon","coordinates":[[[39.203211,48.127517],[39.203382,48.127715],[39.20376,48.128183],[39.204133,48.128093],[39.20349,48.127407],[39.203211,48.127517]]]}},{"type":"Feature","properties":{"cadnum":"4420385501:01:001:0012"},"geometry":{"type":"Polygon","coordinates":[[[39.201127,48.119216],[39.20146,48.119365],[39.202187,48.119689],[39.20238,48.11956],[39.20155,48.119188],[39.201288,48.119056],[39.201127,48.119216]]]}},{"type":"Feature","properties":{"cadnum":"4420385501:01:001:0013"},"geometry":{"type":"Polygon","coordinates":[[[39.200997,48.119356],[39.201131,48.119416],[39.201091,48.119491],[39.201922,48.119893],[39.202187,48.119689],[39.20146,48.119365],[39.201127,48.119216],[39.200997,48.119356]]]}},{"type":"Feature","properties":{"cadnum":"4420385501:01:001:0016"},"geometry":{"type":"Polygon","coordinates":[[[39.199757,48.118763],[39.200121,48.11893],[39.200515,48.119116],[39.200494,48.119138],[39.200565,48.11917],[39.200732,48.119027],[39.200422,48.118883],[39.199846,48.118619],[39.199757,48.118763]]]}},{"type":"Feature","properties":{"cadnum":"4420385501:01:001:0017"},"geometry":{"type":"Polygon","coordinates":[[[39.199573,48.118999],[39.200085,48.119239],[39.200026,48.119294],[39.200179,48.119521],[39.200565,48.11917],[39.200494,48.119138],[39.200516,48.119116],[39.200121,48.11893],[39.199757,48.118763],[39.199573,48.118999]]]}}]}