{"type":"FeatureCollection","features":[{"type":"Feature","properties":{"cadnum":"4420382201:03:002:0303"},"geometry":{"type":"Polygon","coordinates":[[[39.143953,47.959267],[39.144373,47.959385],[39.144475,47.959414],[39.144578,47.959264],[39.144303,47.959187],[39.144026,47.959108],[39.143953,47.959267]]]}},{"type":"Feature","properties":{"cadnum":"4420382201:03:002:0302"},"geometry":{"type":"Polygon","coordinates":[[[39.144475,47.959414],[39.144951,47.959552],[39.144748,47.95977],[39.144789,47.95979],[39.145144,47.959489],[39.145706,47.95911],[39.145876,47.958984],[39.145872,47.958981],[39.145876,47.958978],[39.145813,47.958939],[39.145809,47.958942],[39.14575,47.958915],[39.145701,47.958888],[39.145651,47.958858],[39.144991,47.959391],[39.144685,47.959294],[39.144578,47.959264],[39.144475,47.959414]]]}},{"type":"Feature","properties":{"cadnum":"4420382201:01:002:0008"},"geometry":{"type":"Polygon","coordinates":[[[39.144133,47.938493],[39.144149,47.938529],[39.14415,47.938529],[39.144169,47.938569],[39.14416,47.938578],[39.144201,47.938696],[39.144309,47.939002],[39.144373,47.939194],[39.144435,47.939378],[39.144452,47.939586],[39.144775,47.939496],[39.144659,47.939213],[39.144479,47.938683],[39.144412,47.938572],[39.144373,47.938529],[39.144373,47.938528],[39.144362,47.938518],[39.144332,47.938472],[39.144309,47.938437],[39.1442,47.938472],[39.144133,47.938493]]]}},{"type":"Feature","properties":{"cadnum":"4420382201:01:002:0009"},"geometry":{"type":"Polygon","coordinates":[[[39.144452,47.939586],[39.144488,47.940061],[39.144911,47.93982],[39.144775,47.939496],[39.144452,47.939586]]]}}]}