{"type":"FeatureCollection","features":[{"type":"Feature","properties":{"cadnum":"4420355904:04:001:0017"},"geometry":{"type":"Polygon","coordinates":[[[38.788145,48.210205],[38.788154,48.210244],[38.788168,48.210298],[38.788311,48.210286],[38.788558,48.210286],[38.788648,48.210289],[38.789397,48.210376],[38.789843,48.210379],[38.789936,48.210217],[38.789554,48.21028],[38.788661,48.210199],[38.788611,48.210193],[38.788437,48.210193],[38.788145,48.210205]]]}},{"type":"Feature","properties":{"cadnum":"4420355904:04:001:0016"},"geometry":{"type":"Polygon","coordinates":[[[38.786779,48.205811],[38.787146,48.205957],[38.787305,48.20602],[38.787317,48.206008],[38.787376,48.205946],[38.787255,48.205896],[38.78686,48.205733],[38.786779,48.205811]]]}},{"type":"Feature","properties":{"cadnum":"4420355904:04:001:0015"},"geometry":{"type":"Polygon","coordinates":[[[38.787457,48.206084],[38.788468,48.206473],[38.788469,48.206473],[38.788864,48.206625],[38.788913,48.20665],[38.789038,48.206706],[38.789173,48.206751],[38.789218,48.206697],[38.789236,48.20667],[38.788921,48.206548],[38.788927,48.206544],[38.788845,48.206515],[38.788678,48.20645],[38.787539,48.206011],[38.787457,48.206084]]]}},{"type":"Feature","properties":{"cadnum":"4420355904:04:001:0311"},"geometry":{"type":"Polygon","coordinates":[[[38.78881,48.20758],[38.788904,48.207613],[38.788953,48.20755],[38.788854,48.20752],[38.788814,48.207574],[38.78881,48.20758]]]}}]}