{"type":"FeatureCollection","features":[{"type":"Feature","properties":{"cadnum":"4420387701:01:001:0465"},"geometry":{"type":"Polygon","coordinates":[[[39.084216,48.241546],[39.0844,48.241516],[39.085024,48.240496],[39.084876,48.240454],[39.084553,48.240984],[39.084216,48.241546]]]}},{"type":"Feature","properties":{"cadnum":"4420387701:01:001:0462"},"geometry":{"type":"Polygon","coordinates":[[[39.085186,48.240224],[39.085352,48.240272],[39.085941,48.239297],[39.086008,48.239186],[39.086121,48.239006],[39.086205,48.238857],[39.086322,48.238656],[39.086215,48.238632],[39.086178,48.238713],[39.086098,48.238698],[39.085846,48.239141],[39.085751,48.239297],[39.085708,48.239367],[39.085681,48.239411],[39.085186,48.240224]]]}},{"type":"Feature","properties":{"cadnum":"4420387701:01:001:0464"},"geometry":{"type":"Polygon","coordinates":[[[39.084876,48.240454],[39.085024,48.240496],[39.085731,48.239328],[39.085846,48.239141],[39.086098,48.238698],[39.085958,48.238665],[39.085922,48.238743],[39.085721,48.239066],[39.08558,48.239297],[39.08556,48.23933],[39.085511,48.239411],[39.084876,48.240454]]]}},{"type":"Feature","properties":{"cadnum":"4420387701:01:001:0463"},"geometry":{"type":"Polygon","coordinates":[[[39.0844,48.241516],[39.084616,48.241483],[39.085352,48.240272],[39.085186,48.240224],[39.0844,48.241516]]]}},{"type":"Feature","properties":{"cadnum":"4420387701:01:001:0472"},"geometry":{"type":"Polygon","coordinates":[[[39.096805,48.242644],[39.096874,48.242647],[39.096935,48.242653],[39.097008,48.242656],[39.097088,48.242659],[39.097165,48.242635],[39.097214,48.242593],[39.097228,48.242576],[39.097251,48.242578],[39.097264,48.242558],[39.097241,48.242554],[39.097314,48.242408],[39.097331,48.242366],[39.096895,48.242267],[39.096811,48.242608],[39.096805,48.242644]]]}}]}