{"type":"FeatureCollection","features":[{"type":"Feature","properties":{"cadnum":"4421489301:04:002:0059"},"geometry":{"type":"Polygon","coordinates":[[[39.421375,48.514901],[39.421807,48.515035],[39.421933,48.514874],[39.421507,48.514731],[39.421375,48.514901]]]}},{"type":"Feature","properties":{"cadnum":"4421489301:04:002:0057"},"geometry":{"type":"Polygon","coordinates":[[[39.421259,48.515062],[39.421681,48.515207],[39.421807,48.515035],[39.421375,48.514901],[39.421259,48.515062]]]}},{"type":"Feature","properties":{"cadnum":"4421489301:04:002:0060"},"geometry":{"type":"Polygon","coordinates":[[[39.4205,48.514809],[39.420882,48.51494],[39.421012,48.514767],[39.420616,48.514648],[39.4205,48.514809]]]}},{"type":"Feature","properties":{"cadnum":"4421489301:04:002:0037"},"geometry":{"type":"Polygon","coordinates":[[[39.419974,48.513128],[39.42019,48.513202],[39.420343,48.513006],[39.420442,48.512878],[39.420235,48.51281],[39.420168,48.512892],[39.420118,48.512954],[39.420117,48.512954],[39.420062,48.51302],[39.420024,48.513067],[39.419974,48.513128]]]}},{"type":"Feature","properties":{"cadnum":"4421489301:04:002:0058"},"geometry":{"type":"Polygon","coordinates":[[[39.421012,48.515395],[39.421457,48.515562],[39.421582,48.515398],[39.421547,48.515386],[39.421564,48.515368],[39.421142,48.51522],[39.421012,48.515395]]]}},{"type":"Feature","properties":{"cadnum":"4421489301:04:002:0064"},"geometry":{"type":"Polygon","coordinates":[[[39.424255,48.513955],[39.424353,48.514004],[39.424353,48.514005],[39.42439,48.514023],[39.424515,48.514074],[39.424524,48.514076],[39.424524,48.514075],[39.424943,48.514116],[39.424992,48.51388],[39.424628,48.513845],[39.424448,48.513816],[39.42435,48.5138],[39.424255,48.513955]]]}},{"type":"Feature","properties":{"cadnum":"4421489301:04:002:0055"},"geometry":{"type":"Polygon","coordinates":[[[39.423618,48.514943],[39.423842,48.515014],[39.424067,48.514746],[39.423855,48.514672],[39.423618,48.514943]]]}},{"type":"Feature","properties":{"cadnum":"4421489301:04:002:0056"},"geometry":{"type":"Polygon","coordinates":[[[39.423411,48.514252],[39.423604,48.514318],[39.423954,48.513878],[39.423738,48.5138],[39.423586,48.514008],[39.423411,48.514252]]]}},{"type":"Feature","properties":{"cadnum":"4421489301:04:002:0075"},"geometry":{"type":"Polygon","coordinates":[[[39.421121,48.514014],[39.421286,48.514071],[39.421493,48.514136],[39.421641,48.513937],[39.421434,48.513869],[39.421291,48.513821],[39.421259,48.513824],[39.421121,48.514014]]]}},{"type":"Feature","properties":{"cadnum":"4421489301:04:002:0062"},"geometry":{"type":"Polygon","coordinates":[[[39.42435,48.5138],[39.424353,48.513801],[39.424448,48.513816],[39.424524,48.513829],[39.424524,48.513828],[39.424628,48.513845],[39.424992,48.51388],[39.425023,48.513717],[39.424417,48.513646],[39.42435,48.5138]]]}},{"type":"Feature","properties":{"cadnum":"4421489301:04:002:0076"},"geometry":{"type":"Polygon","coordinates":[[[39.422584,48.513312],[39.423029,48.51347],[39.423142,48.513277],[39.42271,48.513137],[39.422584,48.513312]]]}},{"type":"Feature","properties":{"cadnum":"4421489301:04:002:0074"},"geometry":{"type":"Polygon","coordinates":[[[39.423801,48.514389],[39.424012,48.51446],[39.424255,48.514175],[39.42435,48.514045],[39.424367,48.514017],[39.424151,48.513946],[39.424031,48.514098],[39.423801,48.514389]]]}},{"type":"Feature","properties":{"cadnum":"4421489301:04:002:0048"},"geometry":{"type":"Polygon","coordinates":[[[39.430363,48.514678],[39.430386,48.514901],[39.431253,48.514898],[39.431258,48.514672],[39.430363,48.514678]]]}},{"type":"Feature","properties":{"cadnum":"4421489301:04:002:0290"},"geometry":{"type":"Polygon","coordinates":[[[39.41798,48.51303],[39.418052,48.513059],[39.418071,48.513067],[39.418268,48.513149],[39.418318,48.513149],[39.418389,48.513176],[39.418471,48.513208],[39.418656,48.512955],[39.418658,48.512952],[39.418398,48.512857],[39.418255,48.512806],[39.418222,48.512815],[39.418083,48.51294],[39.418068,48.512954],[39.418067,48.512954],[39.41798,48.51303]]]}},{"type":"Feature","properties":{"cadnum":"4421489301:04:002:0039"},"geometry":{"type":"Polygon","coordinates":[[[39.424561,48.510349],[39.424983,48.510393],[39.425006,48.510318],[39.425059,48.510141],[39.424907,48.510128],[39.42462,48.510122],[39.424561,48.510349]]]}},{"type":"Feature","properties":{"cadnum":"4421489301:04:002:0043"},"geometry":{"type":"Polygon","coordinates":[[[39.427821,48.509304],[39.427825,48.509314],[39.427825,48.509315],[39.427862,48.509402],[39.427974,48.509385],[39.427987,48.509428],[39.427988,48.509428],[39.428,48.509465],[39.428176,48.509435],[39.428526,48.509363],[39.428522,48.5092],[39.428046,48.509272],[39.42805,48.509277],[39.427983,48.50929],[39.427979,48.509277],[39.427956,48.509281],[39.427821,48.509304]]]}},{"type":"Feature","properties":{"cadnum":"4421489301:04:002:0045"},"geometry":{"type":"Polygon","coordinates":[[[39.42417,48.511411],[39.424353,48.511464],[39.424353,48.511465],[39.424399,48.511478],[39.424524,48.511514],[39.424551,48.511521],[39.42466,48.51133],[39.424353,48.511269],[39.42426,48.51125],[39.42417,48.511411]]]}},{"type":"Feature","properties":{"cadnum":"4421489301:04:002:0083"},"geometry":{"type":"Polygon","coordinates":[[[39.424134,48.51292],[39.424353,48.512991],[39.424353,48.512992],[39.424371,48.512997],[39.424524,48.512804],[39.424534,48.512792],[39.424633,48.512678],[39.424417,48.512592],[39.424134,48.51292]]]}},{"type":"Feature","properties":{"cadnum":"4421489301:04:002:0065"},"geometry":{"type":"Polygon","coordinates":[[[39.425719,48.512125],[39.425962,48.51214],[39.425958,48.512161],[39.426038,48.512166],[39.426042,48.512146],[39.426043,48.512146],[39.426151,48.512161],[39.426249,48.512134],[39.426295,48.51211],[39.426289,48.512071],[39.426249,48.512045],[39.426115,48.512027],[39.425751,48.511994],[39.425719,48.512125]]]}},{"type":"Feature","properties":{"cadnum":"4421489301:04:002:0040"},"geometry":{"type":"Polygon","coordinates":[[[39.42426,48.51125],[39.424524,48.511304],[39.424524,48.511303],[39.42466,48.51133],[39.42474,48.511114],[39.424486,48.511066],[39.424341,48.511039],[39.42426,48.51125]]]}},{"type":"Feature","properties":{"cadnum":"4421489301:04:002:0038"},"geometry":{"type":"Polygon","coordinates":[[[39.424916,48.510637],[39.425279,48.510679],[39.425607,48.510706],[39.42562,48.51064],[39.425692,48.51062],[39.42571,48.510542],[39.425293,48.510516],[39.42496,48.510492],[39.42492,48.510611],[39.424916,48.510637]]]}},{"type":"Feature","properties":{"cadnum":"4421489301:04:002:0041"},"geometry":{"type":"Polygon","coordinates":[[[39.424421,48.510783],[39.424524,48.510796],[39.424839,48.510834],[39.424916,48.510637],[39.42492,48.510611],[39.424497,48.510565],[39.424421,48.510783]]]}},{"type":"Feature","properties":{"cadnum":"4421489301:04:002:0042"},"geometry":{"type":"Polygon","coordinates":[[[39.424497,48.510565],[39.42492,48.510611],[39.42496,48.510492],[39.424983,48.510393],[39.424561,48.510349],[39.424497,48.510565]]]}},{"type":"Feature","properties":{"cadnum":"4421489301:04:002:0071"},"geometry":{"type":"Polygon","coordinates":[[[39.424322,48.512351],[39.424353,48.512355],[39.424367,48.512356],[39.424524,48.512374],[39.42483,48.512408],[39.425261,48.512449],[39.42531,48.512247],[39.424874,48.512214],[39.424377,48.512173],[39.424322,48.512351]]]}},{"type":"Feature","properties":{"cadnum":"4421489301:04:002:0063"},"geometry":{"type":"Polygon","coordinates":[[[39.416813,48.514731],[39.417167,48.514848],[39.417347,48.514607],[39.417482,48.514428],[39.417127,48.514312],[39.416813,48.514731]]]}},{"type":"Feature","properties":{"cadnum":"4421489301:04:002:0061"},"geometry":{"type":"Polygon","coordinates":[[[39.424534,48.513479],[39.42505,48.513544],[39.425077,48.513401],[39.424695,48.513291],[39.424534,48.513479]]]}},{"type":"Feature","properties":{"cadnum":"4421489301:04:002:0067"},"geometry":{"type":"Polygon","coordinates":[[[39.420226,48.512325],[39.4205,48.51242],[39.420666,48.512217],[39.420859,48.511979],[39.420585,48.511881],[39.420379,48.512113],[39.420226,48.512325]]]}},{"type":"Feature","properties":{"cadnum":"4421489301:04:002:0069"},"geometry":{"type":"Polygon","coordinates":[[[39.421134,48.511804],[39.421394,48.51189],[39.421501,48.511736],[39.421597,48.511584],[39.421687,48.511465],[39.421461,48.511384],[39.421367,48.511506],[39.421331,48.511545],[39.421134,48.511804]]]}},{"type":"Feature","properties":{"cadnum":"4421489301:04:002:0068"},"geometry":{"type":"Polygon","coordinates":[[[39.421394,48.51189],[39.421658,48.511979],[39.421838,48.511723],[39.421978,48.511536],[39.421713,48.511443],[39.421687,48.511465],[39.421597,48.511584],[39.421501,48.511736],[39.421394,48.51189]]]}},{"type":"Feature","properties":{"cadnum":"4421489301:04:002:0066"},"geometry":{"type":"Polygon","coordinates":[[[39.4205,48.51242],[39.420779,48.512524],[39.420945,48.512321],[39.421134,48.512074],[39.420859,48.511979],[39.420666,48.512217],[39.4205,48.51242]]]}},{"type":"Feature","properties":{"cadnum":"4421489301:04:002:0073"},"geometry":{"type":"Polygon","coordinates":[[[39.42223,48.511306],[39.422576,48.51142],[39.422876,48.511509],[39.422876,48.511512],[39.42297,48.511542],[39.423096,48.511378],[39.422723,48.511235],[39.422383,48.511114],[39.42223,48.511306]]]}},{"type":"Feature","properties":{"cadnum":"4421489301:04:002:0053"},"geometry":{"type":"Polygon","coordinates":[[[39.421341,48.512729],[39.421672,48.512843],[39.421834,48.51258],[39.42197,48.512375],[39.421658,48.512268],[39.421515,48.512464],[39.421341,48.512729]]]}},{"type":"Feature","properties":{"cadnum":"4421489301:04:002:0052"},"geometry":{"type":"Polygon","coordinates":[[[39.422063,48.512116],[39.422463,48.512253],[39.422633,48.512024],[39.422625,48.512003],[39.422773,48.511831],[39.422387,48.511705],[39.422063,48.512116]]]}},{"type":"Feature","properties":{"cadnum":"4421489301:04:002:0047"},"geometry":{"type":"Polygon","coordinates":[[[39.430876,48.512539],[39.43088,48.512755],[39.431338,48.51275],[39.431342,48.512532],[39.430876,48.512539]]]}},{"type":"Feature","properties":{"cadnum":"4421489301:04:002:0046"},"geometry":{"type":"Polygon","coordinates":[[[39.430417,48.512764],[39.43088,48.512755],[39.430876,48.512539],[39.431342,48.512532],[39.431342,48.512312],[39.430427,48.512325],[39.430422,48.512548],[39.430417,48.512764]]]}},{"type":"Feature","properties":{"cadnum":"4421489301:04:002:0049"},"geometry":{"type":"Polygon","coordinates":[[[39.430413,48.512988],[39.431334,48.512976],[39.431338,48.51275],[39.43088,48.512755],[39.430417,48.512764],[39.430413,48.512988]]]}},{"type":"Feature","properties":{"cadnum":"4421489301:04:002:0044"},"geometry":{"type":"Polygon","coordinates":[[[39.427593,48.509182],[39.42766,48.509337],[39.427821,48.509304],[39.427956,48.509281],[39.427979,48.509277],[39.427983,48.50929],[39.42805,48.509277],[39.428046,48.509272],[39.428522,48.5092],[39.428442,48.509021],[39.427593,48.509182]]]}}]}