{"type":"FeatureCollection","features":[{"type":"Feature","properties":{"cadnum":"4421482205:04:001:0001"},"geometry":{"type":"Polygon","coordinates":[[[39.667349,48.271953],[39.668615,48.271812],[39.66897,48.271804],[39.669293,48.271843],[39.669599,48.271887],[39.669787,48.271938],[39.669895,48.27198],[39.670016,48.272016],[39.670538,48.272213],[39.670555,48.272219],[39.670565,48.272224],[39.670771,48.272327],[39.670771,48.272328],[39.670878,48.272381],[39.670879,48.272381],[39.671545,48.272818],[39.671545,48.272819],[39.671552,48.272823],[39.671668,48.27291],[39.671717,48.272932],[39.671717,48.272931],[39.6718,48.272967],[39.671966,48.273002],[39.677038,48.273514],[39.677038,48.273515],[39.6771,48.27352],[39.677144,48.273523],[39.67721,48.273571],[39.677238,48.273591],[39.677274,48.273427],[39.677121,48.273412],[39.676934,48.273358],[39.676825,48.273346],[39.676754,48.27335],[39.676672,48.273367],[39.672532,48.272949],[39.672006,48.272898],[39.671871,48.272868],[39.671773,48.272826],[39.671668,48.272749],[39.670982,48.2723],[39.670981,48.272299],[39.670645,48.272127],[39.670089,48.271918],[39.669967,48.271881],[39.669859,48.27184],[39.669647,48.271786],[39.669324,48.271738],[39.668978,48.271696],[39.668597,48.271705],[39.66755,48.271821],[39.667349,48.271953]]]}},{"type":"Feature","properties":{"cadnum":"4421482205:20:001:0001"},"geometry":{"type":"Polygon","coordinates":[[[39.674643,48.267056],[39.674823,48.267053],[39.674823,48.266939],[39.6748,48.266763],[39.67485,48.266121],[39.674863,48.266081],[39.674939,48.266028],[39.676471,48.26519],[39.676907,48.264951],[39.677121,48.26464],[39.676964,48.26461],[39.676775,48.264885],[39.676748,48.2649],[39.676747,48.2649],[39.676368,48.26511],[39.674827,48.265947],[39.674714,48.26603],[39.674691,48.266108],[39.674638,48.266763],[39.67466,48.266939],[39.674643,48.267056]]]}},{"type":"Feature","properties":{"cadnum":"4421482205:20:001:0002"},"geometry":{"type":"Polygon","coordinates":[[[39.674643,48.267056],[39.674754,48.267212],[39.675469,48.26775],[39.675519,48.267801],[39.675666,48.267756],[39.675599,48.267684],[39.674894,48.267152],[39.674823,48.267053],[39.674643,48.267056]]]}}]}