{"type":"FeatureCollection","features":[{"type":"Feature","properties":{"cadnum":"4421610101:00:009:0205"},"geometry":{"type":"Polygon","coordinates":[[[38.184849,49.098258],[38.184975,49.098293],[38.185021,49.098308],[38.185141,49.098049],[38.185847,49.096614],[38.185694,49.096582],[38.184971,49.098005],[38.184908,49.098119],[38.184849,49.098258]]]}},{"type":"Feature","properties":{"cadnum":"4421610101:00:009:0209"},"geometry":{"type":"Polygon","coordinates":[[[38.184566,49.098175],[38.184607,49.098187],[38.184849,49.098258],[38.184908,49.098119],[38.184971,49.098005],[38.185371,49.097214],[38.185097,49.09716],[38.184675,49.098014],[38.184566,49.098175]]]}},{"type":"Feature","properties":{"cadnum":"4421610101:00:009:0206"},"geometry":{"type":"Polygon","coordinates":[[[38.185694,49.096582],[38.185847,49.096614],[38.18595,49.096414],[38.185793,49.096381],[38.185694,49.096582]]]}},{"type":"Feature","properties":{"cadnum":"4421610101:01:010:0001"},"geometry":{"type":"Polygon","coordinates":[[[38.187046,49.098661],[38.187382,49.09876],[38.187738,49.098272],[38.187518,49.098219],[38.187046,49.098661]]]}},{"type":"Feature","properties":{"cadnum":"4421610101:00:009:0210"},"geometry":{"type":"Polygon","coordinates":[[[38.185097,49.09716],[38.185371,49.097214],[38.185793,49.096381],[38.18551,49.096325],[38.185097,49.09716]]]}},{"type":"Feature","properties":{"cadnum":"4421610101:01:009:0004"},"geometry":{"type":"Polygon","coordinates":[[[38.182338,49.09784],[38.182438,49.097875],[38.182897,49.098023],[38.182898,49.098023],[38.183053,49.098073],[38.183069,49.098077],[38.183069,49.098076],[38.183484,49.098169],[38.183529,49.098105],[38.183552,49.098066],[38.18352,49.098058],[38.183323,49.098019],[38.18312,49.097966],[38.183069,49.09795],[38.18294,49.097908],[38.182451,49.097755],[38.182338,49.09784]]]}},{"type":"Feature","properties":{"cadnum":"4421610101:01:009:0006"},"geometry":{"type":"Polygon","coordinates":[[[38.182451,49.097755],[38.182897,49.097894],[38.182898,49.097894],[38.18294,49.097908],[38.183013,49.097931],[38.183069,49.097832],[38.183179,49.097637],[38.18347,49.097705],[38.183812,49.097084],[38.183537,49.097011],[38.183069,49.097331],[38.182451,49.097755]]]}},{"type":"Feature","properties":{"cadnum":"4421610101:01:009:0007"},"geometry":{"type":"Polygon","coordinates":[[[38.182208,49.098528],[38.182707,49.098684],[38.182897,49.098739],[38.182898,49.098739],[38.183017,49.098773],[38.183069,49.098788],[38.183076,49.09879],[38.183097,49.098796],[38.183103,49.098793],[38.183116,49.098766],[38.183187,49.098657],[38.18321,49.098625],[38.183179,49.098616],[38.183044,49.098576],[38.182864,49.098522],[38.182814,49.098507],[38.18233,49.098358],[38.182208,49.098528]]]}},{"type":"Feature","properties":{"cadnum":"4421610101:01:009:0001"},"geometry":{"type":"Polygon","coordinates":[[[38.182317,49.098037],[38.182897,49.098201],[38.182898,49.098201],[38.182898,49.098202],[38.183367,49.098334],[38.18348,49.098175],[38.183048,49.098078],[38.182434,49.097881],[38.182317,49.098037]]]}},{"type":"Feature","properties":{"cadnum":"4421610101:01:009:0005"},"geometry":{"type":"Polygon","coordinates":[[[38.183013,49.097931],[38.18312,49.097966],[38.183323,49.098019],[38.18352,49.098058],[38.183552,49.098066],[38.183646,49.097893],[38.183709,49.097772],[38.1836,49.097743],[38.18347,49.097705],[38.183179,49.097637],[38.183013,49.097931]]]}},{"type":"Feature","properties":{"cadnum":"4421610101:01:009:0002"},"geometry":{"type":"Polygon","coordinates":[[[38.182227,49.098328],[38.183069,49.098584],[38.183069,49.098583],[38.183179,49.098616],[38.183291,49.098446],[38.182898,49.098334],[38.182897,49.098334],[38.18233,49.098173],[38.182227,49.098328]]]}},{"type":"Feature","properties":{"cadnum":"4421610101:01:023:0002"},"geometry":{"type":"Polygon","coordinates":[[[38.183201,49.098814],[38.183677,49.099019],[38.183759,49.099054],[38.183992,49.098816],[38.183453,49.098587],[38.183201,49.098814]],[[38.183537,49.098949],[38.183516,49.09894],[38.183529,49.098928],[38.183552,49.098934],[38.183537,49.098949]]]}},{"type":"Feature","properties":{"cadnum":"4421610101:01:007:0006"},"geometry":{"type":"Polygon","coordinates":[[[38.189655,49.10376],[38.189916,49.103807],[38.190109,49.103351],[38.189849,49.103328],[38.189714,49.103622],[38.189655,49.10376]]]}},{"type":"Feature","properties":{"cadnum":"4421610101:01:005:0002"},"geometry":{"type":"Polygon","coordinates":[[[38.187962,49.104233],[38.18825,49.104289],[38.188391,49.104007],[38.188456,49.103875],[38.18855,49.103686],[38.188281,49.103633],[38.188267,49.103654],[38.188183,49.103821],[38.187962,49.104233]]]}},{"type":"Feature","properties":{"cadnum":"4421610101:00:008:0117"},"geometry":{"type":"Polygon","coordinates":[[[38.193693,49.102913],[38.193884,49.102972],[38.193959,49.102995],[38.194056,49.102864],[38.194152,49.102733],[38.194367,49.102457],[38.194107,49.102354],[38.194093,49.102369],[38.193946,49.102578],[38.1939,49.102634],[38.193887,49.102651],[38.193816,49.102747],[38.193693,49.102913]]]}},{"type":"Feature","properties":{"cadnum":"4421610101:01:007:0002"},"geometry":{"type":"Polygon","coordinates":[[[38.191304,49.103577],[38.191592,49.103625],[38.191888,49.103657],[38.191933,49.103662],[38.192206,49.103148],[38.192265,49.103001],[38.192072,49.102975],[38.191942,49.102945],[38.191676,49.103463],[38.191403,49.103416],[38.191304,49.103577]]]}},{"type":"Feature","properties":{"cadnum":"4421610101:01:007:0011"},"geometry":{"type":"Polygon","coordinates":[[[38.193523,49.10446],[38.193527,49.104462],[38.193797,49.104516],[38.193884,49.104314],[38.193896,49.104286],[38.193994,49.104069],[38.193711,49.104015],[38.193621,49.10423],[38.193523,49.10446]]]}},{"type":"Feature","properties":{"cadnum":"4421610101:00:005:0213"},"geometry":{"type":"Polygon","coordinates":[[[38.188789,49.104483],[38.18904,49.104521],[38.189202,49.104139],[38.189332,49.10383],[38.189072,49.103786],[38.188963,49.104051],[38.188789,49.104483]]]}},{"type":"Feature","properties":{"cadnum":"4421610101:01:007:0003"},"geometry":{"type":"Polygon","coordinates":[[[38.189189,49.103719],[38.189418,49.103757],[38.189426,49.103733],[38.189431,49.103721],[38.189462,49.103636],[38.189476,49.103607],[38.189503,49.103542],[38.189646,49.103207],[38.1893,49.103154],[38.189246,49.103245],[38.189363,49.103263],[38.189238,49.103598],[38.189225,49.103598],[38.189197,49.103666],[38.189206,49.103666],[38.189189,49.103719]]]}},{"type":"Feature","properties":{"cadnum":"4421610101:01:007:0009"},"geometry":{"type":"Polygon","coordinates":[[[38.191407,49.104078],[38.191682,49.104128],[38.191772,49.103921],[38.19187,49.103686],[38.191583,49.10364],[38.191489,49.103871],[38.191407,49.104078]]]}},{"type":"Feature","properties":{"cadnum":"4421610101:01:007:0005"},"geometry":{"type":"Polygon","coordinates":[[[38.192495,49.10378],[38.192849,49.103842],[38.192961,49.103636],[38.192629,49.103551],[38.192495,49.10378]]]}},{"type":"Feature","properties":{"cadnum":"4421610101:01:007:0007"},"geometry":{"type":"Polygon","coordinates":[[[38.191061,49.102807],[38.191246,49.10284],[38.191529,49.102886],[38.1916,49.102728],[38.19169,49.102533],[38.1912,49.102445],[38.191156,49.102563],[38.191128,49.102634],[38.191123,49.102648],[38.191084,49.102747],[38.191061,49.102807]]]}},{"type":"Feature","properties":{"cadnum":"4421610101:01:007:0010"},"geometry":{"type":"Polygon","coordinates":[[[38.188313,49.103548],[38.188361,49.10356],[38.188367,49.103548],[38.188391,49.103554],[38.188537,49.103586],[38.188562,49.103591],[38.188563,49.103591],[38.188583,49.103595],[38.188591,49.103575],[38.188672,49.103392],[38.188694,49.103339],[38.18878,49.103143],[38.188506,49.10308],[38.188397,49.103357],[38.188376,49.103407],[38.188334,49.103498],[38.188317,49.103539],[38.188313,49.103548]]]}},{"type":"Feature","properties":{"cadnum":"4421610101:01:008:0003"},"geometry":{"type":"Polygon","coordinates":[[[38.193433,49.102834],[38.193693,49.102913],[38.193884,49.102655],[38.193887,49.102651],[38.193946,49.102578],[38.194056,49.102423],[38.194056,49.102422],[38.194093,49.102369],[38.194029,49.102349],[38.193806,49.10228],[38.193608,49.102572],[38.193491,49.102747],[38.193433,49.102834]]]}},{"type":"Feature","properties":{"cadnum":"4421610101:01:007:0004"},"geometry":{"type":"Polygon","coordinates":[[[38.192629,49.103551],[38.192961,49.103636],[38.193101,49.103387],[38.193181,49.103233],[38.193227,49.103154],[38.192881,49.103075],[38.192755,49.103307],[38.192629,49.103551]]]}},{"type":"Feature","properties":{"cadnum":"4421610101:00:007:0805"},"geometry":{"type":"Polygon","coordinates":[[[38.188051,49.103489],[38.188317,49.103536],[38.188391,49.103362],[38.18851,49.10308],[38.188245,49.103034],[38.188051,49.103489]]]}},{"type":"Feature","properties":{"cadnum":"4421610101:01:007:0001"},"geometry":{"type":"Polygon","coordinates":[[[38.191923,49.10369],[38.192179,49.103719],[38.192525,49.103098],[38.192252,49.103039],[38.192193,49.103174],[38.191923,49.10369]]]}},{"type":"Feature","properties":{"cadnum":"4421610101:01:007:0008"},"geometry":{"type":"Polygon","coordinates":[[[38.190814,49.103442],[38.190931,49.103468],[38.190923,49.103496],[38.191053,49.103554],[38.191214,49.103575],[38.191529,49.102886],[38.191246,49.10284],[38.191061,49.102807],[38.190814,49.103442]]]}},{"type":"Feature","properties":{"cadnum":"4421610101:00:008:0617"},"geometry":{"type":"Polygon","coordinates":[[[38.196451,49.10246],[38.19664,49.102589],[38.196905,49.102184],[38.197013,49.10201],[38.196797,49.101955],[38.196451,49.10246]]]}},{"type":"Feature","properties":{"cadnum":"4421610101:01:008:0001"},"geometry":{"type":"Polygon","coordinates":[[[38.193437,49.10204],[38.193634,49.102095],[38.193884,49.101752],[38.194053,49.101519],[38.194056,49.101516],[38.194056,49.101515],[38.194147,49.101384],[38.194056,49.101355],[38.193824,49.101281],[38.193747,49.10139],[38.193869,49.101428],[38.193864,49.101449],[38.193856,49.10146],[38.193766,49.101598],[38.193437,49.10204]]]}},{"type":"Feature","properties":{"cadnum":"4421610101:01:013:0001"},"geometry":{"type":"Polygon","coordinates":[[[38.197439,49.099075],[38.197442,49.099076],[38.197652,49.09915],[38.197653,49.09915],[38.197776,49.099193],[38.19783,49.099124],[38.198082,49.098808],[38.197673,49.098664],[38.197461,49.099038],[38.19746,49.099038],[38.197459,49.099038],[38.197439,49.099075]]]}},{"type":"Feature","properties":{"cadnum":"4421610101:00:008:0901"},"geometry":{"type":"Polygon","coordinates":[[[38.197682,49.103075],[38.197844,49.103095],[38.197892,49.103084],[38.198063,49.102634],[38.198141,49.102431],[38.197921,49.102393],[38.197796,49.102747],[38.197797,49.102747],[38.197682,49.103075]]]}},{"type":"Feature","properties":{"cadnum":"4421610101:00:010:0313"},"geometry":{"type":"Polygon","coordinates":[[[38.193523,49.099455],[38.19377,49.09954],[38.193884,49.099409],[38.193978,49.0993],[38.194056,49.099211],[38.194056,49.09921],[38.19407,49.099193],[38.194147,49.099111],[38.19421,49.099143],[38.194516,49.098734],[38.194206,49.098637],[38.194187,49.098651],[38.194056,49.098797],[38.193873,49.098999],[38.193849,49.099038],[38.193806,49.099108],[38.193771,49.09915],[38.193772,49.09915],[38.193523,49.099455]]]}},{"type":"Feature","properties":{"cadnum":"4421610101:01:013:0002"},"geometry":{"type":"Polygon","coordinates":[[[38.197265,49.099381],[38.197561,49.099464],[38.197776,49.099193],[38.197442,49.099076],[38.197439,49.099075],[38.197396,49.09915],[38.197265,49.099381]]]}},{"type":"Feature","properties":{"cadnum":"4421610101:00:002:5909"},"geometry":{"type":"Polygon","coordinates":[[[38.187158,49.102084],[38.187235,49.102107],[38.187271,49.102057],[38.187194,49.102034],[38.187158,49.102084]]]}},{"type":"Feature","properties":{"cadnum":"4421610101:01:002:0001"},"geometry":{"type":"Polygon","coordinates":[[[38.184917,49.101966],[38.185092,49.10204],[38.185586,49.101657],[38.185766,49.101498],[38.185608,49.101419],[38.185613,49.10141],[38.185527,49.101372],[38.185478,49.101416],[38.185518,49.101434],[38.18534,49.10161],[38.184917,49.101966]]]}},{"type":"Feature","properties":{"cadnum":"4421610101:01:001:0003"},"geometry":{"type":"Polygon","coordinates":[[[38.182231,49.101742],[38.182897,49.101814],[38.182898,49.101814],[38.18298,49.101823],[38.183069,49.101833],[38.183069,49.101832],[38.18316,49.101842],[38.183291,49.101851],[38.183331,49.101669],[38.182927,49.101637],[38.182307,49.101566],[38.182231,49.101742]]]}},{"type":"Feature","properties":{"cadnum":"4421610101:01:001:0002"},"geometry":{"type":"Polygon","coordinates":[[[38.182002,49.102184],[38.182784,49.102348],[38.182897,49.102373],[38.182898,49.102373],[38.183026,49.102402],[38.183069,49.102406],[38.183264,49.102424],[38.183264,49.102204],[38.183061,49.102199],[38.182891,49.10218],[38.182055,49.102095],[38.182002,49.102184]]]}},{"type":"Feature","properties":{"cadnum":"4421610101:01:001:0013"},"geometry":{"type":"Polygon","coordinates":[[[38.182137,49.101931],[38.182145,49.101931],[38.182541,49.101975],[38.182725,49.101981],[38.182793,49.101984],[38.182897,49.101988],[38.182898,49.101988],[38.182898,49.101989],[38.183057,49.101995],[38.183069,49.101996],[38.183286,49.102005],[38.183309,49.101866],[38.183174,49.101857],[38.183008,49.101842],[38.182248,49.101763],[38.182218,49.101761],[38.182137,49.101931]]]}},{"type":"Feature","properties":{"cadnum":"4421610101:00:001:0117"},"geometry":{"type":"Polygon","coordinates":[[[38.182055,49.102095],[38.182897,49.102182],[38.182898,49.102182],[38.183061,49.102199],[38.183069,49.1022],[38.183069,49.102199],[38.183264,49.102204],[38.183286,49.102005],[38.183051,49.101995],[38.182725,49.101981],[38.182541,49.101975],[38.182145,49.101931],[38.182055,49.102095]]]}},{"type":"Feature","properties":{"cadnum":"4421610101:00:007:1005"},"geometry":{"type":"Polygon","coordinates":[[[38.187858,49.102989],[38.187994,49.103057],[38.188065,49.103093],[38.188133,49.103001],[38.188281,49.102786],[38.188306,49.102747],[38.188424,49.102566],[38.188451,49.102524],[38.188308,49.102487],[38.188281,49.102528],[38.188141,49.102487],[38.187994,49.102747],[38.187995,49.102747],[38.187858,49.102989]]]}},{"type":"Feature","properties":{"cadnum":"4421610101:01:007:0012"},"geometry":{"type":"Polygon","coordinates":[[[38.18754,49.102813],[38.187868,49.102975],[38.18803,49.102687],[38.188141,49.102487],[38.187801,49.102395],[38.187684,49.102583],[38.187652,49.102634],[38.18754,49.102813]]]}},{"type":"Feature","properties":{"cadnum":"4421610101:01:023:0007"},"geometry":{"type":"Polygon","coordinates":[[[38.184292,49.109088],[38.184445,49.109106],[38.184571,49.109117],[38.184935,49.109158],[38.185298,49.108315],[38.18534,49.107914],[38.185353,49.107759],[38.185434,49.107482],[38.185464,49.107385],[38.18547,49.107365],[38.185671,49.106785],[38.185811,49.106343],[38.185812,49.106343],[38.185851,49.106221],[38.186036,49.10566],[38.186026,49.10538],[38.186134,49.105122],[38.186323,49.104381],[38.186395,49.104201],[38.186633,49.10378],[38.186718,49.103627],[38.186835,49.103442],[38.186871,49.103374],[38.186885,49.103345],[38.186948,49.10323],[38.187279,49.102698],[38.187504,49.102348],[38.187778,49.102005],[38.188391,49.101532],[38.188407,49.101519],[38.188562,49.101348],[38.188914,49.100961],[38.189625,49.100116],[38.189548,49.100084],[38.18957,49.100061],[38.189642,49.099996],[38.189722,49.099911],[38.189722,49.09991],[38.189723,49.09991],[38.189839,49.099957],[38.190164,49.099651],[38.190482,49.09932],[38.190518,49.099272],[38.190599,49.09915],[38.1906,49.09915],[38.19068,49.099032],[38.190783,49.098846],[38.19094,49.098552],[38.190743,49.098507],[38.191106,49.09777],[38.191533,49.097373],[38.191843,49.096558],[38.192171,49.095581],[38.192181,49.095553],[38.192499,49.094602],[38.192621,49.094287],[38.193015,49.093578],[38.193447,49.092896],[38.193787,49.092329],[38.193621,49.092287],[38.193766,49.092081],[38.193861,49.091956],[38.193884,49.091927],[38.193985,49.091796],[38.194056,49.091704],[38.194107,49.091637],[38.194349,49.091296],[38.194533,49.09109],[38.194699,49.090846],[38.194466,49.090761],[38.19434,49.090714],[38.194214,49.09067],[38.19407,49.09067],[38.193952,49.090878],[38.193824,49.091105],[38.193738,49.091376],[38.193711,49.091431],[38.193663,49.091514],[38.193608,49.091596],[38.1935,49.091773],[38.19337,49.091832],[38.193363,49.091844],[38.193362,49.091844],[38.193324,49.091911],[38.193298,49.091956],[38.193258,49.092028],[38.193365,49.092058],[38.192992,49.092717],[38.193042,49.092728],[38.19293,49.092908],[38.192678,49.093299],[38.192405,49.093513],[38.192013,49.094052],[38.191879,49.094405],[38.191749,49.094737],[38.191726,49.095199],[38.191635,49.095441],[38.19138,49.096126],[38.191294,49.096399],[38.190944,49.097526],[38.190895,49.097711],[38.190864,49.097816],[38.190805,49.097934],[38.190667,49.098204],[38.190585,49.098343],[38.190321,49.098417],[38.189887,49.09915],[38.189888,49.09915],[38.189804,49.099293],[38.189579,49.099507],[38.189508,49.099581],[38.188609,49.100431],[38.188391,49.10067],[38.188003,49.101092],[38.18763,49.101498],[38.187374,49.102019],[38.186975,49.102445],[38.186911,49.102634],[38.18691,49.102634],[38.186705,49.103243],[38.18652,49.103642],[38.18634,49.103969],[38.186309,49.104021],[38.186277,49.10408],[38.18616,49.104307],[38.186099,49.104483],[38.185941,49.105018],[38.185856,49.105259],[38.185806,49.105374],[38.185761,49.105536],[38.185717,49.105686],[38.185716,49.105686],[38.185623,49.105677],[38.185483,49.106118],[38.185474,49.106157],[38.18545,49.10623],[38.18545,49.106231],[38.185418,49.106334],[38.185415,49.106343],[38.185312,49.106676],[38.184908,49.107912],[38.184885,49.107991],[38.184581,49.108605],[38.184292,49.109088]]]}},{"type":"Feature","properties":{"cadnum":"4421610101:00:013:0209"},"geometry":{"type":"Polygon","coordinates":[[[38.187418,49.102389],[38.187679,49.102452],[38.187998,49.10191],[38.187738,49.101846],[38.187418,49.102389]]]}},{"type":"Feature","properties":{"cadnum":"4421610101:00:001:0701"},"geometry":{"type":"Polygon","coordinates":[[[38.181988,49.106539],[38.182621,49.106683],[38.183069,49.106781],[38.183069,49.10678],[38.183174,49.106803],[38.183214,49.106812],[38.183233,49.106777],[38.183206,49.106771],[38.183269,49.106671],[38.183304,49.106597],[38.182931,49.106521],[38.182042,49.106327],[38.181988,49.106539]]]}},{"type":"Feature","properties":{"cadnum":"4421610101:01:001:0008"},"geometry":{"type":"Polygon","coordinates":[[[38.17765,49.107768],[38.178216,49.107997],[38.178319,49.10787],[38.177793,49.10765],[38.17765,49.107768]]]}},{"type":"Feature","properties":{"cadnum":"4421610101:01:001:0005"},"geometry":{"type":"Polygon","coordinates":[[[38.17808,49.107476],[38.178166,49.107524],[38.178485,49.1077],[38.17857,49.107629],[38.17861,49.107594],[38.178768,49.107485],[38.178755,49.107456],[38.178736,49.107435],[38.17866,49.107367],[38.178625,49.107312],[38.178583,49.107271],[38.178503,49.107321],[38.178485,49.107362],[38.178404,49.107382],[38.178422,49.107409],[38.178404,49.107424],[38.178403,49.107424],[38.178287,49.107439],[38.17822,49.107444],[38.178153,49.107462],[38.17808,49.107476]]]}},{"type":"Feature","properties":{"cadnum":"4421610101:01:001:0007"},"geometry":{"type":"Polygon","coordinates":[[[38.177547,49.107835],[38.177636,49.107894],[38.178072,49.108062],[38.178134,49.108088],[38.178216,49.107997],[38.17765,49.107768],[38.177547,49.107835]]]}},{"type":"Feature","properties":{"cadnum":"4421610101:00:001:0917"},"geometry":{"type":"Polygon","coordinates":[[[38.180268,49.108041],[38.181019,49.108302],[38.181422,49.108444],[38.181522,49.108476],[38.181625,49.108491],[38.181625,49.108503],[38.181665,49.108511],[38.181826,49.108526],[38.181826,49.108535],[38.181854,49.108538],[38.181858,49.108526],[38.181902,49.108529],[38.181957,49.10842],[38.181795,49.108406],[38.181795,49.108376],[38.181723,49.108374],[38.181665,49.10837],[38.181535,49.108352],[38.181418,49.108323],[38.180384,49.107938],[38.180268,49.108041]]]}},{"type":"Feature","properties":{"cadnum":"4421610101:01:001:0006"},"geometry":{"type":"Polygon","coordinates":[[[38.181279,49.107268],[38.182137,49.107453],[38.182145,49.107456],[38.182208,49.107468],[38.182222,49.107471],[38.182258,49.107482],[38.182371,49.107511],[38.182397,49.107521],[38.182424,49.107526],[38.182434,49.107509],[38.182487,49.107435],[38.182491,49.107435],[38.182537,49.107444],[38.182554,49.107417],[38.182505,49.107409],[38.182379,49.10738],[38.182195,49.107336],[38.182061,49.107306],[38.18135,49.107159],[38.181279,49.107268]]]}},{"type":"Feature","properties":{"cadnum":"4421610101:01:001:0009"},"geometry":{"type":"Polygon","coordinates":[[[38.18113,49.107359],[38.181252,49.107397],[38.181751,49.107532],[38.181961,49.107589],[38.182082,49.107611],[38.182208,49.107629],[38.182348,49.107644],[38.182397,49.107659],[38.182451,49.107674],[38.182554,49.107561],[38.182424,49.107526],[38.182397,49.107521],[38.182371,49.107511],[38.182258,49.107482],[38.182222,49.107471],[38.182208,49.107468],[38.182145,49.107456],[38.182137,49.107453],[38.182042,49.107432],[38.181279,49.107268],[38.181189,49.107247],[38.18113,49.107359]]]}},{"type":"Feature","properties":{"cadnum":"4421610101:01:001:0011"},"geometry":{"type":"Polygon","coordinates":[[[38.179066,49.10603],[38.179252,49.10623],[38.179252,49.106231],[38.179251,49.106231],[38.179285,49.106266],[38.179332,49.106343],[38.179362,49.106393],[38.179392,49.106458],[38.179444,49.10647],[38.179377,49.106634],[38.179374,49.106788],[38.179299,49.107101],[38.179432,49.107134],[38.179259,49.107665],[38.179244,49.107741],[38.179568,49.107937],[38.179564,49.107951],[38.179774,49.108064],[38.179852,49.108081],[38.179956,49.10795],[38.179957,49.10795],[38.180297,49.108039],[38.180906,49.106993],[38.181331,49.10711],[38.181451,49.106877],[38.181676,49.106402],[38.181701,49.106343],[38.181971,49.105728],[38.182136,49.105206],[38.182287,49.10459],[38.182314,49.104511],[38.182314,49.10451],[38.182371,49.104371],[38.182399,49.104205],[38.182485,49.103418],[38.182074,49.103369],[38.182198,49.102715],[38.182258,49.102408],[38.181846,49.102333],[38.181834,49.10229],[38.181809,49.102266],[38.181414,49.102209],[38.1814,49.102298],[38.181344,49.102634],[38.181343,49.102634],[38.181331,49.102711],[38.181322,49.102747],[38.181323,49.102747],[38.181263,49.103008],[38.181216,49.103176],[38.181129,49.103396],[38.181067,49.103389],[38.181012,49.103444],[38.180985,49.103451],[38.180855,49.103647],[38.180776,49.103699],[38.180708,49.103675],[38.180441,49.103632],[38.180344,49.103741],[38.180299,49.103738],[38.180272,49.103781],[38.180663,49.103855],[38.18073,49.103841],[38.180708,49.103911],[38.180707,49.103911],[38.180395,49.103843],[38.18023,49.103899],[38.180195,49.103939],[38.180091,49.104101],[38.179847,49.104341],[38.179747,49.10444],[38.179641,49.104651],[38.179615,49.104661],[38.179467,49.104822],[38.179391,49.104989],[38.179311,49.105172],[38.179223,49.105349],[38.179151,49.105526],[38.179106,49.105703],[38.179503,49.105779],[38.179483,49.105835],[38.179424,49.105993],[38.179369,49.106099],[38.179066,49.10603]]]}},{"type":"Feature","properties":{"cadnum":"4421610101:01:001:0012"},"geometry":{"type":"Polygon","coordinates":[[[38.181117,49.107515],[38.181755,49.107676],[38.181902,49.107715],[38.181961,49.107729],[38.182352,49.107818],[38.182442,49.1077],[38.182325,49.107676],[38.182069,49.107624],[38.182002,49.107611],[38.181971,49.107606],[38.181961,49.107603],[38.181216,49.107385],[38.181117,49.107515]]]}},{"type":"Feature","properties":{"cadnum":"4421610101:00:001:0806"},"geometry":{"type":"Polygon","coordinates":[[[38.18259,49.107426],[38.18268,49.10745],[38.182765,49.107336],[38.182667,49.1073],[38.18259,49.107426]]]}},{"type":"Feature","properties":{"cadnum":"4421610101:01:001:0001"},"geometry":{"type":"Polygon","coordinates":[[[38.182155,49.106256],[38.182159,49.106257],[38.182598,49.106343],[38.182599,49.106343],[38.1826,49.106343],[38.182897,49.106401],[38.182898,49.106401],[38.182898,49.106402],[38.18291,49.106403],[38.183069,49.106432],[38.183138,49.106445],[38.183372,49.106471],[38.183421,49.106256],[38.183183,49.106236],[38.183168,49.106287],[38.183166,49.106295],[38.183115,49.106287],[38.183002,49.106269],[38.182763,49.106231],[38.182762,49.106231],[38.182208,49.106142],[38.182167,49.10623],[38.182167,49.106231],[38.182166,49.106231],[38.182165,49.106231],[38.182155,49.106256]]]}},{"type":"Feature","properties":{"cadnum":"4421610101:01:001:0004"},"geometry":{"type":"Polygon","coordinates":[[[38.17778,49.107644],[38.178319,49.10787],[38.178485,49.1077],[38.178166,49.107524],[38.17778,49.107644]]]}},{"type":"Feature","properties":{"cadnum":"4421610101:01:014:0005"},"geometry":{"type":"Polygon","coordinates":[[[38.1939,49.096802],[38.194056,49.096863],[38.194056,49.096862],[38.194229,49.096928],[38.194353,49.096776],[38.19451,49.096604],[38.19412,49.096505],[38.1939,49.096802]],[[38.194286,49.096772],[38.1943,49.096755],[38.194322,49.096763],[38.194313,49.096778],[38.194286,49.096772]]]}},{"type":"Feature","properties":{"cadnum":"4421610101:01:010:5722"},"geometry":{"type":"Polygon","coordinates":[[[38.190917,49.09886],[38.191174,49.098943],[38.191363,49.098666],[38.191106,49.098575],[38.19108,49.098599],[38.191061,49.098592],[38.191053,49.098605],[38.19107,49.098611],[38.19107,49.098625],[38.190917,49.09886]]]}},{"type":"Feature","properties":{"cadnum":"4421610101:01:022:0006"},"geometry":{"type":"Polygon","coordinates":[[[38.188749,49.095322],[38.188766,49.095441],[38.188765,49.095441],[38.188776,49.095511],[38.18913,49.095523],[38.189139,49.095322],[38.188749,49.095322]]]}},{"type":"Feature","properties":{"cadnum":"4421610101:01:014:0004"},"geometry":{"type":"Polygon","coordinates":[[[38.19333,49.097158],[38.1936,49.097238],[38.193841,49.09731],[38.193884,49.097322],[38.193884,49.097323],[38.193896,49.097325],[38.193904,49.097328],[38.193967,49.097234],[38.194056,49.097136],[38.194056,49.097135],[38.194129,49.097052],[38.194229,49.096928],[38.1939,49.096802],[38.193634,49.096713],[38.193374,49.09709],[38.19333,49.097158]],[[38.194056,49.097075],[38.194076,49.097081],[38.194062,49.097096],[38.194034,49.097087],[38.194049,49.097072],[38.194056,49.097075]]]}},{"type":"Feature","properties":{"cadnum":"4421610101:01:010:0002"},"geometry":{"type":"Polygon","coordinates":[[[38.189252,49.099228],[38.189462,49.099278],[38.189575,49.09909],[38.189587,49.099094],[38.189592,49.099096],[38.189875,49.098625],[38.189625,49.098557],[38.189376,49.098973],[38.189345,49.099038],[38.189344,49.099038],[38.189323,49.099081],[38.189289,49.09915],[38.18929,49.09915],[38.189252,49.099228]]]}},{"type":"Feature","properties":{"cadnum":"4421610101:01:014:0009"},"geometry":{"type":"Polygon","coordinates":[[[38.19386,49.09639],[38.193884,49.096397],[38.193954,49.096416],[38.194056,49.096445],[38.194056,49.096444],[38.19417,49.096475],[38.194179,49.09646],[38.194282,49.096284],[38.19398,49.096211],[38.19386,49.09639]]]}},{"type":"Feature","properties":{"cadnum":"4421610101:00:014:0420"},"geometry":{"type":"Polygon","coordinates":[[[38.193518,49.096337],[38.193689,49.096387],[38.193707,49.09636],[38.193856,49.096393],[38.193884,49.096352],[38.193976,49.096219],[38.194056,49.096103],[38.19421,49.095878],[38.194363,49.095655],[38.194084,49.095581],[38.194089,49.095575],[38.194026,49.095558],[38.193563,49.09627],[38.193518,49.096337]]]}},{"type":"Feature","properties":{"cadnum":"4421610101:01:014:0001"},"geometry":{"type":"Polygon","coordinates":[[[38.193208,49.096017],[38.193474,49.096093],[38.193846,49.095517],[38.193846,49.095516],[38.193764,49.095497],[38.193558,49.095449],[38.193495,49.095553],[38.193388,49.095732],[38.193208,49.096017]]]}},{"type":"Feature","properties":{"cadnum":"4421610101:00:010:0301"},"geometry":{"type":"Polygon","coordinates":[[[38.192615,49.098737],[38.192948,49.09886],[38.193351,49.098422],[38.192921,49.098311],[38.192615,49.098737]]]}},{"type":"Feature","properties":{"cadnum":"4421610101:01:014:0002"},"geometry":{"type":"Polygon","coordinates":[[[38.193118,49.096152],[38.193393,49.096222],[38.193474,49.096093],[38.193208,49.096017],[38.193118,49.096152]]]}},{"type":"Feature","properties":{"cadnum":"4421610101:01:014:0010"},"geometry":{"type":"Polygon","coordinates":[[[38.193634,49.096713],[38.193884,49.096797],[38.1939,49.096802],[38.194056,49.096592],[38.19412,49.096505],[38.193971,49.096461],[38.19385,49.096425],[38.193634,49.096713]]]}},{"type":"Feature","properties":{"cadnum":"4421610101:01:022:0009"},"geometry":{"type":"Polygon","coordinates":[[[38.189179,49.095952],[38.189566,49.096005],[38.189799,49.09604],[38.189866,49.095941],[38.189875,49.095908],[38.189938,49.095823],[38.189942,49.095808],[38.189948,49.095802],[38.189956,49.095775],[38.189952,49.095761],[38.189952,49.095752],[38.189768,49.095746],[38.189692,49.09574],[38.189252,49.095702],[38.189179,49.095952]]]}},{"type":"Feature","properties":{"cadnum":"4421610101:01:022:0005"},"geometry":{"type":"Polygon","coordinates":[[[38.18913,49.095523],[38.189669,49.09554],[38.189971,49.095553],[38.190011,49.095555],[38.189999,49.095441],[38.189988,49.095331],[38.189916,49.095335],[38.189889,49.095335],[38.189889,49.095322],[38.189139,49.095322],[38.189134,49.095441],[38.189133,49.095441],[38.189132,49.095441],[38.18913,49.095523]]]}},{"type":"Feature","properties":{"cadnum":"4421610101:01:022:0003"},"geometry":{"type":"Polygon","coordinates":[[[38.187315,49.093238],[38.187527,49.093425],[38.187567,49.093458],[38.187617,49.093484],[38.187684,49.093432],[38.187837,49.093319],[38.188011,49.09317],[38.187518,49.092976],[38.187315,49.093237],[38.187315,49.093238]]]}},{"type":"Feature","properties":{"cadnum":"4421610101:01:021:0001"},"geometry":{"type":"Polygon","coordinates":[[[38.187971,49.092593],[38.188038,49.092623],[38.188061,49.092617],[38.188114,49.092634],[38.188241,49.092669],[38.188391,49.092507],[38.188391,49.092508],[38.188479,49.092411],[38.188562,49.092326],[38.188562,49.092325],[38.188802,49.092078],[38.188583,49.092005],[38.188391,49.092192],[38.188223,49.092355],[38.187971,49.092593]]]}},{"type":"Feature","properties":{"cadnum":"4421610101:01:022:0004"},"geometry":{"type":"Polygon","coordinates":[[[38.187518,49.092976],[38.188011,49.09317],[38.1882,49.093005],[38.188391,49.092864],[38.188483,49.092796],[38.187818,49.092623],[38.187768,49.092649],[38.187518,49.092976]]]}},{"type":"Feature","properties":{"cadnum":"4421610101:01:021:0004"},"geometry":{"type":"Polygon","coordinates":[[[38.188227,49.092652],[38.188391,49.092701],[38.188391,49.092702],[38.188493,49.092732],[38.188562,49.092649],[38.188694,49.092493],[38.188734,49.092437],[38.189059,49.092111],[38.188797,49.092072],[38.188474,49.092396],[38.188227,49.092652]]]}},{"type":"Feature","properties":{"cadnum":"4421610101:00:008:0317"},"geometry":{"type":"Polygon","coordinates":[[[38.196797,49.10403],[38.196873,49.104063],[38.196913,49.104069],[38.196982,49.104063],[38.197085,49.104151],[38.197292,49.104074],[38.197816,49.103895],[38.197799,49.103871],[38.197678,49.103733],[38.196797,49.10403]]]}},{"type":"Feature","properties":{"cadnum":"4421610101:00:008:0909"},"geometry":{"type":"Polygon","coordinates":[[[38.197292,49.103184],[38.198162,49.103298],[38.198171,49.103298],[38.198261,49.103143],[38.197911,49.10308],[38.197862,49.103093],[38.197699,49.103078],[38.197408,49.103057],[38.197349,49.103054],[38.197292,49.103184]]]}},{"type":"Feature","properties":{"cadnum":"4421610101:01:008:0004"},"geometry":{"type":"Polygon","coordinates":[[[38.196303,49.103807],[38.1966,49.103866],[38.196703,49.103657],[38.196887,49.103278],[38.196617,49.103219],[38.196411,49.103598],[38.196303,49.103807]]]}},{"type":"Feature","properties":{"cadnum":"4421610101:01:008:0005"},"geometry":{"type":"Polygon","coordinates":[[[38.197233,49.103313],[38.197426,49.10333],[38.197699,49.103363],[38.197768,49.103369],[38.197844,49.103433],[38.197915,49.103492],[38.197961,49.103525],[38.198014,49.103431],[38.198015,49.103431],[38.198095,49.103445],[38.198162,49.103298],[38.197808,49.103251],[38.197292,49.103184],[38.197233,49.103313]]]}},{"type":"Feature","properties":{"cadnum":"4421610101:01:017:0008"},"geometry":{"type":"Polygon","coordinates":[[[38.198867,49.096678],[38.199087,49.096734],[38.19916,49.096752],[38.199213,49.096658],[38.199214,49.096658],[38.19924,49.096663],[38.199286,49.09659],[38.199303,49.096567],[38.199334,49.096525],[38.199377,49.096474],[38.199482,49.096348],[38.199549,49.096268],[38.199577,49.096234],[38.199451,49.096188],[38.199307,49.096135],[38.199061,49.096438],[38.198867,49.096678]]]}},{"type":"Feature","properties":{"cadnum":"4421610101:01:019:0002"},"geometry":{"type":"Polygon","coordinates":[[[38.192323,49.091746],[38.193034,49.091846],[38.193128,49.091684],[38.192602,49.091561],[38.192705,49.091376],[38.192525,49.091331],[38.192323,49.091746]]]}},{"type":"Feature","properties":{"cadnum":"4421610101:01:019:0003"},"geometry":{"type":"Polygon","coordinates":[[[38.192198,49.091896],[38.192216,49.0919],[38.192441,49.091954],[38.192566,49.09181],[38.192233,49.091755],[38.192211,49.091844],[38.19221,49.091844],[38.192198,49.091896]]]}},{"type":"Feature","properties":{"cadnum":"4421610101:00:019:0310"},"geometry":{"type":"Polygon","coordinates":[[[38.192705,49.091376],[38.192822,49.091405],[38.192938,49.091213],[38.192818,49.09119],[38.192705,49.091376]]]}},{"type":"Feature","properties":{"cadnum":"4421610101:01:023:0005"},"geometry":{"type":"Polygon","coordinates":[[[38.191959,49.091631],[38.192013,49.091705],[38.192323,49.091746],[38.192516,49.091355],[38.192116,49.091291],[38.191959,49.091631]]]}},{"type":"Feature","properties":{"cadnum":"4421610101:00:019:0309"},"geometry":{"type":"Polygon","coordinates":[[[38.192822,49.091405],[38.193191,49.091496],[38.193604,49.09159],[38.193738,49.091376],[38.193365,49.091296],[38.192938,49.091213],[38.192822,49.091405]]]}},{"type":"Feature","properties":{"cadnum":"4421610101:01:019:0001"},"geometry":{"type":"Polygon","coordinates":[[[38.192602,49.091561],[38.193128,49.091684],[38.193491,49.091773],[38.193523,49.091716],[38.193604,49.09159],[38.193191,49.091496],[38.192822,49.091405],[38.192705,49.091376],[38.192602,49.091561]]]}},{"type":"Feature","properties":{"cadnum":"4421610101:01:023:0004"},"geometry":{"type":"Polygon","coordinates":[[[38.19182,49.092041],[38.191955,49.09207],[38.192085,49.091844],[38.192139,49.091752],[38.191986,49.091731],[38.191925,49.091844],[38.191892,49.091904],[38.191864,49.091956],[38.191865,49.091956],[38.19182,49.092041]]]}},{"type":"Feature","properties":{"cadnum":"4421610101:01:021:0002"},"geometry":{"type":"Polygon","coordinates":[[[38.188583,49.092005],[38.188802,49.092078],[38.188927,49.091949],[38.188737,49.0919],[38.188699,49.09189],[38.18869,49.0919],[38.188659,49.091934],[38.188659,49.091935],[38.188635,49.091956],[38.188583,49.092005]]]}},{"type":"Feature","properties":{"cadnum":"4421610101:00:020:0209"},"geometry":{"type":"Polygon","coordinates":[[[38.19064,49.090805],[38.190944,49.090837],[38.191147,49.090325],[38.19085,49.090284],[38.190787,49.090278],[38.190747,49.090273],[38.190697,49.090423],[38.190738,49.090428],[38.190697,49.090617],[38.190648,49.090781],[38.19064,49.090805]]]}},{"type":"Feature","properties":{"cadnum":"4421610101:00:021:0203"},"geometry":{"type":"Polygon","coordinates":[[[38.188493,49.092732],[38.188627,49.092784],[38.18878,49.092643],[38.189418,49.091976],[38.189516,49.091864],[38.189342,49.091825],[38.189323,49.091844],[38.188734,49.092437],[38.188694,49.092493],[38.188493,49.092732]]]}},{"type":"Feature","properties":{"cadnum":"4421610101:00:020:0210"},"geometry":{"type":"Polygon","coordinates":[[[38.190518,49.091073],[38.190833,49.091119],[38.190944,49.090837],[38.19064,49.090805],[38.190518,49.091073]]]}},{"type":"Feature","properties":{"cadnum":"4421610101:00:020:0205"},"geometry":{"type":"Polygon","coordinates":[[[38.191021,49.090643],[38.191416,49.090707],[38.19152,49.090449],[38.191596,49.090273],[38.191196,49.090205],[38.191021,49.090643]]]}},{"type":"Feature","properties":{"cadnum":"4421610101:01:023:0006"},"geometry":{"type":"Polygon","coordinates":[[[38.191326,49.091631],[38.191996,49.091699],[38.191946,49.091631],[38.192076,49.091343],[38.19147,49.091255],[38.191326,49.091631]]]}},{"type":"Feature","properties":{"cadnum":"4421610101:00:020:0206"},"geometry":{"type":"Polygon","coordinates":[[[38.190881,49.090996],[38.191304,49.09104],[38.191416,49.090707],[38.191021,49.090643],[38.190994,49.090716],[38.190881,49.090996]]]}},{"type":"Feature","properties":{"cadnum":"4421610101:01:008:0002"},"geometry":{"type":"Polygon","coordinates":[[[38.193351,49.102154],[38.19355,49.10221],[38.193634,49.102095],[38.193437,49.10204],[38.193351,49.102154]]]}},{"type":"Feature","properties":{"cadnum":"4421610101:01:023:0001"},"geometry":{"type":"Polygon","coordinates":[[[38.189548,49.100084],[38.189625,49.100116],[38.189646,49.100096],[38.18957,49.100061],[38.189548,49.100084]]]}},{"type":"Feature","properties":{"cadnum":"4421610101:00:010:0314"},"geometry":{"type":"Polygon","coordinates":[[[38.193433,49.09956],[38.193684,49.09964],[38.19377,49.09954],[38.193523,49.099455],[38.193433,49.09956]]]}},{"type":"Feature","properties":{"cadnum":"4421610101:00:001:0609"},"geometry":{"type":"Polygon","coordinates":[[[38.182208,49.106142],[38.182897,49.106252],[38.182898,49.106252],[38.182987,49.106267],[38.183069,49.10628],[38.183069,49.106279],[38.183115,49.106287],[38.183166,49.106295],[38.183168,49.106287],[38.183183,49.106236],[38.183421,49.106256],[38.183457,49.106021],[38.183116,49.105977],[38.183084,49.106033],[38.183058,49.10603],[38.182294,49.105933],[38.182227,49.106094],[38.182208,49.106142]]]}},{"type":"Feature","properties":{"cadnum":"4421610101:01:023:0003"},"geometry":{"type":"Polygon","coordinates":[[[38.185353,49.107759],[38.185717,49.107803],[38.185833,49.107412],[38.18547,49.107367],[38.185353,49.107759]]]}},{"type":"Feature","properties":{"cadnum":"4421610101:01:004:0001"},"geometry":{"type":"Polygon","coordinates":[[[38.186539,49.107168],[38.186629,49.107253],[38.187032,49.10738],[38.187244,49.107123],[38.1867,49.106918],[38.186539,49.107168]]]}},{"type":"Feature","properties":{"cadnum":"4421610101:01:004:0002"},"geometry":{"type":"Polygon","coordinates":[[[38.188231,49.107691],[38.188391,49.107723],[38.188391,49.107724],[38.188497,49.107744],[38.188562,49.107641],[38.188562,49.10764],[38.188816,49.107241],[38.18856,49.107177],[38.188231,49.107691]]]}},{"type":"Feature","properties":{"cadnum":"4421610101:01:004:4949"},"geometry":{"type":"Polygon","coordinates":[[[38.187329,49.107462],[38.187342,49.107465],[38.187334,49.107474],[38.187585,49.107541],[38.187917,49.107038],[38.187657,49.106953],[38.187428,49.107306],[38.187329,49.107462]]]}},{"type":"Feature","properties":{"cadnum":"4421610101:00:014:0209"},"geometry":{"type":"Polygon","coordinates":[[[38.194529,49.097608],[38.194772,49.097696],[38.194919,49.097508],[38.195328,49.097034],[38.195082,49.096937],[38.194906,49.097143],[38.194659,49.097443],[38.194529,49.097608]]]}},{"type":"Feature","properties":{"cadnum":"4421610101:01:017:0003"},"geometry":{"type":"Polygon","coordinates":[[[38.197009,49.09627],[38.197533,49.096425],[38.197762,49.096102],[38.197345,49.095978],[38.197009,49.09627]]]}},{"type":"Feature","properties":{"cadnum":"4421610101:00:014:0517"},"geometry":{"type":"Polygon","coordinates":[[[38.195305,49.096652],[38.195634,49.096817],[38.196124,49.096287],[38.196181,49.096222],[38.195881,49.096058],[38.195638,49.096275],[38.195305,49.096652]]]}},{"type":"Feature","properties":{"cadnum":"4421610101:01:013:0003"},"geometry":{"type":"Polygon","coordinates":[[[38.196789,49.098993],[38.197066,49.099072],[38.197305,49.098737],[38.197322,49.098714],[38.19734,49.098687],[38.197412,49.098584],[38.197188,49.09852],[38.197156,49.098511],[38.197139,49.098505],[38.19703,49.098655],[38.196789,49.098993]]]}},{"type":"Feature","properties":{"cadnum":"4421610101:01:014:0007"},"geometry":{"type":"Polygon","coordinates":[[[38.195548,49.096911],[38.195934,49.097055],[38.196254,49.09709],[38.196326,49.096926],[38.195715,49.096731],[38.195634,49.096817],[38.195548,49.096911]]]}},{"type":"Feature","properties":{"cadnum":"4421610101:01:015:0002"},"geometry":{"type":"Polygon","coordinates":[[[38.197632,49.097648],[38.197862,49.097755],[38.198014,49.097643],[38.198234,49.097467],[38.198064,49.097367],[38.197992,49.097314],[38.197726,49.097569],[38.197632,49.097648]]]}},{"type":"Feature","properties":{"cadnum":"4421610101:01:017:0004"},"geometry":{"type":"Polygon","coordinates":[[[38.197345,49.095978],[38.197762,49.096102],[38.198208,49.096234],[38.198347,49.095993],[38.198369,49.095952],[38.197638,49.095728],[38.197345,49.095978]]]}},{"type":"Feature","properties":{"cadnum":"4421610101:00:017:0309"},"geometry":{"type":"Polygon","coordinates":[[[38.195332,49.095422],[38.195389,49.095441],[38.19556,49.095497],[38.195719,49.095549],[38.195818,49.095405],[38.19593,49.095246],[38.196173,49.094878],[38.195778,49.094781],[38.195629,49.094996],[38.195539,49.095122],[38.195332,49.095422]]]}},{"type":"Feature","properties":{"cadnum":"4421610101:00:017:0605"},"geometry":{"type":"Polygon","coordinates":[[[38.198037,49.096575],[38.198315,49.096623],[38.198634,49.096076],[38.198347,49.095993],[38.198158,49.096314],[38.198037,49.096575]]]}},{"type":"Feature","properties":{"cadnum":"4421610101:01:015:0004"},"geometry":{"type":"Polygon","coordinates":[[[38.197403,49.097596],[38.197642,49.097678],[38.197732,49.097593],[38.197498,49.097493],[38.197403,49.097596]]]}},{"type":"Feature","properties":{"cadnum":"4421610101:01:014:0006"},"geometry":{"type":"Polygon","coordinates":[[[38.195715,49.096731],[38.196326,49.096926],[38.196437,49.096623],[38.19647,49.096543],[38.196491,49.096423],[38.196456,49.096346],[38.196181,49.096222],[38.196124,49.096287],[38.195984,49.096438],[38.195715,49.096731]]]}},{"type":"Feature","properties":{"cadnum":"4421610101:01:014:0003"},"geometry":{"type":"Polygon","coordinates":[[[38.194196,49.097411],[38.194448,49.097499],[38.194449,49.097499],[38.194579,49.097337],[38.194825,49.097034],[38.194879,49.096975],[38.194596,49.096863],[38.194313,49.097243],[38.194273,49.097296],[38.194196,49.097411]]]}},{"type":"Feature","properties":{"cadnum":"4421610101:01:014:0008"},"geometry":{"type":"Polygon","coordinates":[[[38.19398,49.096211],[38.194282,49.096284],[38.194615,49.095728],[38.194615,49.095725],[38.194628,49.09571],[38.194573,49.095696],[38.194367,49.095646],[38.194363,49.095655],[38.19421,49.095878],[38.19398,49.096211]]]}},{"type":"Feature","properties":{"cadnum":"4421610101:00:015:0518"},"geometry":{"type":"Polygon","coordinates":[[[38.198014,49.097643],[38.198315,49.097775],[38.198481,49.097602],[38.198234,49.097467],[38.198014,49.097643]]]}},{"type":"Feature","properties":{"cadnum":"4421610101:00:014:0505"},"geometry":{"type":"Polygon","coordinates":[[[38.194166,49.096478],[38.194403,49.096543],[38.194785,49.096072],[38.194929,49.095782],[38.194628,49.09571],[38.194166,49.096478]]]}},{"type":"Feature","properties":{"cadnum":"4421610101:01:015:0003"},"geometry":{"type":"Polygon","coordinates":[[[38.197498,49.097493],[38.197732,49.097593],[38.197974,49.097369],[38.198095,49.097234],[38.198238,49.097081],[38.197965,49.096978],[38.197825,49.097134],[38.197498,49.097493]]]}},{"type":"Feature","properties":{"cadnum":"4421610101:00:017:0606"},"geometry":{"type":"Polygon","coordinates":[[[38.198347,49.095993],[38.198634,49.096076],[38.198657,49.096031],[38.198369,49.095952],[38.198347,49.095993]]]}},{"type":"Feature","properties":{"cadnum":"4421610101:01:017:0002"},"geometry":{"type":"Polygon","coordinates":[[[38.197533,49.096425],[38.198037,49.096575],[38.198158,49.096314],[38.198208,49.096234],[38.197762,49.096102],[38.197533,49.096425]]]}},{"type":"Feature","properties":{"cadnum":"4421610101:01:015:0001"},"geometry":{"type":"Polygon","coordinates":[[[38.198001,49.097305],[38.198072,49.09736],[38.198244,49.097458],[38.198458,49.097281],[38.198535,49.09721],[38.198208,49.097079],[38.198055,49.097258],[38.198001,49.097305]]]}},{"type":"Feature","properties":{"cadnum":"4421610101:00:015:0517"},"geometry":{"type":"Polygon","coordinates":[[[38.198244,49.097458],[38.198487,49.097596],[38.198787,49.097287],[38.198562,49.097187],[38.198458,49.097281],[38.198244,49.097458]]]}},{"type":"Feature","properties":{"cadnum":"4421610101:01:011:0001"},"geometry":{"type":"Polygon","coordinates":[[[38.200278,49.100919],[38.200538,49.100981],[38.200619,49.100852],[38.200655,49.100789],[38.200749,49.100654],[38.200471,49.100572],[38.200408,49.100702],[38.200278,49.100919]]]}},{"type":"Feature","properties":{"cadnum":"4421610101:25:011:0417"},"geometry":{"type":"Polygon","coordinates":[[[38.201177,49.101142],[38.201267,49.101166],[38.201298,49.101172],[38.201397,49.101199],[38.201481,49.101216],[38.201513,49.101175],[38.201531,49.101178],[38.201634,49.101034],[38.201688,49.100948],[38.201536,49.100904],[38.201374,49.100861],[38.201177,49.101142]]]}},{"type":"Feature","properties":{"cadnum":"4421610101:01:011:0002"},"geometry":{"type":"Polygon","coordinates":[[[38.200386,49.101222],[38.200552,49.101266],[38.200601,49.10119],[38.200602,49.10119],[38.200728,49.101142],[38.200839,49.101087],[38.200875,49.101037],[38.200898,49.101011],[38.200965,49.100933],[38.201074,49.100778],[38.201078,49.100769],[38.200736,49.100675],[38.200642,49.100813],[38.200619,49.100854],[38.200606,49.100872],[38.200565,49.100933],[38.200525,49.101001],[38.200386,49.101222]]]}},{"type":"Feature","properties":{"cadnum":"4421610101:00:001:0313"},"geometry":{"type":"Polygon","coordinates":[[[38.182531,49.103527],[38.182568,49.103692],[38.182594,49.103804],[38.182897,49.103792],[38.182898,49.103792],[38.182898,49.103793],[38.1829,49.103792],[38.183069,49.103785],[38.183453,49.103769],[38.183583,49.103757],[38.183493,49.103492],[38.183439,49.103498],[38.183309,49.103522],[38.18308,49.103522],[38.182898,49.103524],[38.182897,49.103524],[38.182531,49.103527]]]}},{"type":"Feature","properties":{"cadnum":"4421610101:01:001:0010"},"geometry":{"type":"Polygon","coordinates":[[[38.179006,49.105839],[38.179065,49.10603],[38.179369,49.106098],[38.179424,49.105992],[38.179482,49.105835],[38.179505,49.10578],[38.179105,49.105704],[38.179145,49.105774],[38.179082,49.105789],[38.179006,49.105839]]]}},{"type":"Feature","properties":{"cadnum":"4421610101:01:022:0002"},"geometry":{"type":"Polygon","coordinates":[[[38.189063,49.094254],[38.189197,49.094537],[38.189611,49.094417],[38.189728,49.094381],[38.189759,49.094372],[38.189745,49.094352],[38.189615,49.094079],[38.189063,49.094254]]]}},{"type":"Feature","properties":{"cadnum":"4421610101:01:022:0007"},"geometry":{"type":"Polygon","coordinates":[[[38.18878,49.094984],[38.189611,49.094946],[38.189629,49.094969],[38.189881,49.094973],[38.189875,49.094958],[38.189902,49.094955],[38.189849,49.094796],[38.18957,49.094858],[38.189435,49.094831],[38.189332,49.094749],[38.188806,49.094799],[38.18878,49.094984]]]}},{"type":"Feature","properties":{"cadnum":"4421610101:00:021:0117"},"geometry":{"type":"Polygon","coordinates":[[[38.18891,49.092926],[38.189099,49.093011],[38.189225,49.092843],[38.189197,49.092831],[38.189975,49.091987],[38.189759,49.091943],[38.189659,49.092058],[38.18891,49.092926]]]}},{"type":"Feature","properties":{"cadnum":"4421610101:01:021:0003"},"geometry":{"type":"Polygon","coordinates":[[[38.189795,49.093252],[38.190971,49.09364],[38.191399,49.093046],[38.190271,49.092673],[38.189984,49.092987],[38.189795,49.093252]]]}},{"type":"Feature","properties":{"cadnum":"4421610101:01:022:0001"},"geometry":{"type":"Polygon","coordinates":[[[38.188793,49.09517],[38.189498,49.095161],[38.189925,49.095155],[38.189894,49.095028],[38.189921,49.095025],[38.189912,49.094987],[38.189885,49.09499],[38.189881,49.094973],[38.189583,49.094984],[38.188797,49.095019],[38.188793,49.09517]]]}},{"type":"Feature","properties":{"cadnum":"4421610101:00:021:0201"},"geometry":{"type":"Polygon","coordinates":[[[38.188627,49.092784],[38.18891,49.092926],[38.189659,49.092058],[38.189418,49.091976],[38.18878,49.092643],[38.188627,49.092784]]]}},{"type":"Feature","properties":{"cadnum":"4421610101:01:022:0008"},"geometry":{"type":"Polygon","coordinates":[[[38.188569,49.094008],[38.188703,49.09419],[38.189093,49.094067],[38.18957,49.093911],[38.189525,49.093816],[38.189493,49.093749],[38.188569,49.094008]]]}},{"type":"Feature","properties":{"cadnum":"4421610101:01:018:0002"},"geometry":{"type":"Polygon","coordinates":[[[38.1958,49.092096],[38.196137,49.092155],[38.196339,49.091882],[38.196496,49.091634],[38.196307,49.091584],[38.19624,49.091564],[38.196047,49.091796],[38.196008,49.091844],[38.196007,49.091844],[38.195946,49.091919],[38.195914,49.091956],[38.195915,49.091956],[38.1958,49.092096]]]}},{"type":"Feature","properties":{"cadnum":"4421610101:01:018:0001"},"geometry":{"type":"Polygon","coordinates":[[[38.194349,49.091296],[38.194596,49.091405],[38.194789,49.091487],[38.195049,49.091102],[38.194862,49.091049],[38.194731,49.091016],[38.194538,49.09109],[38.194349,49.091296]]]}},{"type":"Feature","properties":{"cadnum":"4421610101:00:009:0610"},"geometry":{"type":"Polygon","coordinates":[[[38.180264,49.099113],[38.180399,49.09915],[38.1804,49.09915],[38.180744,49.099243],[38.18086,49.099078],[38.180394,49.098945],[38.180322,49.099038],[38.180321,49.099038],[38.180264,49.099113]]]}},{"type":"Feature","properties":{"cadnum":"4421610101:00:009:0609"},"geometry":{"type":"Polygon","coordinates":[[[38.180744,49.099243],[38.18086,49.099275],[38.182128,49.099605],[38.182434,49.099681],[38.182531,49.099543],[38.182375,49.099499],[38.182379,49.099496],[38.182294,49.099472],[38.181902,49.09937],[38.180861,49.099078],[38.18086,49.099078],[38.180809,49.09915],[38.180744,49.099243]]]}},{"type":"Feature","properties":{"cadnum":"4421610101:01:009:0003"},"geometry":{"type":"Polygon","coordinates":[[[38.182082,49.098284],[38.182227,49.098328],[38.18233,49.098173],[38.182181,49.098131],[38.182082,49.098284]]]}},{"type":"Feature","properties":{"cadnum":"4421610101:01:004:0005"},"geometry":{"type":"Polygon","coordinates":[[[38.191047,49.108079],[38.191399,49.108188],[38.191493,49.108065],[38.191726,49.107762],[38.19138,49.107653],[38.19116,49.107932],[38.191047,49.108079]]]}},{"type":"Feature","properties":{"cadnum":"4421610101:01:004:0003"},"geometry":{"type":"Polygon","coordinates":[[[38.190307,49.107985],[38.190617,49.108086],[38.19076,49.107894],[38.190984,49.107583],[38.190697,49.107494],[38.190504,49.107738],[38.190307,49.107985]]]}},{"type":"Feature","properties":{"cadnum":"4421610101:01:004:0004"},"geometry":{"type":"Polygon","coordinates":[[[38.190697,49.107494],[38.190984,49.107583],[38.191164,49.107332],[38.19086,49.107291],[38.190697,49.107494]]]}},{"type":"Feature","properties":{"cadnum":"4421610101:25:004:0001"},"geometry":{"type":"Polygon","coordinates":[[[38.19165,49.108077],[38.191843,49.108144],[38.191852,49.108144],[38.19187,49.108121],[38.191892,49.108129],[38.191915,49.108108],[38.191942,49.108117],[38.192103,49.107929],[38.192359,49.107606],[38.192139,49.107526],[38.191753,49.107979],[38.191726,49.107971],[38.19165,49.108077]]]}},{"type":"Feature","properties":{"cadnum":"4421610101:00:002:0418"},"geometry":{"type":"Polygon","coordinates":[[[38.185541,49.103374],[38.185883,49.103474],[38.186036,49.103213],[38.185671,49.103134],[38.185541,49.103374]]]}},{"type":"Feature","properties":{"cadnum":"4421610101:01:002:0002"},"geometry":{"type":"Polygon","coordinates":[[[38.184063,49.103542],[38.184082,49.103736],[38.184432,49.103745],[38.184441,49.103545],[38.184063,49.103542]]]}},{"type":"Feature","properties":{"cadnum":"4421610101:01:006:0001"},"geometry":{"type":"Polygon","coordinates":[[[38.18643,49.104213],[38.186749,49.104313],[38.187334,49.104498],[38.187455,49.104313],[38.186866,49.104157],[38.186512,49.10406],[38.18643,49.104213]]]}},{"type":"Feature","properties":{"cadnum":"4421610101:01:002:0306"},"geometry":{"type":"Polygon","coordinates":[[[38.183709,49.105104],[38.184103,49.105133],[38.184552,49.105165],[38.184602,49.104954],[38.184149,49.104915],[38.183745,49.10488],[38.183713,49.105063],[38.183709,49.105104]]]}},{"type":"Feature","properties":{"cadnum":"4421610101:00:002:0417"},"geometry":{"type":"Polygon","coordinates":[[[38.185883,49.103474],[38.186076,49.103533],[38.186476,49.103631],[38.186619,49.103345],[38.18616,49.103243],[38.186036,49.103213],[38.185883,49.103474]]]}},{"type":"Feature","properties":{"cadnum":"4421610101:00:002:0605"},"geometry":{"type":"Polygon","coordinates":[[[38.184988,49.10518],[38.185514,49.105218],[38.18582,49.105253],[38.185914,49.105009],[38.185636,49.10498],[38.185424,49.104965],[38.185105,49.10493],[38.185034,49.10498],[38.184988,49.10518]]]}},{"type":"Feature","properties":{"cadnum":"4421610101:00:006:0201"},"geometry":{"type":"Polygon","coordinates":[[[38.186323,49.104381],[38.186669,49.104492],[38.186686,49.104498],[38.186763,49.104536],[38.187266,49.104736],[38.187388,49.104516],[38.186749,49.104313],[38.186395,49.104201],[38.186323,49.104381]]]}},{"type":"Feature","properties":{"cadnum":"4421610101:01:023:0008"},"geometry":{"type":"Polygon","coordinates":[[[38.187747,49.104651],[38.188038,49.104706],[38.18825,49.104289],[38.187962,49.104233],[38.187801,49.104539],[38.187747,49.104651]]]}},{"type":"Feature","properties":{"cadnum":"4421610101:01:007:0809"},"geometry":{"type":"Polygon","coordinates":[[[38.187675,49.103568],[38.187841,49.103577],[38.187864,49.103475],[38.187864,49.103474],[38.187917,49.103481],[38.187921,49.103466],[38.188051,49.103489],[38.188245,49.103034],[38.188133,49.103001],[38.188065,49.103092],[38.187994,49.103057],[38.187864,49.103207],[38.187747,49.103381],[38.187742,49.103433],[38.187675,49.103568]]]}},{"type":"Feature","properties":{"cadnum":"4421610101:01:005:0001"},"geometry":{"type":"Polygon","coordinates":[[[38.187621,49.104501],[38.187801,49.104539],[38.188267,49.103654],[38.1882,49.103645],[38.187895,49.103636],[38.187684,49.104063],[38.187827,49.10411],[38.187621,49.104501]]]}},{"type":"Feature","properties":{"cadnum":"4421610101:00:006:0301"},"geometry":{"type":"Polygon","coordinates":[[[38.186026,49.10538],[38.186633,49.105518],[38.186665,49.105456],[38.186848,49.105504],[38.18692,49.105389],[38.18692,49.105388],[38.186134,49.105122],[38.186026,49.10538]]]}},{"type":"Feature","properties":{"cadnum":"4421610101:00:017:0310"},"geometry":{"type":"Polygon","coordinates":[[[38.195778,49.094781],[38.196173,49.094878],[38.19646,49.094443],[38.196429,49.094434],[38.196078,49.094343],[38.196038,49.094402],[38.195778,49.094781]]]}},{"type":"Feature","properties":{"cadnum":"4421610101:01:017:0010"},"geometry":{"type":"Polygon","coordinates":[[[38.194057,49.092957],[38.194412,49.093125],[38.194628,49.092922],[38.194789,49.092769],[38.194453,49.09261],[38.194282,49.092761],[38.194057,49.092957]]]}},{"type":"Feature","properties":{"cadnum":"4421610101:01:017:0009"},"geometry":{"type":"Polygon","coordinates":[[[38.195086,49.094984],[38.195261,49.09504],[38.195387,49.094855],[38.195768,49.094308],[38.1958,49.094246],[38.195611,49.094193],[38.195208,49.094799],[38.195104,49.094952],[38.195086,49.094984]]]}},{"type":"Feature","properties":{"cadnum":"4421610101:00:017:1011"},"geometry":{"type":"Polygon","coordinates":[[[38.196716,49.094796],[38.19704,49.094884],[38.197188,49.094649],[38.196837,49.094566],[38.196716,49.094796]]]}},{"type":"Feature","properties":{"cadnum":"4421610101:00:017:0813"},"geometry":{"type":"Polygon","coordinates":[[[38.194785,49.093049],[38.194942,49.093193],[38.195028,49.093099],[38.195189,49.092926],[38.195036,49.092855],[38.195001,49.092841],[38.194996,49.092846],[38.194875,49.092972],[38.194852,49.092987],[38.194785,49.093049]]]}},{"type":"Feature","properties":{"cadnum":"4421610101:01:017:0917"},"geometry":{"type":"Polygon","coordinates":[[[38.196024,49.093866],[38.196343,49.093961],[38.196416,49.093849],[38.196519,49.093693],[38.196496,49.093658],[38.1962,49.093582],[38.196191,49.093587],[38.196091,49.093752],[38.196024,49.093866]]]}},{"type":"Feature","properties":{"cadnum":"4421610101:01:017:0001"},"geometry":{"type":"Polygon","coordinates":[[[38.197888,49.095046],[38.197974,49.095099],[38.198464,49.094422],[38.198279,49.094358],[38.197942,49.094869],[38.197888,49.095046]]]}},{"type":"Feature","properties":{"cadnum":"4421610101:01:017:0006"},"geometry":{"type":"Polygon","coordinates":[[[38.197462,49.094205],[38.197583,49.094246],[38.197668,49.094302],[38.197803,49.094052],[38.197898,49.094073],[38.197955,49.093916],[38.197659,49.093849],[38.197628,49.093896],[38.197489,49.09416],[38.197462,49.094205]]]}},{"type":"Feature","properties":{"cadnum":"4421610101:00:017:0909"},"geometry":{"type":"Polygon","coordinates":[[[38.195428,49.093696],[38.195688,49.093772],[38.195782,49.09364],[38.195881,49.093508],[38.196015,49.093305],[38.195768,49.093199],[38.195688,49.093299],[38.195428,49.093696]]]}},{"type":"Feature","properties":{"cadnum":"4421610101:01:017:0005"},"geometry":{"type":"Polygon","coordinates":[[[38.197296,49.094472],[38.197538,49.094543],[38.197664,49.094308],[38.197579,49.094252],[38.197453,49.094214],[38.197296,49.094472]]]}},{"type":"Feature","properties":{"cadnum":"4421610101:01:017:0007"},"geometry":{"type":"Polygon","coordinates":[[[38.195768,49.094308],[38.196038,49.094402],[38.196074,49.094346],[38.196334,49.09397],[38.196015,49.093884],[38.195858,49.094143],[38.195768,49.094308]]]}},{"type":"Feature","properties":{"cadnum":"4421610101:00:017:0305"},"geometry":{"type":"Polygon","coordinates":[[[38.195261,49.09504],[38.195539,49.095122],[38.195629,49.094996],[38.196038,49.094402],[38.195768,49.094308],[38.195261,49.09504]]]}},{"type":"Feature","properties":{"cadnum":"4421610101:00:017:1009"},"geometry":{"type":"Polygon","coordinates":[[[38.19712,49.094069],[38.197489,49.09416],[38.197628,49.093896],[38.197355,49.093831],[38.197363,49.093811],[38.197269,49.093793],[38.197259,49.093816],[38.19712,49.094069]]]}},{"type":"Feature","properties":{"cadnum":"4421610101:00:017:0914"},"geometry":{"type":"Polygon","coordinates":[[[38.195512,49.094038],[38.195858,49.094143],[38.196015,49.093884],[38.195678,49.09379],[38.195512,49.094038]]]}},{"type":"Feature","properties":{"cadnum":"4421610101:00:017:0814"},"geometry":{"type":"Polygon","coordinates":[[[38.194376,49.093443],[38.1946,49.093526],[38.194929,49.093208],[38.194772,49.093064],[38.194457,49.093364],[38.194376,49.093443]]]}},{"type":"Feature","properties":{"cadnum":"4421610101:00:017:0913"},"geometry":{"type":"Polygon","coordinates":[[[38.195688,49.093772],[38.196024,49.093866],[38.196091,49.093752],[38.196191,49.093587],[38.196133,49.093567],[38.19594,49.093526],[38.195881,49.093508],[38.195782,49.09364],[38.195688,49.093772]]]}},{"type":"Feature","properties":{"cadnum":"4421610101:25:017:0901"},"geometry":{"type":"Polygon","coordinates":[[[38.194605,49.09379],[38.194686,49.09382],[38.194942,49.093905],[38.195238,49.093478],[38.195319,49.093355],[38.195395,49.09326],[38.195544,49.093096],[38.195355,49.093011],[38.195126,49.093243],[38.195059,49.093314],[38.195045,49.093328],[38.195001,49.093373],[38.194605,49.09379]]]}},{"type":"Feature","properties":{"cadnum":"4421610101:00:017:1002"},"geometry":{"type":"Polygon","coordinates":[[[38.196074,49.094346],[38.196424,49.094437],[38.196676,49.094069],[38.196334,49.09397],[38.196074,49.094346]]]}},{"type":"Feature","properties":{"cadnum":"4421610101:00:018:0117"},"geometry":{"type":"Polygon","coordinates":[[[38.195279,49.092841],[38.195508,49.092937],[38.195607,49.092858],[38.195629,49.092837],[38.195651,49.092819],[38.196154,49.092434],[38.19576,49.092322],[38.195279,49.092841]]]}},{"type":"Feature","properties":{"cadnum":"4421610101:01:018:0003"},"geometry":{"type":"Polygon","coordinates":[[[38.195647,49.092272],[38.196001,49.092334],[38.196002,49.092334],[38.196137,49.092155],[38.1958,49.092096],[38.195647,49.092272]]]}},{"type":"Feature","properties":{"cadnum":"4421610101:00:017:0818"},"geometry":{"type":"Polygon","coordinates":[[[38.194394,49.09372],[38.194592,49.093807],[38.194605,49.09379],[38.195001,49.093373],[38.195045,49.093328],[38.194929,49.093208],[38.1946,49.093526],[38.194394,49.09372]]]}},{"type":"Feature","properties":{"cadnum":"4421610101:00:017:0910"},"geometry":{"type":"Polygon","coordinates":[[[38.195252,49.093958],[38.195346,49.093984],[38.195338,49.094002],[38.195499,49.094058],[38.195512,49.094038],[38.195678,49.09379],[38.195418,49.093711],[38.195252,49.093958]]]}},{"type":"Feature","properties":{"cadnum":"4421610101:00:017:0817"},"geometry":{"type":"Polygon","coordinates":[[[38.194942,49.093193],[38.195059,49.093314],[38.195126,49.093243],[38.195355,49.093011],[38.195364,49.092999],[38.195238,49.092935],[38.195198,49.092917],[38.195189,49.092926],[38.195028,49.093099],[38.194942,49.093193]]]}},{"type":"Feature","properties":{"cadnum":"4421610101:00:017:1001"},"geometry":{"type":"Polygon","coordinates":[[[38.196343,49.093961],[38.19668,49.09406],[38.19677,49.093922],[38.196846,49.093787],[38.196766,49.093761],[38.196622,49.093726],[38.196519,49.093693],[38.196343,49.093961]]]}},{"type":"Feature","properties":{"cadnum":"4421610101:00:017:1010"},"geometry":{"type":"Polygon","coordinates":[[[38.196837,49.094566],[38.197188,49.094649],[38.197485,49.094169],[38.197116,49.094079],[38.196846,49.094557],[38.196837,49.094566]]]}},{"type":"Feature","properties":{"cadnum":"4421610101:01:009:0008"},"geometry":{"type":"Polygon","coordinates":[[[38.181117,49.10054],[38.181275,49.100863],[38.181432,49.100883],[38.18144,49.100857],[38.181548,49.100881],[38.181854,49.100946],[38.181975,49.100734],[38.181661,49.100663],[38.181117,49.10054]]]}}]}