{"type":"FeatureCollection","features":[{"type":"Feature","properties":{"cadnum":"4421681001:04:001:0060"},"geometry":{"type":"Polygon","coordinates":[[[38.414764,49.071123],[38.414872,49.07112],[38.414926,49.070744],[38.415012,49.070369],[38.415012,49.070368],[38.41506,49.070161],[38.415182,49.069825],[38.41507,49.069817],[38.4149,49.070256],[38.414899,49.070256],[38.414859,49.070361],[38.414856,49.070368],[38.414857,49.070368],[38.414857,49.070369],[38.414769,49.070726],[38.414764,49.071123]]]}},{"type":"Feature","properties":{"cadnum":"4421681001:04:001:0061"},"geometry":{"type":"Polygon","coordinates":[[[38.406833,49.071261],[38.406869,49.071708],[38.406873,49.071777],[38.406882,49.071817],[38.406922,49.071856],[38.407056,49.071853],[38.407093,49.071853],[38.407362,49.071836],[38.407322,49.071691],[38.407187,49.071241],[38.406833,49.071261]]]}},{"type":"Feature","properties":{"cadnum":"4421681001:04:001:0057"},"geometry":{"type":"Polygon","coordinates":[[[38.41953,49.07526],[38.419817,49.075269],[38.42037,49.075287],[38.420433,49.074937],[38.419844,49.07494],[38.419557,49.07494],[38.419534,49.075095],[38.41953,49.075136],[38.41953,49.07526]]]}},{"type":"Feature","properties":{"cadnum":"4421681001:04:001:0058"},"geometry":{"type":"Polygon","coordinates":[[[38.415299,49.075866],[38.415874,49.075919],[38.416192,49.075945],[38.416211,49.075819],[38.416219,49.075778],[38.416238,49.075637],[38.415941,49.075605],[38.415322,49.075531],[38.415299,49.075866]]]}},{"type":"Feature","properties":{"cadnum":"4421681001:04:001:0059"},"geometry":{"type":"Polygon","coordinates":[[[38.414513,49.074224],[38.414876,49.074242],[38.415226,49.074257],[38.415245,49.074089],[38.415249,49.074054],[38.415253,49.073957],[38.415253,49.073956],[38.414953,49.073954],[38.414544,49.073951],[38.414513,49.074224]]]}}]}