{"type":"FeatureCollection","features":[{"type":"Feature","properties":{"cadnum":"4421482201:05:001:0003"},"geometry":{"type":"Polygon","coordinates":[[[39.725195,48.273505],[39.725267,48.273622],[39.725326,48.27375],[39.725357,48.273691],[39.725357,48.27369],[39.725402,48.273675],[39.725919,48.273618],[39.726251,48.273544],[39.726477,48.273439],[39.726477,48.27344],[39.726516,48.273421],[39.726648,48.273311],[39.726648,48.27331],[39.727014,48.273006],[39.727051,48.272982],[39.727351,48.272931],[39.728074,48.272979],[39.730707,48.273053],[39.73197,48.273049],[39.73197,48.27305],[39.7324,48.273048],[39.734475,48.27296],[39.734475,48.272988],[39.734852,48.272969],[39.735274,48.272969],[39.735553,48.272973],[39.735804,48.272976],[39.736339,48.273033],[39.737463,48.273224],[39.737463,48.273225],[39.737498,48.27323],[39.737635,48.273251],[39.737947,48.273299],[39.739039,48.273433],[39.739204,48.27329],[39.737997,48.27314],[39.737552,48.273071],[39.736389,48.272874],[39.735827,48.272814],[39.735557,48.272809],[39.735274,48.272805],[39.734842,48.272809],[39.73447,48.272826],[39.73447,48.272853],[39.732395,48.27294],[39.73197,48.272942],[39.730711,48.272946],[39.728087,48.272871],[39.727342,48.272823],[39.726965,48.272883],[39.726892,48.272934],[39.726613,48.273167],[39.726403,48.273343],[39.726179,48.273445],[39.725879,48.273511],[39.72537,48.273567],[39.725298,48.273558],[39.725195,48.273505]]]}},{"type":"Feature","properties":{"cadnum":"4421482201:05:001:0002"},"geometry":{"type":"Polygon","coordinates":[[[39.710988,48.275938],[39.711079,48.275984],[39.711081,48.275984],[39.711128,48.276007],[39.711361,48.2759],[39.711581,48.275873],[39.71174,48.275881],[39.71368,48.275984],[39.713681,48.275984],[39.71407,48.276004],[39.714083,48.275995],[39.714084,48.275995],[39.714254,48.276007],[39.714258,48.276013],[39.71549,48.276105],[39.715644,48.276116],[39.715662,48.276117],[39.716154,48.276153],[39.717183,48.276142],[39.718287,48.276142],[39.718696,48.276115],[39.719127,48.276034],[39.719365,48.2759],[39.719522,48.275711],[39.719604,48.275544],[39.719774,48.274491],[39.719827,48.274336],[39.71989,48.274249],[39.719891,48.274249],[39.720017,48.274165],[39.72029,48.274081],[39.720933,48.274025],[39.720983,48.274021],[39.720984,48.274021],[39.720984,48.274022],[39.722891,48.273864],[39.72347,48.273819],[39.724993,48.273708],[39.725114,48.27372],[39.725164,48.273771],[39.725114,48.273657],[39.725043,48.273534],[39.725011,48.273582],[39.724953,48.273604],[39.722873,48.273756],[39.721155,48.273898],[39.72091,48.273917],[39.720246,48.273977],[39.719923,48.274076],[39.719756,48.274187],[39.719675,48.2743],[39.719612,48.274473],[39.719441,48.275519],[39.719284,48.27578],[39.719159,48.275869],[39.719158,48.275869],[39.719109,48.275905],[39.718807,48.275984],[39.718777,48.275992],[39.718466,48.276028],[39.718246,48.276042],[39.717582,48.276028],[39.716432,48.27604],[39.716162,48.276046],[39.715662,48.27601],[39.715662,48.276009],[39.714312,48.275911],[39.714285,48.275909],[39.714267,48.275914],[39.714101,48.275902],[39.714097,48.275896],[39.711572,48.275765],[39.711294,48.275798],[39.711138,48.275869],[39.711137,48.275869],[39.710988,48.275938]]]}}]}