{"type":"FeatureCollection","features":[{"type":"Feature","properties":{"cadnum":"4422257300:02:002:0013"},"geometry":{"type":"Polygon","coordinates":[[[39.050956,48.498064],[39.051036,48.498142],[39.051449,48.497981],[39.051558,48.497924],[39.051908,48.497754],[39.051805,48.497665],[39.051463,48.497829],[39.050956,48.498064]]]}},{"type":"Feature","properties":{"cadnum":"4422257300:02:002:0014"},"geometry":{"type":"Polygon","coordinates":[[[39.051036,48.498142],[39.051131,48.49823],[39.051189,48.498204],[39.051522,48.498055],[39.051984,48.497849],[39.051908,48.497754],[39.051558,48.497924],[39.051449,48.497981],[39.051036,48.498142]]]}},{"type":"Feature","properties":{"cadnum":"4422257300:02:002:0363"},"geometry":{"type":"Polygon","coordinates":[[[39.050565,48.497853],[39.050817,48.498079],[39.050817,48.49808],[39.050843,48.498102],[39.050989,48.498238],[39.051172,48.498406],[39.051332,48.498325],[39.051261,48.498266],[39.051189,48.498204],[39.051131,48.49823],[39.051036,48.498142],[39.050956,48.498064],[39.050862,48.49799],[39.050843,48.497977],[39.050822,48.49799],[39.050821,48.49799],[39.050745,48.497936],[39.050817,48.4979],[39.050875,48.49787],[39.050767,48.497758],[39.050669,48.497796],[39.050565,48.497853]]]}},{"type":"Feature","properties":{"cadnum":"4422257300:02:001:0409"},"geometry":{"type":"Polygon","coordinates":[[[39.048355,48.502036],[39.048355,48.50204],[39.048912,48.50207],[39.049351,48.502092],[39.04972,48.502111],[39.049738,48.501983],[39.048992,48.501945],[39.048835,48.501933],[39.048709,48.501921],[39.048391,48.501892],[39.048356,48.502035],[39.048356,48.502036],[39.048355,48.502036]]]}},{"type":"Feature","properties":{"cadnum":"4422257300:02:002:0167"},"geometry":{"type":"Polygon","coordinates":[[[39.054827,48.50009],[39.054917,48.500201],[39.054921,48.500207],[39.05529,48.500079],[39.055527,48.500025],[39.055474,48.499915],[39.055231,48.499975],[39.054827,48.50009]]]}},{"type":"Feature","properties":{"cadnum":"4422257300:02:002:0214"},"geometry":{"type":"Polygon","coordinates":[[[39.055743,48.499546],[39.055816,48.499706],[39.056166,48.499624],[39.056311,48.499583],[39.056395,48.499559],[39.056482,48.499534],[39.056575,48.499507],[39.056556,48.499483],[39.056808,48.499388],[39.056728,48.499263],[39.056409,48.499353],[39.05604,48.499474],[39.055743,48.499546]]]}},{"type":"Feature","properties":{"cadnum":"4422257300:02:003:0078"},"geometry":{"type":"Polygon","coordinates":[[[39.063133,48.501305],[39.063374,48.501389],[39.063541,48.501177],[39.063842,48.500787],[39.063806,48.500775],[39.063609,48.500707],[39.063299,48.501094],[39.063133,48.501305]]]}},{"type":"Feature","properties":{"cadnum":"4422257300:02:002:0348"},"geometry":{"type":"Polygon","coordinates":[[[39.048862,48.49851],[39.049047,48.49859],[39.049344,48.498915],[39.049554,48.498865],[39.049191,48.498501],[39.049189,48.498501],[39.048961,48.498376],[39.048947,48.498396],[39.048927,48.498422],[39.048862,48.498509],[39.048863,48.498509],[39.048863,48.49851],[39.048862,48.49851]]]}},{"type":"Feature","properties":{"cadnum":"4422257300:02:001:0456"},"geometry":{"type":"Polygon","coordinates":[[[39.047883,48.502013],[39.048355,48.50204],[39.048391,48.501892],[39.047902,48.50185],[39.047883,48.502013]]]}},{"type":"Feature","properties":{"cadnum":"4422257300:02:001:0408"},"geometry":{"type":"Polygon","coordinates":[[[39.047902,48.50185],[39.048709,48.501921],[39.048751,48.501755],[39.047946,48.501686],[39.047902,48.50185]]]}},{"type":"Feature","properties":{"cadnum":"4422257300:02:001:0421"},"geometry":{"type":"Polygon","coordinates":[[[39.048709,48.501921],[39.048835,48.501933],[39.048992,48.501945],[39.049738,48.501983],[39.049738,48.501787],[39.048885,48.501766],[39.048751,48.501755],[39.048709,48.501921]]]}}]}