{"type":"FeatureCollection","features":[{"type":"Feature","properties":{"cadnum":"4422582201:11:002:0003"},"geometry":{"type":"Polygon","coordinates":[[[39.593735,49.648672],[39.594641,49.648734],[39.594641,49.648735],[39.595372,49.648784],[39.595943,49.646281],[39.596355,49.644481],[39.594724,49.644346],[39.594256,49.646392],[39.593735,49.648672]]]}},{"type":"Feature","properties":{"cadnum":"4422582201:11:002:0008"},"geometry":{"type":"Polygon","coordinates":[[[39.593426,49.644192],[39.594641,49.644293],[39.594641,49.644294],[39.595707,49.644382],[39.596085,49.642724],[39.596552,49.640682],[39.595645,49.640606],[39.594812,49.640538],[39.594271,49.640493],[39.593735,49.642835],[39.593736,49.642835],[39.593426,49.644192]]]}},{"type":"Feature","properties":{"cadnum":"4422582201:11:002:0009"},"geometry":{"type":"Polygon","coordinates":[[[39.591153,49.644003],[39.593426,49.644192],[39.593761,49.642724],[39.594271,49.640493],[39.593839,49.640458],[39.591988,49.640301],[39.591944,49.640475],[39.591439,49.642724],[39.591438,49.642724],[39.591153,49.644003]]]}},{"type":"Feature","properties":{"cadnum":"4422582201:11:003:0015"},"geometry":{"type":"Polygon","coordinates":[[[39.603133,49.632764],[39.603179,49.635609],[39.603178,49.635609],[39.60319,49.636269],[39.605799,49.636791],[39.605836,49.636798],[39.605818,49.63572],[39.605819,49.63572],[39.6058,49.634518],[39.605796,49.634515],[39.603186,49.632787],[39.603133,49.632764]]]}},{"type":"Feature","properties":{"cadnum":"4422582201:11:003:0021"},"geometry":{"type":"Polygon","coordinates":[[[39.599095,49.632273],[39.600306,49.632303],[39.602021,49.632346],[39.602025,49.632347],[39.602038,49.632347],[39.602734,49.632448],[39.602746,49.632451],[39.603084,49.632051],[39.603083,49.632051],[39.603864,49.63113],[39.603492,49.630885],[39.602909,49.630597],[39.6021,49.630467],[39.60018,49.630419],[39.599182,49.630394],[39.599099,49.632162],[39.599099,49.632163],[39.599095,49.632273]]]}},{"type":"Feature","properties":{"cadnum":"4422582201:11:003:0022"},"geometry":{"type":"Polygon","coordinates":[[[39.602746,49.632451],[39.602749,49.632451],[39.602766,49.632457],[39.603302,49.632685],[39.603316,49.632692],[39.603316,49.632693],[39.603318,49.632694],[39.605799,49.634337],[39.607719,49.635609],[39.607718,49.635609],[39.609319,49.636669],[39.609379,49.636429],[39.609379,49.636426],[39.609381,49.636425],[39.609687,49.635634],[39.609901,49.635031],[39.608945,49.634886],[39.607771,49.634753],[39.607758,49.63475],[39.607739,49.634742],[39.607546,49.634636],[39.607544,49.634634],[39.607543,49.634634],[39.607535,49.634628],[39.607348,49.634458],[39.607341,49.63445],[39.607338,49.634447],[39.607285,49.634342],[39.607283,49.634337],[39.607281,49.634332],[39.607185,49.633752],[39.607038,49.633566],[39.606157,49.633135],[39.606145,49.633127],[39.605809,49.632863],[39.6058,49.632851],[39.605796,49.632844],[39.60561,49.632332],[39.605608,49.632327],[39.605607,49.632325],[39.605602,49.632282],[39.605253,49.632051],[39.603864,49.63113],[39.602989,49.632162],[39.60299,49.632162],[39.60299,49.632163],[39.602746,49.632451]]]}},{"type":"Feature","properties":{"cadnum":"4422582201:11:003:0024"},"geometry":{"type":"Polygon","coordinates":[[[39.600505,49.630346],[39.602111,49.630386],[39.602113,49.630387],[39.602123,49.630388],[39.60295,49.630521],[39.602958,49.630522],[39.602973,49.630528],[39.603571,49.630822],[39.603576,49.630825],[39.603577,49.630825],[39.603577,49.630826],[39.603578,49.630826],[39.605427,49.632051],[39.605426,49.632051],[39.605583,49.632155],[39.605584,49.632156],[39.605584,49.632155],[39.605557,49.631949],[39.605557,49.631946],[39.605559,49.631937],[39.605627,49.631695],[39.605704,49.631423],[39.605799,49.631087],[39.605799,49.631086],[39.605842,49.630934],[39.606054,49.63011],[39.606196,49.629261],[39.605799,49.629219],[39.604309,49.629058],[39.603004,49.628928],[39.601227,49.628801],[39.600564,49.628784],[39.600505,49.630346]]]}},{"type":"Feature","properties":{"cadnum":"4422582201:11:003:0016"},"geometry":{"type":"Polygon","coordinates":[[[39.601232,49.632453],[39.601284,49.635609],[39.601283,49.635609],[39.60129,49.635955],[39.601479,49.635978],[39.601974,49.636025],[39.60319,49.636269],[39.60318,49.63572],[39.603181,49.63572],[39.603133,49.632764],[39.602674,49.632569],[39.602005,49.632473],[39.601232,49.632453]]]}},{"type":"Feature","properties":{"cadnum":"4422582201:11:003:0017"},"geometry":{"type":"Polygon","coordinates":[[[39.599272,49.632403],[39.599323,49.635609],[39.599327,49.635797],[39.599573,49.635796],[39.600306,49.635843],[39.600306,49.635842],[39.600422,49.63585],[39.60129,49.635956],[39.601285,49.63572],[39.601286,49.63572],[39.601234,49.632453],[39.600216,49.632428],[39.599272,49.632403]]]}},{"type":"Feature","properties":{"cadnum":"4422582201:11:004:0015"},"geometry":{"type":"Polygon","coordinates":[[[39.616517,49.644367],[39.616613,49.644387],[39.616613,49.644388],[39.616727,49.644412],[39.616785,49.644424],[39.622278,49.645588],[39.623519,49.64585],[39.623878,49.644803],[39.622107,49.644428],[39.622107,49.644429],[39.622106,49.644429],[39.61676,49.643296],[39.616517,49.644367]]]}},{"type":"Feature","properties":{"cadnum":"4422582201:11:002:0011"},"geometry":{"type":"Polygon","coordinates":[[[39.593839,49.640458],[39.594271,49.640493],[39.594641,49.640524],[39.595645,49.640606],[39.595972,49.639167],[39.595972,49.639166],[39.596682,49.636054],[39.594831,49.636097],[39.594812,49.63618],[39.594107,49.639278],[39.593839,49.640458]]]}},{"type":"Feature","properties":{"cadnum":"4422582201:11:002:0006"},"geometry":{"type":"Polygon","coordinates":[[[39.597791,49.644556],[39.599678,49.644713],[39.600129,49.642724],[39.600128,49.642724],[39.600134,49.642701],[39.600134,49.642705],[39.600294,49.641997],[39.600306,49.641948],[39.600483,49.641167],[39.600513,49.641013],[39.600134,49.640982],[39.599045,49.640891],[39.598636,49.640857],[39.598184,49.642835],[39.597791,49.644556]]]}},{"type":"Feature","properties":{"cadnum":"4422582201:11:002:0014"},"geometry":{"type":"Polygon","coordinates":[[[39.599045,49.640891],[39.600306,49.640996],[39.600513,49.641013],[39.600906,49.639167],[39.600906,49.639166],[39.601083,49.638341],[39.601555,49.636185],[39.601542,49.636185],[39.601385,49.63615],[39.600158,49.636019],[39.599412,49.639278],[39.599413,49.639278],[39.599045,49.640891]]]}},{"type":"Feature","properties":{"cadnum":"4422582201:11:002:0012"},"geometry":{"type":"Polygon","coordinates":[[[39.595645,49.640606],[39.596552,49.640682],[39.597433,49.640758],[39.597795,49.639167],[39.597795,49.639166],[39.598515,49.636013],[39.597917,49.636025],[39.596682,49.636054],[39.595947,49.639278],[39.595645,49.640606]]]}},{"type":"Feature","properties":{"cadnum":"4422582201:11:002:0007"},"geometry":{"type":"Polygon","coordinates":[[[39.595707,49.644382],[39.596791,49.644472],[39.597791,49.644556],[39.598209,49.642724],[39.598636,49.640857],[39.597433,49.640758],[39.596552,49.640682],[39.59606,49.642835],[39.595707,49.644382]]]}},{"type":"Feature","properties":{"cadnum":"4422582201:11:002:0013"},"geometry":{"type":"Polygon","coordinates":[[[39.597433,49.640758],[39.598636,49.640857],[39.599045,49.640891],[39.599438,49.639167],[39.599438,49.639166],[39.600158,49.636019],[39.6001,49.636013],[39.599341,49.636002],[39.598515,49.636013],[39.59777,49.639278],[39.597433,49.640758]]]}},{"type":"Feature","properties":{"cadnum":"4422582201:11:004:0020"},"geometry":{"type":"Polygon","coordinates":[[[39.623308,49.646469],[39.624624,49.646746],[39.624744,49.646392],[39.624745,49.646392],[39.625959,49.642835],[39.62596,49.642835],[39.626493,49.641275],[39.625711,49.641115],[39.625685,49.641107],[39.625671,49.641092],[39.625666,49.641075],[39.625671,49.641057],[39.625671,49.641054],[39.625536,49.64101],[39.625199,49.640937],[39.624903,49.641804],[39.624588,49.642724],[39.624576,49.642761],[39.62455,49.642835],[39.62423,49.643776],[39.623878,49.644803],[39.623519,49.64585],[39.623372,49.646281],[39.623371,49.646281],[39.623352,49.646339],[39.623334,49.646392],[39.623308,49.646469]]]}},{"type":"Feature","properties":{"cadnum":"4422582201:11:004:0016"},"geometry":{"type":"Polygon","coordinates":[[[39.61676,49.643296],[39.622278,49.644465],[39.623878,49.644803],[39.62423,49.643776],[39.622107,49.643327],[39.622106,49.643327],[39.619258,49.642724],[39.617002,49.642246],[39.616891,49.642724],[39.61676,49.643296]]]}},{"type":"Feature","properties":{"cadnum":"4422582201:11:004:0017"},"geometry":{"type":"Polygon","coordinates":[[[39.617002,49.642246],[39.619782,49.642835],[39.619783,49.642835],[39.622278,49.643364],[39.62423,49.643776],[39.624576,49.642761],[39.622107,49.64224],[39.622106,49.64224],[39.61724,49.641211],[39.617002,49.642246]]]}},{"type":"Feature","properties":{"cadnum":"4422582201:11:004:0021"},"geometry":{"type":"Polygon","coordinates":[[[39.624624,49.646746],[39.625931,49.647025],[39.626147,49.646392],[39.627362,49.642835],[39.6276,49.642141],[39.627618,49.642087],[39.627771,49.641639],[39.627771,49.641638],[39.627805,49.64154],[39.6276,49.6415],[39.627323,49.641446],[39.626493,49.641275],[39.625998,49.642724],[39.625997,49.642724],[39.624782,49.646281],[39.624624,49.646746]]]}},{"type":"Feature","properties":{"cadnum":"4422582201:11:004:0022"},"geometry":{"type":"Polygon","coordinates":[[[39.625931,49.647025],[39.626403,49.647124],[39.627184,49.64729],[39.627529,49.646281],[39.627528,49.646281],[39.6276,49.646072],[39.6276,49.646074],[39.627726,49.645703],[39.627771,49.645572],[39.627771,49.645571],[39.628706,49.642835],[39.629067,49.641781],[39.627805,49.64154],[39.627618,49.642087],[39.6274,49.642724],[39.626185,49.646281],[39.625931,49.647025]]]}},{"type":"Feature","properties":{"cadnum":"4422582201:11:004:0010"},"geometry":{"type":"Polygon","coordinates":[[[39.620169,49.650817],[39.62183,49.650951],[39.622073,49.649949],[39.622106,49.649811],[39.622107,49.649811],[39.622935,49.646391],[39.622917,49.646387],[39.622278,49.646251],[39.621323,49.646048],[39.621266,49.646281],[39.620405,49.649837],[39.620386,49.649914],[39.620378,49.649949],[39.620169,49.650817]]]}},{"type":"Feature","properties":{"cadnum":"4422582201:11:003:0002"},"geometry":{"type":"Polygon","coordinates":[[[39.599278,49.647896],[39.600134,49.647957],[39.600134,49.647958],[39.605627,49.64835],[39.605717,49.648356],[39.605765,49.647714],[39.605504,49.647074],[39.600306,49.646703],[39.599561,49.646649],[39.599285,49.647865],[39.599278,49.647896]]]}},{"type":"Feature","properties":{"cadnum":"4422582201:11:003:0003"},"geometry":{"type":"Polygon","coordinates":[[[39.599561,49.646649],[39.600134,49.64669],[39.600134,49.646691],[39.605504,49.647074],[39.605337,49.646667],[39.605618,49.646574],[39.605627,49.646584],[39.605627,49.646585],[39.605956,49.646937],[39.606103,49.647291],[39.606103,49.647292],[39.606272,49.648284],[39.606697,49.648267],[39.606972,49.64755],[39.607255,49.646392],[39.607293,49.646242],[39.605799,49.646135],[39.600306,49.645742],[39.599776,49.645704],[39.599619,49.646392],[39.599561,49.646649]]]}},{"type":"Feature","properties":{"cadnum":"4422582201:11:003:0001"},"geometry":{"type":"Polygon","coordinates":[[[39.598935,49.649112],[39.599022,49.649118],[39.600134,49.649191],[39.603786,49.649433],[39.604682,49.649498],[39.60513,49.649539],[39.605437,49.649506],[39.605627,49.649343],[39.605647,49.649325],[39.605689,49.64874],[39.605717,49.648356],[39.600306,49.64797],[39.599278,49.647896],[39.599018,49.649049],[39.599014,49.649059],[39.598999,49.649073],[39.598978,49.649084],[39.598951,49.649087],[39.59894,49.649085],[39.598935,49.649112]]]}},{"type":"Feature","properties":{"cadnum":"4422582201:11:003:0019"},"geometry":{"type":"Polygon","coordinates":[[[39.594028,49.634741],[39.594041,49.635285],[39.594032,49.63572],[39.594029,49.635886],[39.594641,49.635875],[39.597304,49.635824],[39.5973,49.635609],[39.597255,49.63275],[39.594785,49.634274],[39.594028,49.634741]]]}},{"type":"Feature","properties":{"cadnum":"4422582201:11:002:0010"},"geometry":{"type":"Polygon","coordinates":[[[39.591988,49.640301],[39.593839,49.640458],[39.594132,49.639167],[39.594132,49.639166],[39.594641,49.636934],[39.594831,49.636097],[39.594641,49.636101],[39.594641,49.636102],[39.594158,49.636112],[39.593143,49.636121],[39.592959,49.636121],[39.592829,49.636752],[39.592229,49.639278],[39.59223,49.639278],[39.591988,49.640301]]]}},{"type":"Feature","properties":{"cadnum":"4422582201:11:003:0005"},"geometry":{"type":"Polygon","coordinates":[[[39.600006,49.64469],[39.600134,49.644699],[39.605627,49.645093],[39.605627,49.645094],[39.607543,49.645231],[39.607682,49.644655],[39.607785,49.644216],[39.605799,49.644074],[39.600234,49.643677],[39.600006,49.64469]]]}},{"type":"Feature","properties":{"cadnum":"4422582201:11:002:0005"},"geometry":{"type":"Polygon","coordinates":[[[39.59701,49.648939],[39.598687,49.6491],[39.598971,49.647834],[39.599323,49.646281],[39.599322,49.646281],[39.599669,49.644758],[39.597996,49.644619],[39.597591,49.646392],[39.59701,49.648939]]]}},{"type":"Feature","properties":{"cadnum":"4422582201:11:002:0004"},"geometry":{"type":"Polygon","coordinates":[[[39.595372,49.648784],[39.595466,49.64879],[39.59701,49.648939],[39.597617,49.646281],[39.597996,49.644619],[39.596355,49.644481],[39.595917,49.646392],[39.595918,49.646392],[39.595372,49.648784]]]}},{"type":"Feature","properties":{"cadnum":"4422582201:11:003:0014"},"geometry":{"type":"Polygon","coordinates":[[[39.6058,49.634518],[39.605817,49.635609],[39.605816,49.635609],[39.605836,49.636798],[39.606825,49.636996],[39.609142,49.637444],[39.60916,49.637299],[39.60916,49.637296],[39.609282,49.636821],[39.607448,49.635609],[39.6058,49.634518]]]}},{"type":"Feature","properties":{"cadnum":"4422582201:11:004:0006"},"geometry":{"type":"Polygon","coordinates":[[[39.630338,49.643427],[39.633093,49.643963],[39.633093,49.643964],[39.634901,49.644315],[39.635036,49.643992],[39.635396,49.643035],[39.635292,49.642948],[39.634391,49.64277],[39.633265,49.642547],[39.630881,49.642075],[39.630786,49.642052],[39.630773,49.642066],[39.630751,49.642075],[39.630738,49.642078],[39.630513,49.642835],[39.630338,49.643427]]]}},{"type":"Feature","properties":{"cadnum":"4422582201:11:004:0003"},"geometry":{"type":"Polygon","coordinates":[[[39.62885,49.647721],[39.632999,49.648526],[39.633265,49.647942],[39.633525,49.647369],[39.633668,49.647072],[39.633265,49.646994],[39.630165,49.646392],[39.629351,49.646234],[39.629335,49.646281],[39.629329,49.646299],[39.629298,49.646392],[39.629284,49.646435],[39.62885,49.647721]]]}},{"type":"Feature","properties":{"cadnum":"4422582201:11:003:0011"},"geometry":{"type":"Polygon","coordinates":[[[39.604129,49.640908],[39.605627,49.641015],[39.605707,49.641021],[39.605799,49.641028],[39.605799,49.641027],[39.605889,49.641034],[39.606251,49.639278],[39.60646,49.638268],[39.606681,49.637195],[39.605627,49.636984],[39.604966,49.636851],[39.604487,49.639166],[39.604487,49.639167],[39.604129,49.640908]]]}},{"type":"Feature","properties":{"cadnum":"4422582201:11:003:0010"},"geometry":{"type":"Polygon","coordinates":[[[39.602488,49.640791],[39.604129,49.640908],[39.604464,49.639278],[39.604966,49.636851],[39.603367,49.636531],[39.602799,49.639278],[39.6028,49.639278],[39.602488,49.640791]]]}},{"type":"Feature","properties":{"cadnum":"4422582201:11:003:0008"},"geometry":{"type":"Polygon","coordinates":[[[39.600693,49.641663],[39.605627,49.642017],[39.60826,49.642204],[39.608492,49.64122],[39.605889,49.641034],[39.605707,49.641021],[39.604129,49.640908],[39.602488,49.640791],[39.600908,49.640678],[39.600782,49.641273],[39.600693,49.641663]]]}},{"type":"Feature","properties":{"cadnum":"4422582201:11:003:0006"},"geometry":{"type":"Polygon","coordinates":[[[39.600236,49.643676],[39.605627,49.644063],[39.607786,49.644217],[39.608024,49.643205],[39.605799,49.643046],[39.602855,49.642835],[39.600465,49.642664],[39.600452,49.642724],[39.600451,49.642724],[39.60045,49.642724],[39.600236,49.643676]]]}},{"type":"Feature","properties":{"cadnum":"4422582201:11:003:0007"},"geometry":{"type":"Polygon","coordinates":[[[39.600465,49.642664],[39.601302,49.642724],[39.605627,49.643034],[39.608024,49.643205],[39.60811,49.642835],[39.608111,49.642835],[39.60826,49.642204],[39.605799,49.642029],[39.600693,49.641663],[39.600465,49.642664]]]}},{"type":"Feature","properties":{"cadnum":"4422582201:11:003:0009"},"geometry":{"type":"Polygon","coordinates":[[[39.600908,49.640678],[39.602488,49.640791],[39.602823,49.639167],[39.602822,49.639167],[39.602822,49.639166],[39.603367,49.636531],[39.601947,49.636246],[39.601859,49.636232],[39.601389,49.638408],[39.601204,49.639278],[39.601205,49.639278],[39.600908,49.640678]]]}},{"type":"Feature","properties":{"cadnum":"4422582201:11:003:0023"},"geometry":{"type":"Polygon","coordinates":[[[39.593959,49.630766],[39.593984,49.631904],[39.593985,49.632051],[39.593986,49.632104],[39.593986,49.632162],[39.593986,49.632163],[39.593994,49.632724],[39.594641,49.632325],[39.594696,49.632291],[39.594812,49.632219],[39.595083,49.632051],[39.597461,49.630584],[39.597469,49.630579],[39.598055,49.630337],[39.598063,49.630333],[39.598083,49.63033],[39.598711,49.630301],[39.598718,49.630301],[39.600134,49.630337],[39.600164,49.630338],[39.600306,49.630342],[39.600306,49.630341],[39.600505,49.630346],[39.600564,49.628784],[39.600144,49.628774],[39.599724,49.628763],[39.597698,49.628862],[39.597292,49.628961],[39.597095,49.629039],[39.597087,49.629041],[39.597065,49.629045],[39.59594,49.629114],[39.595932,49.629114],[39.595915,49.629728],[39.595876,49.630317],[39.594652,49.630395],[39.594525,49.630403],[39.594147,49.630569],[39.593959,49.630766]]]}},{"type":"Feature","properties":{"cadnum":"4422582201:11:003:0018"},"geometry":{"type":"Polygon","coordinates":[[[39.597255,49.63275],[39.597301,49.63572],[39.597302,49.63572],[39.597304,49.635824],[39.598232,49.635806],[39.599327,49.635797],[39.599325,49.63572],[39.599272,49.632403],[39.598496,49.632383],[39.597995,49.632423],[39.597507,49.632594],[39.597255,49.63275]]]}},{"type":"Feature","properties":{"cadnum":"4422582201:11:003:0020"},"geometry":{"type":"Polygon","coordinates":[[[39.593996,49.632834],[39.594013,49.634051],[39.594025,49.63457],[39.594641,49.634191],[39.594757,49.634119],[39.594812,49.634085],[39.597382,49.632498],[39.597389,49.632494],[39.597403,49.632487],[39.59792,49.632307],[39.597926,49.632304],[39.597953,49.6323],[39.598482,49.632258],[39.598491,49.632257],[39.598494,49.632258],[39.598496,49.632257],[39.599095,49.632273],[39.599104,49.632051],[39.599182,49.630394],[39.598716,49.630382],[39.598109,49.63041],[39.597542,49.630645],[39.595263,49.632051],[39.594695,49.632403],[39.593996,49.632834]]]}},{"type":"Feature","properties":{"cadnum":"4422582201:11:004:0009"},"geometry":{"type":"Polygon","coordinates":[[[39.618551,49.650683],[39.620169,49.650817],[39.620386,49.649914],[39.621239,49.646392],[39.621323,49.646048],[39.619819,49.645731],[39.619742,49.645781],[39.61962,49.646281],[39.618757,49.649837],[39.618756,49.649837],[39.618551,49.650683]]]}},{"type":"Feature","properties":{"cadnum":"4422582201:11:004:0007"},"geometry":{"type":"Polygon","coordinates":[[[39.614985,49.650428],[39.616613,49.650547],[39.616616,49.650547],[39.616785,49.64985],[39.616785,49.649849],[39.617559,49.646656],[39.61689,49.646781],[39.616735,49.646808],[39.615834,49.646961],[39.615605,49.647915],[39.615534,49.648223],[39.615448,49.64857],[39.615103,49.649949],[39.615104,49.649949],[39.614985,49.650428]]]}},{"type":"Feature","properties":{"cadnum":"4422582201:11:004:0008"},"geometry":{"type":"Polygon","coordinates":[[[39.616616,49.650547],[39.616785,49.650559],[39.61853,49.650683],[39.618551,49.650683],[39.618729,49.649949],[39.61873,49.649949],[39.619593,49.646392],[39.619742,49.645781],[39.619247,49.646109],[39.618921,49.646281],[39.61892,49.646281],[39.618916,49.646283],[39.618534,49.646392],[39.617743,49.646618],[39.617559,49.646656],[39.616788,49.649837],[39.616616,49.650547]]]}},{"type":"Feature","properties":{"cadnum":"4422582201:11:003:0012"},"geometry":{"type":"Polygon","coordinates":[[[39.605889,49.641034],[39.608492,49.64122],[39.608834,49.639764],[39.608819,49.639762],[39.608796,49.639753],[39.60878,49.639738],[39.608775,49.639722],[39.608775,49.639721],[39.608776,49.639714],[39.608906,49.639171],[39.609079,49.638455],[39.60646,49.638268],[39.606274,49.639166],[39.606274,49.639167],[39.606273,49.639167],[39.605889,49.641034]]]}},{"type":"Feature","properties":{"cadnum":"4422582201:11:004:0001"},"geometry":{"type":"Polygon","coordinates":[[[39.627618,49.651509],[39.627771,49.651522],[39.627771,49.651521],[39.629201,49.651639],[39.630039,49.651766],[39.631454,49.651908],[39.631529,49.651737],[39.632231,49.650208],[39.630665,49.649904],[39.628281,49.649442],[39.628155,49.649837],[39.627632,49.651492],[39.627628,49.651498],[39.627618,49.651509]]]}},{"type":"Feature","properties":{"cadnum":"4422582201:11:004:0002"},"geometry":{"type":"Polygon","coordinates":[[[39.628281,49.649442],[39.630319,49.649837],[39.630665,49.649904],[39.630892,49.649949],[39.632231,49.650208],[39.632377,49.649888],[39.632737,49.649105],[39.632999,49.648526],[39.62885,49.647721],[39.628447,49.648915],[39.628281,49.649442]]]}},{"type":"Feature","properties":{"cadnum":"4422582201:11:004:0013"},"geometry":{"type":"Polygon","coordinates":[[[39.625403,49.651243],[39.627242,49.651393],[39.627658,49.649949],[39.627659,49.649949],[39.627891,49.64914],[39.628416,49.647549],[39.627771,49.647414],[39.627771,49.647413],[39.627184,49.647289],[39.626402,49.647123],[39.625744,49.649837],[39.625403,49.651243]]]}},{"type":"Feature","properties":{"cadnum":"4422582201:11:004:0005"},"geometry":{"type":"Polygon","coordinates":[[[39.629833,49.644805],[39.633093,49.645438],[39.634313,49.645675],[39.634543,49.645187],[39.634902,49.644313],[39.633093,49.643962],[39.633093,49.643963],[39.630338,49.643427],[39.630286,49.643606],[39.630283,49.643612],[39.630282,49.643613],[39.630163,49.643828],[39.629833,49.644805]]]}},{"type":"Feature","properties":{"cadnum":"4422582201:11:004:0018"},"geometry":{"type":"Polygon","coordinates":[[[39.61724,49.641211],[39.622278,49.642277],[39.622278,49.642276],[39.624576,49.642761],[39.624903,49.641804],[39.622107,49.641213],[39.622106,49.641213],[39.617465,49.64023],[39.617433,49.640368],[39.61724,49.641211]]]}},{"type":"Feature","properties":{"cadnum":"4422582201:11:004:0026"},"geometry":{"type":"Polygon","coordinates":[[[39.613979,49.650396],[39.614702,49.65045],[39.614836,49.649949],[39.614945,49.649543],[39.615421,49.647484],[39.61472,49.647467],[39.614092,49.649949],[39.613979,49.650396]]]}},{"type":"Feature","properties":{"cadnum":"4422582201:11:004:0012"},"geometry":{"type":"Polygon","coordinates":[[[39.623574,49.651094],[39.625406,49.651245],[39.625719,49.649949],[39.626403,49.647124],[39.625931,49.647025],[39.624624,49.646746],[39.623877,49.649837],[39.623856,49.649923],[39.62385,49.649949],[39.623574,49.651094]]]}},{"type":"Feature","properties":{"cadnum":"4422582201:11:003:0013"},"geometry":{"type":"Polygon","coordinates":[[[39.60646,49.638268],[39.609079,49.638455],[39.609261,49.637701],[39.609248,49.637694],[39.608455,49.637551],[39.608454,49.63755],[39.606681,49.637195],[39.60646,49.638268]]]}}]}