{"type":"FeatureCollection","features":[{"type":"Feature","properties":{"cadnum":"4422225600:02:082:0001"},"geometry":{"type":"Polygon","coordinates":[[[39.121837,48.420918],[39.1224,48.42106],[39.1224,48.421059],[39.123355,48.421297],[39.125396,48.418357],[39.125552,48.418134],[39.127169,48.416992],[39.127893,48.416604],[39.127893,48.416603],[39.127894,48.416603],[39.12915,48.415928],[39.130299,48.415233],[39.131238,48.41468],[39.133079,48.413871],[39.132689,48.413478],[39.130896,48.414202],[39.129849,48.414721],[39.129693,48.414798],[39.128911,48.415156],[39.128867,48.415111],[39.129648,48.414757],[39.129949,48.414607],[39.129949,48.414606],[39.130852,48.414157],[39.133098,48.413248],[39.133387,48.413158],[39.134077,48.412941],[39.134292,48.412816],[39.134198,48.412816],[39.133313,48.412954],[39.132953,48.41301],[39.132594,48.412893],[39.132783,48.412774],[39.13298,48.41284],[39.133215,48.412804],[39.13334,48.412784],[39.133387,48.412777],[39.134171,48.412654],[39.134571,48.412649],[39.135402,48.412159],[39.137131,48.411536],[39.13846,48.411211],[39.13846,48.411212],[39.138672,48.411668],[39.13888,48.411571],[39.13888,48.41157],[39.13935,48.411349],[39.139351,48.411349],[39.144373,48.41132],[39.145561,48.411313],[39.145679,48.411074],[39.145764,48.410904],[39.146545,48.41096],[39.146546,48.41096],[39.148019,48.411066],[39.148136,48.411074],[39.149694,48.411496],[39.152366,48.412219],[39.155188,48.412619],[39.155188,48.41262],[39.15626,48.412771],[39.159607,48.412485],[39.160852,48.412308],[39.160853,48.412308],[39.166174,48.411548],[39.166335,48.411525],[39.166346,48.411525],[39.166346,48.411524],[39.168011,48.411441],[39.171667,48.411623],[39.171667,48.411624],[39.172812,48.41168],[39.176545,48.411689],[39.177332,48.41159],[39.177332,48.411589],[39.179684,48.411292],[39.18119,48.411074],[39.182653,48.410863],[39.182767,48.410847],[39.182825,48.410838],[39.183619,48.410723],[39.185577,48.409861],[39.187158,48.408579],[39.188146,48.407939],[39.188147,48.407939],[39.18823,48.407885],[39.188318,48.407828],[39.18886,48.407476],[39.1889,48.40738],[39.189095,48.406924],[39.189242,48.406579],[39.188892,48.406575],[39.18877,48.406254],[39.188896,48.406048],[39.189049,48.405878],[39.189346,48.405567],[39.189781,48.405111],[39.190055,48.404858],[39.190621,48.404497],[39.191546,48.403946],[39.191834,48.40374],[39.191835,48.403739],[39.192512,48.403445],[39.193811,48.403066],[39.193873,48.403048],[39.195212,48.402658],[39.193797,48.402512],[39.191587,48.403138],[39.191839,48.4034],[39.191184,48.403667],[39.190626,48.403895],[39.189148,48.40549],[39.188318,48.406365],[39.187711,48.407005],[39.187164,48.407428],[39.187068,48.407503],[39.185963,48.408665],[39.18556,48.408848],[39.183242,48.409832],[39.182825,48.409919],[39.182487,48.409989],[39.182065,48.410061],[39.181261,48.410195],[39.179931,48.410365],[39.179365,48.410437],[39.178791,48.410511],[39.178436,48.410568],[39.17796,48.410639],[39.17716,48.410764],[39.176617,48.410848],[39.176145,48.410875],[39.174797,48.410946],[39.173288,48.410598],[39.172983,48.410579],[39.171839,48.410519],[39.168101,48.41032],[39.166237,48.410255],[39.165912,48.410243],[39.163555,48.410583],[39.160681,48.410945],[39.160561,48.41096],[39.160556,48.41096],[39.159803,48.411055],[39.159651,48.411074],[39.159651,48.411075],[39.159553,48.411087],[39.157932,48.411379],[39.157931,48.411379],[39.156467,48.411251],[39.155188,48.41108],[39.155187,48.41108],[39.155149,48.411075],[39.155149,48.411074],[39.154502,48.410988],[39.154298,48.41096],[39.153327,48.41083],[39.149866,48.410271],[39.149866,48.41027],[39.148836,48.410103],[39.144373,48.409958],[39.139498,48.409799],[39.138766,48.409856],[39.137854,48.409927],[39.137706,48.409608],[39.136359,48.409888],[39.136358,48.409888],[39.134328,48.410809],[39.134056,48.41096],[39.133387,48.411334],[39.132846,48.411635],[39.132518,48.412508],[39.132653,48.412661],[39.132473,48.412777],[39.132257,48.412535],[39.13251,48.411865],[39.127927,48.414607],[39.127926,48.414607],[39.12774,48.414718],[39.127645,48.414775],[39.12561,48.415889],[39.125332,48.416381],[39.123648,48.417899],[39.123436,48.418252],[39.123435,48.418252],[39.123434,48.418252],[39.12238,48.420013],[39.121837,48.420918]]]}}]}