{"type":"FeatureCollection","features":[{"type":"Feature","properties":{"cadnum":"4422225700:02:003:0097"},"geometry":{"type":"Polygon","coordinates":[[[39.1913,48.425062],[39.191322,48.425065],[39.191349,48.425008],[39.191322,48.425002],[39.1913,48.425062]]]}},{"type":"Feature","properties":{"cadnum":"4422225700:02:003:0093"},"geometry":{"type":"Polygon","coordinates":[[[39.1913,48.424963],[39.191353,48.424996],[39.191403,48.424957],[39.191344,48.424928],[39.1913,48.424963]]]}},{"type":"Feature","properties":{"cadnum":"4422225700:02:003:0096"},"geometry":{"type":"Polygon","coordinates":[[[39.19112,48.425524],[39.191147,48.425527],[39.191151,48.425511],[39.191129,48.425506],[39.19112,48.425524]]]}},{"type":"Feature","properties":{"cadnum":"4422225700:02:002:0240"},"geometry":{"type":"Polygon","coordinates":[[[39.200166,48.433955],[39.200179,48.43397],[39.200202,48.433964],[39.200188,48.433949],[39.200166,48.433955]]]}},{"type":"Feature","properties":{"cadnum":"4422225700:02:002:0242"},"geometry":{"type":"Polygon","coordinates":[[[39.201603,48.433499],[39.201617,48.433517],[39.20168,48.433496],[39.201666,48.433481],[39.201603,48.433499]]]}},{"type":"Feature","properties":{"cadnum":"4422225700:02:002:0241"},"geometry":{"type":"Polygon","coordinates":[[[39.200917,48.43372],[39.200925,48.433735],[39.200947,48.433726],[39.200938,48.433711],[39.200917,48.43372]]]}},{"type":"Feature","properties":{"cadnum":"4422225700:02:002:0244"},"geometry":{"type":"Polygon","coordinates":[[[39.203355,48.432951],[39.203364,48.432966],[39.203435,48.432945],[39.203427,48.432929],[39.203355,48.432951]]]}},{"type":"Feature","properties":{"cadnum":"4422225700:02:002:0243"},"geometry":{"type":"Polygon","coordinates":[[[39.20247,48.433225],[39.202479,48.433243],[39.202502,48.433234],[39.202492,48.433219],[39.20247,48.433225]]]}},{"type":"Feature","properties":{"cadnum":"4422225700:02:002:0260"},"geometry":{"type":"Polygon","coordinates":[[[39.203427,48.432918],[39.203462,48.432953],[39.203521,48.432929],[39.203485,48.432891],[39.203427,48.432918]]]}},{"type":"Feature","properties":{"cadnum":"4422225700:02:002:0239"},"geometry":{"type":"Polygon","coordinates":[[[39.199443,48.434184],[39.199456,48.434199],[39.199479,48.43419],[39.199466,48.434175],[39.199443,48.434184]]]}},{"type":"Feature","properties":{"cadnum":"4422225700:01:024:0021"},"geometry":{"type":"Polygon","coordinates":[[[39.122229,48.449789],[39.122263,48.449828],[39.122286,48.449818],[39.12225,48.44978],[39.122229,48.449789]]]}},{"type":"Feature","properties":{"cadnum":"4422225700:01:024:0023"},"geometry":{"type":"Polygon","coordinates":[[[39.118837,48.451079],[39.118862,48.451111],[39.118868,48.451118],[39.118886,48.451111],[39.118891,48.451109],[39.11886,48.45107],[39.118837,48.451079]]]}},{"type":"Feature","properties":{"cadnum":"4422225700:01:024:0022"},"geometry":{"type":"Polygon","coordinates":[[[39.120517,48.450438],[39.120548,48.45048],[39.120571,48.450471],[39.120535,48.450429],[39.120517,48.450438]]]}},{"type":"Feature","properties":{"cadnum":"4422225700:01:045:0021"},"geometry":{"type":"Polygon","coordinates":[[[39.19073,48.417347],[39.190747,48.417365],[39.19077,48.417353],[39.190756,48.417338],[39.19073,48.417347]]]}},{"type":"Feature","properties":{"cadnum":"4422225700:01:045:0023"},"geometry":{"type":"Polygon","coordinates":[[[39.19076,48.418197],[39.190806,48.418233],[39.190823,48.418224],[39.190783,48.418185],[39.19076,48.418197]]]}},{"type":"Feature","properties":{"cadnum":"4422225700:01:045:0030"},"geometry":{"type":"Polygon","coordinates":[[[39.191183,48.417517],[39.191223,48.417555],[39.191246,48.417547],[39.191206,48.417508],[39.191183,48.417517]]]}},{"type":"Feature","properties":{"cadnum":"4422225700:01:045:0029"},"geometry":{"type":"Polygon","coordinates":[[[39.189965,48.418003],[39.190001,48.418041],[39.190024,48.418033],[39.189988,48.417994],[39.189965,48.418003]]]}},{"type":"Feature","properties":{"cadnum":"4422225700:01:045:0020"},"geometry":{"type":"Polygon","coordinates":[[[39.192557,48.416616],[39.192571,48.416632],[39.192598,48.416623],[39.192584,48.416605],[39.192557,48.416616]]]}},{"type":"Feature","properties":{"cadnum":"4422225700:01:045:0031"},"geometry":{"type":"Polygon","coordinates":[[[39.192934,48.416817],[39.192975,48.416855],[39.192997,48.416846],[39.192957,48.416808],[39.192934,48.416817]]]}},{"type":"Feature","properties":{"cadnum":"4422225700:01:045:0025"},"geometry":{"type":"Polygon","coordinates":[[[39.193707,48.416992],[39.193743,48.417031],[39.193766,48.417022],[39.19373,48.416983],[39.193707,48.416992]]]}},{"type":"Feature","properties":{"cadnum":"4422225700:01:045:0024"},"geometry":{"type":"Polygon","coordinates":[[[39.192242,48.417601],[39.192283,48.417636],[39.192305,48.417628],[39.192265,48.417588],[39.192242,48.417601]]]}},{"type":"Feature","properties":{"cadnum":"4422225700:02:002:0261"},"geometry":{"type":"Polygon","coordinates":[[[39.200431,48.428268],[39.200449,48.428281],[39.200516,48.428239],[39.200458,48.428194],[39.200439,48.428206],[39.200481,48.428239],[39.200431,48.428268]]]}},{"type":"Feature","properties":{"cadnum":"4422225700:02:002:0257"},"geometry":{"type":"Polygon","coordinates":[[[39.200269,48.429017],[39.200292,48.429019],[39.200296,48.429002],[39.200274,48.428999],[39.200269,48.429017]]]}},{"type":"Feature","properties":{"cadnum":"4422225700:02:002:0258"},"geometry":{"type":"Polygon","coordinates":[[[39.200377,48.428635],[39.200399,48.428639],[39.200404,48.428621],[39.200381,48.428617],[39.200377,48.428635]]]}},{"type":"Feature","properties":{"cadnum":"4422225700:02:002:0276"},"geometry":{"type":"Polygon","coordinates":[[[39.200548,48.42817],[39.200557,48.428186],[39.200624,48.428167],[39.200615,48.428153],[39.200548,48.42817]]]}},{"type":"Feature","properties":{"cadnum":"4422225700:02:002:0272"},"geometry":{"type":"Polygon","coordinates":[[[39.19942,48.427541],[39.199447,48.427544],[39.199452,48.42753],[39.199429,48.427523],[39.19942,48.427541]]]}},{"type":"Feature","properties":{"cadnum":"4422225700:02:002:0273"},"geometry":{"type":"Polygon","coordinates":[[[39.199982,48.427637],[39.200009,48.427643],[39.200013,48.427625],[39.199991,48.427622],[39.199982,48.427637]]]}},{"type":"Feature","properties":{"cadnum":"4422225700:02:002:0274"},"geometry":{"type":"Polygon","coordinates":[[[39.200544,48.427744],[39.200552,48.427753],[39.200624,48.427729],[39.200615,48.42772],[39.200561,48.427687],[39.200548,48.427693],[39.200544,48.427744]]]}},{"type":"Feature","properties":{"cadnum":"4422225700:02:002:0262"},"geometry":{"type":"Polygon","coordinates":[[[39.199586,48.428332],[39.199592,48.428349],[39.199613,48.428346],[39.199609,48.428328],[39.199586,48.428332]]]}},{"type":"Feature","properties":{"cadnum":"4422225700:02:002:0259"},"geometry":{"type":"Polygon","coordinates":[[[39.200422,48.428465],[39.200449,48.428469],[39.200454,48.428451],[39.200426,48.428447],[39.200422,48.428465]]]}},{"type":"Feature","properties":{"cadnum":"4422225700:02:002:0275"},"geometry":{"type":"Polygon","coordinates":[[[39.200579,48.427893],[39.200605,48.42789],[39.200605,48.427875],[39.200579,48.427875],[39.200579,48.427893]]]}},{"type":"Feature","properties":{"cadnum":"4422225700:01:043:0016"},"geometry":{"type":"Polygon","coordinates":[[[39.211242,48.415305],[39.211269,48.415308],[39.211278,48.415261],[39.211251,48.415261],[39.211242,48.415305]]]}},{"type":"Feature","properties":{"cadnum":"4422225700:01:043:0025"},"geometry":{"type":"Polygon","coordinates":[[[39.210286,48.415067],[39.210295,48.415114],[39.210322,48.415111],[39.210308,48.415067],[39.210286,48.415067]]]}},{"type":"Feature","properties":{"cadnum":"4422225700:01:043:0017"},"geometry":{"type":"Polygon","coordinates":[[[39.212873,48.415142],[39.212873,48.415186],[39.212899,48.415186],[39.212899,48.415142],[39.212873,48.415142]]]}},{"type":"Feature","properties":{"cadnum":"4422225700:01:043:0026"},"geometry":{"type":"Polygon","coordinates":[[[39.211494,48.414986],[39.211502,48.415031],[39.21153,48.415028],[39.211521,48.414983],[39.211494,48.414986]]]}},{"type":"Feature","properties":{"cadnum":"4422225700:01:043:0027"},"geometry":{"type":"Polygon","coordinates":[[[39.213012,48.414926],[39.213039,48.414923],[39.213035,48.414879],[39.213012,48.414879],[39.213012,48.414926]]]}},{"type":"Feature","properties":{"cadnum":"4422225700:01:043:0028"},"geometry":{"type":"Polygon","coordinates":[[[39.214161,48.41478],[39.214171,48.414861],[39.214297,48.414855],[39.214283,48.414771],[39.214161,48.41478]]]}},{"type":"Feature","properties":{"cadnum":"4422225700:01:043:0018"},"geometry":{"type":"Polygon","coordinates":[[[39.214022,48.415049],[39.214071,48.415124],[39.214184,48.415091],[39.214135,48.415016],[39.214022,48.415049]]]}},{"type":"Feature","properties":{"cadnum":"4422225700:02:002:0277"},"geometry":{"type":"Polygon","coordinates":[[[39.221501,48.428946],[39.221523,48.428957],[39.221541,48.428939],[39.221519,48.42893],[39.221501,48.428946]]]}},{"type":"Feature","properties":{"cadnum":"4422225700:01:031:0013"},"geometry":{"type":"Polygon","coordinates":[[[39.188686,48.440311],[39.188713,48.440314],[39.188713,48.440297],[39.18869,48.440293],[39.188686,48.440311]]]}},{"type":"Feature","properties":{"cadnum":"4422225700:01:031:0014"},"geometry":{"type":"Polygon","coordinates":[[[39.188623,48.440781],[39.18865,48.440781],[39.18865,48.440767],[39.188627,48.440764],[39.188623,48.440781]]]}},{"type":"Feature","properties":{"cadnum":"4422225700:01:031:0015"},"geometry":{"type":"Polygon","coordinates":[[[39.188573,48.441163],[39.1886,48.441163],[39.1886,48.441148],[39.188577,48.441145],[39.188573,48.441163]]]}},{"type":"Feature","properties":{"cadnum":"4422225700:01:031:0018"},"geometry":{"type":"Polygon","coordinates":[[[39.189359,48.442152],[39.189386,48.442152],[39.189395,48.442105],[39.189368,48.442105],[39.189359,48.442152]]]}},{"type":"Feature","properties":{"cadnum":"4422225700:01:031:0024"},"geometry":{"type":"Polygon","coordinates":[[[39.192324,48.442793],[39.192346,48.442802],[39.192391,48.442769],[39.192372,48.442757],[39.192324,48.442793]]]}},{"type":"Feature","properties":{"cadnum":"4422225700:01:031:0022"},"geometry":{"type":"Polygon","coordinates":[[[39.191992,48.442364],[39.191992,48.442379],[39.192072,48.442388],[39.192076,48.44237],[39.191992,48.442364]]]}},{"type":"Feature","properties":{"cadnum":"4422225700:01:031:0023"},"geometry":{"type":"Polygon","coordinates":[[[39.192202,48.442603],[39.192211,48.442618],[39.192234,48.442612],[39.192225,48.442596],[39.192202,48.442603]]]}},{"type":"Feature","properties":{"cadnum":"4422225700:01:031:0019"},"geometry":{"type":"Polygon","coordinates":[[[39.189948,48.442161],[39.189948,48.442179],[39.18997,48.442179],[39.189975,48.442164],[39.189948,48.442161]]]}},{"type":"Feature","properties":{"cadnum":"4422225700:01:031:0021"},"geometry":{"type":"Polygon","coordinates":[[[39.191273,48.442311],[39.1913,48.442311],[39.191304,48.442296],[39.191277,48.442293],[39.191273,48.442311]]]}},{"type":"Feature","properties":{"cadnum":"4422225700:01:031:0026"},"geometry":{"type":"Polygon","coordinates":[[[39.193693,48.442868],[39.19372,48.44287],[39.19372,48.442853],[39.193697,48.442853],[39.193693,48.442868]]]}},{"type":"Feature","properties":{"cadnum":"4422225700:01:031:0017"},"geometry":{"type":"Polygon","coordinates":[[[39.188456,48.442022],[39.188506,48.442072],[39.188529,48.44206],[39.188493,48.442027],[39.188546,48.442],[39.188533,48.441986],[39.188456,48.442022]]]}},{"type":"Feature","properties":{"cadnum":"4422225700:01:031:0016"},"geometry":{"type":"Polygon","coordinates":[[[39.188519,48.441569],[39.188519,48.441583],[39.188542,48.441587],[39.188546,48.441569],[39.188519,48.441569]]]}},{"type":"Feature","properties":{"cadnum":"4422225700:01:031:0025"},"geometry":{"type":"Polygon","coordinates":[[[39.193047,48.442835],[39.193074,48.442837],[39.193074,48.44282],[39.193051,48.44282],[39.193047,48.442835]]]}},{"type":"Feature","properties":{"cadnum":"4422225700:01:031:0020"},"geometry":{"type":"Polygon","coordinates":[[[39.19064,48.442245],[39.190661,48.442248],[39.190667,48.442233],[39.19064,48.44223],[39.19064,48.442245]]]}},{"type":"Feature","properties":{"cadnum":"4422225700:01:031:0039"},"geometry":{"type":"Polygon","coordinates":[[[39.195993,48.44015],[39.19602,48.440153],[39.196034,48.440094],[39.196011,48.44009],[39.195993,48.44015]]]}},{"type":"Feature","properties":{"cadnum":"4422225700:01:031:0040"},"geometry":{"type":"Polygon","coordinates":[[[39.19589,48.440072],[39.195904,48.440088],[39.195961,48.440058],[39.195948,48.440046],[39.19589,48.440072]]]}},{"type":"Feature","properties":{"cadnum":"4422225700:01:031:0041"},"geometry":{"type":"Polygon","coordinates":[[[39.195948,48.440019],[39.196003,48.440072],[39.196093,48.440034],[39.196043,48.439981],[39.195948,48.440019]]]}},{"type":"Feature","properties":{"cadnum":"4422225700:01:030:0062"},"geometry":{"type":"Polygon","coordinates":[[[39.179774,48.434568],[39.179797,48.434572],[39.179805,48.434557],[39.179778,48.434554],[39.179774,48.434568]]]}},{"type":"Feature","properties":{"cadnum":"4422225700:01:030:0063"},"geometry":{"type":"Polygon","coordinates":[[[39.180493,48.434673],[39.180516,48.434679],[39.18052,48.434661],[39.180497,48.434658],[39.180493,48.434673]]]}},{"type":"Feature","properties":{"cadnum":"4422225700:01:030:0059"},"geometry":{"type":"Polygon","coordinates":[[[39.177677,48.434259],[39.177699,48.434265],[39.177703,48.434247],[39.177681,48.434244],[39.177677,48.434259]]]}},{"type":"Feature","properties":{"cadnum":"4422225700:01:030:0065"},"geometry":{"type":"Polygon","coordinates":[[[39.181849,48.434875],[39.181876,48.434879],[39.181881,48.434861],[39.181854,48.434858],[39.181849,48.434875]]]}},{"type":"Feature","properties":{"cadnum":"4422225700:01:030:0066"},"geometry":{"type":"Polygon","coordinates":[[[39.18259,48.434983],[39.182613,48.434986],[39.182621,48.434972],[39.182594,48.434968],[39.18259,48.434983]]]}},{"type":"Feature","properties":{"cadnum":"4422225700:01:030:0060"},"geometry":{"type":"Polygon","coordinates":[[[39.17839,48.434366],[39.178418,48.434369],[39.178422,48.434351],[39.178395,48.434349],[39.17839,48.434366]]]}},{"type":"Feature","properties":{"cadnum":"4422225700:01:030:0061"},"geometry":{"type":"Polygon","coordinates":[[[39.179082,48.434468],[39.179105,48.434471],[39.179109,48.434455],[39.179087,48.43445],[39.179082,48.434468]]]}},{"type":"Feature","properties":{"cadnum":"4422225700:01:030:0064"},"geometry":{"type":"Polygon","coordinates":[[[39.181216,48.43478],[39.181243,48.434786],[39.181248,48.434769],[39.18122,48.434766],[39.181216,48.43478]]]}},{"type":"Feature","properties":{"cadnum":"4422225700:01:028:0067"},"geometry":{"type":"Polygon","coordinates":[[[39.132424,48.445909],[39.13246,48.445951],[39.132483,48.445942],[39.132446,48.445904],[39.132424,48.445909]]]}},{"type":"Feature","properties":{"cadnum":"4422225700:01:028:0068"},"geometry":{"type":"Polygon","coordinates":[[[39.130712,48.446562],[39.130745,48.446604],[39.130766,48.446595],[39.130731,48.446553],[39.130712,48.446562]]]}},{"type":"Feature","properties":{"cadnum":"4422225700:01:028:0069"},"geometry":{"type":"Polygon","coordinates":[[[39.128915,48.447245],[39.128952,48.447283],[39.128974,48.447278],[39.128938,48.447236],[39.128915,48.447245]]]}},{"type":"Feature","properties":{"cadnum":"4422225700:01:028:0058"},"geometry":{"type":"Polygon","coordinates":[[[39.148108,48.439944],[39.148144,48.439983],[39.148167,48.439977],[39.148131,48.439935],[39.148108,48.439944]]]}},{"type":"Feature","properties":{"cadnum":"4422225700:01:030:0080"},"geometry":{"type":"Polygon","coordinates":[[[39.188443,48.436112],[39.188447,48.436184],[39.188542,48.436184],[39.188542,48.43611],[39.188443,48.436112]]]}},{"type":"Feature","properties":{"cadnum":"4422225700:01:031:0042"},"geometry":{"type":"Polygon","coordinates":[[[39.189179,48.436083],[39.189183,48.436101],[39.189211,48.436094],[39.189206,48.436079],[39.189179,48.436083]]]}},{"type":"Feature","properties":{"cadnum":"4422225700:02:001:0119"},"geometry":{"type":"Polygon","coordinates":[[[39.189246,48.43461],[39.189246,48.434628],[39.189273,48.434628],[39.189273,48.43461],[39.189246,48.43461]]]}},{"type":"Feature","properties":{"cadnum":"4422225700:01:031:0003"},"geometry":{"type":"Polygon","coordinates":[[[39.189242,48.436029],[39.189315,48.436038],[39.189319,48.436021],[39.189246,48.436014],[39.189242,48.436029]]]}},{"type":"Feature","properties":{"cadnum":"4422225700:01:031:0046"},"geometry":{"type":"Polygon","coordinates":[[[39.192346,48.435668],[39.192351,48.435686],[39.192372,48.435683],[39.192368,48.435666],[39.192346,48.435668]]]}},{"type":"Feature","properties":{"cadnum":"4422225700:02:001:0144"},"geometry":{"type":"Polygon","coordinates":[[[39.19342,48.435529],[39.193424,48.435546],[39.193451,48.43554],[39.193443,48.435526],[39.19342,48.435529]]]}},{"type":"Feature","properties":{"cadnum":"4422225700:01:031:0004"},"geometry":{"type":"Polygon","coordinates":[[[39.18917,48.436282],[39.189242,48.43628],[39.189242,48.436264],[39.18917,48.436264],[39.18917,48.436282]]]}},{"type":"Feature","properties":{"cadnum":"4422225700:02:001:0116"},"geometry":{"type":"Polygon","coordinates":[[[39.189215,48.435904],[39.189229,48.435916],[39.189301,48.435874],[39.189242,48.435829],[39.189225,48.435842],[39.189265,48.435874],[39.189215,48.435904]]]}},{"type":"Feature","properties":{"cadnum":"4422225700:02:001:0118"},"geometry":{"type":"Polygon","coordinates":[[[39.189246,48.435076],[39.189252,48.435091],[39.189273,48.435091],[39.189273,48.435076],[39.189246,48.435076]]]}},{"type":"Feature","properties":{"cadnum":"4422225700:02:001:0120"},"geometry":{"type":"Polygon","coordinates":[[[39.189246,48.434146],[39.189246,48.434161],[39.189269,48.434161],[39.189269,48.434146],[39.189246,48.434146]]]}},{"type":"Feature","properties":{"cadnum":"4422225700:02:001:0121"},"geometry":{"type":"Polygon","coordinates":[[[39.189242,48.43358],[39.189242,48.433598],[39.189269,48.433598],[39.189269,48.43358],[39.189242,48.43358]]]}},{"type":"Feature","properties":{"cadnum":"4422225700:02:001:0122"},"geometry":{"type":"Polygon","coordinates":[[[39.189242,48.433066],[39.189242,48.433082],[39.189265,48.433082],[39.189265,48.433066],[39.189242,48.433066]]]}},{"type":"Feature","properties":{"cadnum":"4422225700:01:031:0044"},"geometry":{"type":"Polygon","coordinates":[[[39.190814,48.435871],[39.190819,48.435886],[39.190841,48.435883],[39.190837,48.435865],[39.190814,48.435871]]]}},{"type":"Feature","properties":{"cadnum":"4422225700:02:001:0117"},"geometry":{"type":"Polygon","coordinates":[[[39.189246,48.435624],[39.189252,48.435683],[39.189278,48.435683],[39.189273,48.435624],[39.189246,48.435624]]]}},{"type":"Feature","properties":{"cadnum":"4422225700:01:031:0045"},"geometry":{"type":"Polygon","coordinates":[[[39.191578,48.43577],[39.191583,48.435787],[39.191605,48.435782],[39.1916,48.435767],[39.191578,48.43577]]]}},{"type":"Feature","properties":{"cadnum":"4422225700:01:031:0043"},"geometry":{"type":"Polygon","coordinates":[[[39.190028,48.435973],[39.190032,48.43599],[39.19006,48.435988],[39.190051,48.43597],[39.190028,48.435973]]]}},{"type":"Feature","properties":{"cadnum":"4422225700:01:030:0078"},"geometry":{"type":"Polygon","coordinates":[[[39.18842,48.436158],[39.188447,48.436158],[39.188443,48.436139],[39.18842,48.436142],[39.18842,48.436158]]]}},{"type":"Feature","properties":{"cadnum":"4422225700:01:030:0079"},"geometry":{"type":"Polygon","coordinates":[[[39.188596,48.436166],[39.188596,48.436167],[39.1886,48.436181],[39.188627,48.436178],[39.188623,48.436163],[39.188596,48.436166]]]}},{"type":"Feature","properties":{"cadnum":"4422225700:01:030:0076"},"geometry":{"type":"Polygon","coordinates":[[[39.188632,48.435796],[39.188659,48.4358],[39.188663,48.435785],[39.188636,48.435782],[39.188632,48.435796]]]}},{"type":"Feature","properties":{"cadnum":"4422225700:01:030:0077"},"geometry":{"type":"Polygon","coordinates":[[[39.188363,48.436068],[39.188376,48.436083],[39.188424,48.436056],[39.188466,48.436092],[39.188487,48.436083],[39.18843,48.436032],[39.188363,48.436068]]]}},{"type":"Feature","properties":{"cadnum":"4422225700:02:002:0249"},"geometry":{"type":"Polygon","coordinates":[[[39.19915,48.43256],[39.199173,48.432563],[39.199177,48.432549],[39.199156,48.432545],[39.19915,48.43256]]]}},{"type":"Feature","properties":{"cadnum":"4422225700:02:002:0282"},"geometry":{"type":"Polygon","coordinates":[[[39.210425,48.425738],[39.210483,48.425747],[39.210492,48.425708],[39.210438,48.425703],[39.210425,48.425738]]]}},{"type":"Feature","properties":{"cadnum":"4422225700:02:002:0281"},"geometry":{"type":"Polygon","coordinates":[[[39.213834,48.426191],[39.213911,48.426203],[39.213928,48.426152],[39.213852,48.426141],[39.213834,48.426191]]]}},{"type":"Feature","properties":{"cadnum":"4422225700:01:028:0057"},"geometry":{"type":"Polygon","coordinates":[[[39.149833,48.439289],[39.149865,48.439328],[39.149888,48.439321],[39.149851,48.43928],[39.149833,48.439289]]]}},{"type":"Feature","properties":{"cadnum":"4422225700:01:026:0117"},"geometry":{"type":"Polygon","coordinates":[[[39.153215,48.438007],[39.153283,48.438047],[39.153341,48.438002],[39.153274,48.437963],[39.153215,48.438007]]]}},{"type":"Feature","properties":{"cadnum":"4422225700:01:028:0056"},"geometry":{"type":"Polygon","coordinates":[[[39.151559,48.43863],[39.151593,48.438672],[39.151616,48.438663],[39.15158,48.438625],[39.151559,48.43863]]]}},{"type":"Feature","properties":{"cadnum":"4422225700:01:024:0024"},"geometry":{"type":"Polygon","coordinates":[[[39.117049,48.451758],[39.11708,48.451796],[39.117103,48.451787],[39.117067,48.451749],[39.117049,48.451758]]]}},{"type":"Feature","properties":{"cadnum":"4422225700:02:002:0284"},"geometry":{"type":"Polygon","coordinates":[[[39.205821,48.425122],[39.205848,48.425124],[39.205857,48.425106],[39.205825,48.4251],[39.205821,48.425122]]]}},{"type":"Feature","properties":{"cadnum":"4422225700:02:002:0283"},"geometry":{"type":"Polygon","coordinates":[[[39.208408,48.425473],[39.208462,48.425479],[39.208475,48.425443],[39.208417,48.425434],[39.208408,48.425473]]]}},{"type":"Feature","properties":{"cadnum":"4422225700:01:030:0031"},"geometry":{"type":"Polygon","coordinates":[[[39.160528,48.434528],[39.160551,48.434536],[39.160564,48.434521],[39.160541,48.434512],[39.160528,48.434528]]]}},{"type":"Feature","properties":{"cadnum":"4422225700:01:030:0026"},"geometry":{"type":"Polygon","coordinates":[[[39.157522,48.433517],[39.157545,48.433523],[39.157555,48.433508],[39.157532,48.433502],[39.157522,48.433517]]]}},{"type":"Feature","properties":{"cadnum":"4422225700:01:030:0028"},"geometry":{"type":"Polygon","coordinates":[[[39.158727,48.433922],[39.15875,48.433931],[39.158763,48.433914],[39.15874,48.433907],[39.158727,48.433922]]]}},{"type":"Feature","properties":{"cadnum":"4422225700:01:030:0027"},"geometry":{"type":"Polygon","coordinates":[[[39.158121,48.433717],[39.158142,48.433726],[39.158151,48.433711],[39.158129,48.433702],[39.158121,48.433717]]]}},{"type":"Feature","properties":{"cadnum":"4422225700:01:030:0025"},"geometry":{"type":"Polygon","coordinates":[[[39.156826,48.433282],[39.156849,48.433291],[39.156863,48.433276],[39.15684,48.433267],[39.156826,48.433282]]]}},{"type":"Feature","properties":{"cadnum":"4422225700:01:030:0030"},"geometry":{"type":"Polygon","coordinates":[[[39.159912,48.434321],[39.159935,48.434327],[39.159949,48.434312],[39.159926,48.434307],[39.159912,48.434321]]]}},{"type":"Feature","properties":{"cadnum":"4422225700:01:030:0029"},"geometry":{"type":"Polygon","coordinates":[[[39.159324,48.434122],[39.159346,48.434131],[39.159356,48.434116],[39.159333,48.434107],[39.159324,48.434122]]]}},{"type":"Feature","properties":{"cadnum":"4422225700:01:030:0024"},"geometry":{"type":"Polygon","coordinates":[[[39.156094,48.433037],[39.156117,48.433043],[39.15613,48.433028],[39.156108,48.433022],[39.156094,48.433037]]]}},{"type":"Feature","properties":{"cadnum":"4422225700:01:045:0032"},"geometry":{"type":"Polygon","coordinates":[[[39.19452,48.416172],[39.194552,48.416227],[39.194636,48.416205],[39.194601,48.416152],[39.19452,48.416172]]]}},{"type":"Feature","properties":{"cadnum":"4422225700:01:045:0019"},"geometry":{"type":"Polygon","coordinates":[[[39.194336,48.415875],[39.194363,48.415931],[39.194448,48.415913],[39.194416,48.415856],[39.194336,48.415875]]]}},{"type":"Feature","properties":{"cadnum":"4422225700:01:045:0033"},"geometry":{"type":"Polygon","coordinates":[[[39.196865,48.415993],[39.196869,48.416041],[39.196892,48.416039],[39.196887,48.415993],[39.196865,48.415993]]]}},{"type":"Feature","properties":{"cadnum":"4422225700:01:045:0018"},"geometry":{"type":"Polygon","coordinates":[[[39.197129,48.415642],[39.197135,48.415663],[39.197161,48.41566],[39.197156,48.415639],[39.197129,48.415642]]]}},{"type":"Feature","properties":{"cadnum":"4422225700:01:045:0026"},"geometry":{"type":"Polygon","coordinates":[[[39.195171,48.416388],[39.195202,48.416441],[39.195288,48.41642],[39.195252,48.416364],[39.195171,48.416388]]]}},{"type":"Feature","properties":{"cadnum":"4422225700:01:045:0027"},"geometry":{"type":"Polygon","coordinates":[[[39.197196,48.416235],[39.197202,48.416283],[39.197223,48.41628],[39.197219,48.416235],[39.197196,48.416235]]]}},{"type":"Feature","properties":{"cadnum":"4422225700:01:045:0017"},"geometry":{"type":"Polygon","coordinates":[[[39.198859,48.415469],[39.198867,48.415529],[39.198957,48.415522],[39.198944,48.415463],[39.198859,48.415469]]]}},{"type":"Feature","properties":{"cadnum":"4422225700:01:045:0034"},"geometry":{"type":"Polygon","coordinates":[[[39.199187,48.415838],[39.199191,48.415884],[39.199213,48.415884],[39.199213,48.415838],[39.199187,48.415838]]]}},{"type":"Feature","properties":{"cadnum":"4422225700:01:045:0016"},"geometry":{"type":"Polygon","coordinates":[[[39.202645,48.418388],[39.202659,48.418426],[39.202712,48.418417],[39.202703,48.418382],[39.202645,48.418388]]]}},{"type":"Feature","properties":{"cadnum":"4422225700:01:045:0015"},"geometry":{"type":"Polygon","coordinates":[[[39.203332,48.420951],[39.203345,48.421011],[39.203431,48.421002],[39.203422,48.420945],[39.203332,48.420951]]]}},{"type":"Feature","properties":{"cadnum":"4422225700:01:030:0048"},"geometry":{"type":"Polygon","coordinates":[[[39.170638,48.433866],[39.170648,48.433883],[39.170669,48.433877],[39.170665,48.433863],[39.170638,48.433866]]]}},{"type":"Feature","properties":{"cadnum":"4422225700:01:030:0046"},"geometry":{"type":"Polygon","coordinates":[[[39.16925,48.434101],[39.169254,48.434119],[39.169281,48.434113],[39.169273,48.434098],[39.16925,48.434101]]]}},{"type":"Feature","properties":{"cadnum":"4422225700:01:030:0049"},"geometry":{"type":"Polygon","coordinates":[[[39.171375,48.43374],[39.171379,48.433759],[39.171407,48.433755],[39.171398,48.433737],[39.171375,48.43374]]]}},{"type":"Feature","properties":{"cadnum":"4422225700:01:030:0047"},"geometry":{"type":"Polygon","coordinates":[[[39.169906,48.433991],[39.169916,48.434005],[39.169937,48.434003],[39.169933,48.433985],[39.169906,48.433991]]]}},{"type":"Feature","properties":{"cadnum":"4422225700:01:030:0042"},"geometry":{"type":"Polygon","coordinates":[[[39.166717,48.43453],[39.166721,48.434548],[39.166748,48.434542],[39.16674,48.434528],[39.166717,48.43453]]]}},{"type":"Feature","properties":{"cadnum":"4422225700:01:030:0045"},"geometry":{"type":"Polygon","coordinates":[[[39.168581,48.434214],[39.168585,48.434232],[39.168612,48.434226],[39.168604,48.434212],[39.168581,48.434214]]]}},{"type":"Feature","properties":{"cadnum":"4422225700:01:030:0043"},"geometry":{"type":"Polygon","coordinates":[[[39.167359,48.43442],[39.167369,48.434438],[39.16739,48.434435],[39.167386,48.434417],[39.167359,48.43442]]]}},{"type":"Feature","properties":{"cadnum":"4422225700:01:030:0044"},"geometry":{"type":"Polygon","coordinates":[[[39.168056,48.434303],[39.168065,48.434318],[39.168086,48.434316],[39.168082,48.434301],[39.168056,48.434303]]]}},{"type":"Feature","properties":{"cadnum":"4422225700:01:024:0019"},"geometry":{"type":"Polygon","coordinates":[[[39.125462,48.448558],[39.125498,48.448597],[39.125516,48.448591],[39.125485,48.44855],[39.125462,48.448558]]]}},{"type":"Feature","properties":{"cadnum":"4422225700:01:024:0020"},"geometry":{"type":"Polygon","coordinates":[[[39.123665,48.449241],[39.123697,48.449283],[39.123719,48.449274],[39.123688,48.449235],[39.123665,48.449241]]]}},{"type":"Feature","properties":{"cadnum":"4422225700:01:028:0070"},"geometry":{"type":"Polygon","coordinates":[[[39.127142,48.447921],[39.127173,48.44796],[39.127196,48.447951],[39.127164,48.447912],[39.127142,48.447921]]]}},{"type":"Feature","properties":{"cadnum":"4422225700:01:043:0023"},"geometry":{"type":"Polygon","coordinates":[[[39.207249,48.415284],[39.207259,48.415329],[39.207285,48.415326],[39.207276,48.415281],[39.207249,48.415284]]]}},{"type":"Feature","properties":{"cadnum":"4422225700:01:043:0015"},"geometry":{"type":"Polygon","coordinates":[[[39.209813,48.415356],[39.209819,48.415401],[39.20984,48.415401],[39.209836,48.415352],[39.209813,48.415356]]]}},{"type":"Feature","properties":{"cadnum":"4422225700:01:043:0024"},"geometry":{"type":"Polygon","coordinates":[[[39.208857,48.415171],[39.208867,48.415215],[39.208893,48.415213],[39.208884,48.415168],[39.208857,48.415171]]]}},{"type":"Feature","properties":{"cadnum":"4422225700:01:043:0014"},"geometry":{"type":"Polygon","coordinates":[[[39.207999,48.415487],[39.208003,48.415531],[39.208026,48.415531],[39.208022,48.415487],[39.207999,48.415487]]]}},{"type":"Feature","properties":{"cadnum":"4422225700:01:043:0022"},"geometry":{"type":"Polygon","coordinates":[[[39.205555,48.415398],[39.205561,48.415442],[39.205588,48.41544],[39.205582,48.415394],[39.205555,48.415398]]]}},{"type":"Feature","properties":{"cadnum":"4422225700:01:043:0012"},"geometry":{"type":"Polygon","coordinates":[[[39.204725,48.415717],[39.204729,48.415761],[39.204752,48.415761],[39.204747,48.415714],[39.204725,48.415717]]]}},{"type":"Feature","properties":{"cadnum":"4422225700:01:043:0013"},"geometry":{"type":"Polygon","coordinates":[[[39.20623,48.415606],[39.206234,48.415654],[39.206257,48.415651],[39.206252,48.415606],[39.206251,48.415606],[39.20623,48.415606]]]}},{"type":"Feature","properties":{"cadnum":"4422225700:02:002:0280"},"geometry":{"type":"Polygon","coordinates":[[[39.215842,48.426439],[39.215869,48.426445],[39.215878,48.426427],[39.21585,48.426421],[39.215842,48.426439]]]}},{"type":"Feature","properties":{"cadnum":"4422225700:02:002:0279"},"geometry":{"type":"Polygon","coordinates":[[[39.217647,48.427234],[39.21767,48.427247],[39.217687,48.427232],[39.21766,48.427219],[39.217647,48.427234]]]}},{"type":"Feature","properties":{"cadnum":"4422225700:02:002:0278"},"geometry":{"type":"Polygon","coordinates":[[[39.218859,48.427774],[39.218882,48.427782],[39.218901,48.427768],[39.218873,48.427756],[39.218859,48.427774]]]}},{"type":"Feature","properties":{"cadnum":"4422225700:01:031:0038"},"geometry":{"type":"Polygon","coordinates":[[[39.195921,48.440436],[39.195948,48.440439],[39.195953,48.440425],[39.195926,48.440421],[39.195921,48.440436]]]}},{"type":"Feature","properties":{"cadnum":"4422225700:01:031:0036"},"geometry":{"type":"Polygon","coordinates":[[[39.19576,48.441092],[39.195787,48.441095],[39.195791,48.441077],[39.195764,48.441074],[39.19576,48.441092]]]}},{"type":"Feature","properties":{"cadnum":"4422225700:01:031:0037"},"geometry":{"type":"Polygon","coordinates":[[[39.19585,48.440725],[39.195877,48.440728],[39.195881,48.440713],[39.195854,48.440708],[39.19585,48.440725]]]}},{"type":"Feature","properties":{"cadnum":"4422225700:01:031:0028"},"geometry":{"type":"Polygon","coordinates":[[[39.194848,48.442951],[39.194866,48.442963],[39.194911,48.442934],[39.194961,48.442966],[39.194978,48.442954],[39.194911,48.44291],[39.194848,48.442951]]]}},{"type":"Feature","properties":{"cadnum":"4422225700:01:031:0032"},"geometry":{"type":"Polygon","coordinates":[[[39.195917,48.442254],[39.195944,48.442257],[39.195948,48.442239],[39.195921,48.442236],[39.195917,48.442254]]]}},{"type":"Feature","properties":{"cadnum":"4422225700:01:031:0030"},"geometry":{"type":"Polygon","coordinates":[[[39.195747,48.442817],[39.195818,48.442855],[39.195871,48.442808],[39.195854,48.442799],[39.195814,48.442832],[39.19576,48.442805],[39.195747,48.442817]]]}},{"type":"Feature","properties":{"cadnum":"4422225700:01:031:0027"},"geometry":{"type":"Polygon","coordinates":[[[39.194399,48.442903],[39.194422,48.442906],[39.194426,48.442888],[39.194399,48.442888],[39.194399,48.442903]]]}},{"type":"Feature","properties":{"cadnum":"4422225700:01:031:0029"},"geometry":{"type":"Polygon","coordinates":[[[39.195081,48.442877],[39.195154,48.44287],[39.195154,48.442853],[39.195081,48.442859],[39.195081,48.442877]]]}},{"type":"Feature","properties":{"cadnum":"4422225700:01:031:0034"},"geometry":{"type":"Polygon","coordinates":[[[39.195678,48.441509],[39.195705,48.441554],[39.195728,48.441545],[39.195701,48.441503],[39.195678,48.441509]]]}},{"type":"Feature","properties":{"cadnum":"4422225700:01:031:0033"},"geometry":{"type":"Polygon","coordinates":[[[39.19593,48.441956],[39.19594,48.441971],[39.196007,48.441956],[39.195997,48.441941],[39.19593,48.441956]]]}},{"type":"Feature","properties":{"cadnum":"4422225700:01:031:0035"},"geometry":{"type":"Polygon","coordinates":[[[39.195674,48.441437],[39.195697,48.441443],[39.195714,48.441395],[39.195692,48.441393],[39.195674,48.441437]]]}},{"type":"Feature","properties":{"cadnum":"4422225700:01:031:0031"},"geometry":{"type":"Polygon","coordinates":[[[39.195858,48.442552],[39.195885,48.442555],[39.19589,48.442537],[39.195863,48.442537],[39.195858,48.442552]]]}},{"type":"Feature","properties":{"cadnum":"4422225700:01:043:0009"},"geometry":{"type":"Polygon","coordinates":[[[39.202116,48.413609],[39.20212,48.41363],[39.202152,48.413626],[39.202146,48.413609],[39.202116,48.413609]]]}},{"type":"Feature","properties":{"cadnum":"4422225700:01:028:0060"},"geometry":{"type":"Polygon","coordinates":[[[39.144637,48.441265],[39.144672,48.441306],[39.144695,48.441297],[39.144659,48.441258],[39.144637,48.441265]]]}},{"type":"Feature","properties":{"cadnum":"4422225700:01:028:0059"},"geometry":{"type":"Polygon","coordinates":[[[39.14637,48.440606],[39.146406,48.440644],[39.146429,48.440636],[39.146393,48.440597],[39.14637,48.440606]]]}},{"type":"Feature","properties":{"cadnum":"4422225700:02:002:0238"},"geometry":{"type":"Polygon","coordinates":[[[39.198643,48.434435],[39.198653,48.434453],[39.198714,48.434435],[39.198706,48.43442],[39.198643,48.434435]]]}},{"type":"Feature","properties":{"cadnum":"4422225700:02:002:0247"},"geometry":{"type":"Polygon","coordinates":[[[39.198823,48.433552],[39.19885,48.433556],[39.198854,48.433538],[39.198827,48.433535],[39.198823,48.433552]]]}},{"type":"Feature","properties":{"cadnum":"4422225700:02:002:0233"},"geometry":{"type":"Polygon","coordinates":[[[39.196429,48.435114],[39.196451,48.43512],[39.196479,48.435072],[39.196456,48.435067],[39.196429,48.435114]]]}},{"type":"Feature","properties":{"cadnum":"4422225700:02:002:0246"},"geometry":{"type":"Polygon","coordinates":[[[39.198684,48.433982],[39.198706,48.433985],[39.19871,48.433967],[39.198688,48.433964],[39.198684,48.433982]]]}},{"type":"Feature","properties":{"cadnum":"4422225700:02:002:0248"},"geometry":{"type":"Polygon","coordinates":[[[39.199007,48.433002],[39.19903,48.433004],[39.199034,48.432986],[39.199011,48.432986],[39.199007,48.433002]]]}},{"type":"Feature","properties":{"cadnum":"4422225700:02:001:0147"},"geometry":{"type":"Polygon","coordinates":[[[39.195638,48.435237],[39.195643,48.435254],[39.19567,48.435248],[39.195665,48.435233],[39.195638,48.435237]]]}},{"type":"Feature","properties":{"cadnum":"4422225700:02:001:0146"},"geometry":{"type":"Polygon","coordinates":[[[39.194798,48.435347],[39.194802,48.435365],[39.194829,48.435361],[39.194821,48.435343],[39.194798,48.435347]]]}},{"type":"Feature","properties":{"cadnum":"4422225700:02:001:0145"},"geometry":{"type":"Polygon","coordinates":[[[39.193846,48.435472],[39.19385,48.435489],[39.193877,48.435487],[39.193873,48.435469],[39.193846,48.435472]]]}},{"type":"Feature","properties":{"cadnum":"4422225700:02:002:0236"},"geometry":{"type":"Polygon","coordinates":[[[39.198351,48.434875],[39.198414,48.434897],[39.198423,48.434882],[39.198364,48.434861],[39.198351,48.434875]]]}},{"type":"Feature","properties":{"cadnum":"4422225700:02:002:0235"},"geometry":{"type":"Polygon","coordinates":[[[39.197808,48.434954],[39.197875,48.434959],[39.197879,48.434941],[39.197812,48.434935],[39.197808,48.434954]]]}},{"type":"Feature","properties":{"cadnum":"4422225700:02:002:0232"},"geometry":{"type":"Polygon","coordinates":[[[39.196416,48.435126],[39.19642,48.435144],[39.196447,48.435141],[39.196443,48.435123],[39.196416,48.435126]]]}},{"type":"Feature","properties":{"cadnum":"4422225700:02:002:0234"},"geometry":{"type":"Polygon","coordinates":[[[39.197093,48.435036],[39.197098,48.435054],[39.197125,48.435052],[39.197116,48.435034],[39.197093,48.435036]]]}},{"type":"Feature","properties":{"cadnum":"4422225700:02:002:0245"},"geometry":{"type":"Polygon","coordinates":[[[39.198598,48.434214],[39.198625,48.434217],[39.19863,48.434203],[39.198603,48.434199],[39.198598,48.434214]]]}},{"type":"Feature","properties":{"cadnum":"4422225700:02:002:0237"},"geometry":{"type":"Polygon","coordinates":[[[39.19854,48.434396],[39.198563,48.434405],[39.198576,48.43439],[39.198554,48.434381],[39.19854,48.434396]]]}},{"type":"Feature","properties":{"cadnum":"4422225700:02:001:0130"},"geometry":{"type":"Polygon","coordinates":[[[39.193617,48.428263],[39.193644,48.428266],[39.193649,48.428251],[39.193621,48.428245],[39.193617,48.428263]]]}},{"type":"Feature","properties":{"cadnum":"4422225700:02:003:0094"},"geometry":{"type":"Polygon","coordinates":[[[39.190917,48.42606],[39.19094,48.426066],[39.190944,48.426048],[39.190923,48.426045],[39.190917,48.42606]]]}},{"type":"Feature","properties":{"cadnum":"4422225700:02:001:0134"},"geometry":{"type":"Polygon","coordinates":[[[39.190846,48.428832],[39.190868,48.428882],[39.19089,48.42888],[39.190868,48.428826],[39.190846,48.428832]]]}},{"type":"Feature","properties":{"cadnum":"4422225700:02:003:0100"},"geometry":{"type":"Polygon","coordinates":[[[39.193464,48.426507],[39.193487,48.42651],[39.193496,48.426496],[39.193469,48.426489],[39.193464,48.426507]]]}},{"type":"Feature","properties":{"cadnum":"4422225700:02:001:0133"},"geometry":{"type":"Polygon","coordinates":[[[39.190657,48.428358],[39.19068,48.428364],[39.190707,48.428325],[39.190764,48.428343],[39.190778,48.428328],[39.190693,48.428301],[39.190657,48.428358]]]}},{"type":"Feature","properties":{"cadnum":"4422225700:02:001:0131"},"geometry":{"type":"Polygon","coordinates":[[[39.192611,48.428111],[39.192634,48.428113],[39.192638,48.428098],[39.192615,48.428096],[39.192611,48.428111]]]}},{"type":"Feature","properties":{"cadnum":"4422225700:02:003:0099"},"geometry":{"type":"Polygon","coordinates":[[[39.192615,48.426359],[39.192642,48.426364],[39.192647,48.426346],[39.192625,48.426343],[39.192615,48.426359]]]}},{"type":"Feature","properties":{"cadnum":"4422225700:02:001:0132"},"geometry":{"type":"Polygon","coordinates":[[[39.1916,48.427947],[39.191613,48.428007],[39.19164,48.428003],[39.191627,48.427944],[39.1916,48.427947]]]}},{"type":"Feature","properties":{"cadnum":"4422225700:02:003:0098"},"geometry":{"type":"Polygon","coordinates":[[[39.191762,48.426209],[39.191785,48.426212],[39.191789,48.426198],[39.191766,48.426191],[39.191762,48.426209]]]}},{"type":"Feature","properties":{"cadnum":"4422225700:02:003:0095"},"geometry":{"type":"Polygon","coordinates":[[[39.190954,48.425953],[39.19098,48.425959],[39.190999,48.425899],[39.190976,48.425896],[39.190954,48.425953]]]}},{"type":"Feature","properties":{"cadnum":"4422225700:02:002:0270"},"geometry":{"type":"Polygon","coordinates":[[[39.194678,48.428421],[39.194699,48.428424],[39.194709,48.428409],[39.194682,48.428405],[39.194678,48.428421]]]}},{"type":"Feature","properties":{"cadnum":"4422225700:02:002:0271"},"geometry":{"type":"Polygon","coordinates":[[[39.198831,48.42744],[39.198859,48.427443],[39.198863,48.427428],[39.198841,48.427422],[39.198831,48.42744]]]}},{"type":"Feature","properties":{"cadnum":"4422225700:02:003:0106"},"geometry":{"type":"Polygon","coordinates":[[[39.197727,48.427247],[39.197749,48.427252],[39.197754,48.427234],[39.197731,48.427232],[39.197727,48.427247]]]}},{"type":"Feature","properties":{"cadnum":"4422225700:02:003:0107"},"geometry":{"type":"Polygon","coordinates":[[[39.198293,48.427345],[39.198315,48.427351],[39.198324,48.427333],[39.198297,48.427329],[39.198293,48.427345]]]}},{"type":"Feature","properties":{"cadnum":"4422225700:02:002:0265"},"geometry":{"type":"Polygon","coordinates":[[[39.19894,48.428695],[39.198984,48.428743],[39.199003,48.428734],[39.198963,48.428686],[39.19894,48.428695]]]}},{"type":"Feature","properties":{"cadnum":"4422225700:02:002:0266"},"geometry":{"type":"Polygon","coordinates":[[[39.197911,48.428513],[39.197915,48.428531],[39.197938,48.428528],[39.197934,48.428513],[39.197911,48.428513]]]}},{"type":"Feature","properties":{"cadnum":"4422225700:02:002:0267"},"geometry":{"type":"Polygon","coordinates":[[[39.197026,48.428611],[39.197035,48.428665],[39.197062,48.428662],[39.197053,48.428608],[39.197026,48.428611]]]}},{"type":"Feature","properties":{"cadnum":"4422225700:02:003:0102"},"geometry":{"type":"Polygon","coordinates":[[[39.195202,48.426812],[39.195225,48.426814],[39.195234,48.426799],[39.195208,48.426794],[39.195202,48.426812]]]}},{"type":"Feature","properties":{"cadnum":"4422225700:02:002:0268"},"geometry":{"type":"Polygon","coordinates":[[[39.196437,48.428686],[39.19646,48.428686],[39.196469,48.428632],[39.196443,48.428632],[39.196437,48.428686]]]}},{"type":"Feature","properties":{"cadnum":"4422225700:02:002:0264"},"geometry":{"type":"Polygon","coordinates":[[[39.198756,48.428453],[39.198787,48.428504],[39.19881,48.428495],[39.198778,48.428445],[39.198756,48.428453]]]}},{"type":"Feature","properties":{"cadnum":"4422225700:02:002:0269"},"geometry":{"type":"Polygon","coordinates":[[[39.195567,48.428555],[39.195588,48.428558],[39.195598,48.428542],[39.195571,48.428537],[39.195567,48.428555]]]}},{"type":"Feature","properties":{"cadnum":"4422225700:02:003:0105"},"geometry":{"type":"Polygon","coordinates":[[[39.197179,48.427154],[39.197206,48.427157],[39.19721,48.427142],[39.197188,48.427136],[39.197179,48.427154]]]}},{"type":"Feature","properties":{"cadnum":"4422225700:02:003:0101"},"geometry":{"type":"Polygon","coordinates":[[[39.194332,48.426659],[39.194359,48.426662],[39.194363,48.426647],[39.19434,48.426642],[39.194332,48.426659]]]}},{"type":"Feature","properties":{"cadnum":"4422225700:02:003:0103"},"geometry":{"type":"Polygon","coordinates":[[[39.196016,48.426951],[39.196093,48.426966],[39.196097,48.426949],[39.19602,48.426936],[39.196016,48.426951]]]}},{"type":"Feature","properties":{"cadnum":"4422225700:02:002:0288"},"geometry":{"type":"Polygon","coordinates":[[[39.198967,48.428749],[39.198984,48.428796],[39.199056,48.428784],[39.199039,48.428736],[39.198967,48.428749]]]}},{"type":"Feature","properties":{"cadnum":"4422225700:02:002:0263"},"geometry":{"type":"Polygon","coordinates":[[[39.198733,48.428424],[39.198737,48.428442],[39.198764,48.428438],[39.19876,48.428421],[39.198733,48.428424]]]}},{"type":"Feature","properties":{"cadnum":"4422225700:02:003:0104"},"geometry":{"type":"Polygon","coordinates":[[[39.196582,48.42705],[39.196604,48.427055],[39.196609,48.427038],[39.196586,48.427035],[39.196582,48.42705]]]}},{"type":"Feature","properties":{"cadnum":"4422225700:01:045:0022"},"geometry":{"type":"Polygon","coordinates":[[[39.189795,48.418558],[39.189844,48.418632],[39.189957,48.4186],[39.189907,48.418525],[39.189795,48.418558]]]}},{"type":"Feature","properties":{"cadnum":"4422225700:02:002:0255"},"geometry":{"type":"Polygon","coordinates":[[[39.200013,48.42992],[39.200035,48.429923],[39.20004,48.429905],[39.200018,48.429902],[39.200013,48.42992]]]}},{"type":"Feature","properties":{"cadnum":"4422225700:02:002:0250"},"geometry":{"type":"Polygon","coordinates":[[[39.199294,48.432122],[39.199317,48.432125],[39.199322,48.43211],[39.199299,48.432107],[39.199294,48.432122]]]}},{"type":"Feature","properties":{"cadnum":"4422225700:02:002:0254"},"geometry":{"type":"Polygon","coordinates":[[[39.199842,48.430435],[39.199869,48.430439],[39.199875,48.43042],[39.199846,48.430417],[39.199842,48.430435]]]}},{"type":"Feature","properties":{"cadnum":"4422225700:02:002:0253"},"geometry":{"type":"Polygon","coordinates":[[[39.199716,48.430826],[39.199739,48.430829],[39.199743,48.430814],[39.199722,48.430811],[39.199716,48.430826]]]}},{"type":"Feature","properties":{"cadnum":"4422225700:02:002:0252"},"geometry":{"type":"Polygon","coordinates":[[[39.199586,48.431222],[39.199613,48.431225],[39.199618,48.431208],[39.199592,48.431204],[39.199586,48.431222]]]}},{"type":"Feature","properties":{"cadnum":"4422225700:02:002:0256"},"geometry":{"type":"Polygon","coordinates":[[[39.200139,48.429476],[39.200162,48.429479],[39.200166,48.429461],[39.200143,48.429458],[39.200139,48.429476]]]}},{"type":"Feature","properties":{"cadnum":"4422225700:02:002:0251"},"geometry":{"type":"Polygon","coordinates":[[[39.199439,48.431678],[39.199466,48.431681],[39.199466,48.431666],[39.199443,48.431663],[39.199439,48.431678]]]}},{"type":"Feature","properties":{"cadnum":"4422225700:01:024:0026"},"geometry":{"type":"Polygon","coordinates":[[[39.113608,48.453063],[39.11364,48.453105],[39.113663,48.453096],[39.113631,48.453057],[39.113608,48.453063]]]}},{"type":"Feature","properties":{"cadnum":"4422225700:01:024:0027"},"geometry":{"type":"Polygon","coordinates":[[[39.111933,48.4537],[39.111965,48.453742],[39.111987,48.453733],[39.111956,48.453691],[39.111933,48.4537]]]}},{"type":"Feature","properties":{"cadnum":"4422225700:01:024:0025"},"geometry":{"type":"Polygon","coordinates":[[[39.115378,48.452392],[39.11541,48.452431],[39.115432,48.452423],[39.115432,48.452422],[39.115396,48.452383],[39.115378,48.452392]]]}},{"type":"Feature","properties":{"cadnum":"4422225700:02:002:0285"},"geometry":{"type":"Polygon","coordinates":[[[39.204118,48.424888],[39.204167,48.42493],[39.204226,48.424897],[39.204177,48.424856],[39.204118,48.424888]]]}},{"type":"Feature","properties":{"cadnum":"4422225700:02:002:0286"},"geometry":{"type":"Polygon","coordinates":[[[39.20406,48.424409],[39.204064,48.42443],[39.204091,48.424426],[39.204087,48.424409],[39.20406,48.424409]]]}},{"type":"Feature","properties":{"cadnum":"4422225700:02:002:0287"},"geometry":{"type":"Polygon","coordinates":[[[39.203697,48.422603],[39.203701,48.422623],[39.203728,48.422621],[39.203724,48.422599],[39.203697,48.422603]]]}},{"type":"Feature","properties":{"cadnum":"4422225700:01:030:0052"},"geometry":{"type":"Polygon","coordinates":[[[39.172717,48.433517],[39.172753,48.433571],[39.172776,48.433565],[39.172749,48.433526],[39.17275,48.433526],[39.172812,48.433508],[39.172803,48.433493],[39.172717,48.433517]]]}},{"type":"Feature","properties":{"cadnum":"4422225700:01:030:0057"},"geometry":{"type":"Polygon","coordinates":[[[39.176441,48.434077],[39.176464,48.434084],[39.176468,48.434065],[39.176445,48.434062],[39.176441,48.434077]]]}},{"type":"Feature","properties":{"cadnum":"4422225700:01:030:0056"},"geometry":{"type":"Polygon","coordinates":[[[39.175696,48.43397],[39.175723,48.433973],[39.175727,48.433955],[39.1757,48.433952],[39.175696,48.43397]]]}},{"type":"Feature","properties":{"cadnum":"4422225700:01:030:0050"},"geometry":{"type":"Polygon","coordinates":[[[39.171833,48.43366],[39.171896,48.433669],[39.171878,48.433713],[39.171904,48.433717],[39.171923,48.433657],[39.171837,48.433642],[39.171833,48.43366]]]}},{"type":"Feature","properties":{"cadnum":"4422225700:01:030:0055"},"geometry":{"type":"Polygon","coordinates":[[[39.174954,48.433859],[39.174977,48.433863],[39.174981,48.433845],[39.17496,48.433841],[39.174954,48.433859]]]}},{"type":"Feature","properties":{"cadnum":"4422225700:01:030:0053"},"geometry":{"type":"Polygon","coordinates":[[[39.173598,48.43366],[39.173625,48.433663],[39.173629,48.433645],[39.173602,48.433642],[39.173598,48.43366]]]}},{"type":"Feature","properties":{"cadnum":"4422225700:01:030:0051"},"geometry":{"type":"Polygon","coordinates":[[[39.172021,48.433633],[39.172027,48.433648],[39.172053,48.433645],[39.172048,48.433627],[39.172021,48.433633]]]}},{"type":"Feature","properties":{"cadnum":"4422225700:01:030:0054"},"geometry":{"type":"Polygon","coordinates":[[[39.174321,48.433764],[39.174344,48.43377],[39.174348,48.433753],[39.174325,48.433749],[39.174321,48.433764]]]}},{"type":"Feature","properties":{"cadnum":"4422225700:01:030:0058"},"geometry":{"type":"Polygon","coordinates":[[[39.177021,48.434164],[39.177044,48.434166],[39.177048,48.434152],[39.177025,48.434146],[39.177021,48.434164]]]}},{"type":"Feature","properties":{"cadnum":"4422225700:01:030:0035"},"geometry":{"type":"Polygon","coordinates":[[[39.162635,48.435239],[39.162662,48.435242],[39.162662,48.435224],[39.162639,48.435224],[39.162635,48.435239]]]}},{"type":"Feature","properties":{"cadnum":"4422225700:01:030:0033"},"geometry":{"type":"Polygon","coordinates":[[[39.161754,48.434939],[39.161776,48.434947],[39.161786,48.434932],[39.161763,48.434923],[39.161754,48.434939]]]}},{"type":"Feature","properties":{"cadnum":"4422225700:01:030:0034"},"geometry":{"type":"Polygon","coordinates":[[[39.1624,48.435159],[39.162423,48.435165],[39.162432,48.43515],[39.162409,48.435144],[39.1624,48.435159]]]}},{"type":"Feature","properties":{"cadnum":"4422225700:01:030:0038"},"geometry":{"type":"Polygon","coordinates":[[[39.16422,48.434954],[39.164229,48.434968],[39.164251,48.434965],[39.164247,48.434947],[39.16422,48.434954]]]}},{"type":"Feature","properties":{"cadnum":"4422225700:01:030:0037"},"geometry":{"type":"Polygon","coordinates":[[[39.163568,48.435063],[39.163574,48.435078],[39.1636,48.435076],[39.163591,48.435058],[39.163568,48.435063]]]}},{"type":"Feature","properties":{"cadnum":"4422225700:01:030:0040"},"geometry":{"type":"Polygon","coordinates":[[[39.165451,48.434745],[39.165459,48.43476],[39.165482,48.434756],[39.165478,48.434742],[39.165451,48.434745]]]}},{"type":"Feature","properties":{"cadnum":"4422225700:01:030:0039"},"geometry":{"type":"Polygon","coordinates":[[[39.164817,48.434852],[39.164822,48.43487],[39.164849,48.434864],[39.16484,48.434849],[39.164817,48.434852]]]}},{"type":"Feature","properties":{"cadnum":"4422225700:01:030:0032"},"geometry":{"type":"Polygon","coordinates":[[[39.161125,48.434727],[39.161147,48.434736],[39.161157,48.434721],[39.161134,48.434712],[39.161125,48.434727]]]}},{"type":"Feature","properties":{"cadnum":"4422225700:01:030:0036"},"geometry":{"type":"Polygon","coordinates":[[[39.162792,48.435195],[39.162796,48.43521],[39.162868,48.435198],[39.162859,48.435182],[39.162792,48.435195]]]}},{"type":"Feature","properties":{"cadnum":"4422225700:01:030:0041"},"geometry":{"type":"Polygon","coordinates":[[[39.166088,48.434638],[39.166097,48.434652],[39.16612,48.434649],[39.166115,48.434632],[39.166088,48.434638]]]}},{"type":"Feature","properties":{"cadnum":"4422225700:01:030:0071"},"geometry":{"type":"Polygon","coordinates":[[[39.185739,48.435416],[39.185766,48.435418],[39.18577,48.435403],[39.185743,48.4354],[39.185739,48.435416]]]}},{"type":"Feature","properties":{"cadnum":"4422225700:01:030:0072"},"geometry":{"type":"Polygon","coordinates":[[[39.186372,48.435498],[39.186399,48.435502],[39.186403,48.435487],[39.186376,48.435484],[39.186372,48.435498]]]}},{"type":"Feature","properties":{"cadnum":"4422225700:01:030:0073"},"geometry":{"type":"Polygon","coordinates":[[[39.186983,48.435579],[39.187005,48.435582],[39.187011,48.435567],[39.186988,48.435564],[39.186983,48.435579]]]}},{"type":"Feature","properties":{"cadnum":"4422225700:01:030:0069"},"geometry":{"type":"Polygon","coordinates":[[[39.184359,48.435233],[39.184387,48.435239],[39.184391,48.435222],[39.184365,48.435219],[39.184359,48.435233]]]}},{"type":"Feature","properties":{"cadnum":"4422225700:01:030:0075"},"geometry":{"type":"Polygon","coordinates":[[[39.188173,48.435737],[39.188196,48.43574],[39.1882,48.435722],[39.188177,48.435719],[39.188173,48.435737]]]}},{"type":"Feature","properties":{"cadnum":"4422225700:01:030:0067"},"geometry":{"type":"Polygon","coordinates":[[[39.18317,48.435069],[39.183197,48.435072],[39.183201,48.435054],[39.183174,48.435052],[39.18317,48.435069]]]}},{"type":"Feature","properties":{"cadnum":"4422225700:01:030:0068"},"geometry":{"type":"Polygon","coordinates":[[[39.183749,48.435153],[39.183776,48.435159],[39.183789,48.435114],[39.183763,48.435111],[39.183749,48.435153]]]}},{"type":"Feature","properties":{"cadnum":"4422225700:01:030:0070"},"geometry":{"type":"Polygon","coordinates":[[[39.185074,48.435329],[39.185101,48.435332],[39.185105,48.435317],[39.185078,48.435311],[39.185074,48.435329]]]}},{"type":"Feature","properties":{"cadnum":"4422225700:01:030:0074"},"geometry":{"type":"Polygon","coordinates":[[[39.187558,48.435657],[39.187581,48.435659],[39.187585,48.435642],[39.187562,48.435639],[39.187558,48.435657]]]}},{"type":"Feature","properties":{"cadnum":"4422225700:01:031:0007"},"geometry":{"type":"Polygon","coordinates":[[[39.189045,48.437563],[39.189045,48.437581],[39.189067,48.437585],[39.189072,48.437567],[39.189045,48.437563]]]}},{"type":"Feature","properties":{"cadnum":"4422225700:01:031:0012"},"geometry":{"type":"Polygon","coordinates":[[[39.188762,48.439721],[39.188762,48.439739],[39.188784,48.439742],[39.188789,48.439725],[39.188762,48.439721]]]}},{"type":"Feature","properties":{"cadnum":"4422225700:01:031:0011"},"geometry":{"type":"Polygon","coordinates":[[[39.188825,48.439253],[39.188852,48.439257],[39.188852,48.439239],[39.188825,48.439239],[39.188825,48.439253]]]}},{"type":"Feature","properties":{"cadnum":"4422225700:01:031:0008"},"geometry":{"type":"Polygon","coordinates":[[[39.188986,48.438014],[39.189013,48.438014],[39.189013,48.437998],[39.18899,48.437996],[39.188986,48.438014]]]}},{"type":"Feature","properties":{"cadnum":"4422225700:01:031:0009"},"geometry":{"type":"Polygon","coordinates":[[[39.188928,48.438449],[39.188955,48.438449],[39.188959,48.438434],[39.188932,48.438431],[39.188928,48.438449]]]}},{"type":"Feature","properties":{"cadnum":"4422225700:01:031:0010"},"geometry":{"type":"Polygon","coordinates":[[[39.188887,48.438767],[39.188887,48.438786],[39.18891,48.438786],[39.188915,48.438767],[39.188887,48.438767]]]}},{"type":"Feature","properties":{"cadnum":"4422225700:01:031:0005"},"geometry":{"type":"Polygon","coordinates":[[[39.189156,48.436715],[39.189183,48.436717],[39.189183,48.436699],[39.189162,48.436699],[39.189156,48.436715]]]}},{"type":"Feature","properties":{"cadnum":"4422225700:01:031:0006"},"geometry":{"type":"Polygon","coordinates":[[[39.189095,48.437191],[39.189122,48.437191],[39.189122,48.437176],[39.189099,48.437174],[39.189095,48.437191]]]}},{"type":"Feature","properties":{"cadnum":"4422225700:01:043:0021"},"geometry":{"type":"Polygon","coordinates":[[[39.204078,48.415502],[39.204087,48.415547],[39.20411,48.415547],[39.2041,48.415499],[39.204078,48.415502]]]}},{"type":"Feature","properties":{"cadnum":"4422225700:01:043:0010"},"geometry":{"type":"Polygon","coordinates":[[[39.201303,48.415937],[39.201316,48.416021],[39.201437,48.416008],[39.201424,48.415928],[39.201303,48.415937]]]}},{"type":"Feature","properties":{"cadnum":"4422225700:01:043:0004"},"geometry":{"type":"Polygon","coordinates":[[[39.202213,48.416662],[39.202219,48.416682],[39.20225,48.41668],[39.202246,48.416658],[39.202213,48.416662]]]}},{"type":"Feature","properties":{"cadnum":"4422225700:01:045:0028"},"geometry":{"type":"Polygon","coordinates":[[[39.199407,48.416086],[39.199412,48.416131],[39.199433,48.416131],[39.199429,48.416086],[39.199407,48.416086]]]}},{"type":"Feature","properties":{"cadnum":"4422225700:01:043:0011"},"geometry":{"type":"Polygon","coordinates":[[[39.203005,48.415827],[39.203009,48.415871],[39.203036,48.415871],[39.203027,48.415827],[39.203005,48.415827]]]}},{"type":"Feature","properties":{"cadnum":"4422225700:01:043:0007"},"geometry":{"type":"Polygon","coordinates":[[[39.201792,48.415228],[39.201827,48.415281],[39.201909,48.415261],[39.201877,48.415204],[39.201792,48.415228]]]}},{"type":"Feature","properties":{"cadnum":"4422225700:01:043:0008"},"geometry":{"type":"Polygon","coordinates":[[[39.202322,48.414986],[39.202407,48.41501],[39.202439,48.414956],[39.202358,48.414932],[39.202322,48.414986]]]}},{"type":"Feature","properties":{"cadnum":"4422225700:01:043:0005"},"geometry":{"type":"Polygon","coordinates":[[[39.201944,48.415779],[39.201963,48.415836],[39.202047,48.415824],[39.20203,48.415767],[39.201944,48.415779]]]}},{"type":"Feature","properties":{"cadnum":"4422225700:01:043:0020"},"geometry":{"type":"Polygon","coordinates":[[[39.203009,48.415571],[39.203009,48.415618],[39.203036,48.415618],[39.203036,48.415573],[39.203009,48.415571]]]}},{"type":"Feature","properties":{"cadnum":"4422225700:01:043:0006"},"geometry":{"type":"Polygon","coordinates":[[[39.201833,48.415383],[39.20185,48.415442],[39.20194,48.415431],[39.201922,48.415374],[39.201833,48.415383]]]}},{"type":"Feature","properties":{"cadnum":"4422225700:01:043:0019"},"geometry":{"type":"Polygon","coordinates":[[[39.201433,48.415681],[39.201441,48.415741],[39.201531,48.415734],[39.201523,48.415675],[39.201433,48.415681]]]}},{"type":"Feature","properties":{"cadnum":"4422225700:01:028:0064"},"geometry":{"type":"Polygon","coordinates":[[[39.137697,48.443904],[39.137733,48.443946],[39.137751,48.443937],[39.13772,48.443899],[39.137697,48.443904]]]}},{"type":"Feature","properties":{"cadnum":"4422225700:01:028:0066"},"geometry":{"type":"Polygon","coordinates":[[[39.134202,48.445233],[39.134238,48.445275],[39.134261,48.445266],[39.134225,48.445227],[39.134202,48.445233]]]}},{"type":"Feature","properties":{"cadnum":"4422225700:01:028:0065"},"geometry":{"type":"Polygon","coordinates":[[[39.135955,48.444569],[39.135986,48.444608],[39.136008,48.444602],[39.135976,48.44456],[39.135955,48.444569]]]}},{"type":"Feature","properties":{"cadnum":"4422225700:02:001:0136"},"geometry":{"type":"Polygon","coordinates":[[[39.191236,48.43009],[39.191241,48.430108],[39.191269,48.430104],[39.191263,48.430086],[39.191236,48.43009]]]}},{"type":"Feature","properties":{"cadnum":"4422225700:02:001:0127"},"geometry":{"type":"Polygon","coordinates":[[[39.189867,48.431007],[39.189871,48.431023],[39.189894,48.43102],[39.189889,48.431005],[39.189867,48.431007]]]}},{"type":"Feature","properties":{"cadnum":"4422225700:02:001:0137"},"geometry":{"type":"Polygon","coordinates":[[[39.191434,48.430731],[39.191439,48.430748],[39.191466,48.430742],[39.191462,48.430727],[39.191434,48.430731]]]}},{"type":"Feature","properties":{"cadnum":"4422225700:02:001:0123"},"geometry":{"type":"Polygon","coordinates":[[[39.189238,48.432551],[39.189238,48.432569],[39.189265,48.432569],[39.189265,48.432551],[39.189238,48.432551]]]}},{"type":"Feature","properties":{"cadnum":"4422225700:02:001:0124"},"geometry":{"type":"Polygon","coordinates":[[[39.189238,48.432069],[39.189238,48.432087],[39.18926,48.432087],[39.18926,48.432069],[39.189238,48.432069]]]}},{"type":"Feature","properties":{"cadnum":"4422225700:02:001:0143"},"geometry":{"type":"Polygon","coordinates":[[[39.192498,48.43228],[39.192521,48.432334],[39.192598,48.432319],[39.192579,48.432266],[39.192498,48.43228]]]}},{"type":"Feature","properties":{"cadnum":"4422225700:02:001:0135"},"geometry":{"type":"Polygon","coordinates":[[[39.191053,48.429485],[39.191057,48.429503],[39.19108,48.4295],[39.191074,48.429481],[39.191053,48.429485]]]}},{"type":"Feature","properties":{"cadnum":"4422225700:02:001:0138"},"geometry":{"type":"Polygon","coordinates":[[[39.191592,48.43141],[39.191668,48.431434],[39.191676,48.431418],[39.191605,48.431395],[39.191592,48.43141]]]}},{"type":"Feature","properties":{"cadnum":"4422225700:02:001:0126"},"geometry":{"type":"Polygon","coordinates":[[[39.189225,48.431091],[39.189288,48.431136],[39.189305,48.431124],[39.189246,48.431079],[39.189225,48.431091]]]}},{"type":"Feature","properties":{"cadnum":"4422225700:02:001:0125"},"geometry":{"type":"Polygon","coordinates":[[[39.189233,48.431588],[39.189233,48.431606],[39.18926,48.431606],[39.18926,48.431588],[39.189233,48.431588]]]}},{"type":"Feature","properties":{"cadnum":"4422225700:02:001:0139"},"geometry":{"type":"Polygon","coordinates":[[[39.191776,48.431848],[39.191785,48.431866],[39.191806,48.43186],[39.191802,48.431845],[39.191776,48.431848]]]}},{"type":"Feature","properties":{"cadnum":"4422225700:02:001:0129"},"geometry":{"type":"Polygon","coordinates":[[[39.190361,48.430924],[39.190388,48.430998],[39.190491,48.430981],[39.190464,48.430906],[39.190361,48.430924]]]}},{"type":"Feature","properties":{"cadnum":"4422225700:02:001:0142"},"geometry":{"type":"Polygon","coordinates":[[[39.192395,48.43231],[39.192399,48.432328],[39.192481,48.432316],[39.192476,48.432301],[39.192395,48.43231]]]}},{"type":"Feature","properties":{"cadnum":"4422225700:02:001:0128"},"geometry":{"type":"Polygon","coordinates":[[[39.190284,48.430957],[39.190284,48.430972],[39.190357,48.430972],[39.190351,48.430954],[39.190284,48.430957]]]}},{"type":"Feature","properties":{"cadnum":"4422225700:02:001:0140"},"geometry":{"type":"Polygon","coordinates":[[[39.191906,48.432266],[39.191919,48.432313],[39.191946,48.43231],[39.191933,48.432262],[39.191906,48.432266]]]}},{"type":"Feature","properties":{"cadnum":"4422225700:02:001:0141"},"geometry":{"type":"Polygon","coordinates":[[[39.191942,48.432381],[39.191951,48.432399],[39.191973,48.432396],[39.191969,48.432379],[39.191942,48.432381]]]}},{"type":"Feature","properties":{"cadnum":"4422225700:01:028:0063"},"geometry":{"type":"Polygon","coordinates":[[[39.139431,48.443246],[39.139467,48.443285],[39.139489,48.443279],[39.139454,48.443237],[39.139431,48.443246]]]}},{"type":"Feature","properties":{"cadnum":"4422225700:01:028:0061"},"geometry":{"type":"Polygon","coordinates":[[[39.142911,48.441923],[39.142947,48.441962],[39.14297,48.441953],[39.142934,48.441914],[39.142911,48.441923]]]}},{"type":"Feature","properties":{"cadnum":"4422225700:01:028:0062"},"geometry":{"type":"Polygon","coordinates":[[[39.141182,48.442581],[39.141213,48.44262],[39.141236,48.442612],[39.141205,48.442572],[39.141182,48.442581]]]}}]}