{"type":"FeatureCollection","features":[{"type":"Feature","properties":{"cadnum":"4423656100:05:001:0004"},"geometry":{"type":"Polygon","coordinates":[[[38.541647,48.361207],[38.542029,48.36155],[38.542643,48.361989],[38.543205,48.361651],[38.543727,48.361216],[38.544445,48.360559],[38.544278,48.360481],[38.544225,48.360574],[38.543236,48.360765],[38.542739,48.360914],[38.54211,48.361209],[38.541647,48.361207]]]}},{"type":"Feature","properties":{"cadnum":"4423656100:05:001:0117"},"geometry":{"type":"Polygon","coordinates":[[[38.541014,48.361356],[38.541194,48.361436],[38.541194,48.361437],[38.541152,48.361499],[38.541198,48.361526],[38.54149,48.361063],[38.541337,48.36093],[38.541288,48.360977],[38.541108,48.361246],[38.541014,48.361356]]]}},{"type":"Feature","properties":{"cadnum":"4423656100:05:001:0014"},"geometry":{"type":"Polygon","coordinates":[[[38.540865,48.361428],[38.540951,48.361481],[38.540946,48.361437],[38.541108,48.361246],[38.541288,48.360977],[38.541337,48.360926],[38.541647,48.361207],[38.54211,48.361209],[38.542739,48.360914],[38.543236,48.360765],[38.543368,48.360738],[38.543165,48.360625],[38.543116,48.3603],[38.542666,48.360072],[38.542238,48.3599],[38.542236,48.359899],[38.54223,48.360001],[38.542232,48.360001],[38.54223,48.360031],[38.542154,48.360132],[38.541391,48.360622],[38.541152,48.360762],[38.54131,48.360905],[38.54131,48.360906],[38.541251,48.360965],[38.541072,48.361233],[38.540919,48.361412],[38.540865,48.361428]]]}},{"type":"Feature","properties":{"cadnum":"4423656100:05:001:0020"},"geometry":{"type":"Polygon","coordinates":[[[38.537246,48.363227],[38.537982,48.363537],[38.539953,48.364367],[38.545446,48.366679],[38.546922,48.3673],[38.547158,48.367399],[38.547104,48.367249],[38.547073,48.36716],[38.546924,48.366588],[38.546767,48.366396],[38.546116,48.365761],[38.54546,48.365116],[38.545137,48.364797],[38.54445,48.364203],[38.544441,48.364102],[38.543884,48.363624],[38.543645,48.363418],[38.54268,48.362926],[38.541345,48.362365],[38.540618,48.362589],[38.540106,48.362881],[38.539724,48.363158],[38.539424,48.363269],[38.539423,48.363269],[38.539118,48.363191],[38.538854,48.363009],[38.538647,48.362854],[38.537618,48.362598],[38.537246,48.363227]]]}},{"type":"Feature","properties":{"cadnum":"4423656100:07:006:0005"},"geometry":{"type":"Polygon","coordinates":[[[38.522809,48.374817],[38.523474,48.375173],[38.523578,48.375229],[38.523645,48.375265],[38.523646,48.375265],[38.523829,48.375363],[38.524399,48.375595],[38.525365,48.37606],[38.526541,48.374589],[38.526694,48.374399],[38.526411,48.374271],[38.526133,48.374119],[38.526133,48.374118],[38.526653,48.373495],[38.525311,48.372969],[38.525271,48.372814],[38.524606,48.372575],[38.523499,48.373956],[38.523074,48.374485],[38.522997,48.374581],[38.522983,48.374599],[38.522809,48.374817]]]}},{"type":"Feature","properties":{"cadnum":"4423656100:07:006:0004"},"geometry":{"type":"Polygon","coordinates":[[[38.520244,48.373477],[38.5224,48.374599],[38.522401,48.374599],[38.522562,48.374682],[38.522809,48.374817],[38.522997,48.374581],[38.523474,48.373988],[38.523499,48.373956],[38.523645,48.373774],[38.523645,48.373773],[38.524606,48.372575],[38.523645,48.372235],[38.521772,48.371571],[38.520244,48.373477]]]}},{"type":"Feature","properties":{"cadnum":"4423656100:07:006:0002"},"geometry":{"type":"Polygon","coordinates":[[[38.51357,48.370087],[38.514105,48.370353],[38.515097,48.370835],[38.515097,48.370836],[38.515199,48.370885],[38.515332,48.37095],[38.51561,48.371084],[38.516516,48.371538],[38.517267,48.371929],[38.51798,48.371038],[38.517981,48.371038],[38.517981,48.37104],[38.518052,48.37095],[38.518053,48.37095],[38.518506,48.370383],[38.518399,48.370338],[38.517981,48.370173],[38.51798,48.370173],[38.517074,48.369813],[38.514514,48.368909],[38.51357,48.370087]]]}},{"type":"Feature","properties":{"cadnum":"4423656100:07:006:0003"},"geometry":{"type":"Polygon","coordinates":[[[38.517267,48.371929],[38.517981,48.3723],[38.520244,48.373477],[38.521772,48.371571],[38.519988,48.370934],[38.519986,48.370934],[38.519629,48.370788],[38.518816,48.370514],[38.518506,48.370383],[38.518144,48.370836],[38.518143,48.370836],[38.517267,48.371929]]]}},{"type":"Feature","properties":{"cadnum":"4423656100:03:002:0017"},"geometry":{"type":"Polygon","coordinates":[[[38.5422,48.389219],[38.543551,48.389654],[38.544984,48.390242],[38.545079,48.390027],[38.544171,48.389577],[38.543597,48.389192],[38.543389,48.389052],[38.542796,48.388855],[38.542267,48.388763],[38.542202,48.389192],[38.542203,48.389192],[38.5422,48.389219]]]}},{"type":"Feature","properties":{"cadnum":"4423656100:03:002:0018"},"geometry":{"type":"Polygon","coordinates":[[[38.538858,48.386284],[38.539792,48.389106],[38.539953,48.389057],[38.539953,48.389058],[38.540295,48.388953],[38.540358,48.388885],[38.540915,48.388769],[38.542829,48.388652],[38.543672,48.388504],[38.545024,48.38822],[38.545446,48.388119],[38.545572,48.388089],[38.545618,48.388085],[38.545618,48.388084],[38.545878,48.388059],[38.547544,48.388026],[38.547922,48.388109],[38.548672,48.388077],[38.549979,48.388184],[38.550819,48.388205],[38.550842,48.388068],[38.550131,48.388026],[38.548012,48.387343],[38.546655,48.386967],[38.545446,48.386599],[38.545446,48.3866],[38.544754,48.386388],[38.544616,48.386487],[38.54463,48.386762],[38.544603,48.3868],[38.544643,48.386833],[38.544674,48.386884],[38.544764,48.387202],[38.544315,48.387257],[38.544314,48.387257],[38.543942,48.387229],[38.543731,48.38712],[38.543668,48.386919],[38.543368,48.38708],[38.54281,48.386663],[38.542842,48.386296],[38.543272,48.38607],[38.543385,48.385941],[38.541973,48.385544],[38.540125,48.385025],[38.539833,48.384942],[38.539747,48.385002],[38.539449,48.38543],[38.539425,48.385464],[38.53937,48.385544],[38.538858,48.386284]]]}},{"type":"Feature","properties":{"cadnum":"4423656100:03:002:0019"},"geometry":{"type":"Polygon","coordinates":[[[38.539913,48.384885],[38.539953,48.384896],[38.539953,48.384897],[38.539974,48.384902],[38.540125,48.384946],[38.540125,48.384945],[38.542249,48.385544],[38.54225,48.385544],[38.543425,48.385875],[38.5448,48.386323],[38.545618,48.386573],[38.546695,48.386901],[38.548056,48.387277],[38.550163,48.387958],[38.551111,48.388011],[38.552153,48.388068],[38.552257,48.38663],[38.551111,48.386502],[38.550559,48.386439],[38.545446,48.385579],[38.545239,48.385544],[38.54524,48.385544],[38.544565,48.385431],[38.544563,48.38543],[38.540192,48.384694],[38.540075,48.384775],[38.539913,48.384885]]]}},{"type":"Feature","properties":{"cadnum":"4423656100:07:001:0010"},"geometry":{"type":"Polygon","coordinates":[[[38.516715,48.368581],[38.517873,48.368995],[38.51798,48.368865],[38.517981,48.368865],[38.518074,48.368751],[38.518152,48.368656],[38.519291,48.367272],[38.522284,48.363639],[38.522276,48.363637],[38.521057,48.363305],[38.520866,48.363537],[38.520865,48.363537],[38.520781,48.36364],[38.520771,48.363651],[38.518122,48.366871],[38.517862,48.367186],[38.517861,48.367186],[38.517788,48.367275],[38.517767,48.3673],[38.516715,48.368581]]]}},{"type":"Feature","properties":{"cadnum":"4423656100:05:001:0119"},"geometry":{"type":"Polygon","coordinates":[[[38.522212,48.370445],[38.523109,48.370836],[38.523306,48.370921],[38.52333,48.370932],[38.523353,48.37095],[38.523354,48.37095],[38.523645,48.371167],[38.523646,48.371167],[38.524516,48.371815],[38.528967,48.373456],[38.52904,48.373483],[38.529139,48.373519],[38.52956,48.373674],[38.529695,48.373486],[38.529883,48.373196],[38.530131,48.372907],[38.530401,48.372653],[38.530684,48.372484],[38.530827,48.372343],[38.531127,48.372248],[38.53151,48.371985],[38.531774,48.371901],[38.532439,48.371947],[38.532776,48.372071],[38.533301,48.371967],[38.53416,48.371872],[38.534254,48.371898],[38.534447,48.372053],[38.53446,48.372055],[38.535265,48.372143],[38.535592,48.372221],[38.535888,48.372331],[38.536248,48.372274],[38.536464,48.372305],[38.53689,48.372385],[38.53773,48.372677],[38.538184,48.372874],[38.538561,48.37313],[38.538965,48.373256],[38.539621,48.373501],[38.540125,48.373688],[38.540452,48.373808],[38.541158,48.374056],[38.541382,48.374017],[38.541575,48.373955],[38.542505,48.373375],[38.54259,48.373232],[38.542595,48.373009],[38.542595,48.373008],[38.543354,48.372973],[38.543682,48.372803],[38.544251,48.371759],[38.544387,48.371573],[38.545446,48.371262],[38.545542,48.371234],[38.545618,48.371212],[38.545618,48.371211],[38.545716,48.371182],[38.546179,48.371197],[38.546911,48.371412],[38.547217,48.371233],[38.546835,48.371027],[38.546834,48.371027],[38.546956,48.370836],[38.546956,48.370835],[38.547266,48.37035],[38.547526,48.370332],[38.547607,48.37021],[38.547872,48.369926],[38.548056,48.369815],[38.548186,48.369204],[38.547733,48.369142],[38.546179,48.368724],[38.545851,48.368598],[38.5455,48.368459],[38.545375,48.368369],[38.544561,48.368032],[38.544486,48.36796],[38.544278,48.367882],[38.542859,48.367294],[38.542857,48.367293],[38.541911,48.366865],[38.540655,48.366318],[38.540165,48.366148],[38.539953,48.366057],[38.538516,48.365432],[38.538247,48.365265],[38.537852,48.364725],[38.537626,48.364588],[38.536944,48.364507],[38.536307,48.364498],[38.535798,48.364537],[38.535341,48.364606],[38.534644,48.364782],[38.53415,48.364782],[38.533498,48.364683],[38.532852,48.364662],[38.531496,48.364666],[38.530804,48.364704],[38.530338,48.364776],[38.529699,48.364907],[38.52907,48.364985],[38.528563,48.365011],[38.527898,48.365059],[38.527898,48.36506],[38.527301,48.365486],[38.526757,48.365871],[38.526061,48.36636],[38.525913,48.366542],[38.525877,48.36662],[38.525614,48.367186],[38.525613,48.367186],[38.525239,48.367995],[38.525105,48.36838],[38.525072,48.368503],[38.524974,48.368658],[38.524606,48.369246],[38.524462,48.369476],[38.524349,48.369631],[38.52417,48.369798],[38.523739,48.37006],[38.523493,48.370165],[38.523492,48.370165],[38.523218,48.370186],[38.522585,48.37004],[38.522382,48.370087],[38.522216,48.370284],[38.522212,48.370445]]]}},{"type":"Feature","properties":{"cadnum":"4423656100:07:001:0011"},"geometry":{"type":"Polygon","coordinates":[[[38.517873,48.368995],[38.517891,48.369001],[38.517981,48.369034],[38.519116,48.369443],[38.519741,48.368625],[38.520657,48.367468],[38.520787,48.3673],[38.520788,48.3673],[38.523397,48.36394],[38.522284,48.363639],[38.519362,48.367186],[38.519291,48.367272],[38.519268,48.3673],[38.518074,48.368751],[38.517873,48.368995]]]}},{"type":"Feature","properties":{"cadnum":"4423656100:05:001:0012"},"geometry":{"type":"Polygon","coordinates":[[[38.519682,48.369324],[38.521363,48.369756],[38.522208,48.369917],[38.522445,48.369903],[38.522927,48.369744],[38.523474,48.369914],[38.523474,48.369915],[38.523686,48.36998],[38.52412,48.369768],[38.524292,48.369607],[38.524403,48.369455],[38.524543,48.369228],[38.524911,48.36864],[38.523645,48.368225],[38.523645,48.368224],[38.521111,48.36739],[38.520793,48.367798],[38.519682,48.369324]]]}},{"type":"Feature","properties":{"cadnum":"4423656100:05:002:0002"},"geometry":{"type":"Polygon","coordinates":[[[38.557983,48.385395],[38.558139,48.38543],[38.558422,48.385493],[38.558423,48.385493],[38.558723,48.385544],[38.558724,48.385544],[38.559681,48.385705],[38.55995,48.385741],[38.561926,48.385813],[38.561964,48.385814],[38.562098,48.385819],[38.563174,48.385858],[38.562991,48.385544],[38.562645,48.384951],[38.562002,48.384321],[38.561621,48.384026],[38.561621,48.384025],[38.56044,48.383912],[38.560247,48.383814],[38.560188,48.383295],[38.559155,48.383158],[38.559016,48.383468],[38.559515,48.384503],[38.559371,48.384617],[38.558675,48.384485],[38.557983,48.385395]]]}},{"type":"Feature","properties":{"cadnum":"4423656100:08:001:0016"},"geometry":{"type":"Polygon","coordinates":[[[38.58468,48.397192],[38.584969,48.397907],[38.58486,48.398328],[38.584977,48.399619],[38.58535,48.400134],[38.585351,48.400134],[38.585403,48.400207],[38.585686,48.401068],[38.586019,48.401524],[38.586823,48.401897],[38.586824,48.401897],[38.587124,48.402145],[38.587267,48.402347],[38.587542,48.402249],[38.588122,48.401969],[38.588481,48.401975],[38.588655,48.401396],[38.588656,48.401396],[38.589078,48.401307],[38.589392,48.401012],[38.589506,48.400904],[38.589563,48.40085],[38.589613,48.400803],[38.589842,48.400134],[38.589954,48.399813],[38.589548,48.399805],[38.588682,48.399785],[38.588454,48.40002],[38.588453,48.40002],[38.588381,48.400096],[38.588343,48.400134],[38.588343,48.400135],[38.588323,48.400156],[38.58751,48.400353],[38.58751,48.400352],[38.587313,48.40002],[38.587312,48.40002],[38.586734,48.399044],[38.586778,48.398724],[38.586221,48.398005],[38.586495,48.397767],[38.586351,48.397257],[38.585889,48.396761],[38.585233,48.396666],[38.584694,48.396648],[38.58468,48.397192]]]}},{"type":"Feature","properties":{"cadnum":"4423656100:07:001:0009"},"geometry":{"type":"Polygon","coordinates":[[[38.51556,48.36816],[38.516535,48.368518],[38.516715,48.368581],[38.517788,48.367275],[38.51798,48.367042],[38.517981,48.367042],[38.517981,48.367043],[38.518122,48.366871],[38.518152,48.366834],[38.520781,48.36364],[38.521057,48.363305],[38.519831,48.362974],[38.519367,48.363537],[38.519283,48.363639],[38.519273,48.363651],[38.518085,48.365095],[38.516362,48.367186],[38.51556,48.36816]]]}},{"type":"Feature","properties":{"cadnum":"4423656100:07:006:0074"},"geometry":{"type":"Polygon","coordinates":[[[38.509841,48.366029],[38.51022,48.366155],[38.511266,48.366539],[38.512487,48.364791],[38.513363,48.363537],[38.513938,48.362713],[38.512562,48.362287],[38.512474,48.36226],[38.511581,48.363537],[38.509841,48.366029]]]}},{"type":"Feature","properties":{"cadnum":"4423656100:07:001:0008"},"geometry":{"type":"Polygon","coordinates":[[[38.514401,48.367733],[38.51556,48.36816],[38.516268,48.3673],[38.51798,48.365222],[38.517981,48.365222],[38.518085,48.365095],[38.518152,48.365013],[38.519283,48.363639],[38.519831,48.362974],[38.518537,48.362622],[38.51842,48.362806],[38.518192,48.363158],[38.518024,48.363364],[38.517882,48.363537],[38.517881,48.363537],[38.517141,48.364442],[38.516009,48.365785],[38.514852,48.367186],[38.514401,48.367733]]]}},{"type":"Feature","properties":{"cadnum":"4423656100:07:006:0075"},"geometry":{"type":"Polygon","coordinates":[[[38.511266,48.366539],[38.512487,48.366986],[38.512487,48.366987],[38.512629,48.367038],[38.512659,48.367049],[38.512677,48.367055],[38.515133,48.363537],[38.515394,48.363164],[38.513938,48.362713],[38.513283,48.363651],[38.512659,48.364545],[38.511266,48.366539]]]}},{"type":"Feature","properties":{"cadnum":"4423656100:07:006:0077"},"geometry":{"type":"Polygon","coordinates":[[[38.511684,48.362018],[38.512474,48.36226],[38.512487,48.362264],[38.512562,48.362287],[38.512659,48.362318],[38.513938,48.362713],[38.515394,48.363164],[38.516969,48.363651],[38.51697,48.363651],[38.517222,48.363728],[38.517333,48.363595],[38.517411,48.363505],[38.51798,48.362687],[38.517981,48.362687],[38.518092,48.362526],[38.518152,48.36244],[38.518223,48.362337],[38.517981,48.362263],[38.51798,48.362263],[38.512748,48.360645],[38.512487,48.360981],[38.512487,48.360982],[38.511684,48.362018]]]}},{"type":"Feature","properties":{"cadnum":"4423656100:07:001:0022"},"geometry":{"type":"Polygon","coordinates":[[[38.478594,48.376031],[38.478594,48.376087],[38.478634,48.376114],[38.478684,48.376353],[38.478779,48.376559],[38.478966,48.376821],[38.478967,48.376821],[38.478985,48.376881],[38.479528,48.376887],[38.480341,48.376896],[38.480624,48.376908],[38.481024,48.376914],[38.481257,48.376991],[38.481572,48.377201],[38.481752,48.377334],[38.481886,48.377522],[38.482165,48.37794],[38.482292,48.378133],[38.482291,48.378133],[38.482326,48.378185],[38.482374,48.378247],[38.482376,48.378247],[38.482748,48.378716],[38.483203,48.379094],[38.484073,48.379429],[38.484999,48.379736],[38.485022,48.379829],[38.485022,48.37983],[38.485058,48.379978],[38.485193,48.380143],[38.485398,48.380392],[38.485618,48.380488],[38.485934,48.380479],[38.486373,48.380619],[38.486674,48.380846],[38.486603,48.381425],[38.48724,48.381711],[38.48724,48.381712],[38.487313,48.381782],[38.487312,48.381782],[38.48741,48.381875],[38.487432,48.381896],[38.487438,48.381902],[38.487748,48.382203],[38.488089,48.382329],[38.488786,48.382433],[38.488773,48.382665],[38.489172,48.382746],[38.489469,48.382665],[38.489886,48.382976],[38.490205,48.383333],[38.490394,48.383737],[38.490335,48.384113],[38.490515,48.384436],[38.490622,48.384628],[38.490686,48.384671],[38.490687,48.384671],[38.491,48.384876],[38.491844,48.385303],[38.491898,48.38543],[38.491897,48.38543],[38.491904,48.385445],[38.491946,48.385544],[38.491947,48.385544],[38.491966,48.385589],[38.491867,48.385977],[38.4917,48.386308],[38.491817,48.386514],[38.49214,48.386651],[38.492455,48.386943],[38.492469,48.387242],[38.492666,48.38745],[38.493134,48.387847],[38.493201,48.387958],[38.493174,48.388208],[38.493151,48.38859],[38.493381,48.388989],[38.493458,48.389078],[38.493457,48.389078],[38.493538,48.38917],[38.493556,48.389192],[38.493557,48.389192],[38.493664,48.389315],[38.494031,48.389538],[38.494184,48.389535],[38.494171,48.38936],[38.494171,48.389359],[38.494287,48.389276],[38.494444,48.389231],[38.49449,48.389189],[38.494549,48.388995],[38.494593,48.388969],[38.494773,48.388867],[38.495155,48.388876],[38.495501,48.388873],[38.496008,48.38882],[38.496008,48.388821],[38.496094,48.388811],[38.49618,48.388811],[38.49618,48.38881],[38.496583,48.388807],[38.497109,48.388855],[38.497572,48.388915],[38.498033,48.389028],[38.498144,48.389078],[38.498177,48.389093],[38.498399,48.389192],[38.4984,48.389192],[38.498708,48.389329],[38.499184,48.389473],[38.499633,48.389553],[38.499893,48.389559],[38.50018,48.389497],[38.500396,48.389526],[38.500931,48.389702],[38.501227,48.389738],[38.501228,48.389738],[38.501501,48.389673],[38.501501,48.389674],[38.501505,48.389672],[38.501673,48.38953],[38.501744,48.38947],[38.502126,48.389267],[38.502341,48.389309],[38.502449,48.389091],[38.50245,48.38909],[38.502705,48.388933],[38.502857,48.388897],[38.502912,48.388849],[38.502952,48.38844],[38.503019,48.387844],[38.503118,48.387054],[38.50323,48.38655],[38.503554,48.385959],[38.503895,48.385451],[38.503994,48.385341],[38.504115,48.38521],[38.502912,48.385058],[38.502211,48.38442],[38.50191,48.384527],[38.502417,48.385329],[38.502417,48.38533],[38.502261,48.38543],[38.50226,48.38543],[38.502157,48.385497],[38.502109,48.385544],[38.501933,48.385717],[38.501524,48.38572],[38.501339,48.38586],[38.501384,48.38598],[38.501501,48.386004],[38.501501,48.386005],[38.501614,48.386028],[38.501304,48.386412],[38.500535,48.386556],[38.500396,48.386716],[38.500828,48.387301],[38.501501,48.387671],[38.501501,48.387672],[38.50156,48.387704],[38.501673,48.387863],[38.501704,48.387907],[38.501527,48.388139],[38.501088,48.388718],[38.499147,48.388485],[38.498618,48.388399],[38.498618,48.388398],[38.498447,48.387823],[38.498083,48.387821],[38.497809,48.387984],[38.497333,48.387918],[38.497136,48.387701],[38.49661,48.387545],[38.496367,48.387894],[38.496008,48.38789],[38.495469,48.387883],[38.494261,48.387724],[38.49426,48.387724],[38.494251,48.387498],[38.493973,48.387069],[38.493888,48.386669],[38.493695,48.386371],[38.493408,48.386006],[38.493288,48.385527],[38.493264,48.385425],[38.492864,48.385022],[38.492616,48.384989],[38.492675,48.384655],[38.492679,48.384515],[38.492616,48.384348],[38.492333,48.384172],[38.492119,48.384091],[38.492186,48.383647],[38.49206,48.383474],[38.491844,48.383421],[38.491305,48.382964],[38.491377,48.382776],[38.491207,48.38232],[38.490687,48.382397],[38.490686,48.382397],[38.490686,48.382396],[38.490394,48.382439],[38.489949,48.382144],[38.489949,48.382143],[38.489946,48.381896],[38.489945,48.381717],[38.4887,48.381661],[38.487083,48.380938],[38.488484,48.380774],[38.488444,48.38047],[38.488907,48.380228],[38.48954,48.380178],[38.489662,48.380067],[38.489652,48.379921],[38.489284,48.379868],[38.488345,48.379963],[38.487501,48.380479],[38.487133,48.380536],[38.487132,48.380536],[38.48697,48.380279],[38.485578,48.380091],[38.485232,48.379799],[38.485461,48.379554],[38.485484,48.378809],[38.485417,48.378769],[38.485341,48.378841],[38.485134,48.378585],[38.484842,48.37871],[38.484999,48.379023],[38.485044,48.379253],[38.483666,48.378522],[38.4831,48.378328],[38.483028,48.378195],[38.482995,48.378132],[38.483037,48.377773],[38.482659,48.377618],[38.482335,48.377334],[38.482398,48.377146],[38.482255,48.377009],[38.481586,48.376726],[38.481769,48.376637],[38.481729,48.376509],[38.481263,48.376467],[38.481262,48.376467],[38.480926,48.376126],[38.480656,48.376109],[38.480301,48.376297],[38.479932,48.376317],[38.479641,48.376201],[38.479435,48.37604],[38.479366,48.375852],[38.478594,48.376031]]]}},{"type":"Feature","properties":{"cadnum":"4423656100:07:006:0068"},"geometry":{"type":"Polygon","coordinates":[[[38.497364,48.359521],[38.498339,48.359887],[38.501673,48.361138],[38.501673,48.361137],[38.503814,48.361941],[38.50473,48.360875],[38.505556,48.35991],[38.505683,48.359762],[38.50539,48.359715],[38.503245,48.359389],[38.501673,48.359141],[38.501673,48.35914],[38.500325,48.358926],[38.500136,48.358852],[38.499071,48.358682],[38.498447,48.3587],[38.498128,48.358508],[38.497881,48.358508],[38.497517,48.358521],[38.497364,48.359521]]]}},{"type":"Feature","properties":{"cadnum":"4423656100:07:006:0067"},"geometry":{"type":"Polygon","coordinates":[[[38.497109,48.361278],[38.497706,48.361452],[38.501501,48.362897],[38.502629,48.363326],[38.503675,48.362108],[38.503814,48.361941],[38.501501,48.361073],[38.501501,48.361074],[38.498643,48.360001],[38.497364,48.359521],[38.497307,48.359887],[38.497306,48.359887],[38.497289,48.360001],[38.49713,48.361036],[38.497109,48.361278]]]}},{"type":"Feature","properties":{"cadnum":"4423656100:03:001:0047"},"geometry":{"type":"Polygon","coordinates":[[[38.515627,48.390558],[38.515887,48.390582],[38.517208,48.391933],[38.516409,48.392097],[38.516405,48.392154],[38.516466,48.392207],[38.516556,48.392232],[38.517447,48.392247],[38.517895,48.392643],[38.51798,48.392641],[38.517981,48.392641],[38.518587,48.392622],[38.519432,48.392638],[38.520028,48.392508],[38.520388,48.392503],[38.520864,48.392726],[38.521085,48.392829],[38.521089,48.392831],[38.521113,48.39284],[38.521114,48.39284],[38.521115,48.39284],[38.52147,48.392965],[38.522015,48.39293],[38.522467,48.392826],[38.522468,48.392826],[38.522611,48.39284],[38.522612,48.39284],[38.522917,48.39287],[38.523267,48.393171],[38.523321,48.393523],[38.523321,48.393576],[38.523393,48.393737],[38.523397,48.39394],[38.523474,48.393971],[38.523526,48.393991],[38.523645,48.394038],[38.523646,48.394038],[38.523671,48.394048],[38.524076,48.393899],[38.524435,48.393989],[38.52717,48.394119],[38.527274,48.393794],[38.527848,48.393251],[38.527529,48.393105],[38.527166,48.393231],[38.526896,48.393332],[38.526672,48.393281],[38.526577,48.39337],[38.526143,48.393317],[38.526273,48.393067],[38.526003,48.392972],[38.525913,48.393085],[38.525757,48.393109],[38.525756,48.393109],[38.525818,48.393031],[38.525334,48.392813],[38.525231,48.392682],[38.524273,48.392362],[38.524229,48.392616],[38.524397,48.392726],[38.524396,48.392726],[38.524408,48.392733],[38.524337,48.392783],[38.524319,48.392795],[38.524293,48.392783],[38.52421,48.392742],[38.524166,48.392783],[38.52412,48.392826],[38.524124,48.39284],[38.524166,48.39298],[38.524166,48.392981],[38.524112,48.39312],[38.52386,48.393123],[38.52364,48.393058],[38.523475,48.39284],[38.523474,48.392838],[38.523474,48.392839],[38.523388,48.392726],[38.52338,48.392715],[38.523101,48.392473],[38.522602,48.392393],[38.522405,48.392256],[38.522369,48.391793],[38.522284,48.391549],[38.522284,48.391548],[38.522361,48.391301],[38.521879,48.391179],[38.52112,48.392249],[38.519656,48.392124],[38.519602,48.391483],[38.519701,48.391232],[38.519566,48.391095],[38.519544,48.390749],[38.519634,48.390582],[38.519701,48.39032],[38.519225,48.39032],[38.519153,48.390806],[38.519086,48.39148],[38.519248,48.391889],[38.519386,48.392151],[38.519292,48.392276],[38.51861,48.392411],[38.51861,48.39241],[38.518713,48.391975],[38.518124,48.391644],[38.517585,48.391638],[38.517019,48.391602],[38.516992,48.391489],[38.516916,48.391292],[38.516696,48.391292],[38.516535,48.391089],[38.516449,48.390582],[38.515686,48.390445],[38.515627,48.390558]]]}},{"type":"Feature","properties":{"cadnum":"4423656100:07:006:0078"},"geometry":{"type":"Polygon","coordinates":[[[38.512748,48.360645],[38.518152,48.362316],[38.518223,48.362337],[38.51909,48.36109],[38.519562,48.360448],[38.518152,48.360014],[38.518112,48.360001],[38.514845,48.358992],[38.514329,48.359121],[38.513776,48.3593],[38.513244,48.360001],[38.513245,48.360001],[38.513139,48.360141],[38.512748,48.360645]],[[38.519206,48.360601],[38.51918,48.360601],[38.51918,48.360583],[38.519206,48.360583],[38.519206,48.360601]],[[38.518663,48.360577],[38.518636,48.360577],[38.518636,48.360559],[38.518663,48.360559],[38.518663,48.360577]],[[38.518017,48.360559],[38.51799,48.360559],[38.51799,48.360541],[38.518017,48.360541],[38.518017,48.360559]],[[38.517289,48.360479],[38.517288,48.360479],[38.517262,48.360479],[38.517262,48.360461],[38.517288,48.360461],[38.517289,48.360461],[38.517289,48.360479]],[[38.516485,48.360422],[38.516459,48.360422],[38.516458,48.360422],[38.516458,48.360404],[38.516459,48.360404],[38.516485,48.360404],[38.516485,48.360422]],[[38.515681,48.360365],[38.51568,48.360365],[38.515654,48.360365],[38.515654,48.360348],[38.51568,48.360348],[38.515681,48.360348],[38.515681,48.360365]],[[38.515101,48.360308],[38.515075,48.360308],[38.515074,48.360308],[38.515074,48.360291],[38.515075,48.360291],[38.515101,48.360291],[38.515101,48.360308]],[[38.514504,48.360242],[38.514504,48.360243],[38.514478,48.360243],[38.514478,48.360242],[38.514478,48.360225],[38.514504,48.360225],[38.514504,48.360242]],[[38.513906,48.36018],[38.51388,48.36018],[38.513879,48.36018],[38.513879,48.360162],[38.51388,48.360162],[38.513906,48.360162],[38.513906,48.36018]],[[38.513305,48.360118],[38.513279,48.360118],[38.513279,48.3601],[38.513305,48.3601],[38.513305,48.360118]]]}},{"type":"Feature","properties":{"cadnum":"4423656100:07:001:0006"},"geometry":{"type":"Polygon","coordinates":[[[38.519652,48.360938],[38.523474,48.361974],[38.524632,48.362287],[38.525135,48.361574],[38.526227,48.359939],[38.524736,48.359514],[38.524265,48.359419],[38.523474,48.359187],[38.523474,48.359188],[38.52338,48.35916],[38.522674,48.359198],[38.522019,48.359288],[38.521686,48.35938],[38.520801,48.359192],[38.520242,48.360001],[38.520114,48.360186],[38.519652,48.360938]],[[38.525154,48.360846],[38.525127,48.360846],[38.525127,48.360828],[38.525154,48.360828],[38.525154,48.360846]],[[38.524561,48.360819],[38.524535,48.360819],[38.524535,48.360801],[38.524561,48.360801],[38.524561,48.360819]],[[38.523963,48.360795],[38.523937,48.360795],[38.523936,48.360795],[38.523936,48.360777],[38.523937,48.360777],[38.523963,48.360777],[38.523963,48.360795]],[[38.52337,48.360771],[38.523344,48.360771],[38.523344,48.360753],[38.52337,48.360753],[38.52337,48.360771]],[[38.522778,48.360747],[38.522751,48.360747],[38.522751,48.360729],[38.522778,48.360729],[38.522778,48.360747]],[[38.522181,48.360724],[38.522153,48.360724],[38.522153,48.360705],[38.522181,48.360705],[38.522181,48.360724]],[[38.521587,48.3607],[38.52156,48.3607],[38.52156,48.360682],[38.521587,48.360682],[38.521587,48.3607]],[[38.520994,48.360673],[38.520967,48.360673],[38.520967,48.360654],[38.520994,48.360654],[38.520994,48.360673]],[[38.520401,48.360645],[38.520375,48.360645],[38.520374,48.360645],[38.520374,48.360628],[38.520374,48.360627],[38.520375,48.360627],[38.520401,48.360627],[38.520401,48.360628],[38.520401,48.360645]]]}},{"type":"Feature","properties":{"cadnum":"4423656100:07:001:0007"},"geometry":{"type":"Polygon","coordinates":[[[38.518537,48.362622],[38.519831,48.362974],[38.521057,48.363305],[38.521907,48.363537],[38.522276,48.363637],[38.522284,48.363639],[38.522326,48.363651],[38.522327,48.363651],[38.523397,48.36394],[38.523645,48.363622],[38.523645,48.363621],[38.523711,48.363537],[38.52371,48.363537],[38.524219,48.362884],[38.524632,48.362287],[38.523474,48.361973],[38.523474,48.361974],[38.519589,48.360921],[38.518537,48.362622]]]}},{"type":"Feature","properties":{"cadnum":"4423656100:08:001:0013"},"geometry":{"type":"Polygon","coordinates":[[[38.572491,48.389475],[38.572576,48.389595],[38.573084,48.390327],[38.573084,48.390326],[38.573658,48.391152],[38.575145,48.391411],[38.575338,48.391927],[38.575734,48.392521],[38.576293,48.39284],[38.576734,48.393091],[38.577413,48.392888],[38.577462,48.392838],[38.578405,48.391877],[38.578415,48.391867],[38.578577,48.391947],[38.579915,48.392605],[38.580611,48.392369],[38.580612,48.392369],[38.581407,48.392199],[38.581518,48.392106],[38.581923,48.392011],[38.582246,48.391847],[38.582525,48.391838],[38.582547,48.391674],[38.582556,48.391474],[38.582193,48.391235],[38.583898,48.390223],[38.583899,48.390223],[38.585283,48.389401],[38.585147,48.389371],[38.58495,48.389446],[38.583994,48.389388],[38.583791,48.389375],[38.583782,48.389294],[38.583774,48.389145],[38.582835,48.389291],[38.581963,48.389506],[38.580724,48.390135],[38.580732,48.390144],[38.580885,48.390257],[38.57904,48.3914],[38.578967,48.39134],[38.578914,48.391292],[38.578553,48.39149],[38.577746,48.391933],[38.577176,48.392223],[38.577135,48.392234],[38.577113,48.392225],[38.577103,48.392205],[38.577122,48.392178],[38.578405,48.39136],[38.578405,48.391361],[38.578535,48.391278],[38.578577,48.391251],[38.579344,48.390761],[38.579214,48.390686],[38.578981,48.390472],[38.578522,48.390379],[38.578577,48.390257],[38.578698,48.389988],[38.57947,48.389482],[38.579753,48.389595],[38.580598,48.389377],[38.581558,48.389521],[38.581841,48.38936],[38.581841,48.389359],[38.582502,48.389183],[38.580868,48.389159],[38.578828,48.389154],[38.578577,48.389154],[38.575679,48.38915],[38.574772,48.389237],[38.572926,48.38943],[38.572491,48.389475]],[[38.582251,48.389678],[38.583342,48.389484],[38.583822,48.389457],[38.58407,48.389478],[38.58407,48.389477],[38.584829,48.389538],[38.584829,48.389539],[38.58407,48.389982],[38.583338,48.390409],[38.582251,48.389678]],[[38.580696,48.391107],[38.580629,48.391056],[38.580809,48.390952],[38.580935,48.391047],[38.580791,48.391131],[38.580738,48.391086],[38.580696,48.391107]]]}},{"type":"Feature","properties":{"cadnum":"4423656100:05:002:0003"},"geometry":{"type":"Polygon","coordinates":[[[38.572283,48.384509],[38.572365,48.385016],[38.57249,48.38543],[38.572491,48.385434],[38.572492,48.385434],[38.572566,48.385544],[38.572567,48.385544],[38.573084,48.3863],[38.573155,48.386404],[38.577679,48.386687],[38.578405,48.386755],[38.581214,48.387018],[38.583621,48.387194],[38.583898,48.387256],[38.583899,48.387256],[38.583899,48.387257],[38.586042,48.387739],[38.586149,48.387686],[38.586527,48.387489],[38.585233,48.386932],[38.58407,48.386544],[38.583701,48.386421],[38.581676,48.385902],[38.578885,48.385476],[38.578765,48.385458],[38.578405,48.385405],[38.578405,48.385406],[38.573084,48.384627],[38.572283,48.384509]],[[38.577377,48.386493],[38.577405,48.386448],[38.577445,48.386421],[38.577516,48.386382],[38.57713,48.386212],[38.577212,48.386138],[38.57748,48.38624],[38.577562,48.386198],[38.577543,48.386143],[38.577516,48.386081],[38.577516,48.386048],[38.577526,48.386015],[38.577562,48.385973],[38.577583,48.385964],[38.577615,48.385977],[38.577673,48.386021],[38.577813,48.386096],[38.577853,48.386165],[38.577866,48.386209],[38.577862,48.386231],[38.577813,48.386275],[38.577805,48.386305],[38.577898,48.386382],[38.577876,48.386404],[38.577818,48.386445],[38.577696,48.386496],[38.577583,48.386528],[38.577522,48.386534],[38.577459,48.386526],[38.577405,48.386508],[38.577377,48.386493]]]}},{"type":"Feature","properties":{"cadnum":"4423656100:03:001:0042"},"geometry":{"type":"Polygon","coordinates":[[[38.520187,48.389237],[38.521166,48.389285],[38.52117,48.389123],[38.520191,48.389079],[38.520187,48.389192],[38.520188,48.389192],[38.520187,48.389237]]]}},{"type":"Feature","properties":{"cadnum":"4423656100:03:001:0045"},"geometry":{"type":"Polygon","coordinates":[[[38.521632,48.387949],[38.522162,48.387972],[38.522198,48.387629],[38.521669,48.387609],[38.521632,48.387949]]]}},{"type":"Feature","properties":{"cadnum":"4423656100:08:001:0017"},"geometry":{"type":"Polygon","coordinates":[[[38.598802,48.398026],[38.60055,48.39856],[38.60064,48.398587],[38.601955,48.398876],[38.602634,48.399232],[38.604444,48.400134],[38.604445,48.400134],[38.605871,48.400846],[38.607628,48.401721],[38.609905,48.403025],[38.611364,48.402142],[38.61144,48.402096],[38.611536,48.402038],[38.611576,48.402013],[38.611452,48.401954],[38.607367,48.40002],[38.607366,48.40002],[38.606739,48.399723],[38.606043,48.399382],[38.606043,48.399381],[38.60354,48.398151],[38.602831,48.397868],[38.601628,48.397298],[38.600729,48.396801],[38.600459,48.396934],[38.599512,48.3974],[38.598802,48.398026]]]}},{"type":"Feature","properties":{"cadnum":"4423656100:03:009:0007"},"geometry":{"type":"Polygon","coordinates":[[[38.536284,48.382486],[38.53636,48.382484],[38.53636,48.382445],[38.536284,48.382448],[38.536284,48.382486]]]}},{"type":"Feature","properties":{"cadnum":"4423656100:03:002:0016"},"geometry":{"type":"Polygon","coordinates":[[[38.555962,48.397683],[38.556195,48.397769],[38.55628,48.397665],[38.556433,48.397607],[38.556436,48.397606],[38.556604,48.397542],[38.556977,48.3974],[38.557394,48.397769],[38.557398,48.397778],[38.557439,48.397758],[38.557744,48.397698],[38.557987,48.39768],[38.558176,48.397678],[38.5584,48.397698],[38.558536,48.397728],[38.558733,48.397788],[38.558939,48.397886],[38.559047,48.397961],[38.55911,48.397996],[38.559182,48.398035],[38.559289,48.398092],[38.559474,48.398202],[38.559599,48.398196],[38.559694,48.398214],[38.559702,48.398214],[38.559941,48.398196],[38.560233,48.398286],[38.560323,48.398333],[38.560368,48.398265],[38.560368,48.398264],[38.560377,48.398256],[38.560507,48.398041],[38.560103,48.397946],[38.559968,48.397877],[38.559735,48.397749],[38.559528,48.397701],[38.559075,48.39765],[38.558607,48.39757],[38.55796,48.397475],[38.55784,48.397448],[38.557866,48.396661],[38.557881,48.396373],[38.557893,48.39616],[38.55787,48.395868],[38.55787,48.395867],[38.557871,48.395867],[38.558113,48.395894],[38.558423,48.395819],[38.558633,48.395906],[38.560111,48.396138],[38.5607,48.39621],[38.560727,48.396094],[38.561574,48.396373],[38.561573,48.396373],[38.561585,48.396377],[38.562098,48.395598],[38.562098,48.395597],[38.562142,48.39553],[38.562195,48.394928],[38.562017,48.394643],[38.560893,48.39284],[38.560807,48.3927],[38.560444,48.392202],[38.560111,48.391695],[38.559937,48.391387],[38.556815,48.392726],[38.556756,48.392751],[38.556549,48.39284],[38.55655,48.39284],[38.556272,48.392959],[38.556087,48.394916],[38.556016,48.396487],[38.555962,48.397683]]]}},{"type":"Feature","properties":{"cadnum":"4423656100:08:001:0015"},"geometry":{"type":"Polygon","coordinates":[[[38.559775,48.390653],[38.560337,48.391635],[38.560664,48.392136],[38.561033,48.392634],[38.561089,48.392726],[38.561926,48.394072],[38.561989,48.394174],[38.562098,48.394348],[38.562245,48.394585],[38.562928,48.395366],[38.563067,48.395662],[38.563055,48.396373],[38.563054,48.396373],[38.563054,48.396425],[38.563072,48.39643],[38.563094,48.396436],[38.563188,48.396487],[38.563189,48.396487],[38.563323,48.396559],[38.563817,48.396783],[38.563903,48.396929],[38.563583,48.397391],[38.563449,48.398053],[38.563197,48.398978],[38.562331,48.399004],[38.562335,48.398238],[38.562098,48.398164],[38.561064,48.397842],[38.560952,48.398167],[38.560929,48.398202],[38.560866,48.398301],[38.561926,48.398729],[38.562061,48.398784],[38.562098,48.398836],[38.562218,48.399011],[38.562174,48.399228],[38.562263,48.399628],[38.562291,48.399825],[38.562304,48.399833],[38.562946,48.399923],[38.56335,48.399932],[38.563754,48.40002],[38.564106,48.400097],[38.564113,48.400099],[38.564135,48.400077],[38.564194,48.40002],[38.564576,48.399648],[38.565956,48.398461],[38.566522,48.397558],[38.567182,48.396487],[38.567183,48.396487],[38.567419,48.396106],[38.567526,48.395932],[38.567591,48.395828],[38.568228,48.394796],[38.567784,48.394331],[38.567591,48.394188],[38.566432,48.393326],[38.565799,48.392737],[38.565721,48.392664],[38.5653,48.392101],[38.564558,48.391581],[38.562497,48.390141],[38.562098,48.389964],[38.561801,48.389833],[38.56074,48.389222],[38.560247,48.389189],[38.559855,48.389296],[38.559838,48.389419],[38.559725,48.390215],[38.559775,48.390653]],[[38.5667,48.395226],[38.566782,48.395342],[38.566777,48.395348],[38.566589,48.395381],[38.566512,48.395262],[38.566512,48.395258],[38.566513,48.395258],[38.5667,48.395226]],[[38.565452,48.39661],[38.565524,48.396732],[38.56552,48.396735],[38.565331,48.396765],[38.565259,48.396642],[38.565264,48.396639],[38.565452,48.39661]],[[38.564423,48.398008],[38.564428,48.398012],[38.564478,48.398136],[38.564302,48.398191],[38.564293,48.398187],[38.564243,48.398062],[38.564423,48.398008]],[[38.563669,48.399079],[38.56375,48.399195],[38.563746,48.399201],[38.563557,48.399234],[38.56348,48.399118],[38.56348,48.399112],[38.563669,48.399079]]]}},{"type":"Feature","properties":{"cadnum":"4423656100:03:002:0015"},"geometry":{"type":"Polygon","coordinates":[[[38.554685,48.389141],[38.556604,48.392511],[38.556605,48.392511],[38.556658,48.392605],[38.559847,48.391232],[38.559537,48.39069],[38.559482,48.390213],[38.559578,48.389541],[38.556433,48.389285],[38.554685,48.389141]]]}},{"type":"Feature","properties":{"cadnum":"4423656100:03:002:0014"},"geometry":{"type":"Polygon","coordinates":[[[38.550783,48.392411],[38.55094,48.392498],[38.55094,48.392499],[38.551347,48.392726],[38.551767,48.392959],[38.552153,48.3931],[38.552114,48.39284],[38.552085,48.39264],[38.552431,48.392622],[38.55245,48.392163],[38.55279,48.392133],[38.552857,48.391707],[38.552067,48.391191],[38.552067,48.39119],[38.552125,48.390571],[38.552134,48.389553],[38.551408,48.389538],[38.551379,48.389833],[38.551331,48.390337],[38.551295,48.390582],[38.551228,48.39085],[38.551092,48.391268],[38.551016,48.391909],[38.550783,48.392411]]]}},{"type":"Feature","properties":{"cadnum":"4423656100:03:002:0012"},"geometry":{"type":"Polygon","coordinates":[[[38.554534,48.388],[38.554695,48.388005],[38.554838,48.388014],[38.556604,48.388158],[38.558068,48.388277],[38.558073,48.388261],[38.55809,48.388146],[38.558324,48.388163],[38.558427,48.388169],[38.55849,48.387805],[38.55844,48.387757],[38.558247,48.387748],[38.558279,48.387474],[38.55828,48.387474],[38.558562,48.387492],[38.55854,48.387459],[38.558436,48.38739],[38.558261,48.387343],[38.556433,48.387196],[38.556433,48.387197],[38.554968,48.387078],[38.554901,48.38708],[38.554708,48.387129],[38.554672,48.387352],[38.554578,48.387918],[38.554578,48.387919],[38.554534,48.388]]]}},{"type":"Feature","properties":{"cadnum":"4423656100:07:006:0001"},"geometry":{"type":"Polygon","coordinates":[[[38.508153,48.367178],[38.508377,48.3673],[38.508378,48.3673],[38.509896,48.368124],[38.509793,48.368234],[38.510476,48.368539],[38.511346,48.368963],[38.511841,48.369225],[38.512659,48.369634],[38.512659,48.369633],[38.51357,48.370087],[38.514514,48.368909],[38.512659,48.368254],[38.512353,48.368145],[38.510543,48.367438],[38.509972,48.367209],[38.509671,48.367088],[38.508606,48.366611],[38.508482,48.366694],[38.50827,48.366993],[38.508153,48.367178]]]}},{"type":"Feature","properties":{"cadnum":"4423656100:07:006:0069"},"geometry":{"type":"Polygon","coordinates":[[[38.50473,48.360875],[38.507166,48.36179],[38.51035,48.362985],[38.5106,48.362603],[38.510753,48.362439],[38.510816,48.362445],[38.511153,48.362227],[38.512659,48.360299],[38.512659,48.360298],[38.512677,48.360275],[38.512487,48.360239],[38.511939,48.360132],[38.510736,48.360431],[38.510157,48.360457],[38.509528,48.360269],[38.509168,48.360192],[38.508535,48.360109],[38.507681,48.360081],[38.507166,48.359999],[38.507166,48.359998],[38.505683,48.359762],[38.505575,48.359887],[38.505556,48.35991],[38.505477,48.360001],[38.505478,48.360001],[38.50473,48.360875]]]}},{"type":"Feature","properties":{"cadnum":"4423656100:03:002:0013"},"geometry":{"type":"Polygon","coordinates":[[[38.534137,48.396738],[38.534227,48.396821],[38.534362,48.396917],[38.53446,48.396951],[38.5345,48.396964],[38.534632,48.396998],[38.53464,48.397],[38.534852,48.397033],[38.535066,48.397069],[38.535259,48.397093],[38.535408,48.397102],[38.535597,48.397111],[38.535731,48.397099],[38.53597,48.397072],[38.536234,48.397024],[38.536468,48.39694],[38.536917,48.396836],[38.537187,48.396777],[38.537254,48.396768],[38.537433,48.396708],[38.537546,48.39669],[38.537708,48.396655],[38.53782,48.396633],[38.537928,48.396619],[38.538009,48.396604],[38.538166,48.396591],[38.538377,48.396591],[38.538682,48.396675],[38.538848,48.396702],[38.538848,48.396639],[38.538854,48.396425],[38.538764,48.39633],[38.538534,48.396252],[38.536783,48.396001],[38.534693,48.396115],[38.534575,48.396248],[38.534463,48.396373],[38.534437,48.396402],[38.534361,48.396487],[38.534137,48.396738]]]}},{"type":"Feature","properties":{"cadnum":"4423656100:07:001:0019"},"geometry":{"type":"Polygon","coordinates":[[[38.536647,48.364226],[38.537546,48.364149],[38.537909,48.364708],[38.538301,48.365235],[38.538561,48.365358],[38.539953,48.36596],[38.540057,48.366005],[38.540125,48.366034],[38.540246,48.366086],[38.541957,48.366811],[38.542812,48.367186],[38.542811,48.367186],[38.542896,48.367223],[38.542897,48.367223],[38.543086,48.3673],[38.543087,48.3673],[38.545446,48.368257],[38.546408,48.368647],[38.546687,48.368127],[38.547307,48.36782],[38.547158,48.367399],[38.546651,48.367186],[38.545618,48.366752],[38.540125,48.364439],[38.538253,48.363651],[38.537246,48.363227],[38.537059,48.363537],[38.53704,48.363569],[38.536991,48.363651],[38.536647,48.364226]]]}},{"type":"Feature","properties":{"cadnum":"4423656100:03:001:0040"},"geometry":{"type":"Polygon","coordinates":[[[38.517285,48.387096],[38.517627,48.387134],[38.517734,48.387146],[38.517805,48.386744],[38.517348,48.386711],[38.517285,48.387096]]]}},{"type":"Feature","properties":{"cadnum":"4423656100:08:001:0014"},"geometry":{"type":"Polygon","coordinates":[[[38.560547,48.399321],[38.561608,48.399696],[38.561926,48.399741],[38.562035,48.399756],[38.562021,48.399648],[38.561926,48.399228],[38.561966,48.399034],[38.561926,48.398975],[38.561872,48.398897],[38.560773,48.398452],[38.56066,48.398635],[38.560773,48.398784],[38.560767,48.399028],[38.560767,48.399029],[38.560561,48.399297],[38.560547,48.399321]]]}},{"type":"Feature","properties":{"cadnum":"4423656100:07:006:0007"},"geometry":{"type":"Polygon","coordinates":[[[38.527858,48.377135],[38.528693,48.377451],[38.529139,48.37763],[38.529139,48.377629],[38.529946,48.377953],[38.530068,48.377967],[38.530912,48.37692],[38.53203,48.375315],[38.531896,48.375285],[38.531573,48.375136],[38.529942,48.374536],[38.529891,48.374599],[38.529892,48.374599],[38.528967,48.375752],[38.527858,48.377135]]]}},{"type":"Feature","properties":{"cadnum":"4423656100:07:006:0006"},"geometry":{"type":"Polygon","coordinates":[[[38.525365,48.37606],[38.526016,48.376377],[38.526577,48.376646],[38.527858,48.377135],[38.529139,48.375538],[38.529942,48.374536],[38.529313,48.374304],[38.529107,48.374228],[38.528261,48.373915],[38.527683,48.374485],[38.527682,48.374485],[38.527615,48.374551],[38.527615,48.374552],[38.527469,48.374599],[38.527332,48.374643],[38.52698,48.374514],[38.526847,48.374464],[38.526694,48.374399],[38.526625,48.374485],[38.526624,48.374485],[38.526541,48.374589],[38.526533,48.374599],[38.525365,48.37606]]]}},{"type":"Feature","properties":{"cadnum":"4423656100:03:001:0044"},"geometry":{"type":"Polygon","coordinates":[[[38.511468,48.384808],[38.511818,48.384837],[38.511818,48.384262],[38.511526,48.384255],[38.511468,48.384808]]]}},{"type":"Feature","properties":{"cadnum":"4423656100:03:001:0052"},"geometry":{"type":"Polygon","coordinates":[[[38.531711,48.393576],[38.532022,48.393666],[38.532336,48.393174],[38.532013,48.393087],[38.531711,48.393576]]]}},{"type":"Feature","properties":{"cadnum":"4423656100:03:001:0048"},"geometry":{"type":"Polygon","coordinates":[[[38.527718,48.394143],[38.528131,48.394164],[38.528158,48.394338],[38.528217,48.394343],[38.528227,48.394343],[38.528716,48.394387],[38.528967,48.394383],[38.529068,48.394381],[38.529139,48.394379],[38.529169,48.394379],[38.529412,48.3944],[38.529538,48.394486],[38.529672,48.394672],[38.529835,48.3948],[38.530068,48.394811],[38.530324,48.394835],[38.530521,48.394931],[38.530745,48.395089],[38.53093,48.395199],[38.53111,48.395271],[38.531298,48.395336],[38.531487,48.395402],[38.53168,48.395468],[38.531823,48.395548],[38.53203,48.395647],[38.532147,48.395461],[38.531105,48.394999],[38.530952,48.394501],[38.530728,48.394427],[38.530791,48.394137],[38.531123,48.39398],[38.53172,48.393016],[38.531626,48.392992],[38.531787,48.392726],[38.532112,48.39219],[38.53159,48.392023],[38.531056,48.39284],[38.531057,48.39284],[38.530544,48.393627],[38.530028,48.393481],[38.529434,48.393854],[38.529003,48.393872],[38.528774,48.393696],[38.528338,48.393934],[38.528181,48.393761],[38.527799,48.393792],[38.527718,48.394143]]]}},{"type":"Feature","properties":{"cadnum":"4423656100:03:001:0015"},"geometry":{"type":"Polygon","coordinates":[[[38.536558,48.390719],[38.536997,48.390857],[38.537012,48.390854],[38.537119,48.390704],[38.53711,48.390702],[38.53711,48.390701],[38.537133,48.390662],[38.537034,48.39063],[38.537043,48.390621],[38.536963,48.390591],[38.536953,48.390603],[38.536714,48.390523],[38.536558,48.390719]]]}},{"type":"Feature","properties":{"cadnum":"4423656100:03:001:0018"},"geometry":{"type":"Polygon","coordinates":[[[38.535687,48.391024],[38.536108,48.391149],[38.536198,48.391027],[38.535776,48.390892],[38.535687,48.391024]]]}},{"type":"Feature","properties":{"cadnum":"4423656100:05:001:0118"},"geometry":{"type":"Polygon","coordinates":[[[38.526223,48.374107],[38.526452,48.374235],[38.526735,48.37436],[38.526879,48.374426],[38.52704,48.374484],[38.52704,48.374485],[38.52733,48.37459],[38.527336,48.374592],[38.527486,48.374542],[38.527565,48.374515],[38.527566,48.374515],[38.528145,48.373951],[38.526776,48.373444],[38.526223,48.374107]]]}},{"type":"Feature","properties":{"cadnum":"4423656100:07:006:0073"},"geometry":{"type":"Polygon","coordinates":[[[38.508966,48.365758],[38.509841,48.366029],[38.511501,48.363651],[38.511502,48.363651],[38.512474,48.36226],[38.511684,48.362018],[38.511549,48.362189],[38.511499,48.362173],[38.511122,48.362401],[38.510623,48.363204],[38.510336,48.363651],[38.510337,48.363651],[38.509518,48.364931],[38.508966,48.365758]]]}},{"type":"Feature","properties":{"cadnum":"4423656100:07:006:0070"},"geometry":{"type":"Polygon","coordinates":[[[38.503675,48.362108],[38.507166,48.363419],[38.507784,48.363651],[38.507785,48.363651],[38.507857,48.363678],[38.509465,48.364281],[38.509744,48.36391],[38.509988,48.363537],[38.51035,48.362985],[38.506994,48.361725],[38.506994,48.361726],[38.50473,48.360875],[38.503814,48.361941],[38.503675,48.362108]]]}},{"type":"Feature","properties":{"cadnum":"4423656100:03:001:0041"},"geometry":{"type":"Polygon","coordinates":[[[38.508359,48.386749],[38.508365,48.386815],[38.508405,48.386812],[38.50849,48.386812],[38.50849,48.386707],[38.508396,48.386707],[38.508392,48.386749],[38.508359,48.386749]]]}},{"type":"Feature","properties":{"cadnum":"4423656100:03:001:0049"},"geometry":{"type":"Polygon","coordinates":[[[38.510013,48.387934],[38.510331,48.387975],[38.510493,48.387427],[38.510166,48.387385],[38.510098,48.387656],[38.510013,48.387934]]]}},{"type":"Feature","properties":{"cadnum":"4423656100:03:001:0035"},"geometry":{"type":"Polygon","coordinates":[[[38.507749,48.386979],[38.507969,48.386997],[38.507983,48.386899],[38.507767,48.386884],[38.507749,48.386979]]]}},{"type":"Feature","properties":{"cadnum":"4423656100:03:001:0030"},"geometry":{"type":"Polygon","coordinates":[[[38.527561,48.389616],[38.527651,48.38964],[38.527669,48.389607],[38.527674,48.389598],[38.527588,48.389574],[38.527561,48.389616]]]}},{"type":"Feature","properties":{"cadnum":"4423656100:03:001:0028"},"geometry":{"type":"Polygon","coordinates":[[[38.526411,48.39001],[38.526487,48.39003],[38.526506,48.389997],[38.526434,48.389977],[38.526411,48.39001]]]}},{"type":"Feature","properties":{"cadnum":"4423656100:03:001:0050"},"geometry":{"type":"Polygon","coordinates":[[[38.523128,48.389983],[38.52342,48.390054],[38.523474,48.389972],[38.523565,48.389832],[38.523645,48.389708],[38.523645,48.389707],[38.52373,48.389577],[38.523555,48.389524],[38.523434,48.389488],[38.52333,48.389571],[38.523128,48.389983]]]}},{"type":"Feature","properties":{"cadnum":"4423656100:03:001:0055"},"geometry":{"type":"Polygon","coordinates":[[[38.526483,48.391184],[38.526726,48.391259],[38.527152,48.390653],[38.52691,48.390571],[38.526906,48.390576],[38.526483,48.391184]]]}},{"type":"Feature","properties":{"cadnum":"4423656100:03:001:0054"},"geometry":{"type":"Polygon","coordinates":[[[38.527718,48.389521],[38.527785,48.389541],[38.527831,48.389473],[38.527764,48.389452],[38.527718,48.389521]]]}},{"type":"Feature","properties":{"cadnum":"4423656100:03:001:0006"},"geometry":{"type":"Polygon","coordinates":[[[38.533355,48.390582],[38.533423,48.3906],[38.533441,48.390573],[38.533368,48.390556],[38.533355,48.390582]]]}},{"type":"Feature","properties":{"cadnum":"4423656100:03:001:0043"},"geometry":{"type":"Polygon","coordinates":[[[38.529304,48.392061],[38.529542,48.392145],[38.529556,48.392121],[38.529739,48.391829],[38.529812,48.39171],[38.529856,48.391632],[38.529852,48.391629],[38.529919,48.391516],[38.529676,48.391441],[38.529502,48.391739],[38.529326,48.392017],[38.529313,48.392053],[38.529304,48.392061]]]}},{"type":"Feature","properties":{"cadnum":"4423656100:03:001:0046"},"geometry":{"type":"Polygon","coordinates":[[[38.529762,48.392234],[38.529996,48.392303],[38.530414,48.391665],[38.530179,48.391597],[38.529946,48.391931],[38.529762,48.392234]]]}},{"type":"Feature","properties":{"cadnum":"4423656100:03:001:0053"},"geometry":{"type":"Polygon","coordinates":[[[38.529942,48.391051],[38.530009,48.391077],[38.530063,48.391018],[38.529996,48.390987],[38.529942,48.391051]]]}},{"type":"Feature","properties":{"cadnum":"4423656100:03:001:0031"},"geometry":{"type":"Polygon","coordinates":[[[38.530032,48.389556],[38.530152,48.389595],[38.530211,48.389512],[38.530085,48.389475],[38.530032,48.389556]]]}},{"type":"Feature","properties":{"cadnum":"4423656100:07:006:0072"},"geometry":{"type":"Polygon","coordinates":[[[38.506819,48.364892],[38.506994,48.364957],[38.506994,48.364958],[38.508516,48.365522],[38.509465,48.364281],[38.507857,48.363678],[38.507166,48.364486],[38.506819,48.364892]]]}},{"type":"Feature","properties":{"cadnum":"4423656100:05:002:0004"},"geometry":{"type":"Polygon","coordinates":[[[38.546098,48.37589],[38.546268,48.376001],[38.546565,48.376058],[38.546574,48.376523],[38.546462,48.376991],[38.546907,48.376991],[38.546682,48.377833],[38.546838,48.377907],[38.547032,48.377719],[38.547315,48.377666],[38.547383,48.377227],[38.547203,48.376836],[38.547261,48.376114],[38.547136,48.375876],[38.547301,48.375607],[38.54762,48.375628],[38.547647,48.37558],[38.547211,48.375073],[38.547247,48.374829],[38.547248,48.374828],[38.547571,48.374715],[38.54797,48.374835],[38.548039,48.374748],[38.54772,48.37459],[38.548039,48.374238],[38.548003,48.373862],[38.548186,48.373626],[38.546915,48.373477],[38.546888,48.373898],[38.547037,48.374285],[38.546888,48.374455],[38.546856,48.374485],[38.54666,48.374667],[38.546601,48.374959],[38.546641,48.375184],[38.546372,48.375363],[38.546098,48.37589]]]}},{"type":"Feature","properties":{"cadnum":"4423656100:03:001:0051"},"geometry":{"type":"Polygon","coordinates":[[[38.503002,48.388038],[38.503522,48.388047],[38.503446,48.388375],[38.503383,48.388586],[38.503415,48.388825],[38.503499,48.389001],[38.503563,48.389078],[38.503562,48.389078],[38.503608,48.389132],[38.503723,48.389192],[38.503725,48.389192],[38.503819,48.38924],[38.503935,48.3893],[38.504304,48.389365],[38.504362,48.389267],[38.504537,48.389105],[38.504654,48.388999],[38.504371,48.388969],[38.504017,48.388918],[38.503922,48.38873],[38.504021,48.388425],[38.504425,48.388414],[38.505355,48.387793],[38.505553,48.387704],[38.505646,48.387576],[38.50588,48.387423],[38.505826,48.387346],[38.505665,48.38728],[38.505113,48.387224],[38.504425,48.387023],[38.504052,48.386782],[38.504044,48.386633],[38.50421,48.386475],[38.503872,48.38629],[38.503872,48.386289],[38.503931,48.386108],[38.504497,48.386141],[38.504627,48.385947],[38.504789,48.385544],[38.504857,48.38538],[38.504115,48.38521],[38.503994,48.385341],[38.503914,48.38543],[38.503895,48.385451],[38.503832,48.385544],[38.503833,48.385544],[38.503554,48.385959],[38.50323,48.38655],[38.503118,48.387054],[38.503019,48.387844],[38.503002,48.388038]]]}},{"type":"Feature","properties":{"cadnum":"4423656100:03:001:0012"},"geometry":{"type":"Polygon","coordinates":[[[38.509402,48.390662],[38.509761,48.390731],[38.509941,48.390314],[38.509963,48.390257],[38.509617,48.390189],[38.509402,48.390662]]]}},{"type":"Feature","properties":{"cadnum":"4423656100:03:001:0013"},"geometry":{"type":"Polygon","coordinates":[[[38.509617,48.390189],[38.509963,48.390257],[38.510107,48.389881],[38.509774,48.389846],[38.509617,48.390189]]]}},{"type":"Feature","properties":{"cadnum":"4423656100:01:001:0002"},"geometry":{"type":"Polygon","coordinates":[[[38.503446,48.39624],[38.504178,48.396323],[38.504191,48.396031],[38.503962,48.395861],[38.503792,48.395834],[38.503478,48.395799],[38.503446,48.39624]]]}},{"type":"Feature","properties":{"cadnum":"4423656100:08:001:0011"},"geometry":{"type":"Polygon","coordinates":[[[38.578522,48.390379],[38.578981,48.390472],[38.579214,48.390686],[38.579344,48.390761],[38.580728,48.389959],[38.580701,48.389938],[38.580755,48.389911],[38.581558,48.389521],[38.580701,48.389571],[38.580139,48.389604],[38.580139,48.389603],[38.579897,48.389514],[38.579816,48.389532],[38.579785,48.389565],[38.579753,48.389595],[38.57947,48.389482],[38.578698,48.389988],[38.578522,48.390379]]]}},{"type":"Feature","properties":{"cadnum":"4423656100:08:001:0012"},"geometry":{"type":"Polygon","coordinates":[[[38.580072,48.389461],[38.580086,48.389583],[38.580139,48.389604],[38.580701,48.389571],[38.580755,48.389568],[38.580742,48.389422],[38.580072,48.389461]]]}}]}