{"type":"FeatureCollection","features":[{"type":"Feature","properties":{"cadnum":"4423185500:12:001:0015"},"geometry":{"type":"Polygon","coordinates":[[[38.848359,49.098628],[38.849574,49.099038],[38.849779,49.099107],[38.849908,49.09915],[38.853235,49.10027],[38.853235,49.100269],[38.856573,49.101393],[38.857279,49.100436],[38.853123,49.099038],[38.853121,49.099038],[38.853064,49.099018],[38.853063,49.099018],[38.849168,49.097707],[38.848359,49.098628]]]}},{"type":"Feature","properties":{"cadnum":"4423185500:08:001:0099"},"geometry":{"type":"Polygon","coordinates":[[[38.932684,49.111307],[38.932777,49.111796],[38.935461,49.111618],[38.935561,49.111612],[38.935633,49.111607],[38.937697,49.111469],[38.937723,49.110976],[38.935633,49.111114],[38.935633,49.111113],[38.932684,49.111307]]]}}]}