{"type":"FeatureCollection","features":[{"type":"Feature","properties":{"cadnum":"4423885500:09:001:0238"},"geometry":{"type":"Polygon","coordinates":[[[38.602337,48.706322],[38.602378,48.706341],[38.6024,48.706313],[38.602359,48.706295],[38.602337,48.706322]]]}},{"type":"Feature","properties":{"cadnum":"4423885500:09:001:0237"},"geometry":{"type":"Polygon","coordinates":[[[38.605437,48.707561],[38.605477,48.707576],[38.6055,48.70755],[38.605458,48.707534],[38.605437,48.707561]]]}},{"type":"Feature","properties":{"cadnum":"4423885500:09:001:0240"},"geometry":{"type":"Polygon","coordinates":[[[38.598007,48.703474],[38.598116,48.703536],[38.598173,48.703489],[38.598066,48.70343],[38.598007,48.703474]]]}},{"type":"Feature","properties":{"cadnum":"4423885500:09:001:0239"},"geometry":{"type":"Polygon","coordinates":[[[38.59873,48.704864],[38.598743,48.704894],[38.598789,48.704885],[38.598775,48.704856],[38.59873,48.704864]]]}},{"type":"Feature","properties":{"cadnum":"4423885500:09:001:0229"},"geometry":{"type":"Polygon","coordinates":[[[38.634348,48.719102],[38.634388,48.719117],[38.634411,48.71909],[38.634371,48.719075],[38.634348,48.719102]]]}},{"type":"Feature","properties":{"cadnum":"4423885500:09:001:0233"},"geometry":{"type":"Polygon","coordinates":[[[38.621354,48.713916],[38.62139,48.713931],[38.621417,48.713904],[38.621377,48.713889],[38.621354,48.713916]]]}},{"type":"Feature","properties":{"cadnum":"4423885500:09:001:0236"},"geometry":{"type":"Polygon","coordinates":[[[38.610305,48.709505],[38.610345,48.70952],[38.610372,48.709494],[38.610332,48.709479],[38.610305,48.709505]]]}},{"type":"Feature","properties":{"cadnum":"4423885500:09:001:0234"},"geometry":{"type":"Polygon","coordinates":[[[38.617878,48.712529],[38.617918,48.712547],[38.617945,48.71252],[38.617905,48.712502],[38.617878,48.712529]]]}},{"type":"Feature","properties":{"cadnum":"4423885500:09:001:0227"},"geometry":{"type":"Polygon","coordinates":[[[38.641189,48.721831],[38.641229,48.721846],[38.641252,48.721819],[38.641212,48.721804],[38.641189,48.721831]]]}},{"type":"Feature","properties":{"cadnum":"4423885500:09:001:0235"},"geometry":{"type":"Polygon","coordinates":[[[38.614199,48.711058],[38.61424,48.711077],[38.614262,48.71105],[38.614222,48.711032],[38.614199,48.711058]]]}},{"type":"Feature","properties":{"cadnum":"4423885500:09:001:0231"},"geometry":{"type":"Polygon","coordinates":[[[38.6271,48.716209],[38.62714,48.716224],[38.627163,48.716198],[38.627121,48.71618],[38.6271,48.716209]]]}},{"type":"Feature","properties":{"cadnum":"4423885500:09:001:0232"},"geometry":{"type":"Polygon","coordinates":[[[38.624197,48.715051],[38.624238,48.715065],[38.62426,48.715039],[38.62422,48.715025],[38.624197,48.715051]]]}},{"type":"Feature","properties":{"cadnum":"4423885500:09:001:0230"},"geometry":{"type":"Polygon","coordinates":[[[38.630572,48.717593],[38.630612,48.717611],[38.630633,48.717584],[38.630593,48.717567],[38.630572,48.717593]]]}}]}