{"type":"FeatureCollection","features":[{"type":"Feature","properties":{"cadnum":"4424558400:04:001:0186"},"geometry":{"type":"Polygon","coordinates":[[[39.035212,48.617254],[39.035908,48.618349],[39.035924,48.618373],[39.035923,48.618373],[39.036803,48.619756],[39.039831,48.618803],[39.039859,48.618795],[39.040003,48.618749],[39.040086,48.618723],[39.039913,48.618487],[39.039269,48.617609],[39.038725,48.61693],[39.035212,48.617254]]]}},{"type":"Feature","properties":{"cadnum":"4424558400:04:001:0184"},"geometry":{"type":"Polygon","coordinates":[[[39.031318,48.619798],[39.032275,48.621297],[39.032536,48.621185],[39.032536,48.621182],[39.03312,48.620941],[39.033124,48.620941],[39.033816,48.620701],[39.03382,48.620698],[39.03451,48.620481],[39.036803,48.619756],[39.035995,48.618487],[39.035996,48.618487],[39.035908,48.618349],[39.03583,48.618373],[39.035829,48.618373],[39.035685,48.618419],[39.03547,48.618487],[39.034338,48.618845],[39.031318,48.619798]]]}},{"type":"Feature","properties":{"cadnum":"4424558400:04:001:0185"},"geometry":{"type":"Polygon","coordinates":[[[39.029939,48.617637],[39.030409,48.618373],[39.030476,48.618479],[39.030481,48.618487],[39.031318,48.619798],[39.03451,48.618791],[39.035685,48.618419],[39.035908,48.618349],[39.035212,48.617254],[39.034349,48.617334],[39.030618,48.617681],[39.029939,48.617637]]]}}]}