{"type":"FeatureCollection","features":[{"type":"Feature","properties":{"cadnum":"4424562000:05:001:0078"},"geometry":{"type":"Polygon","coordinates":[[[38.740951,48.683636],[38.740965,48.683672],[38.741005,48.683666],[38.741042,48.683809],[38.741044,48.683809],[38.741046,48.68382],[38.741358,48.683773],[38.74136,48.683773],[38.741485,48.683752],[38.741832,48.683696],[38.741976,48.683672],[38.741909,48.683494],[38.741684,48.683523],[38.741405,48.683565],[38.741284,48.683586],[38.741198,48.683598],[38.740992,48.68363],[38.740951,48.683636]]]}},{"type":"Feature","properties":{"cadnum":"4424562000:05:001:0084"},"geometry":{"type":"Polygon","coordinates":[[[38.743489,48.682002],[38.743511,48.68207],[38.743534,48.682136],[38.743593,48.682124],[38.744033,48.682047],[38.74428,48.682014],[38.744828,48.68194],[38.74476,48.681782],[38.744226,48.681881],[38.743925,48.681937],[38.743924,48.681937],[38.74392,48.681934],[38.743794,48.681955],[38.743557,48.681993],[38.743489,48.682002]]]}},{"type":"Feature","properties":{"cadnum":"4424562000:05:001:0082"},"geometry":{"type":"Polygon","coordinates":[[[38.746427,48.682894],[38.746544,48.683099],[38.746624,48.683245],[38.746894,48.683197],[38.746947,48.683171],[38.74697,48.683144],[38.746926,48.682788],[38.746427,48.682894]]]}},{"type":"Feature","properties":{"cadnum":"4424562000:05:001:0081"},"geometry":{"type":"Polygon","coordinates":[[[38.758293,48.67201],[38.758307,48.672072],[38.758383,48.672307],[38.758895,48.672277],[38.758846,48.672055],[38.758819,48.67194],[38.758622,48.67194],[38.758379,48.671954],[38.758293,48.67201]]]}},{"type":"Feature","properties":{"cadnum":"4424562000:05:001:0083"},"geometry":{"type":"Polygon","coordinates":[[[38.759851,48.677058],[38.759924,48.677088],[38.75996,48.6771],[38.760113,48.677148],[38.760306,48.67723],[38.76035,48.677245],[38.760517,48.677038],[38.760486,48.677029],[38.760377,48.676985],[38.760279,48.676952],[38.760184,48.676916],[38.760014,48.676854],[38.759956,48.676928],[38.759941,48.676946],[38.75991,48.676987],[38.759851,48.677058]]]}}]}