{"type":"FeatureCollection","features":[{"type":"Feature","properties":{"cadnum":"4424588200:10:002:0005"},"geometry":{"type":"Polygon","coordinates":[[[39.099528,48.648347],[39.099694,48.64838],[39.099711,48.648345],[39.099712,48.648345],[39.100008,48.648389],[39.100067,48.64827],[39.100111,48.648184],[39.099958,48.64816],[39.099801,48.648136],[39.09964,48.648112],[39.099528,48.648347]]]}},{"type":"Feature","properties":{"cadnum":"4424588200:10:002:0004"},"geometry":{"type":"Polygon","coordinates":[[[39.104365,48.651104],[39.104598,48.65114],[39.104602,48.651102],[39.104602,48.651092],[39.104616,48.650947],[39.104631,48.650789],[39.104648,48.650564],[39.104409,48.650514],[39.104383,48.65078],[39.104368,48.651045],[39.104365,48.651104]]]}},{"type":"Feature","properties":{"cadnum":"4424588200:12:005:0030"},"geometry":{"type":"Polygon","coordinates":[[[39.146406,48.574427],[39.146423,48.574491],[39.146429,48.574539],[39.146452,48.574634],[39.147781,48.574269],[39.147974,48.574209],[39.147871,48.574052],[39.147673,48.574105],[39.146406,48.574427]]]}},{"type":"Feature","properties":{"cadnum":"4424588200:12:002:0002"},"geometry":{"type":"Polygon","coordinates":[[[39.135617,48.590229],[39.135802,48.590478],[39.136682,48.590142],[39.136385,48.58989],[39.135617,48.590229]]]}},{"type":"Feature","properties":{"cadnum":"4424588200:12:002:0001"},"geometry":{"type":"Polygon","coordinates":[[[39.136385,48.58989],[39.136682,48.590142],[39.137051,48.590002],[39.137464,48.589842],[39.137127,48.58956],[39.136731,48.589732],[39.136385,48.58989]]]}},{"type":"Feature","properties":{"cadnum":"4424588200:10:002:0003"},"geometry":{"type":"Polygon","coordinates":[[[39.103902,48.650973],[39.104078,48.651006],[39.104105,48.650647],[39.104118,48.650457],[39.103943,48.650424],[39.103929,48.650615],[39.103902,48.650973]]]}},{"type":"Feature","properties":{"cadnum":"4424588200:12:005:0004"},"geometry":{"type":"Polygon","coordinates":[[[39.147547,48.570801],[39.147771,48.570819],[39.147781,48.570673],[39.147673,48.570664],[39.147578,48.570658],[39.147547,48.570801]]]}},{"type":"Feature","properties":{"cadnum":"4424588200:12:005:0003"},"geometry":{"type":"Polygon","coordinates":[[[39.14545,48.570646],[39.146289,48.570709],[39.147547,48.570801],[39.147578,48.570658],[39.147201,48.570631],[39.145976,48.570539],[39.145477,48.570504],[39.14545,48.570646]]]}}]}