{"type":"FeatureCollection","features":[{"type":"Feature","properties":{"cadnum":"4424253300:13:002:0038"},"geometry":{"type":"Polygon","coordinates":[[[39.753524,47.853711],[39.753552,47.853819],[39.753553,47.853819],[39.753553,47.85382],[39.753555,47.853828],[39.753742,47.853808],[39.753752,47.853807],[39.753721,47.85369],[39.753584,47.853704],[39.753583,47.853704],[39.753526,47.85371],[39.753524,47.853711]]]}},{"type":"Feature","properties":{"cadnum":"4424253300:01:003:0006"},"geometry":{"type":"Polygon","coordinates":[[[39.736146,47.961324],[39.736163,47.961336],[39.736196,47.961315],[39.736177,47.961303],[39.736146,47.961324]]]}}]}