{"type":"FeatureCollection","features":[{"type":"Feature","properties":{"cadnum":"4424055402:01:001:0004"},"geometry":{"type":"Polygon","coordinates":[[[38.206741,49.683208],[38.206966,49.683426],[38.208686,49.683025],[38.208538,49.682769],[38.206741,49.683208]]]}},{"type":"Feature","properties":{"cadnum":"4424055402:01:001:0003"},"geometry":{"type":"Polygon","coordinates":[[[38.208538,49.682769],[38.208686,49.683025],[38.209737,49.682778],[38.209584,49.682513],[38.209122,49.682627],[38.208538,49.682769]]]}},{"type":"Feature","properties":{"cadnum":"4424055402:12:001:0001"},"geometry":{"type":"Polygon","coordinates":[[[38.198468,49.657435],[38.1985,49.657744],[38.198668,49.657757],[38.199377,49.657793],[38.199377,49.657794],[38.199492,49.657799],[38.199447,49.657474],[38.198666,49.657445],[38.198468,49.657435]]]}},{"type":"Feature","properties":{"cadnum":"4424055402:12:001:0002"},"geometry":{"type":"Polygon","coordinates":[[[38.196829,49.657353],[38.196832,49.657616],[38.1985,49.657744],[38.198468,49.657435],[38.196829,49.657353]]]}}]}