{"type":"FeatureCollection","features":[{"type":"Feature","properties":{"cadnum":"4424084001:03:002:0008"},"geometry":{"type":"Polygon","coordinates":[[[38.509587,49.336806],[38.510862,49.33687],[38.510721,49.335963],[38.510721,49.335962],[38.510686,49.335734],[38.509937,49.335676],[38.509882,49.335851],[38.509868,49.335893],[38.509847,49.335962],[38.509847,49.335963],[38.509587,49.336806]]]}},{"type":"Feature","properties":{"cadnum":"4424084001:03:002:0187"},"geometry":{"type":"Polygon","coordinates":[[[38.516723,49.34152],[38.517038,49.341626],[38.517344,49.34119],[38.517537,49.340871],[38.517204,49.340759],[38.516975,49.341108],[38.516723,49.34152]]]}},{"type":"Feature","properties":{"cadnum":"4424084001:12:001:0213"},"geometry":{"type":"Polygon","coordinates":[[[38.468412,49.347294],[38.468542,49.347322],[38.468602,49.347334],[38.468714,49.347358],[38.468879,49.347393],[38.469117,49.346992],[38.469238,49.346797],[38.468766,49.3467],[38.468716,49.346747],[38.468659,49.346855],[38.468659,49.346928],[38.468483,49.347198],[38.468412,49.347294]]]}},{"type":"Feature","properties":{"cadnum":"4424084001:12:002:0082"},"geometry":{"type":"Polygon","coordinates":[[[38.472127,49.349936],[38.472623,49.350166],[38.4732,49.350434],[38.47337,49.350264],[38.473362,49.35026],[38.47232,49.349743],[38.472127,49.349936]]]}},{"type":"Feature","properties":{"cadnum":"4424084001:03:002:0003"},"geometry":{"type":"Polygon","coordinates":[[[38.504182,49.336428],[38.504511,49.336442],[38.504572,49.335851],[38.504596,49.335626],[38.504268,49.335611],[38.50423,49.335962],[38.504231,49.335962],[38.504231,49.335963],[38.504182,49.336428]]]}},{"type":"Feature","properties":{"cadnum":"4424084001:03:002:0005"},"geometry":{"type":"Polygon","coordinates":[[[38.505526,49.337502],[38.505782,49.337522],[38.506019,49.336285],[38.506342,49.336314],[38.506384,49.335858],[38.505746,49.335799],[38.505724,49.335962],[38.505725,49.335962],[38.505725,49.335963],[38.505526,49.337502]]]}}]}