{"type":"FeatureCollection","features":[{"type":"Feature","properties":{"cadnum":"4424551000:01:003:0025"},"geometry":{"type":"Polygon","coordinates":[[[38.927388,48.729011],[38.928112,48.73082],[38.928112,48.730821],[38.928426,48.731602],[38.929968,48.731329],[38.930492,48.731235],[38.930284,48.730821],[38.930284,48.73082],[38.93014,48.73053],[38.93014,48.730529],[38.92997,48.730189],[38.929968,48.730185],[38.929211,48.728669],[38.927388,48.729011]]]}},{"type":"Feature","properties":{"cadnum":"4424551000:01:003:0026"},"geometry":{"type":"Polygon","coordinates":[[[38.928623,48.727162],[38.928637,48.727197],[38.928636,48.727197],[38.929211,48.728628],[38.93014,48.728456],[38.930326,48.728421],[38.930078,48.727929],[38.929997,48.727846],[38.929737,48.727867],[38.929072,48.727301],[38.929065,48.727298],[38.928623,48.727162]]]}},{"type":"Feature","properties":{"cadnum":"4424551000:01:003:0152"},"geometry":{"type":"Polygon","coordinates":[[[38.888297,48.702765],[38.889531,48.705564],[38.889531,48.705565],[38.890885,48.708635],[38.891687,48.708576],[38.892138,48.708542],[38.891516,48.707132],[38.890774,48.705451],[38.889547,48.702668],[38.888297,48.702765]]]}},{"type":"Feature","properties":{"cadnum":"4424551000:03:002:0040"},"geometry":{"type":"Polygon","coordinates":[[[38.912732,48.645724],[38.913595,48.647416],[38.913594,48.647416],[38.915076,48.650318],[38.91659,48.650282],[38.915123,48.647416],[38.914107,48.645427],[38.91366,48.645523],[38.912732,48.645724]],[[38.915558,48.649733],[38.915485,48.649733],[38.915485,48.649686],[38.915558,48.649686],[38.915558,48.649733]]]}},{"type":"Feature","properties":{"cadnum":"4424551000:01:004:0258"},"geometry":{"type":"Polygon","coordinates":[[[38.901534,48.695173],[38.901732,48.695695],[38.902502,48.69564],[38.902639,48.695631],[38.902674,48.695628],[38.903627,48.695559],[38.903587,48.695449],[38.903444,48.695063],[38.90343,48.695037],[38.902625,48.695095],[38.901534,48.695173]]]}},{"type":"Feature","properties":{"cadnum":"4424551000:01:004:0411"},"geometry":{"type":"Polygon","coordinates":[[[38.907476,48.691989],[38.908167,48.693416],[38.90829,48.69367],[38.908753,48.693646],[38.908069,48.692236],[38.907935,48.69196],[38.907476,48.691989]]]}},{"type":"Feature","properties":{"cadnum":"4424551000:01:004:0373"},"geometry":{"type":"Polygon","coordinates":[[[38.889681,48.692843],[38.89057,48.694688],[38.890571,48.694688],[38.890572,48.694688],[38.89058,48.694705],[38.890889,48.694699],[38.890829,48.694575],[38.889982,48.692831],[38.889681,48.692843]]]}},{"type":"Feature","properties":{"cadnum":"4424551000:05:005:0003"},"geometry":{"type":"Polygon","coordinates":[[[38.946742,48.57798],[38.94675,48.578013],[38.946827,48.578004],[38.946819,48.577971],[38.946742,48.57798]]]}},{"type":"Feature","properties":{"cadnum":"4424551000:05:005:0007"},"geometry":{"type":"Polygon","coordinates":[[[38.946913,48.577541],[38.946962,48.577713],[38.947146,48.577692],[38.947182,48.57782],[38.947303,48.577799],[38.947331,48.577903],[38.947892,48.577841],[38.947784,48.577431],[38.946913,48.577541]]]}},{"type":"Feature","properties":{"cadnum":"4424551000:05:005:0006"},"geometry":{"type":"Polygon","coordinates":[[[38.939331,48.577009],[38.939435,48.577134],[38.939448,48.577152],[38.939672,48.577431],[38.939699,48.577464],[38.939865,48.577665],[38.939951,48.577802],[38.939901,48.57782],[38.939838,48.577838],[38.939905,48.57793],[38.939924,48.57796],[38.939942,48.577984],[38.939951,48.578004],[38.93996,48.578016],[38.939968,48.578031],[38.94027,48.577936],[38.940229,48.577874],[38.940194,48.577868],[38.940167,48.577832],[38.940171,48.57782],[38.940188,48.577808],[38.940175,48.577788],[38.940058,48.57761],[38.940058,48.577609],[38.940135,48.577588],[38.940117,48.577564],[38.940118,48.577564],[38.94018,48.57755],[38.939649,48.576923],[38.939538,48.576952],[38.939488,48.576967],[38.939331,48.577009]]]}}]}