{"type":"FeatureCollection","features":[{"type":"Feature","properties":{"cadnum":"4424854500:22:001:0086"},"geometry":{"type":"Polygon","coordinates":[[[39.528581,48.744686],[39.528723,48.74474],[39.528723,48.744741],[39.530224,48.745311],[39.530224,48.745312],[39.530223,48.745312],[39.530387,48.745373],[39.530701,48.744859],[39.530903,48.744912],[39.53102,48.744769],[39.53098,48.744699],[39.530045,48.74352],[39.529825,48.743369],[39.528723,48.744536],[39.528581,48.744686]]]}},{"type":"Feature","properties":{"cadnum":"4424854500:22:001:0087"},"geometry":{"type":"Polygon","coordinates":[[[39.527408,48.743531],[39.528634,48.744038],[39.528172,48.74453],[39.528581,48.744686],[39.528894,48.744355],[39.528894,48.744354],[39.529825,48.743369],[39.529552,48.743182],[39.52921,48.743066],[39.530207,48.742693],[39.530126,48.742602],[39.52925,48.742791],[39.528819,48.742885],[39.528634,48.742925],[39.528257,48.74272],[39.5282,48.742688],[39.527408,48.743531]]]}}]}