{"type":"FeatureCollection","features":[{"type":"Feature","properties":{"cadnum":"4424086501:04:001:0004"},"geometry":{"type":"Polygon","coordinates":[[[37.971746,49.365722],[37.973229,49.366199],[37.97335,49.366012],[37.971886,49.36552],[37.971746,49.365722]]]}},{"type":"Feature","properties":{"cadnum":"4424086501:04:001:0003"},"geometry":{"type":"Polygon","coordinates":[[[37.971262,49.365567],[37.971746,49.365722],[37.971886,49.36552],[37.971409,49.365359],[37.971262,49.365567]]]}},{"type":"Feature","properties":{"cadnum":"4424086501:04:001:0011"},"geometry":{"type":"Polygon","coordinates":[[[37.969482,49.367866],[37.970013,49.368041],[37.97017,49.367826],[37.969649,49.367641],[37.969482,49.367866]]]}},{"type":"Feature","properties":{"cadnum":"4424086501:04:001:0012"},"geometry":{"type":"Polygon","coordinates":[[[37.970013,49.368041],[37.970055,49.368055],[37.970061,49.368057],[37.970387,49.368167],[37.970388,49.368167],[37.971383,49.368501],[37.971535,49.368302],[37.97087,49.36807],[37.97017,49.367826],[37.970013,49.368041]]]}}]}