{"type":"FeatureCollection","features":[{"type":"Feature","properties":{"cadnum":"4424200000:00:000:0003"},"geometry":{"type":"Polygon","coordinates":[[[39.434595,48.158466],[39.434595,48.159008],[39.434891,48.159479],[39.435339,48.160068],[39.435339,48.160069],[39.436122,48.161099],[39.437212,48.162524],[39.437213,48.162524],[39.437703,48.163163],[39.438705,48.162777],[39.439427,48.162495],[39.439841,48.162334],[39.441004,48.161885],[39.441004,48.161884],[39.441067,48.16186],[39.441736,48.161597],[39.441004,48.160648],[39.441004,48.160647],[39.439625,48.15886],[39.439625,48.158859],[39.438489,48.157384],[39.43764,48.156074],[39.436036,48.15674],[39.435339,48.157153],[39.435084,48.157303],[39.434828,48.157822],[39.434595,48.158466]]]}}]}