{"type":"FeatureCollection","features":[{"type":"Feature","properties":{"cadnum":"4425184501:02:001:1564"},"geometry":{"type":"Polygon","coordinates":[[[38.91956,49.225425],[38.919959,49.225475],[38.919986,49.22541],[38.920044,49.225307],[38.920215,49.224823],[38.920202,49.224607],[38.91999,49.224565],[38.919876,49.224874],[38.919877,49.224874],[38.919774,49.225155],[38.919667,49.22514],[38.919594,49.225298],[38.91956,49.225425]]]}},{"type":"Feature","properties":{"cadnum":"4425184501:05:002:1541"},"geometry":{"type":"Polygon","coordinates":[[[38.940095,49.215303],[38.940117,49.215368],[38.940125,49.215398],[38.940498,49.215403],[38.940634,49.215394],[38.940768,49.21533],[38.940913,49.215271],[38.940954,49.215256],[38.940954,49.215257],[38.941011,49.215236],[38.9411,49.215213],[38.941126,49.215209],[38.941196,49.215198],[38.941182,49.215133],[38.941167,49.215104],[38.941119,49.215113],[38.940095,49.215303]]]}},{"type":"Feature","properties":{"cadnum":"4425184501:02:001:1562"},"geometry":{"type":"Polygon","coordinates":[[[38.927082,49.238752],[38.928021,49.238901],[38.92811,49.238568],[38.928057,49.238559],[38.927208,49.238433],[38.927082,49.238752]]]}},{"type":"Feature","properties":{"cadnum":"4425184501:02:001:1561"},"geometry":{"type":"Polygon","coordinates":[[[38.926135,49.23847],[38.926606,49.238676],[38.927082,49.238752],[38.927208,49.238433],[38.926692,49.238353],[38.926219,49.238251],[38.926135,49.23847]]]}}]}