{"type":"FeatureCollection","features":[{"type":"Feature","properties":{"cadnum":"4425182501:06:001:0028"},"geometry":{"type":"Polygon","coordinates":[[[38.668215,49.177505],[38.668404,49.178004],[38.668438,49.178101],[38.669108,49.180004],[38.669212,49.181697],[38.670542,49.18161],[38.671789,49.181556],[38.6721,49.181542],[38.672024,49.178783],[38.672038,49.178214],[38.672039,49.178214],[38.67206,49.177458],[38.671789,49.177461],[38.671789,49.177462],[38.668215,49.177505]],[[38.671431,49.178885],[38.671485,49.17892],[38.671467,49.178932],[38.671412,49.178897],[38.671412,49.178896],[38.671431,49.178885]],[[38.670659,49.178917],[38.670659,49.178918],[38.670636,49.178918],[38.670636,49.178917],[38.670636,49.1789],[38.670659,49.1789],[38.670659,49.178917]],[[38.669859,49.17892],[38.669833,49.17892],[38.669832,49.17892],[38.669832,49.178903],[38.669833,49.178903],[38.669859,49.178903],[38.669859,49.17892]],[[38.669055,49.17892],[38.669028,49.17892],[38.669028,49.178903],[38.669055,49.178903],[38.669055,49.17892]]]}}]}