{"type":"FeatureCollection","features":[{"type":"Feature","properties":{"cadnum":"4425182001:21:001:0200"},"geometry":{"type":"Polygon","coordinates":[[[38.955895,49.325211],[38.955902,49.325223],[38.955903,49.325223],[38.957297,49.32746],[38.957434,49.327407],[38.957434,49.327408],[38.961021,49.326034],[38.960719,49.325984],[38.960262,49.325958],[38.959916,49.325802],[38.959257,49.325211],[38.959098,49.325068],[38.958016,49.324795],[38.957434,49.324934],[38.95719,49.324991],[38.956318,49.32505],[38.956158,49.325111],[38.956157,49.325111],[38.955895,49.325211]]]}},{"type":"Feature","properties":{"cadnum":"4425182001:13:001:1241"},"geometry":{"type":"Polygon","coordinates":[[[38.932414,49.362996],[38.932625,49.363195],[38.932693,49.363227],[38.932984,49.36333],[38.933294,49.363406],[38.933393,49.363397],[38.933038,49.363089],[38.932733,49.362844],[38.932423,49.36297],[38.932414,49.362996]]]}},{"type":"Feature","properties":{"cadnum":"4425182001:13:001:1415"},"geometry":{"type":"Polygon","coordinates":[[[38.936475,49.360425],[38.936569,49.3607],[38.937377,49.360437],[38.937494,49.360401],[38.937521,49.360431],[38.937741,49.360342],[38.937674,49.360149],[38.937534,49.360173],[38.93753,49.360158],[38.937391,49.360185],[38.937395,49.360196],[38.937395,49.360197],[38.937238,49.360223],[38.937247,49.360237],[38.937247,49.360238],[38.936475,49.360425]]]}},{"type":"Feature","properties":{"cadnum":"4425182001:13:001:1416"},"geometry":{"type":"Polygon","coordinates":[[[38.948552,49.344231],[38.948637,49.34466],[38.94919,49.344654],[38.949177,49.344514],[38.949146,49.344374],[38.94914,49.344356],[38.949136,49.344324],[38.949087,49.344151],[38.949073,49.344154],[38.949069,49.344145],[38.948552,49.344231]]]}},{"type":"Feature","properties":{"cadnum":"4425182001:13:001:1425"},"geometry":{"type":"Polygon","coordinates":[[[38.946423,49.337353],[38.946447,49.337432],[38.94649,49.337572],[38.946619,49.337555],[38.946619,49.337554],[38.946693,49.337543],[38.947366,49.337458],[38.947712,49.337379],[38.947636,49.337125],[38.947173,49.337224],[38.946836,49.337283],[38.946535,49.337334],[38.946423,49.337353]]]}},{"type":"Feature","properties":{"cadnum":"4425182001:13:001:1424"},"geometry":{"type":"Polygon","coordinates":[[[38.947636,49.337125],[38.947712,49.337379],[38.948588,49.337177],[38.948417,49.336969],[38.947964,49.337051],[38.947636,49.337125]]]}},{"type":"Feature","properties":{"cadnum":"4425182001:13:001:0185"},"geometry":{"type":"Polygon","coordinates":[[[38.943508,49.342576],[38.943534,49.342574],[38.943534,49.342626],[38.94354,49.342767],[38.943549,49.342916],[38.943921,49.342895],[38.943953,49.342591],[38.944016,49.342175],[38.943598,49.342155],[38.943508,49.342576]]]}}]}