{"type":"FeatureCollection","features":[{"type":"Feature","properties":{"cadnum":"4425180101:02:001:0363"},"geometry":{"type":"Polygon","coordinates":[[[38.915939,49.180535],[38.916087,49.180864],[38.916653,49.180729],[38.916973,49.180624],[38.916851,49.18035],[38.916841,49.180354],[38.916407,49.180441],[38.915939,49.180535]]]}},{"type":"Feature","properties":{"cadnum":"4425180101:02:001:0364"},"geometry":{"type":"Polygon","coordinates":[[[38.915193,49.18082],[38.915275,49.180987],[38.916087,49.180864],[38.915939,49.180535],[38.915804,49.180561],[38.915405,49.180646],[38.915346,49.180787],[38.915193,49.18082]]]}},{"type":"Feature","properties":{"cadnum":"4425180101:02:001:0373"},"geometry":{"type":"Polygon","coordinates":[[[38.927752,49.163172],[38.928084,49.163268],[38.928124,49.163203],[38.928525,49.162595],[38.928865,49.162073],[38.928538,49.16199],[38.927752,49.163172]]]}},{"type":"Feature","properties":{"cadnum":"4425180101:02:001:0372"},"geometry":{"type":"Polygon","coordinates":[[[38.927244,49.163938],[38.927586,49.164038],[38.927693,49.163876],[38.927746,49.163788],[38.927837,49.163641],[38.928084,49.163268],[38.927752,49.163172],[38.927504,49.163544],[38.927378,49.163736],[38.927377,49.163736],[38.92732,49.163823],[38.927303,49.163848],[38.927244,49.163938]]]}},{"type":"Feature","properties":{"cadnum":"4425180101:03:002:0020"},"geometry":{"type":"Polygon","coordinates":[[[38.932661,49.180048],[38.932733,49.180805],[38.933959,49.180837],[38.933942,49.180056],[38.933209,49.180042],[38.932661,49.180048]]]}}]}