{"type":"FeatureCollection","features":[{"type":"Feature","properties":{"cadnum":"4425182004:07:004:0165"},"geometry":{"type":"Polygon","coordinates":[[[39.073544,49.342032],[39.074613,49.34258],[39.076108,49.342293],[39.078283,49.342551],[39.078678,49.342597],[39.080421,49.34286],[39.082477,49.342416],[39.08109,49.340976],[39.080704,49.340525],[39.079871,49.339542],[39.079666,49.339299],[39.079383,49.33943],[39.079374,49.339434],[39.079142,49.339542],[39.078455,49.339861],[39.076108,49.340949],[39.075286,49.340856],[39.074599,49.340991],[39.0738,49.341312],[39.073544,49.342032]]]}}]}