{"type":"FeatureCollection","features":[{"type":"Feature","properties":{"cadnum":"4425486501:01:001:0269"},"geometry":{"type":"Polygon","coordinates":[[[38.38065,49.65756],[38.380651,49.657561],[38.380651,49.657562],[38.380738,49.657628],[38.380823,49.657694],[38.380866,49.657726],[38.381504,49.65734],[38.381885,49.657101],[38.381731,49.657004],[38.381625,49.656938],[38.381607,49.65695],[38.381606,49.65695],[38.381524,49.657005],[38.381439,49.657061],[38.381252,49.657185],[38.380823,49.657453],[38.38065,49.65756]]]}},{"type":"Feature","properties":{"cadnum":"4425486501:01:001:0278"},"geometry":{"type":"Polygon","coordinates":[[[38.386158,49.661765],[38.386316,49.661859],[38.386552,49.662],[38.387388,49.661477],[38.387011,49.661245],[38.386158,49.661765]]]}},{"type":"Feature","properties":{"cadnum":"4425486501:01:001:0277"},"geometry":{"type":"Polygon","coordinates":[[[38.387011,49.661245],[38.387388,49.661477],[38.387441,49.661445],[38.388007,49.66105],[38.38777,49.66091],[38.387724,49.660881],[38.387608,49.660802],[38.387087,49.661198],[38.387011,49.661245]]]}},{"type":"Feature","properties":{"cadnum":"4425486501:01:001:0279"},"geometry":{"type":"Polygon","coordinates":[[[38.379483,49.659267],[38.37987,49.659555],[38.380476,49.659203],[38.38009,49.658916],[38.379919,49.659017],[38.379829,49.659055],[38.379483,49.659267]]]}}]}