{"type":"FeatureCollection","features":[{"type":"Feature","properties":{"cadnum":"4425485700:04:002:0009"},"geometry":{"type":"Polygon","coordinates":[[[38.409796,49.748188],[38.410718,49.74926],[38.41361,49.748215],[38.41749,49.746813],[38.417136,49.7458],[38.416868,49.745882],[38.414769,49.74652],[38.41361,49.746892],[38.412272,49.747321],[38.411656,49.747527],[38.409796,49.748188]]]}},{"type":"Feature","properties":{"cadnum":"4425485700:04:004:0039"},"geometry":{"type":"Polygon","coordinates":[[[38.494623,49.744389],[38.494943,49.74509],[38.495049,49.745612],[38.496008,49.745523],[38.501277,49.745028],[38.501036,49.743789],[38.49618,49.744244],[38.494623,49.744389]]]}}]}