{"type":"FeatureCollection","features":[{"type":"Feature","properties":{"cadnum":"4425181501:05:002:0080"},"geometry":{"type":"Polygon","coordinates":[[[39.244835,49.387115],[39.244912,49.387947],[39.245648,49.389287],[39.248369,49.388474],[39.248571,49.388161],[39.248743,49.388121],[39.248743,49.38812],[39.249627,49.38791],[39.250112,49.387843],[39.249196,49.386099],[39.248743,49.386193],[39.24841,49.386261],[39.247004,49.386606],[39.244835,49.387115]]]}},{"type":"Feature","properties":{"cadnum":"4425181501:04:001:0057"},"geometry":{"type":"Polygon","coordinates":[[[39.229312,49.362838],[39.229819,49.362926],[39.230398,49.36299],[39.230444,49.362826],[39.230403,49.362774],[39.229909,49.362598],[39.229618,49.362493],[39.229312,49.362838]]]}},{"type":"Feature","properties":{"cadnum":"4425181501:04:001:0058"},"geometry":{"type":"Polygon","coordinates":[[[39.228386,49.362571],[39.229289,49.362835],[39.229312,49.362838],[39.229618,49.362493],[39.228728,49.36218],[39.228386,49.362571]]]}}]}